{"source": "OSM", "region": "Kärnten", "osm_type": "node", "osm_id": 418171180, "name": "Hotel Moserhof", "category": "tourism:hotel", "address": "Hauptstraße 48, 9871 Seeboden", "street": "Hauptstraße", "housenumber": "48", "postcode": "9871", "place": "Seeboden", "lat": 46.8171451, "lon": 13.5131018, "tags": {"addr:city": "Seeboden", "addr:housenumber": "48", "addr:postcode": "9871", "addr:street": "Hauptstraße", "name": "Hotel Moserhof", "operator": "Familie Moser-Winkler", "tourism": "hotel", "website": "https://www.moserhof.com/"}, "content": "Hotel Moserhof\nKategorie: tourism:hotel\nAdresse: Hauptstraße 48, 9871 Seeboden\nOrt: Seeboden\nPLZ: 9871\nKoordinaten: 46.817145, 13.513102\nTags: operator=Familie Moser-Winkler, website=https://www.moserhof.com/", "doc_type": "addresses"}
{"source": "OSM", "region": "Kärnten", "osm_type": "node", "osm_id": 2403603774, "name": "Volksschule Treffling", "category": "amenity:school", "address": "Treffling 200, 9871 Seeboden", "street": "Treffling", "housenumber": "200", "postcode": "9871", "place": "Seeboden", "lat": 46.8385819, "lon": 13.5209134, "tags": {"addr:city": "Seeboden", "addr:housenumber": "200", "addr:postcode": "9871", "addr:street": "Treffling", "amenity": "school", "name": "Volksschule Treffling"}, "content": "Volksschule Treffling\nKategorie: amenity:school\nAdresse: Treffling 200, 9871 Seeboden\nOrt: Seeboden\nPLZ: 9871\nKoordinaten: 46.838582, 13.520913\nTags: amenity=school", "doc_type": "addresses"}
{"source": "OSM", "region": "Kärnten", "osm_type": "node", "osm_id": 2461402170, "name": "Sonderschule für schwerstbehinderte Kinder Seebach", "category": "amenity:school", "address": "Seebacherstraße 6, 9871 Seeboden", "street": "Seebacherstraße", "housenumber": "6", "postcode": "9871", "place": "Seeboden", "lat": 46.8179189, "lon": 13.4988937, "tags": {"addr:city": "Seeboden", "addr:housenumber": "6", "addr:postcode": "9871", "addr:street": "Seebacherstraße", "amenity": "school", "name": "Sonderschule für schwerstbehinderte Kinder Seebach"}, "content": "Sonderschule für schwerstbehinderte Kinder Seebach\nKategorie: amenity:school\nAdresse: Seebacherstraße 6, 9871 Seeboden\nOrt: Seeboden\nPLZ: 9871\nKoordinaten: 46.817919, 13.498894\nTags: amenity=school", "doc_type": "addresses"}
{"source": "OSM", "region": "Kärnten", "osm_type": "node", "osm_id": 4587362589, "name": "Ferienhaus Meder", "category": "tourism:guest_house", "address": "Kötzing 14, 9871 Seeboden", "street": "Kötzing", "housenumber": "14", "postcode": "9871", "place": "Seeboden", "lat": 46.8329883, "lon": 13.5122731, "tags": {"addr:city": "Seeboden", "addr:housenumber": "14", "addr:postcode": "9871", "addr:street": "Kötzing", "name": "Ferienhaus Meder", "operator": "Meder / Feske", "tourism": "guest_house", "website": "http://www.ferienhaus-millstättersee.de"}, "content": "Ferienhaus Meder\nKategorie: tourism:guest_house\nAdresse: Kötzing 14, 9871 Seeboden\nOrt: Seeboden\nPLZ: 9871\nKoordinaten: 46.832988, 13.512273\nTags: operator=Meder / Feske, website=http://www.ferienhaus-millstättersee.de", "doc_type": "addresses"}
{"source": "OSM", "region": "Kärnten", "osm_type": "node", "osm_id": 418171180, "name": "Hotel Moserhof", "category": "tourism:hotel", "address": "Hauptstraße 48, 9871 Seeboden", "street": "Hauptstraße", "housenumber": "48", "postcode": "9871", "place": "Seeboden", "lat": 46.8171451, "lon": 13.5131018, "tags": {"addr:city": "Seeboden", "addr:housenumber": "48", "addr:postcode": "9871", "addr:street": "Hauptstraße", "name": "Hotel Moserhof", "operator": "Familie Moser-Winkler", "tourism": "hotel", "website": "https://www.moserhof.com/"}, "content": "Hotel Moserhof\nKategorie: tourism:hotel\nAdresse: Hauptstraße 48, 9871 Seeboden\nOrt: Seeboden\nPLZ: 9871\nKoordinaten: 46.817145, 13.513102\nTags: operator=Familie Moser-Winkler, website=https://www.moserhof.com/", "doc_type": "pois"}
{"source": "OSM", "region": "Kärnten", "osm_type": "node", "osm_id": 2403603774, "name": "Volksschule Treffling", "category": "amenity:school", "address": "Treffling 200, 9871 Seeboden", "street": "Treffling", "housenumber": "200", "postcode": "9871", "place": "Seeboden", "lat": 46.8385819, "lon": 13.5209134, "tags": {"addr:city": "Seeboden", "addr:housenumber": "200", "addr:postcode": "9871", "addr:street": "Treffling", "amenity": "school", "name": "Volksschule Treffling"}, "content": "Volksschule Treffling\nKategorie: amenity:school\nAdresse: Treffling 200, 9871 Seeboden\nOrt: Seeboden\nPLZ: 9871\nKoordinaten: 46.838582, 13.520913\nTags: amenity=school", "doc_type": "pois"}
{"source": "OSM", "region": "Kärnten", "osm_type": "node", "osm_id": 2461402170, "name": "Sonderschule für schwerstbehinderte Kinder Seebach", "category": "amenity:school", "address": "Seebacherstraße 6, 9871 Seeboden", "street": "Seebacherstraße", "housenumber": "6", "postcode": "9871", "place": "Seeboden", "lat": 46.8179189, "lon": 13.4988937, "tags": {"addr:city": "Seeboden", "addr:housenumber": "6", "addr:postcode": "9871", "addr:street": "Seebacherstraße", "amenity": "school", "name": "Sonderschule für schwerstbehinderte Kinder Seebach"}, "content": "Sonderschule für schwerstbehinderte Kinder Seebach\nKategorie: amenity:school\nAdresse: Seebacherstraße 6, 9871 Seeboden\nOrt: Seeboden\nPLZ: 9871\nKoordinaten: 46.817919, 13.498894\nTags: amenity=school", "doc_type": "pois"}
{"source": "OSM", "region": "Kärnten", "osm_type": "node", "osm_id": 4587362589, "name": "Ferienhaus Meder", "category": "tourism:guest_house", "address": "Kötzing 14, 9871 Seeboden", "street": "Kötzing", "housenumber": "14", "postcode": "9871", "place": "Seeboden", "lat": 46.8329883, "lon": 13.5122731, "tags": {"addr:city": "Seeboden", "addr:housenumber": "14", "addr:postcode": "9871", "addr:street": "Kötzing", "name": "Ferienhaus Meder", "operator": "Meder / Feske", "tourism": "guest_house", "website": "http://www.ferienhaus-millstättersee.de"}, "content": "Ferienhaus Meder\nKategorie: tourism:guest_house\nAdresse: Kötzing 14, 9871 Seeboden\nOrt: Seeboden\nPLZ: 9871\nKoordinaten: 46.832988, 13.512273\nTags: operator=Meder / Feske, website=http://www.ferienhaus-millstättersee.de", "doc_type": "pois"}
