{"source": "OSM", "region": "Kärnten", "osm_type": "node", "osm_id": 5131655471, "name": "Polizeiinspektion Launsdorf", "category": "amenity:police", "address": "Hauptstraße 12, 9314 St. Georgen am Längsee", "street": "Hauptstraße", "housenumber": "12", "postcode": "9314", "place": "St. Georgen am Längsee", "lat": 46.7682071, "lon": 14.4558502, "tags": {"addr:city": "St. Georgen am Längsee", "addr:housenumber": "12", "addr:postcode": "9314", "addr:street": "Hauptstraße", "amenity": "police", "name": "Polizeiinspektion Launsdorf", "phone": "+43 59133 2125100"}, "content": "Polizeiinspektion Launsdorf\nKategorie: amenity:police\nAdresse: Hauptstraße 12, 9314 St. Georgen am Längsee\nOrt: St. Georgen am Längsee\nPLZ: 9314\nKoordinaten: 46.768207, 14.455850\nTags: amenity=police, phone=+43 59133 2125100", "doc_type": "addresses"}
{"source": "OSM", "region": "Kärnten", "osm_type": "node", "osm_id": 5131670723, "name": "Raiffeisenbank Launsdorf", "category": "amenity:bank", "address": "Hauptstraße 12, 9314 St. Georgen am Längsee", "street": "Hauptstraße", "housenumber": "12", "postcode": "9314", "place": "St. Georgen am Längsee", "lat": 46.7682336, "lon": 14.4559027, "tags": {"addr:city": "St. Georgen am Längsee", "addr:housenumber": "12", "addr:postcode": "9314", "addr:street": "Hauptstraße", "amenity": "bank", "brand": "Raiffeisen", "name": "Raiffeisenbank Launsdorf", "phone": "+43 4213 20680"}, "content": "Raiffeisenbank Launsdorf\nKategorie: amenity:bank\nAdresse: Hauptstraße 12, 9314 St. Georgen am Längsee\nOrt: St. Georgen am Längsee\nPLZ: 9314\nKoordinaten: 46.768234, 14.455903\nTags: amenity=bank, brand=Raiffeisen, phone=+43 4213 20680", "doc_type": "addresses"}
{"source": "OSM", "region": "Kärnten", "osm_type": "node", "osm_id": 5622258567, "name": null, "category": null, "address": "34A, 9313 St. Georgen am Längsee", "street": null, "housenumber": "34A", "postcode": "9313", "place": "St. Georgen am Längsee", "lat": 46.7988444, "lon": 14.4117122, "tags": {"addr:city": "St. Georgen am Längsee", "addr:housenumber": "34A", "addr:place": "Bernaich", "addr:postcode": "9313"}, "content": "Adresse: 34A, 9313 St. Georgen am Längsee\nOrt: St. Georgen am Längsee\nPLZ: 9313\nKoordinaten: 46.798844, 14.411712", "doc_type": "addresses"}
{"source": "OSM", "region": "Kärnten", "osm_type": "node", "osm_id": 5622258571, "name": null, "category": null, "address": "34A, 9313 St. Georgen am Längsee", "street": null, "housenumber": "34A", "postcode": "9313", "place": "St. Georgen am Längsee", "lat": 46.798967, "lon": 14.4115841, "tags": {"addr:city": "St. Georgen am Längsee", "addr:housenumber": "34A", "addr:place": "Bernaich", "addr:postcode": "9313"}, "content": "Adresse: 34A, 9313 St. Georgen am Längsee\nOrt: St. Georgen am Längsee\nPLZ: 9313\nKoordinaten: 46.798967, 14.411584", "doc_type": "addresses"}
{"source": "OSM", "region": "Kärnten", "osm_type": "node", "osm_id": 373332497, "name": "Seehof", "category": "amenity:restaurant", "address": "9313 St. Georgen am Längsee", "street": null, "housenumber": null, "postcode": "9313", "place": "St. Georgen am Längsee", "lat": 46.7958923, "lon": 14.4197757, "tags": {"addr:city": "St. Georgen am Längsee", "addr:postcode": "9313", "amenity": "restaurant", "name": "Seehof", "tourism": "hotel", "website": "https://www.hotel-seehof.at"}, "content": "Seehof\nKategorie: amenity:restaurant\nAdresse: 9313 St. Georgen am Längsee\nOrt: St. Georgen am Längsee\nPLZ: 9313\nKoordinaten: 46.795892, 14.419776\nTags: amenity=restaurant, website=https://www.hotel-seehof.at", "doc_type": "pois"}
{"source": "OSM", "region": "Kärnten", "osm_type": "node", "osm_id": 5131655471, "name": "Polizeiinspektion Launsdorf", "category": "amenity:police", "address": "Hauptstraße 12, 9314 St. Georgen am Längsee", "street": "Hauptstraße", "housenumber": "12", "postcode": "9314", "place": "St. Georgen am Längsee", "lat": 46.7682071, "lon": 14.4558502, "tags": {"addr:city": "St. Georgen am Längsee", "addr:housenumber": "12", "addr:postcode": "9314", "addr:street": "Hauptstraße", "amenity": "police", "name": "Polizeiinspektion Launsdorf", "phone": "+43 59133 2125100"}, "content": "Polizeiinspektion Launsdorf\nKategorie: amenity:police\nAdresse: Hauptstraße 12, 9314 St. Georgen am Längsee\nOrt: St. Georgen am Längsee\nPLZ: 9314\nKoordinaten: 46.768207, 14.455850\nTags: amenity=police, phone=+43 59133 2125100", "doc_type": "pois"}
{"source": "OSM", "region": "Kärnten", "osm_type": "node", "osm_id": 5131670723, "name": "Raiffeisenbank Launsdorf", "category": "amenity:bank", "address": "Hauptstraße 12, 9314 St. Georgen am Längsee", "street": "Hauptstraße", "housenumber": "12", "postcode": "9314", "place": "St. Georgen am Längsee", "lat": 46.7682336, "lon": 14.4559027, "tags": {"addr:city": "St. Georgen am Längsee", "addr:housenumber": "12", "addr:postcode": "9314", "addr:street": "Hauptstraße", "amenity": "bank", "brand": "Raiffeisen", "name": "Raiffeisenbank Launsdorf", "phone": "+43 4213 20680"}, "content": "Raiffeisenbank Launsdorf\nKategorie: amenity:bank\nAdresse: Hauptstraße 12, 9314 St. Georgen am Längsee\nOrt: St. Georgen am Längsee\nPLZ: 9314\nKoordinaten: 46.768234, 14.455903\nTags: amenity=bank, brand=Raiffeisen, phone=+43 4213 20680", "doc_type": "pois"}
