{"source": "OSM", "region": "Kärnten", "osm_type": "node", "osm_id": 1408368892, "name": "Seppis Ferienhof", "category": "tourism:guest_house", "address": "Ratnitzer Straße 4, 9582 Latschach ober dem Faaker See", "street": "Ratnitzer Straße", "housenumber": "4", "postcode": "9582", "place": "Latschach ober dem Faaker See", "lat": 46.5564181, "lon": 13.9144551, "tags": {"addr:city": "Latschach ober dem Faaker See", "addr:housenumber": "4", "addr:postcode": "9582", "addr:street": "Ratnitzer Straße", "name": "Seppis Ferienhof", "operator": "Mag. Josef Johann Urschitz", "phone": "+43 4254 27480", "tourism": "guest_house", "website": "https://www.seppisferienhof.at/"}, "content": "Seppis Ferienhof\nKategorie: tourism:guest_house\nAdresse: Ratnitzer Straße 4, 9582 Latschach ober dem Faaker See\nOrt: Latschach ober dem Faaker See\nPLZ: 9582\nKoordinaten: 46.556418, 13.914455\nTags: operator=Mag. Josef Johann Urschitz, phone=+43 4254 27480, website=https://www.seppisferienhof.at/", "doc_type": "addresses"}
{"source": "OSM", "region": "Kärnten", "osm_type": "node", "osm_id": 3904498035, "name": "alpscapes® project & development GmbH", "category": "office:company", "address": "Worounitzaweg 10, 9582 Latschach ober dem Faaker See", "street": "Worounitzaweg", "housenumber": "10", "postcode": "9582", "place": "Latschach ober dem Faaker See", "lat": 46.5551838, "lon": 13.9518318, "tags": {"addr:city": "Latschach ober dem Faaker See", "addr:housenumber": "10", "addr:postcode": "9582", "addr:street": "Worounitzaweg", "name": "alpscapes® project & development GmbH", "office": "company"}, "content": "alpscapes® project & development GmbH\nKategorie: office:company\nAdresse: Worounitzaweg 10, 9582 Latschach ober dem Faaker See\nOrt: Latschach ober dem Faaker See\nPLZ: 9582\nKoordinaten: 46.555184, 13.951832\nTags: office=company", "doc_type": "addresses"}
{"source": "OSM", "region": "Kärnten", "osm_type": "node", "osm_id": 3904498205, "name": "Eder Harald Leonhard", "category": "craft:roofer", "address": "Aichwaldseeweg 5, 9582 Latschach ober dem Faaker See", "street": "Aichwaldseeweg", "housenumber": "5", "postcode": "9582", "place": "Latschach ober dem Faaker See", "lat": 46.5553925, "lon": 13.9490855, "tags": {"addr:city": "Latschach ober dem Faaker See", "addr:housenumber": "5", "addr:postcode": "9582", "addr:street": "Aichwaldseeweg", "craft": "roofer", "name": "Eder Harald Leonhard", "phone": "+43 664 160 15 62"}, "content": "Eder Harald Leonhard\nKategorie: craft:roofer\nAdresse: Aichwaldseeweg 5, 9582 Latschach ober dem Faaker See\nOrt: Latschach ober dem Faaker See\nPLZ: 9582\nKoordinaten: 46.555393, 13.949086\nTags: phone=+43 664 160 15 62", "doc_type": "addresses"}
{"source": "OSM", "region": "Kärnten", "osm_type": "node", "osm_id": 3904498207, "name": "ampuls-verlag OG", "category": "office:company", "address": "Aichwaldseeweg 9, 9582 Latschach ober dem Faaker See", "street": "Aichwaldseeweg", "housenumber": "9", "postcode": "9582", "place": "Latschach ober dem Faaker See", "lat": 46.5550264, "lon": 13.9484434, "tags": {"addr:city": "Latschach ober dem Faaker See", "addr:housenumber": "9", "addr:postcode": "9582", "addr:street": "Aichwaldseeweg", "name": "ampuls-verlag OG", "office": "company", "phone": "+43 699 17181872"}, "content": "ampuls-verlag OG\nKategorie: office:company\nAdresse: Aichwaldseeweg 9, 9582 Latschach ober dem Faaker See\nOrt: Latschach ober dem Faaker See\nPLZ: 9582\nKoordinaten: 46.555026, 13.948443\nTags: office=company, phone=+43 699 17181872", "doc_type": "addresses"}
{"source": "OSM", "region": "Kärnten", "osm_type": "node", "osm_id": 3904518625, "name": "JA Betriebs GmbH", "category": "office:company", "address": "Aichwaldseeweg 12, 9582 Latschach ober dem Faaker See", "street": "Aichwaldseeweg", "housenumber": "12", "postcode": "9582", "place": "Latschach ober dem Faaker See", "lat": 46.5552038, "lon": 13.9442659, "tags": {"addr:city": "Latschach ober dem Faaker See", "addr:housenumber": "12", "addr:postcode": "9582", "addr:street": "Aichwaldseeweg", "name": "JA Betriebs GmbH", "office": "company"}, "content": "JA Betriebs GmbH\nKategorie: office:company\nAdresse: Aichwaldseeweg 12, 9582 Latschach ober dem Faaker See\nOrt: Latschach ober dem Faaker See\nPLZ: 9582\nKoordinaten: 46.555204, 13.944266\nTags: office=company", "doc_type": "addresses"}
{"source": "OSM", "region": "Kärnten", "osm_type": "node", "osm_id": 3904543861, "name": "Raspotnik Christian", "category": "office:company", "address": "Koboldweg 5, 9582 Latschach ober dem Faaker See", "street": "Koboldweg", "housenumber": "5", "postcode": "9582", "place": "Latschach ober dem Faaker See", "lat": 46.5592132, "lon": 13.9427818, "tags": {"addr:city": "Latschach ober dem Faaker See", "addr:housenumber": "5", "addr:postcode": "9582", "addr:street": "Koboldweg", "name": "Raspotnik Christian", "office": "company"}, "content": "Raspotnik Christian\nKategorie: office:company\nAdresse: Koboldweg 5, 9582 Latschach ober dem Faaker See\nOrt: Latschach ober dem Faaker See\nPLZ: 9582\nKoordinaten: 46.559213, 13.942782\nTags: office=company", "doc_type": "addresses"}
{"source": "OSM", "region": "Kärnten", "osm_type": "node", "osm_id": 3904641830, "name": "Young Clare Julia", "category": "shop:hairdresser", "address": "Rosentalstraße 22/102, 9582 Latschach ober dem Faaker See", "street": "Rosentalstraße", "housenumber": "22/102", "postcode": "9582", "place": "Latschach ober dem Faaker See", "lat": 46.5584019, "lon": 13.9245437, "tags": {"addr:city": "Latschach ober dem Faaker See", "addr:housenumber": "22/102", "addr:postcode": "9582", "addr:street": "Rosentalstraße", "name": "Young Clare Julia", "shop": "hairdresser"}, "content": "Young Clare Julia\nKategorie: shop:hairdresser\nAdresse: Rosentalstraße 22/102, 9582 Latschach ober dem Faaker See\nOrt: Latschach ober dem Faaker See\nPLZ: 9582\nKoordinaten: 46.558402, 13.924544\nTags: shop=hairdresser", "doc_type": "addresses"}
{"source": "OSM", "region": "Kärnten", "osm_type": "node", "osm_id": 3904641831, "name": "Martin Ehweiner", "category": "shop:massage", "address": "Rosentalstraße 22, 9582 Latschach ober dem Faaker See", "street": "Rosentalstraße", "housenumber": "22", "postcode": "9582", "place": "Latschach ober dem Faaker See", "lat": 46.5583776, "lon": 13.9246163, "tags": {"addr:city": "Latschach ober dem Faaker See", "addr:housenumber": "22", "addr:postcode": "9582", "addr:street": "Rosentalstraße", "name": "Martin Ehweiner", "shop": "massage"}, "content": "Martin Ehweiner\nKategorie: shop:massage\nAdresse: Rosentalstraße 22, 9582 Latschach ober dem Faaker See\nOrt: Latschach ober dem Faaker See\nPLZ: 9582\nKoordinaten: 46.558378, 13.924616\nTags: shop=massage", "doc_type": "addresses"}
{"source": "OSM", "region": "Kärnten", "osm_type": "node", "osm_id": 3904641832, "name": "Ivett Globits", "category": "office:company", "address": "Rosentalstraße 22, 9582 Latschach ober dem Faaker See", "street": "Rosentalstraße", "housenumber": "22", "postcode": "9582", "place": "Latschach ober dem Faaker See", "lat": 46.5583241, "lon": 13.9246747, "tags": {"addr:city": "Latschach ober dem Faaker See", "addr:housenumber": "22", "addr:postcode": "9582", "addr:street": "Rosentalstraße", "name": "Ivett Globits", "office": "company"}, "content": "Ivett Globits\nKategorie: office:company\nAdresse: Rosentalstraße 22, 9582 Latschach ober dem Faaker See\nOrt: Latschach ober dem Faaker See\nPLZ: 9582\nKoordinaten: 46.558324, 13.924675\nTags: office=company", "doc_type": "addresses"}
{"source": "OSM", "region": "Kärnten", "osm_type": "node", "osm_id": 3904641834, "name": "Erlebnis-Hotel-Appartements", "category": "tourism:hotel", "address": "Rosentalstraße 24, 9582 Latschach ober dem Faaker See", "street": "Rosentalstraße", "housenumber": "24", "postcode": "9582", "place": "Latschach ober dem Faaker See", "lat": 46.5580004, "lon": 13.9252392, "tags": {"addr:city": "Latschach ober dem Faaker See", "addr:housenumber": "24", "addr:postcode": "9582", "addr:street": "Rosentalstraße", "name": "Erlebnis-Hotel-Appartements", "operator": "Unger-Pirker Brigitte Jutta", "phone": "+43 4254 2733", "tourism": "hotel", "website": "www.erlebnis-hotel.at"}, "content": "Erlebnis-Hotel-Appartements\nKategorie: tourism:hotel\nAdresse: Rosentalstraße 24, 9582 Latschach ober dem Faaker See\nOrt: Latschach ober dem Faaker See\nPLZ: 9582\nKoordinaten: 46.558000, 13.925239\nTags: operator=Unger-Pirker Brigitte Jutta, phone=+43 4254 2733, website=www.erlebnis-hotel.at", "doc_type": "addresses"}
{"source": "OSM", "region": "Kärnten", "osm_type": "node", "osm_id": 3904641835, "name": "Cifa Alessandro", "category": "office:company", "address": "Rosentalstraße 22/8, 9582 Latschach ober dem Faaker See", "street": "Rosentalstraße", "housenumber": "22/8", "postcode": "9582", "place": "Latschach ober dem Faaker See", "lat": 46.5582158, "lon": 13.92491, "tags": {"addr:city": "Latschach ober dem Faaker See", "addr:housenumber": "22/8", "addr:postcode": "9582", "addr:street": "Rosentalstraße", "name": "Cifa Alessandro", "office": "company"}, "content": "Cifa Alessandro\nKategorie: office:company\nAdresse: Rosentalstraße 22/8, 9582 Latschach ober dem Faaker See\nOrt: Latschach ober dem Faaker See\nPLZ: 9582\nKoordinaten: 46.558216, 13.924910\nTags: office=company", "doc_type": "addresses"}
{"source": "OSM", "region": "Kärnten", "osm_type": "node", "osm_id": 3904696450, "name": "Hubertushof", "category": "tourism:hotel", "address": "Dorfweg 3, 9582 Latschach ober dem Faaker See", "street": "Dorfweg", "housenumber": "3", "postcode": "9582", "place": "Latschach ober dem Faaker See", "lat": 46.5571412, "lon": 13.924541, "tags": {"addr:city": "Latschach ober dem Faaker See", "addr:housenumber": "3", "addr:postcode": "9582", "addr:street": "Dorfweg", "name": "Hubertushof", "operator": "Hubert Baumgartner", "phone": "+43 4254 27630", "tourism": "hotel"}, "content": "Hubertushof\nKategorie: tourism:hotel\nAdresse: Dorfweg 3, 9582 Latschach ober dem Faaker See\nOrt: Latschach ober dem Faaker See\nPLZ: 9582\nKoordinaten: 46.557141, 13.924541\nTags: operator=Hubert Baumgartner, phone=+43 4254 27630", "doc_type": "addresses"}
{"source": "OSM", "region": "Kärnten", "osm_type": "node", "osm_id": 3904696451, "name": "Temitzhof", "category": "tourism:hotel", "address": "Dorfweg 4, 9582 Latschach ober dem Faaker See", "street": "Dorfweg", "housenumber": "4", "postcode": "9582", "place": "Latschach ober dem Faaker See", "lat": 46.5564528, "lon": 13.9247864, "tags": {"addr:city": "Latschach ober dem Faaker See", "addr:housenumber": "4", "addr:postcode": "9582", "addr:street": "Dorfweg", "name": "Temitzhof", "operator": "Millonig Gertrude", "phone": "+43 4254 2838", "tourism": "hotel"}, "content": "Temitzhof\nKategorie: tourism:hotel\nAdresse: Dorfweg 4, 9582 Latschach ober dem Faaker See\nOrt: Latschach ober dem Faaker See\nPLZ: 9582\nKoordinaten: 46.556453, 13.924786\nTags: operator=Millonig Gertrude, phone=+43 4254 2838", "doc_type": "addresses"}
{"source": "OSM", "region": "Kärnten", "osm_type": "node", "osm_id": 3904708900, "name": "Elke Maria Strasser", "category": "shop:travel_agency", "address": "Flurweg 19, 9582 Latschach ober dem Faaker See", "street": "Flurweg", "housenumber": "19", "postcode": "9582", "place": "Latschach ober dem Faaker See", "lat": 46.5581789, "lon": 13.9166353, "tags": {"addr:city": "Latschach ober dem Faaker See", "addr:housenumber": "19", "addr:postcode": "9582", "addr:street": "Flurweg", "name": "Elke Maria Strasser", "operator": "Elke Maria Strasser", "phone": "+43 4254 22809", "shop": "travel_agency"}, "content": "Elke Maria Strasser\nKategorie: shop:travel_agency\nAdresse: Flurweg 19, 9582 Latschach ober dem Faaker See\nOrt: Latschach ober dem Faaker See\nPLZ: 9582\nKoordinaten: 46.558179, 13.916635\nTags: shop=travel_agency, operator=Elke Maria Strasser, phone=+43 4254 22809", "doc_type": "addresses"}
{"source": "OSM", "region": "Kärnten", "osm_type": "node", "osm_id": 3906226204, "name": "Ing. Leo Walter Egger", "category": "shop:antiques", "address": "Flurgasse 5, 9582 Latschach ober dem Faaker See", "street": "Flurgasse", "housenumber": "5", "postcode": "9582", "place": "Latschach ober dem Faaker See", "lat": 46.5598096, "lon": 13.9189593, "tags": {"addr:city": "Latschach ober dem Faaker See", "addr:housenumber": "5", "addr:postcode": "9582", "addr:street": "Flurgasse", "name": "Ing. Leo Walter Egger", "operator": "Ing. Leo Walter Egger", "shop": "antiques"}, "content": "Ing. Leo Walter Egger\nKategorie: shop:antiques\nAdresse: Flurgasse 5, 9582 Latschach ober dem Faaker See\nOrt: Latschach ober dem Faaker See\nPLZ: 9582\nKoordinaten: 46.559810, 13.918959\nTags: shop=antiques, operator=Ing. Leo Walter Egger", "doc_type": "addresses"}
{"source": "OSM", "region": "Kärnten", "osm_type": "node", "osm_id": 1408368892, "name": "Seppis Ferienhof", "category": "tourism:guest_house", "address": "Ratnitzer Straße 4, 9582 Latschach ober dem Faaker See", "street": "Ratnitzer Straße", "housenumber": "4", "postcode": "9582", "place": "Latschach ober dem Faaker See", "lat": 46.5564181, "lon": 13.9144551, "tags": {"addr:city": "Latschach ober dem Faaker See", "addr:housenumber": "4", "addr:postcode": "9582", "addr:street": "Ratnitzer Straße", "name": "Seppis Ferienhof", "operator": "Mag. Josef Johann Urschitz", "phone": "+43 4254 27480", "tourism": "guest_house", "website": "https://www.seppisferienhof.at/"}, "content": "Seppis Ferienhof\nKategorie: tourism:guest_house\nAdresse: Ratnitzer Straße 4, 9582 Latschach ober dem Faaker See\nOrt: Latschach ober dem Faaker See\nPLZ: 9582\nKoordinaten: 46.556418, 13.914455\nTags: operator=Mag. Josef Johann Urschitz, phone=+43 4254 27480, website=https://www.seppisferienhof.at/", "doc_type": "pois"}
{"source": "OSM", "region": "Kärnten", "osm_type": "node", "osm_id": 3904498035, "name": "alpscapes® project & development GmbH", "category": "office:company", "address": "Worounitzaweg 10, 9582 Latschach ober dem Faaker See", "street": "Worounitzaweg", "housenumber": "10", "postcode": "9582", "place": "Latschach ober dem Faaker See", "lat": 46.5551838, "lon": 13.9518318, "tags": {"addr:city": "Latschach ober dem Faaker See", "addr:housenumber": "10", "addr:postcode": "9582", "addr:street": "Worounitzaweg", "name": "alpscapes® project & development GmbH", "office": "company"}, "content": "alpscapes® project & development GmbH\nKategorie: office:company\nAdresse: Worounitzaweg 10, 9582 Latschach ober dem Faaker See\nOrt: Latschach ober dem Faaker See\nPLZ: 9582\nKoordinaten: 46.555184, 13.951832\nTags: office=company", "doc_type": "pois"}
{"source": "OSM", "region": "Kärnten", "osm_type": "node", "osm_id": 3904498205, "name": "Eder Harald Leonhard", "category": "craft:roofer", "address": "Aichwaldseeweg 5, 9582 Latschach ober dem Faaker See", "street": "Aichwaldseeweg", "housenumber": "5", "postcode": "9582", "place": "Latschach ober dem Faaker See", "lat": 46.5553925, "lon": 13.9490855, "tags": {"addr:city": "Latschach ober dem Faaker See", "addr:housenumber": "5", "addr:postcode": "9582", "addr:street": "Aichwaldseeweg", "craft": "roofer", "name": "Eder Harald Leonhard", "phone": "+43 664 160 15 62"}, "content": "Eder Harald Leonhard\nKategorie: craft:roofer\nAdresse: Aichwaldseeweg 5, 9582 Latschach ober dem Faaker See\nOrt: Latschach ober dem Faaker See\nPLZ: 9582\nKoordinaten: 46.555393, 13.949086\nTags: phone=+43 664 160 15 62", "doc_type": "pois"}
{"source": "OSM", "region": "Kärnten", "osm_type": "node", "osm_id": 3904498207, "name": "ampuls-verlag OG", "category": "office:company", "address": "Aichwaldseeweg 9, 9582 Latschach ober dem Faaker See", "street": "Aichwaldseeweg", "housenumber": "9", "postcode": "9582", "place": "Latschach ober dem Faaker See", "lat": 46.5550264, "lon": 13.9484434, "tags": {"addr:city": "Latschach ober dem Faaker See", "addr:housenumber": "9", "addr:postcode": "9582", "addr:street": "Aichwaldseeweg", "name": "ampuls-verlag OG", "office": "company", "phone": "+43 699 17181872"}, "content": "ampuls-verlag OG\nKategorie: office:company\nAdresse: Aichwaldseeweg 9, 9582 Latschach ober dem Faaker See\nOrt: Latschach ober dem Faaker See\nPLZ: 9582\nKoordinaten: 46.555026, 13.948443\nTags: office=company, phone=+43 699 17181872", "doc_type": "pois"}
{"source": "OSM", "region": "Kärnten", "osm_type": "node", "osm_id": 3904518625, "name": "JA Betriebs GmbH", "category": "office:company", "address": "Aichwaldseeweg 12, 9582 Latschach ober dem Faaker See", "street": "Aichwaldseeweg", "housenumber": "12", "postcode": "9582", "place": "Latschach ober dem Faaker See", "lat": 46.5552038, "lon": 13.9442659, "tags": {"addr:city": "Latschach ober dem Faaker See", "addr:housenumber": "12", "addr:postcode": "9582", "addr:street": "Aichwaldseeweg", "name": "JA Betriebs GmbH", "office": "company"}, "content": "JA Betriebs GmbH\nKategorie: office:company\nAdresse: Aichwaldseeweg 12, 9582 Latschach ober dem Faaker See\nOrt: Latschach ober dem Faaker See\nPLZ: 9582\nKoordinaten: 46.555204, 13.944266\nTags: office=company", "doc_type": "pois"}
{"source": "OSM", "region": "Kärnten", "osm_type": "node", "osm_id": 3904543861, "name": "Raspotnik Christian", "category": "office:company", "address": "Koboldweg 5, 9582 Latschach ober dem Faaker See", "street": "Koboldweg", "housenumber": "5", "postcode": "9582", "place": "Latschach ober dem Faaker See", "lat": 46.5592132, "lon": 13.9427818, "tags": {"addr:city": "Latschach ober dem Faaker See", "addr:housenumber": "5", "addr:postcode": "9582", "addr:street": "Koboldweg", "name": "Raspotnik Christian", "office": "company"}, "content": "Raspotnik Christian\nKategorie: office:company\nAdresse: Koboldweg 5, 9582 Latschach ober dem Faaker See\nOrt: Latschach ober dem Faaker See\nPLZ: 9582\nKoordinaten: 46.559213, 13.942782\nTags: office=company", "doc_type": "pois"}
{"source": "OSM", "region": "Kärnten", "osm_type": "node", "osm_id": 3904641830, "name": "Young Clare Julia", "category": "shop:hairdresser", "address": "Rosentalstraße 22/102, 9582 Latschach ober dem Faaker See", "street": "Rosentalstraße", "housenumber": "22/102", "postcode": "9582", "place": "Latschach ober dem Faaker See", "lat": 46.5584019, "lon": 13.9245437, "tags": {"addr:city": "Latschach ober dem Faaker See", "addr:housenumber": "22/102", "addr:postcode": "9582", "addr:street": "Rosentalstraße", "name": "Young Clare Julia", "shop": "hairdresser"}, "content": "Young Clare Julia\nKategorie: shop:hairdresser\nAdresse: Rosentalstraße 22/102, 9582 Latschach ober dem Faaker See\nOrt: Latschach ober dem Faaker See\nPLZ: 9582\nKoordinaten: 46.558402, 13.924544\nTags: shop=hairdresser", "doc_type": "pois"}
{"source": "OSM", "region": "Kärnten", "osm_type": "node", "osm_id": 3904641831, "name": "Martin Ehweiner", "category": "shop:massage", "address": "Rosentalstraße 22, 9582 Latschach ober dem Faaker See", "street": "Rosentalstraße", "housenumber": "22", "postcode": "9582", "place": "Latschach ober dem Faaker See", "lat": 46.5583776, "lon": 13.9246163, "tags": {"addr:city": "Latschach ober dem Faaker See", "addr:housenumber": "22", "addr:postcode": "9582", "addr:street": "Rosentalstraße", "name": "Martin Ehweiner", "shop": "massage"}, "content": "Martin Ehweiner\nKategorie: shop:massage\nAdresse: Rosentalstraße 22, 9582 Latschach ober dem Faaker See\nOrt: Latschach ober dem Faaker See\nPLZ: 9582\nKoordinaten: 46.558378, 13.924616\nTags: shop=massage", "doc_type": "pois"}
{"source": "OSM", "region": "Kärnten", "osm_type": "node", "osm_id": 3904641832, "name": "Ivett Globits", "category": "office:company", "address": "Rosentalstraße 22, 9582 Latschach ober dem Faaker See", "street": "Rosentalstraße", "housenumber": "22", "postcode": "9582", "place": "Latschach ober dem Faaker See", "lat": 46.5583241, "lon": 13.9246747, "tags": {"addr:city": "Latschach ober dem Faaker See", "addr:housenumber": "22", "addr:postcode": "9582", "addr:street": "Rosentalstraße", "name": "Ivett Globits", "office": "company"}, "content": "Ivett Globits\nKategorie: office:company\nAdresse: Rosentalstraße 22, 9582 Latschach ober dem Faaker See\nOrt: Latschach ober dem Faaker See\nPLZ: 9582\nKoordinaten: 46.558324, 13.924675\nTags: office=company", "doc_type": "pois"}
{"source": "OSM", "region": "Kärnten", "osm_type": "node", "osm_id": 3904641834, "name": "Erlebnis-Hotel-Appartements", "category": "tourism:hotel", "address": "Rosentalstraße 24, 9582 Latschach ober dem Faaker See", "street": "Rosentalstraße", "housenumber": "24", "postcode": "9582", "place": "Latschach ober dem Faaker See", "lat": 46.5580004, "lon": 13.9252392, "tags": {"addr:city": "Latschach ober dem Faaker See", "addr:housenumber": "24", "addr:postcode": "9582", "addr:street": "Rosentalstraße", "name": "Erlebnis-Hotel-Appartements", "operator": "Unger-Pirker Brigitte Jutta", "phone": "+43 4254 2733", "tourism": "hotel", "website": "www.erlebnis-hotel.at"}, "content": "Erlebnis-Hotel-Appartements\nKategorie: tourism:hotel\nAdresse: Rosentalstraße 24, 9582 Latschach ober dem Faaker See\nOrt: Latschach ober dem Faaker See\nPLZ: 9582\nKoordinaten: 46.558000, 13.925239\nTags: operator=Unger-Pirker Brigitte Jutta, phone=+43 4254 2733, website=www.erlebnis-hotel.at", "doc_type": "pois"}
{"source": "OSM", "region": "Kärnten", "osm_type": "node", "osm_id": 3904641835, "name": "Cifa Alessandro", "category": "office:company", "address": "Rosentalstraße 22/8, 9582 Latschach ober dem Faaker See", "street": "Rosentalstraße", "housenumber": "22/8", "postcode": "9582", "place": "Latschach ober dem Faaker See", "lat": 46.5582158, "lon": 13.92491, "tags": {"addr:city": "Latschach ober dem Faaker See", "addr:housenumber": "22/8", "addr:postcode": "9582", "addr:street": "Rosentalstraße", "name": "Cifa Alessandro", "office": "company"}, "content": "Cifa Alessandro\nKategorie: office:company\nAdresse: Rosentalstraße 22/8, 9582 Latschach ober dem Faaker See\nOrt: Latschach ober dem Faaker See\nPLZ: 9582\nKoordinaten: 46.558216, 13.924910\nTags: office=company", "doc_type": "pois"}
{"source": "OSM", "region": "Kärnten", "osm_type": "node", "osm_id": 3904696450, "name": "Hubertushof", "category": "tourism:hotel", "address": "Dorfweg 3, 9582 Latschach ober dem Faaker See", "street": "Dorfweg", "housenumber": "3", "postcode": "9582", "place": "Latschach ober dem Faaker See", "lat": 46.5571412, "lon": 13.924541, "tags": {"addr:city": "Latschach ober dem Faaker See", "addr:housenumber": "3", "addr:postcode": "9582", "addr:street": "Dorfweg", "name": "Hubertushof", "operator": "Hubert Baumgartner", "phone": "+43 4254 27630", "tourism": "hotel"}, "content": "Hubertushof\nKategorie: tourism:hotel\nAdresse: Dorfweg 3, 9582 Latschach ober dem Faaker See\nOrt: Latschach ober dem Faaker See\nPLZ: 9582\nKoordinaten: 46.557141, 13.924541\nTags: operator=Hubert Baumgartner, phone=+43 4254 27630", "doc_type": "pois"}
{"source": "OSM", "region": "Kärnten", "osm_type": "node", "osm_id": 3904696451, "name": "Temitzhof", "category": "tourism:hotel", "address": "Dorfweg 4, 9582 Latschach ober dem Faaker See", "street": "Dorfweg", "housenumber": "4", "postcode": "9582", "place": "Latschach ober dem Faaker See", "lat": 46.5564528, "lon": 13.9247864, "tags": {"addr:city": "Latschach ober dem Faaker See", "addr:housenumber": "4", "addr:postcode": "9582", "addr:street": "Dorfweg", "name": "Temitzhof", "operator": "Millonig Gertrude", "phone": "+43 4254 2838", "tourism": "hotel"}, "content": "Temitzhof\nKategorie: tourism:hotel\nAdresse: Dorfweg 4, 9582 Latschach ober dem Faaker See\nOrt: Latschach ober dem Faaker See\nPLZ: 9582\nKoordinaten: 46.556453, 13.924786\nTags: operator=Millonig Gertrude, phone=+43 4254 2838", "doc_type": "pois"}
{"source": "OSM", "region": "Kärnten", "osm_type": "node", "osm_id": 3904708900, "name": "Elke Maria Strasser", "category": "shop:travel_agency", "address": "Flurweg 19, 9582 Latschach ober dem Faaker See", "street": "Flurweg", "housenumber": "19", "postcode": "9582", "place": "Latschach ober dem Faaker See", "lat": 46.5581789, "lon": 13.9166353, "tags": {"addr:city": "Latschach ober dem Faaker See", "addr:housenumber": "19", "addr:postcode": "9582", "addr:street": "Flurweg", "name": "Elke Maria Strasser", "operator": "Elke Maria Strasser", "phone": "+43 4254 22809", "shop": "travel_agency"}, "content": "Elke Maria Strasser\nKategorie: shop:travel_agency\nAdresse: Flurweg 19, 9582 Latschach ober dem Faaker See\nOrt: Latschach ober dem Faaker See\nPLZ: 9582\nKoordinaten: 46.558179, 13.916635\nTags: shop=travel_agency, operator=Elke Maria Strasser, phone=+43 4254 22809", "doc_type": "pois"}
{"source": "OSM", "region": "Kärnten", "osm_type": "node", "osm_id": 3906226204, "name": "Ing. Leo Walter Egger", "category": "shop:antiques", "address": "Flurgasse 5, 9582 Latschach ober dem Faaker See", "street": "Flurgasse", "housenumber": "5", "postcode": "9582", "place": "Latschach ober dem Faaker See", "lat": 46.5598096, "lon": 13.9189593, "tags": {"addr:city": "Latschach ober dem Faaker See", "addr:housenumber": "5", "addr:postcode": "9582", "addr:street": "Flurgasse", "name": "Ing. Leo Walter Egger", "operator": "Ing. Leo Walter Egger", "shop": "antiques"}, "content": "Ing. Leo Walter Egger\nKategorie: shop:antiques\nAdresse: Flurgasse 5, 9582 Latschach ober dem Faaker See\nOrt: Latschach ober dem Faaker See\nPLZ: 9582\nKoordinaten: 46.559810, 13.918959\nTags: shop=antiques, operator=Ing. Leo Walter Egger", "doc_type": "pois"}
