{"source": "OSM", "region": "Kärnten", "osm_type": "node", "osm_id": 340520572, "name": "9321 Kappel am Krappfeld", "category": "amenity:post_office", "address": "Gunther v. Krappfeld-Straße 12, 9321 Kappel am Krappfeld", "street": "Gunther v. Krappfeld-Straße", "housenumber": "12", "postcode": "9321", "place": "Kappel am Krappfeld", "lat": 46.8386083, "lon": 14.4835022, "tags": {"addr:city": "Kappel am Krappfeld", "addr:housenumber": "12", "addr:postcode": "9321", "addr:street": "Gunther v. Krappfeld-Straße", "amenity": "post_office", "name": "9321 Kappel am Krappfeld"}, "content": "9321 Kappel am Krappfeld\nKategorie: amenity:post_office\nAdresse: Gunther v. Krappfeld-Straße 12, 9321 Kappel am Krappfeld\nOrt: Kappel am Krappfeld\nPLZ: 9321\nKoordinaten: 46.838608, 14.483502\nTags: amenity=post_office", "doc_type": "addresses"}
{"source": "OSM", "region": "Kärnten", "osm_type": "node", "osm_id": 5449217289, "name": null, "category": null, "address": "3, 9321 Kappel am Krappfeld", "street": null, "housenumber": "3", "postcode": "9321", "place": "Kappel am Krappfeld", "lat": 46.8440343, "lon": 14.4832635, "tags": {"addr:city": "Kappel am Krappfeld", "addr:housenumber": "3", "addr:place": "Edling", "addr:postcode": "9321"}, "content": "Adresse: 3, 9321 Kappel am Krappfeld\nOrt: Kappel am Krappfeld\nPLZ: 9321\nKoordinaten: 46.844034, 14.483263", "doc_type": "addresses"}
{"source": "OSM", "region": "Kärnten", "osm_type": "node", "osm_id": 5449217318, "name": null, "category": null, "address": "24, 9321 Kappel am Krappfeld", "street": null, "housenumber": "24", "postcode": "9321", "place": "Kappel am Krappfeld", "lat": 46.8497323, "lon": 14.4710863, "tags": {"addr:city": "Kappel am Krappfeld", "addr:housenumber": "24", "addr:place": "Krasta", "addr:postcode": "9321"}, "content": "Adresse: 24, 9321 Kappel am Krappfeld\nOrt: Kappel am Krappfeld\nPLZ: 9321\nKoordinaten: 46.849732, 14.471086", "doc_type": "addresses"}
{"source": "OSM", "region": "Kärnten", "osm_type": "node", "osm_id": 5449217464, "name": null, "category": null, "address": "2, 9321 Kappel am Krappfeld", "street": null, "housenumber": "2", "postcode": "9321", "place": "Kappel am Krappfeld", "lat": 46.8270543, "lon": 14.4523269, "tags": {"addr:city": "Kappel am Krappfeld", "addr:housenumber": "2", "addr:place": "Schöttlhof", "addr:postcode": "9321"}, "content": "Adresse: 2, 9321 Kappel am Krappfeld\nOrt: Kappel am Krappfeld\nPLZ: 9321\nKoordinaten: 46.827054, 14.452327", "doc_type": "addresses"}
{"source": "OSM", "region": "Kärnten", "osm_type": "node", "osm_id": 5449217466, "name": null, "category": null, "address": "2, 9321 Kappel am Krappfeld", "street": null, "housenumber": "2", "postcode": "9321", "place": "Kappel am Krappfeld", "lat": 46.8398843, "lon": 14.4510126, "tags": {"addr:city": "Kappel am Krappfeld", "addr:housenumber": "2", "addr:place": "Landbrücken", "addr:postcode": "9321"}, "content": "Adresse: 2, 9321 Kappel am Krappfeld\nOrt: Kappel am Krappfeld\nPLZ: 9321\nKoordinaten: 46.839884, 14.451013", "doc_type": "addresses"}
{"source": "OSM", "region": "Kärnten", "osm_type": "node", "osm_id": 5449217467, "name": null, "category": null, "address": "5, 9321 Kappel am Krappfeld", "street": null, "housenumber": "5", "postcode": "9321", "place": "Kappel am Krappfeld", "lat": 46.840077, "lon": 14.4458842, "tags": {"addr:city": "Kappel am Krappfeld", "addr:housenumber": "5", "addr:place": "Landbrücken", "addr:postcode": "9321"}, "content": "Adresse: 5, 9321 Kappel am Krappfeld\nOrt: Kappel am Krappfeld\nPLZ: 9321\nKoordinaten: 46.840077, 14.445884", "doc_type": "addresses"}
{"source": "OSM", "region": "Kärnten", "osm_type": "node", "osm_id": 5449217468, "name": null, "category": null, "address": "3, 9321 Kappel am Krappfeld", "street": null, "housenumber": "3", "postcode": "9321", "place": "Kappel am Krappfeld", "lat": 46.8313558, "lon": 14.442156, "tags": {"addr:city": "Kappel am Krappfeld", "addr:housenumber": "3", "addr:place": "Dürnfeld", "addr:postcode": "9321"}, "content": "Adresse: 3, 9321 Kappel am Krappfeld\nOrt: Kappel am Krappfeld\nPLZ: 9321\nKoordinaten: 46.831356, 14.442156", "doc_type": "addresses"}
{"source": "OSM", "region": "Kärnten", "osm_type": "node", "osm_id": 5565809228, "name": null, "category": null, "address": "Am Walde 5, 9321 Kappel am Krappfeld", "street": "Am Walde", "housenumber": "5", "postcode": "9321", "place": "Kappel am Krappfeld", "lat": 46.812537, "lon": 14.4646919, "tags": {"addr:city": "Kappel am Krappfeld", "addr:housenumber": "5", "addr:postcode": "9321", "addr:street": "Am Walde"}, "content": "Adresse: Am Walde 5, 9321 Kappel am Krappfeld\nOrt: Kappel am Krappfeld\nPLZ: 9321\nKoordinaten: 46.812537, 14.464692", "doc_type": "addresses"}
{"source": "OSM", "region": "Kärnten", "osm_type": "node", "osm_id": 340520572, "name": "9321 Kappel am Krappfeld", "category": "amenity:post_office", "address": "Gunther v. Krappfeld-Straße 12, 9321 Kappel am Krappfeld", "street": "Gunther v. Krappfeld-Straße", "housenumber": "12", "postcode": "9321", "place": "Kappel am Krappfeld", "lat": 46.8386083, "lon": 14.4835022, "tags": {"addr:city": "Kappel am Krappfeld", "addr:housenumber": "12", "addr:postcode": "9321", "addr:street": "Gunther v. Krappfeld-Straße", "amenity": "post_office", "name": "9321 Kappel am Krappfeld"}, "content": "9321 Kappel am Krappfeld\nKategorie: amenity:post_office\nAdresse: Gunther v. Krappfeld-Straße 12, 9321 Kappel am Krappfeld\nOrt: Kappel am Krappfeld\nPLZ: 9321\nKoordinaten: 46.838608, 14.483502\nTags: amenity=post_office", "doc_type": "pois"}
