{"source": "OSM", "region": "Kärnten", "osm_type": "node", "osm_id": 1386580064, "name": "Da Anderle", "category": "amenity:restaurant", "address": "Gartenstraße 52, 9851 Lieserbrücke", "street": "Gartenstraße", "housenumber": "52", "postcode": "9851", "place": "Lieserbrücke", "lat": 46.8229256, "lon": 13.4944086, "tags": {"addr:city": "Lieserbrücke", "addr:housenumber": "52", "addr:postcode": "9851", "addr:street": "Gartenstraße", "amenity": "restaurant", "name": "Da Anderle"}, "content": "Da Anderle\nKategorie: amenity:restaurant\nAdresse: Gartenstraße 52, 9851 Lieserbrücke\nOrt: Lieserbrücke\nPLZ: 9851\nKoordinaten: 46.822926, 13.494409\nTags: amenity=restaurant", "doc_type": "addresses"}
{"source": "OSM", "region": "Kärnten", "osm_type": "node", "osm_id": 2461402173, "name": "Volksschule Lieserhofen", "category": "amenity:school", "address": "Lieserhofen 65, 9851 Lieserbrücke", "street": "Lieserhofen", "housenumber": "65", "postcode": "9851", "place": "Lieserbrücke", "lat": 46.8344915, "lon": 13.483764, "tags": {"addr:city": "Lieserbrücke", "addr:housenumber": "65", "addr:postcode": "9851", "addr:street": "Lieserhofen", "amenity": "school", "name": "Volksschule Lieserhofen"}, "content": "Volksschule Lieserhofen\nKategorie: amenity:school\nAdresse: Lieserhofen 65, 9851 Lieserbrücke\nOrt: Lieserbrücke\nPLZ: 9851\nKoordinaten: 46.834491, 13.483764\nTags: amenity=school", "doc_type": "addresses"}
{"source": "OSM", "region": "Kärnten", "osm_type": "node", "osm_id": 2472510304, "name": "Haus Danhofer", "category": "amenity:social_facility", "address": "Danhoferweg 20-25, 9851 Lieserbrücke", "street": "Danhoferweg", "housenumber": "20-25", "postcode": "9851", "place": "Lieserbrücke", "lat": 46.8346264, "lon": 13.4933104, "tags": {"addr:city": "Lieserbrücke", "addr:housenumber": "20-25", "addr:postcode": "9851", "addr:street": "Danhoferweg", "amenity": "social_facility", "name": "Haus Danhofer"}, "content": "Haus Danhofer\nKategorie: amenity:social_facility\nAdresse: Danhoferweg 20-25, 9851 Lieserbrücke\nOrt: Lieserbrücke\nPLZ: 9851\nKoordinaten: 46.834626, 13.493310\nTags: amenity=social_facility", "doc_type": "addresses"}
{"source": "OSM", "region": "Kärnten", "osm_type": "node", "osm_id": 5618869311, "name": null, "category": null, "address": "Katschberg Straße 16, 9851 Lieserbrücke", "street": "Katschberg Straße", "housenumber": "16", "postcode": "9851", "place": "Lieserbrücke", "lat": 46.8208199, "lon": 13.4937456, "tags": {"addr:city": "Lieserbrücke", "addr:housenumber": "16", "addr:postcode": "9851", "addr:street": "Katschberg Straße"}, "content": "Adresse: Katschberg Straße 16, 9851 Lieserbrücke\nOrt: Lieserbrücke\nPLZ: 9851\nKoordinaten: 46.820820, 13.493746", "doc_type": "addresses"}
{"source": "OSM", "region": "Kärnten", "osm_type": "node", "osm_id": 5618869312, "name": null, "category": null, "address": "Katschberg Straße 16a, 9851 Lieserbrücke", "street": "Katschberg Straße", "housenumber": "16a", "postcode": "9851", "place": "Lieserbrücke", "lat": 46.8206143, "lon": 13.4941828, "tags": {"addr:city": "Lieserbrücke", "addr:housenumber": "16a", "addr:postcode": "9851", "addr:street": "Katschberg Straße"}, "content": "Adresse: Katschberg Straße 16a, 9851 Lieserbrücke\nOrt: Lieserbrücke\nPLZ: 9851\nKoordinaten: 46.820614, 13.494183", "doc_type": "addresses"}
{"source": "OSM", "region": "Kärnten", "osm_type": "node", "osm_id": 5618870544, "name": null, "category": null, "address": "Gartenstraße 82, 9851 Lieserbrücke", "street": "Gartenstraße", "housenumber": "82", "postcode": "9851", "place": "Lieserbrücke", "lat": 46.8234224, "lon": 13.4933674, "tags": {"addr:city": "Lieserbrücke", "addr:housenumber": "82", "addr:postcode": "9851", "addr:street": "Gartenstraße"}, "content": "Adresse: Gartenstraße 82, 9851 Lieserbrücke\nOrt: Lieserbrücke\nPLZ: 9851\nKoordinaten: 46.823422, 13.493367", "doc_type": "addresses"}
{"source": "OSM", "region": "Kärnten", "osm_type": "node", "osm_id": 5618870547, "name": null, "category": null, "address": "Gartenstraße 80, 9851 Lieserbrücke", "street": "Gartenstraße", "housenumber": "80", "postcode": "9851", "place": "Lieserbrücke", "lat": 46.8233673, "lon": 13.4932226, "tags": {"addr:city": "Lieserbrücke", "addr:housenumber": "80", "addr:postcode": "9851", "addr:street": "Gartenstraße"}, "content": "Adresse: Gartenstraße 80, 9851 Lieserbrücke\nOrt: Lieserbrücke\nPLZ: 9851\nKoordinaten: 46.823367, 13.493223", "doc_type": "addresses"}
{"source": "OSM", "region": "Kärnten", "osm_type": "node", "osm_id": 5618870562, "name": null, "category": null, "address": "Gartenstraße 30, 9851 Lieserbrücke", "street": "Gartenstraße", "housenumber": "30", "postcode": "9851", "place": "Lieserbrücke", "lat": 46.8219449, "lon": 13.49462, "tags": {"addr:city": "Lieserbrücke", "addr:housenumber": "30", "addr:postcode": "9851", "addr:street": "Gartenstraße"}, "content": "Adresse: Gartenstraße 30, 9851 Lieserbrücke\nOrt: Lieserbrücke\nPLZ: 9851\nKoordinaten: 46.821945, 13.494620", "doc_type": "addresses"}
{"source": "OSM", "region": "Kärnten", "osm_type": "node", "osm_id": 5618870583, "name": null, "category": null, "address": "Gartenstraße 28, 9851 Lieserbrücke", "street": "Gartenstraße", "housenumber": "28", "postcode": "9851", "place": "Lieserbrücke", "lat": 46.8219504, "lon": 13.4947729, "tags": {"addr:city": "Lieserbrücke", "addr:housenumber": "28", "addr:postcode": "9851", "addr:street": "Gartenstraße"}, "content": "Adresse: Gartenstraße 28, 9851 Lieserbrücke\nOrt: Lieserbrücke\nPLZ: 9851\nKoordinaten: 46.821950, 13.494773", "doc_type": "addresses"}
{"source": "OSM", "region": "Kärnten", "osm_type": "node", "osm_id": 5618870596, "name": null, "category": null, "address": "Seebacher Straße 42, 9851 Lieserbrücke", "street": "Seebacher Straße", "housenumber": "42", "postcode": "9851", "place": "Lieserbrücke", "lat": 46.8231086, "lon": 13.4993058, "tags": {"addr:city": "Lieserbrücke", "addr:housenumber": "42", "addr:postcode": "9851", "addr:street": "Seebacher Straße"}, "content": "Adresse: Seebacher Straße 42, 9851 Lieserbrücke\nOrt: Lieserbrücke\nPLZ: 9851\nKoordinaten: 46.823109, 13.499306", "doc_type": "addresses"}
{"source": "OSM", "region": "Kärnten", "osm_type": "node", "osm_id": 5618870597, "name": null, "category": null, "address": "Seebacher Straße 40, 9851 Lieserbrücke", "street": "Seebacher Straße", "housenumber": "40", "postcode": "9851", "place": "Lieserbrücke", "lat": 46.8228737, "lon": 13.4994185, "tags": {"addr:city": "Lieserbrücke", "addr:housenumber": "40", "addr:postcode": "9851", "addr:street": "Seebacher Straße"}, "content": "Adresse: Seebacher Straße 40, 9851 Lieserbrücke\nOrt: Lieserbrücke\nPLZ: 9851\nKoordinaten: 46.822874, 13.499419", "doc_type": "addresses"}
{"source": "OSM", "region": "Kärnten", "osm_type": "node", "osm_id": 5618870606, "name": null, "category": null, "address": "Hangweg 48, 9851 Lieserbrücke", "street": "Hangweg", "housenumber": "48", "postcode": "9851", "place": "Lieserbrücke", "lat": 46.8296657, "lon": 13.4933272, "tags": {"addr:city": "Lieserbrücke", "addr:housenumber": "48", "addr:postcode": "9851", "addr:street": "Hangweg"}, "content": "Adresse: Hangweg 48, 9851 Lieserbrücke\nOrt: Lieserbrücke\nPLZ: 9851\nKoordinaten: 46.829666, 13.493327", "doc_type": "addresses"}
{"source": "OSM", "region": "Kärnten", "osm_type": "node", "osm_id": 5618870607, "name": null, "category": null, "address": "Hangweg 46, 9851 Lieserbrücke", "street": "Hangweg", "housenumber": "46", "postcode": "9851", "place": "Lieserbrücke", "lat": 46.8295171, "lon": 13.4933487, "tags": {"addr:city": "Lieserbrücke", "addr:housenumber": "46", "addr:postcode": "9851", "addr:street": "Hangweg"}, "content": "Adresse: Hangweg 46, 9851 Lieserbrücke\nOrt: Lieserbrücke\nPLZ: 9851\nKoordinaten: 46.829517, 13.493349", "doc_type": "addresses"}
{"source": "OSM", "region": "Kärnten", "osm_type": "node", "osm_id": 5618870649, "name": null, "category": null, "address": "Seebacher Straße 67, 9851 Lieserbrücke", "street": "Seebacher Straße", "housenumber": "67", "postcode": "9851", "place": "Lieserbrücke", "lat": 46.8244703, "lon": 13.4987506, "tags": {"addr:city": "Lieserbrücke", "addr:housenumber": "67", "addr:postcode": "9851", "addr:street": "Seebacher Straße"}, "content": "Adresse: Seebacher Straße 67, 9851 Lieserbrücke\nOrt: Lieserbrücke\nPLZ: 9851\nKoordinaten: 46.824470, 13.498751", "doc_type": "addresses"}
{"source": "OSM", "region": "Kärnten", "osm_type": "node", "osm_id": 5618870650, "name": null, "category": null, "address": "Seebacher Straße 65, 9851 Lieserbrücke", "street": "Seebacher Straße", "housenumber": "65", "postcode": "9851", "place": "Lieserbrücke", "lat": 46.8243841, "lon": 13.4988794, "tags": {"addr:city": "Lieserbrücke", "addr:housenumber": "65", "addr:postcode": "9851", "addr:street": "Seebacher Straße"}, "content": "Adresse: Seebacher Straße 65, 9851 Lieserbrücke\nOrt: Lieserbrücke\nPLZ: 9851\nKoordinaten: 46.824384, 13.498879", "doc_type": "addresses"}
{"source": "OSM", "region": "Kärnten", "osm_type": "node", "osm_id": 5618870674, "name": null, "category": null, "address": "Am Pfarrfeld 10, 9851 Lieserbrücke", "street": "Am Pfarrfeld", "housenumber": "10", "postcode": "9851", "place": "Lieserbrücke", "lat": 46.8262285, "lon": 13.496802, "tags": {"addr:city": "Lieserbrücke", "addr:housenumber": "10", "addr:postcode": "9851", "addr:street": "Am Pfarrfeld"}, "content": "Adresse: Am Pfarrfeld 10, 9851 Lieserbrücke\nOrt: Lieserbrücke\nPLZ: 9851\nKoordinaten: 46.826228, 13.496802", "doc_type": "addresses"}
{"source": "OSM", "region": "Kärnten", "osm_type": "node", "osm_id": 5618870675, "name": null, "category": null, "address": "Am Pfarrfeld 10a, 9851 Lieserbrücke", "street": "Am Pfarrfeld", "housenumber": "10a", "postcode": "9851", "place": "Lieserbrücke", "lat": 46.8261431, "lon": 13.4968543, "tags": {"addr:city": "Lieserbrücke", "addr:housenumber": "10a", "addr:postcode": "9851", "addr:street": "Am Pfarrfeld"}, "content": "Adresse: Am Pfarrfeld 10a, 9851 Lieserbrücke\nOrt: Lieserbrücke\nPLZ: 9851\nKoordinaten: 46.826143, 13.496854", "doc_type": "addresses"}
{"source": "OSM", "region": "Kärnten", "osm_type": "node", "osm_id": 5618870685, "name": null, "category": null, "address": "Am Pfarrfeld 9a, 9851 Lieserbrücke", "street": "Am Pfarrfeld", "housenumber": "9a", "postcode": "9851", "place": "Lieserbrücke", "lat": 46.8258724, "lon": 13.4961221, "tags": {"addr:city": "Lieserbrücke", "addr:housenumber": "9a", "addr:postcode": "9851", "addr:street": "Am Pfarrfeld"}, "content": "Adresse: Am Pfarrfeld 9a, 9851 Lieserbrücke\nOrt: Lieserbrücke\nPLZ: 9851\nKoordinaten: 46.825872, 13.496122", "doc_type": "addresses"}
{"source": "OSM", "region": "Kärnten", "osm_type": "node", "osm_id": 5618870687, "name": null, "category": null, "address": "Am Pfarrfeld 9, 9851 Lieserbrücke", "street": "Am Pfarrfeld", "housenumber": "9", "postcode": "9851", "place": "Lieserbrücke", "lat": 46.8258055, "lon": 13.4961824, "tags": {"addr:city": "Lieserbrücke", "addr:housenumber": "9", "addr:postcode": "9851", "addr:street": "Am Pfarrfeld"}, "content": "Adresse: Am Pfarrfeld 9, 9851 Lieserbrücke\nOrt: Lieserbrücke\nPLZ: 9851\nKoordinaten: 46.825806, 13.496182", "doc_type": "addresses"}
{"source": "OSM", "region": "Kärnten", "osm_type": "node", "osm_id": 5618870690, "name": null, "category": null, "address": "Am Pfarrfeld 7, 9851 Lieserbrücke", "street": "Am Pfarrfeld", "housenumber": "7", "postcode": "9851", "place": "Lieserbrücke", "lat": 46.8256293, "lon": 13.4962749, "tags": {"addr:city": "Lieserbrücke", "addr:housenumber": "7", "addr:postcode": "9851", "addr:street": "Am Pfarrfeld"}, "content": "Adresse: Am Pfarrfeld 7, 9851 Lieserbrücke\nOrt: Lieserbrücke\nPLZ: 9851\nKoordinaten: 46.825629, 13.496275", "doc_type": "addresses"}
{"source": "OSM", "region": "Kärnten", "osm_type": "node", "osm_id": 5618870691, "name": null, "category": null, "address": "Am Pfarrfeld 5, 9851 Lieserbrücke", "street": "Am Pfarrfeld", "housenumber": "5", "postcode": "9851", "place": "Lieserbrücke", "lat": 46.8255742, "lon": 13.4963058, "tags": {"addr:city": "Lieserbrücke", "addr:housenumber": "5", "addr:postcode": "9851", "addr:street": "Am Pfarrfeld"}, "content": "Adresse: Am Pfarrfeld 5, 9851 Lieserbrücke\nOrt: Lieserbrücke\nPLZ: 9851\nKoordinaten: 46.825574, 13.496306", "doc_type": "addresses"}
{"source": "OSM", "region": "Kärnten", "osm_type": "node", "osm_id": 1386580064, "name": "Da Anderle", "category": "amenity:restaurant", "address": "Gartenstraße 52, 9851 Lieserbrücke", "street": "Gartenstraße", "housenumber": "52", "postcode": "9851", "place": "Lieserbrücke", "lat": 46.8229256, "lon": 13.4944086, "tags": {"addr:city": "Lieserbrücke", "addr:housenumber": "52", "addr:postcode": "9851", "addr:street": "Gartenstraße", "amenity": "restaurant", "name": "Da Anderle"}, "content": "Da Anderle\nKategorie: amenity:restaurant\nAdresse: Gartenstraße 52, 9851 Lieserbrücke\nOrt: Lieserbrücke\nPLZ: 9851\nKoordinaten: 46.822926, 13.494409\nTags: amenity=restaurant", "doc_type": "pois"}
{"source": "OSM", "region": "Kärnten", "osm_type": "node", "osm_id": 2461402173, "name": "Volksschule Lieserhofen", "category": "amenity:school", "address": "Lieserhofen 65, 9851 Lieserbrücke", "street": "Lieserhofen", "housenumber": "65", "postcode": "9851", "place": "Lieserbrücke", "lat": 46.8344915, "lon": 13.483764, "tags": {"addr:city": "Lieserbrücke", "addr:housenumber": "65", "addr:postcode": "9851", "addr:street": "Lieserhofen", "amenity": "school", "name": "Volksschule Lieserhofen"}, "content": "Volksschule Lieserhofen\nKategorie: amenity:school\nAdresse: Lieserhofen 65, 9851 Lieserbrücke\nOrt: Lieserbrücke\nPLZ: 9851\nKoordinaten: 46.834491, 13.483764\nTags: amenity=school", "doc_type": "pois"}
{"source": "OSM", "region": "Kärnten", "osm_type": "node", "osm_id": 2472510304, "name": "Haus Danhofer", "category": "amenity:social_facility", "address": "Danhoferweg 20-25, 9851 Lieserbrücke", "street": "Danhoferweg", "housenumber": "20-25", "postcode": "9851", "place": "Lieserbrücke", "lat": 46.8346264, "lon": 13.4933104, "tags": {"addr:city": "Lieserbrücke", "addr:housenumber": "20-25", "addr:postcode": "9851", "addr:street": "Danhoferweg", "amenity": "social_facility", "name": "Haus Danhofer"}, "content": "Haus Danhofer\nKategorie: amenity:social_facility\nAdresse: Danhoferweg 20-25, 9851 Lieserbrücke\nOrt: Lieserbrücke\nPLZ: 9851\nKoordinaten: 46.834626, 13.493310\nTags: amenity=social_facility", "doc_type": "pois"}
