{"source": "OSM", "region": "Kärnten", "osm_type": "node", "osm_id": 5394480181, "name": null, "category": null, "address": "Dorfstraße 9, 9560 Höfling", "street": "Dorfstraße", "housenumber": "9", "postcode": "9560", "place": "Höfling", "lat": 46.6973107, "lon": 14.0895972, "tags": {"addr:city": "Höfling", "addr:housenumber": "9", "addr:postcode": "9560", "addr:street": "Dorfstraße"}, "content": "Adresse: Dorfstraße 9, 9560 Höfling\nOrt: Höfling\nPLZ: 9560\nKoordinaten: 46.697311, 14.089597", "doc_type": "addresses"}
{"source": "OSM", "region": "Kärnten", "osm_type": "node", "osm_id": 5394480184, "name": null, "category": null, "address": "Altmannweg 5, 9560 Höfling", "street": "Altmannweg", "housenumber": "5", "postcode": "9560", "place": "Höfling", "lat": 46.6954854, "lon": 14.0903821, "tags": {"addr:city": "Höfling", "addr:housenumber": "5", "addr:postcode": "9560", "addr:street": "Altmannweg"}, "content": "Adresse: Altmannweg 5, 9560 Höfling\nOrt: Höfling\nPLZ: 9560\nKoordinaten: 46.695485, 14.090382", "doc_type": "addresses"}
{"source": "OSM", "region": "Kärnten", "osm_type": "node", "osm_id": 5394480185, "name": null, "category": null, "address": "Altmannweg 4, 9560 Höfling", "street": "Altmannweg", "housenumber": "4", "postcode": "9560", "place": "Höfling", "lat": 46.6956021, "lon": 14.0903538, "tags": {"addr:city": "Höfling", "addr:housenumber": "4", "addr:postcode": "9560", "addr:street": "Altmannweg"}, "content": "Adresse: Altmannweg 4, 9560 Höfling\nOrt: Höfling\nPLZ: 9560\nKoordinaten: 46.695602, 14.090354", "doc_type": "addresses"}
{"source": "OSM", "region": "Kärnten", "osm_type": "node", "osm_id": 5394480186, "name": null, "category": null, "address": "Altmannweg 7a, 9560 Höfling", "street": "Altmannweg", "housenumber": "7a", "postcode": "9560", "place": "Höfling", "lat": 46.6951299, "lon": 14.090981, "tags": {"addr:city": "Höfling", "addr:housenumber": "7a", "addr:postcode": "9560", "addr:street": "Altmannweg"}, "content": "Adresse: Altmannweg 7a, 9560 Höfling\nOrt: Höfling\nPLZ: 9560\nKoordinaten: 46.695130, 14.090981", "doc_type": "addresses"}
{"source": "OSM", "region": "Kärnten", "osm_type": "node", "osm_id": 5394480187, "name": null, "category": null, "address": "Altmannweg 7, 9560 Höfling", "street": "Altmannweg", "housenumber": "7", "postcode": "9560", "place": "Höfling", "lat": 46.695135, "lon": 14.0908073, "tags": {"addr:city": "Höfling", "addr:housenumber": "7", "addr:postcode": "9560", "addr:street": "Altmannweg"}, "content": "Adresse: Altmannweg 7, 9560 Höfling\nOrt: Höfling\nPLZ: 9560\nKoordinaten: 46.695135, 14.090807", "doc_type": "addresses"}
