{"source": "OSM", "region": "Kärnten", "osm_type": "node", "osm_id": 2422560979, "name": null, "category": null, "address": "Berthastraße 49, 9201 Krumpendorf", "street": "Berthastraße", "housenumber": "49", "postcode": "9201", "place": "Krumpendorf", "lat": 46.6226043, "lon": 14.2215068, "tags": {"addr:city": "Krumpendorf", "addr:housenumber": "49", "addr:postcode": "9201", "addr:street": "Berthastraße"}, "content": "Adresse: Berthastraße 49, 9201 Krumpendorf\nOrt: Krumpendorf\nPLZ: 9201\nKoordinaten: 46.622604, 14.221507", "doc_type": "addresses"}
{"source": "OSM", "region": "Kärnten", "osm_type": "node", "osm_id": 4757051831, "name": null, "category": null, "address": "Am Sennewald 24, 9201 Krumpendorf", "street": "Am Sennewald", "housenumber": "24", "postcode": "9201", "place": "Krumpendorf", "lat": 46.6216036, "lon": 14.2101338, "tags": {"addr:city": "Krumpendorf", "addr:housenumber": "24", "addr:postcode": "9201", "addr:street": "Am Sennewald"}, "content": "Adresse: Am Sennewald 24, 9201 Krumpendorf\nOrt: Krumpendorf\nPLZ: 9201\nKoordinaten: 46.621604, 14.210134", "doc_type": "addresses"}
{"source": "OSM", "region": "Kärnten", "osm_type": "node", "osm_id": 4757051832, "name": null, "category": null, "address": "Am Sennewald 22, 9201 Krumpendorf", "street": "Am Sennewald", "housenumber": "22", "postcode": "9201", "place": "Krumpendorf", "lat": 46.6216366, "lon": 14.2102417, "tags": {"addr:city": "Krumpendorf", "addr:housenumber": "22", "addr:postcode": "9201", "addr:street": "Am Sennewald"}, "content": "Adresse: Am Sennewald 22, 9201 Krumpendorf\nOrt: Krumpendorf\nPLZ: 9201\nKoordinaten: 46.621637, 14.210242", "doc_type": "addresses"}
{"source": "OSM", "region": "Kärnten", "osm_type": "node", "osm_id": 4757051833, "name": null, "category": null, "address": "Am Sennewald 20, 9201 Krumpendorf", "street": "Am Sennewald", "housenumber": "20", "postcode": "9201", "place": "Krumpendorf", "lat": 46.621722, "lon": 14.2105093, "tags": {"addr:city": "Krumpendorf", "addr:housenumber": "20", "addr:postcode": "9201", "addr:street": "Am Sennewald"}, "content": "Adresse: Am Sennewald 20, 9201 Krumpendorf\nOrt: Krumpendorf\nPLZ: 9201\nKoordinaten: 46.621722, 14.210509", "doc_type": "addresses"}
{"source": "OSM", "region": "Kärnten", "osm_type": "node", "osm_id": 4757051834, "name": null, "category": null, "address": "Am Sennewald 18, 9201 Krumpendorf", "street": "Am Sennewald", "housenumber": "18", "postcode": "9201", "place": "Krumpendorf", "lat": 46.6217357, "lon": 14.2106032, "tags": {"addr:city": "Krumpendorf", "addr:housenumber": "18", "addr:postcode": "9201", "addr:street": "Am Sennewald"}, "content": "Adresse: Am Sennewald 18, 9201 Krumpendorf\nOrt: Krumpendorf\nPLZ: 9201\nKoordinaten: 46.621736, 14.210603", "doc_type": "addresses"}
{"source": "OSM", "region": "Kärnten", "osm_type": "node", "osm_id": 4757051835, "name": null, "category": null, "address": "Am Sennewald 16, 9201 Krumpendorf", "street": "Am Sennewald", "housenumber": "16", "postcode": "9201", "place": "Krumpendorf", "lat": 46.6217494, "lon": 14.2107111, "tags": {"addr:city": "Krumpendorf", "addr:housenumber": "16", "addr:postcode": "9201", "addr:street": "Am Sennewald"}, "content": "Adresse: Am Sennewald 16, 9201 Krumpendorf\nOrt: Krumpendorf\nPLZ: 9201\nKoordinaten: 46.621749, 14.210711", "doc_type": "addresses"}
{"source": "OSM", "region": "Kärnten", "osm_type": "node", "osm_id": 4757051836, "name": null, "category": null, "address": "Am Sennewald 14, 9201 Krumpendorf", "street": "Am Sennewald", "housenumber": "14", "postcode": "9201", "place": "Krumpendorf", "lat": 46.6217656, "lon": 14.2108167, "tags": {"addr:city": "Krumpendorf", "addr:housenumber": "14", "addr:postcode": "9201", "addr:street": "Am Sennewald"}, "content": "Adresse: Am Sennewald 14, 9201 Krumpendorf\nOrt: Krumpendorf\nPLZ: 9201\nKoordinaten: 46.621766, 14.210817", "doc_type": "addresses"}
{"source": "OSM", "region": "Kärnten", "osm_type": "node", "osm_id": 4757051837, "name": null, "category": null, "address": "Am Sennewald 12, 9201 Krumpendorf", "street": "Am Sennewald", "housenumber": "12", "postcode": "9201", "place": "Krumpendorf", "lat": 46.6214456, "lon": 14.2105198, "tags": {"addr:city": "Krumpendorf", "addr:housenumber": "12", "addr:postcode": "9201", "addr:street": "Am Sennewald"}, "content": "Adresse: Am Sennewald 12, 9201 Krumpendorf\nOrt: Krumpendorf\nPLZ: 9201\nKoordinaten: 46.621446, 14.210520", "doc_type": "addresses"}
{"source": "OSM", "region": "Kärnten", "osm_type": "node", "osm_id": 4757051838, "name": null, "category": null, "address": "Am Sennewald 10, 9201 Krumpendorf", "street": "Am Sennewald", "housenumber": "10", "postcode": "9201", "place": "Krumpendorf", "lat": 46.6214504, "lon": 14.2106067, "tags": {"addr:city": "Krumpendorf", "addr:housenumber": "10", "addr:postcode": "9201", "addr:street": "Am Sennewald"}, "content": "Adresse: Am Sennewald 10, 9201 Krumpendorf\nOrt: Krumpendorf\nPLZ: 9201\nKoordinaten: 46.621450, 14.210607", "doc_type": "addresses"}
{"source": "OSM", "region": "Kärnten", "osm_type": "node", "osm_id": 4757051839, "name": null, "category": null, "address": "Am Sennewald 8, 9201 Krumpendorf", "street": "Am Sennewald", "housenumber": "8", "postcode": "9201", "place": "Krumpendorf", "lat": 46.6214553, "lon": 14.2106853, "tags": {"addr:city": "Krumpendorf", "addr:housenumber": "8", "addr:postcode": "9201", "addr:street": "Am Sennewald"}, "content": "Adresse: Am Sennewald 8, 9201 Krumpendorf\nOrt: Krumpendorf\nPLZ: 9201\nKoordinaten: 46.621455, 14.210685", "doc_type": "addresses"}
{"source": "OSM", "region": "Kärnten", "osm_type": "node", "osm_id": 4757051840, "name": null, "category": null, "address": "Am Sennewald 6, 9201 Krumpendorf", "street": "Am Sennewald", "housenumber": "6", "postcode": "9201", "place": "Krumpendorf", "lat": 46.6214649, "lon": 14.2108003, "tags": {"addr:city": "Krumpendorf", "addr:housenumber": "6", "addr:postcode": "9201", "addr:street": "Am Sennewald"}, "content": "Adresse: Am Sennewald 6, 9201 Krumpendorf\nOrt: Krumpendorf\nPLZ: 9201\nKoordinaten: 46.621465, 14.210800", "doc_type": "addresses"}
{"source": "OSM", "region": "Kärnten", "osm_type": "node", "osm_id": 4757945166, "name": null, "category": null, "address": "Koschatweg 67, 9201 Krumpendorf", "street": "Koschatweg", "housenumber": "67", "postcode": "9201", "place": "Krumpendorf", "lat": 46.6200111, "lon": 14.2064061, "tags": {"addr:city": "Krumpendorf", "addr:housenumber": "67", "addr:postcode": "9201", "addr:street": "Koschatweg"}, "content": "Adresse: Koschatweg 67, 9201 Krumpendorf\nOrt: Krumpendorf\nPLZ: 9201\nKoordinaten: 46.620011, 14.206406", "doc_type": "addresses"}
{"source": "OSM", "region": "Kärnten", "osm_type": "node", "osm_id": 4758720944, "name": null, "category": null, "address": "Koschatweg 82, 9201 Krumpendorf", "street": "Koschatweg", "housenumber": "82", "postcode": "9201", "place": "Krumpendorf", "lat": 46.6208172, "lon": 14.2030018, "tags": {"addr:city": "Krumpendorf", "addr:housenumber": "82", "addr:postcode": "9201", "addr:street": "Koschatweg"}, "content": "Adresse: Koschatweg 82, 9201 Krumpendorf\nOrt: Krumpendorf\nPLZ: 9201\nKoordinaten: 46.620817, 14.203002", "doc_type": "addresses"}
{"source": "OSM", "region": "Kärnten", "osm_type": "node", "osm_id": 4758720945, "name": null, "category": null, "address": "Koschatweg 86, 9201 Krumpendorf", "street": "Koschatweg", "housenumber": "86", "postcode": "9201", "place": "Krumpendorf", "lat": 46.6220357, "lon": 14.2019586, "tags": {"addr:city": "Krumpendorf", "addr:housenumber": "86", "addr:postcode": "9201", "addr:street": "Koschatweg"}, "content": "Adresse: Koschatweg 86, 9201 Krumpendorf\nOrt: Krumpendorf\nPLZ: 9201\nKoordinaten: 46.622036, 14.201959", "doc_type": "addresses"}
