{"source": "OSM", "region": "Kärnten", "osm_type": "node", "osm_id": 5586123550, "name": null, "category": null, "address": "5, 9771 Berg im Drautal", "street": null, "housenumber": "5", "postcode": "9771", "place": "Berg im Drautal", "lat": 46.753656, "lon": 13.1134379, "tags": {"addr:city": "Berg im Drautal", "addr:housenumber": "5", "addr:place": "Oberberg", "addr:postcode": "9771"}, "content": "Adresse: 5, 9771 Berg im Drautal\nOrt: Berg im Drautal\nPLZ: 9771\nKoordinaten: 46.753656, 13.113438", "doc_type": "addresses"}
{"source": "OSM", "region": "Kärnten", "osm_type": "node", "osm_id": 5586123551, "name": null, "category": null, "address": "6, 9771 Berg im Drautal", "street": null, "housenumber": "6", "postcode": "9771", "place": "Berg im Drautal", "lat": 46.7540584, "lon": 13.1133118, "tags": {"addr:city": "Berg im Drautal", "addr:housenumber": "6", "addr:place": "Oberberg", "addr:postcode": "9771"}, "content": "Adresse: 6, 9771 Berg im Drautal\nOrt: Berg im Drautal\nPLZ: 9771\nKoordinaten: 46.754058, 13.113312", "doc_type": "addresses"}
{"source": "OSM", "region": "Kärnten", "osm_type": "node", "osm_id": 5586123552, "name": null, "category": null, "address": "7, 9771 Berg im Drautal", "street": null, "housenumber": "7", "postcode": "9771", "place": "Berg im Drautal", "lat": 46.7537773, "lon": 13.1152242, "tags": {"addr:city": "Berg im Drautal", "addr:housenumber": "7", "addr:place": "Oberberg", "addr:postcode": "9771"}, "content": "Adresse: 7, 9771 Berg im Drautal\nOrt: Berg im Drautal\nPLZ: 9771\nKoordinaten: 46.753777, 13.115224", "doc_type": "addresses"}
{"source": "OSM", "region": "Kärnten", "osm_type": "node", "osm_id": 5586123553, "name": null, "category": null, "address": "8, 9771 Berg im Drautal", "street": null, "housenumber": "8", "postcode": "9771", "place": "Berg im Drautal", "lat": 46.7543175, "lon": 13.1162488, "tags": {"addr:city": "Berg im Drautal", "addr:housenumber": "8", "addr:place": "Oberberg", "addr:postcode": "9771"}, "content": "Adresse: 8, 9771 Berg im Drautal\nOrt: Berg im Drautal\nPLZ: 9771\nKoordinaten: 46.754317, 13.116249", "doc_type": "addresses"}
{"source": "OSM", "region": "Kärnten", "osm_type": "node", "osm_id": 5586123554, "name": null, "category": null, "address": "9, 9771 Berg im Drautal", "street": null, "housenumber": "9", "postcode": "9771", "place": "Berg im Drautal", "lat": 46.7537111, "lon": 13.1177723, "tags": {"addr:city": "Berg im Drautal", "addr:housenumber": "9", "addr:place": "Oberberg", "addr:postcode": "9771"}, "content": "Adresse: 9, 9771 Berg im Drautal\nOrt: Berg im Drautal\nPLZ: 9771\nKoordinaten: 46.753711, 13.117772", "doc_type": "addresses"}
{"source": "OSM", "region": "Kärnten", "osm_type": "node", "osm_id": 5586123555, "name": null, "category": null, "address": "20, 9771 Berg im Drautal", "street": null, "housenumber": "20", "postcode": "9771", "place": "Berg im Drautal", "lat": 46.7555102, "lon": 13.1213933, "tags": {"addr:city": "Berg im Drautal", "addr:housenumber": "20", "addr:place": "Oberberg", "addr:postcode": "9771"}, "content": "Adresse: 20, 9771 Berg im Drautal\nOrt: Berg im Drautal\nPLZ: 9771\nKoordinaten: 46.755510, 13.121393", "doc_type": "addresses"}
{"source": "OSM", "region": "Kärnten", "osm_type": "node", "osm_id": 5586123556, "name": null, "category": null, "address": "18, 9771 Berg im Drautal", "street": null, "housenumber": "18", "postcode": "9771", "place": "Berg im Drautal", "lat": 46.7556489, "lon": 13.1241225, "tags": {"addr:city": "Berg im Drautal", "addr:housenumber": "18", "addr:place": "Oberberg", "addr:postcode": "9771"}, "content": "Adresse: 18, 9771 Berg im Drautal\nOrt: Berg im Drautal\nPLZ: 9771\nKoordinaten: 46.755649, 13.124123", "doc_type": "addresses"}
{"source": "OSM", "region": "Kärnten", "osm_type": "node", "osm_id": 5586123557, "name": null, "category": null, "address": "13, 9771 Berg im Drautal", "street": null, "housenumber": "13", "postcode": "9771", "place": "Berg im Drautal", "lat": 46.75558, "lon": 13.1250532, "tags": {"addr:city": "Berg im Drautal", "addr:housenumber": "13", "addr:place": "Oberberg", "addr:postcode": "9771"}, "content": "Adresse: 13, 9771 Berg im Drautal\nOrt: Berg im Drautal\nPLZ: 9771\nKoordinaten: 46.755580, 13.125053", "doc_type": "addresses"}
{"source": "OSM", "region": "Kärnten", "osm_type": "node", "osm_id": 5586123558, "name": null, "category": null, "address": "12, 9771 Berg im Drautal", "street": null, "housenumber": "12", "postcode": "9771", "place": "Berg im Drautal", "lat": 46.7553448, "lon": 13.1258807, "tags": {"addr:city": "Berg im Drautal", "addr:housenumber": "12", "addr:place": "Oberberg", "addr:postcode": "9771"}, "content": "Adresse: 12, 9771 Berg im Drautal\nOrt: Berg im Drautal\nPLZ: 9771\nKoordinaten: 46.755345, 13.125881", "doc_type": "addresses"}
{"source": "OSM", "region": "Kärnten", "osm_type": "node", "osm_id": 5586123560, "name": null, "category": null, "address": "39, 9771 Berg im Drautal", "street": null, "housenumber": "39", "postcode": "9771", "place": "Berg im Drautal", "lat": 46.7734699, "lon": 13.1404558, "tags": {"addr:city": "Berg im Drautal", "addr:housenumber": "39", "addr:place": "Emberger Alm", "addr:postcode": "9771"}, "content": "Adresse: 39, 9771 Berg im Drautal\nOrt: Berg im Drautal\nPLZ: 9771\nKoordinaten: 46.773470, 13.140456", "doc_type": "addresses"}
{"source": "OSM", "region": "Kärnten", "osm_type": "node", "osm_id": 5586123561, "name": null, "category": null, "address": "2, 9771 Berg im Drautal", "street": null, "housenumber": "2", "postcode": "9771", "place": "Berg im Drautal", "lat": 46.7695679, "lon": 13.1173351, "tags": {"addr:city": "Berg im Drautal", "addr:housenumber": "2", "addr:place": "Oberberger Alm", "addr:postcode": "9771"}, "content": "Adresse: 2, 9771 Berg im Drautal\nOrt: Berg im Drautal\nPLZ: 9771\nKoordinaten: 46.769568, 13.117335", "doc_type": "addresses"}
{"source": "OSM", "region": "Kärnten", "osm_type": "node", "osm_id": 5586123562, "name": null, "category": null, "address": "1, 9771 Berg im Drautal", "street": null, "housenumber": "1", "postcode": "9771", "place": "Berg im Drautal", "lat": 46.7693254, "lon": 13.1169301, "tags": {"addr:city": "Berg im Drautal", "addr:housenumber": "1", "addr:place": "Oberberger Alm", "addr:postcode": "9771"}, "content": "Adresse: 1, 9771 Berg im Drautal\nOrt: Berg im Drautal\nPLZ: 9771\nKoordinaten: 46.769325, 13.116930", "doc_type": "addresses"}
{"source": "OSM", "region": "Kärnten", "osm_type": "node", "osm_id": 5586123563, "name": null, "category": null, "address": "5, 9771 Berg im Drautal", "street": null, "housenumber": "5", "postcode": "9771", "place": "Berg im Drautal", "lat": 46.7708135, "lon": 13.1209642, "tags": {"addr:city": "Berg im Drautal", "addr:housenumber": "5", "addr:place": "Oberberger Alm", "addr:postcode": "9771"}, "content": "Adresse: 5, 9771 Berg im Drautal\nOrt: Berg im Drautal\nPLZ: 9771\nKoordinaten: 46.770814, 13.120964", "doc_type": "addresses"}
{"source": "OSM", "region": "Kärnten", "osm_type": "node", "osm_id": 5586123564, "name": null, "category": null, "address": "8, 9771 Berg im Drautal", "street": null, "housenumber": "8", "postcode": "9771", "place": "Berg im Drautal", "lat": 46.7721399, "lon": 13.1206101, "tags": {"addr:city": "Berg im Drautal", "addr:housenumber": "8", "addr:place": "Oberberger Alm", "addr:postcode": "9771"}, "content": "Adresse: 8, 9771 Berg im Drautal\nOrt: Berg im Drautal\nPLZ: 9771\nKoordinaten: 46.772140, 13.120610", "doc_type": "addresses"}
{"source": "OSM", "region": "Kärnten", "osm_type": "node", "osm_id": 5586123566, "name": null, "category": null, "address": "20, 9771 Berg im Drautal", "street": null, "housenumber": "20", "postcode": "9771", "place": "Berg im Drautal", "lat": 46.7717504, "lon": 13.120712, "tags": {"addr:city": "Berg im Drautal", "addr:housenumber": "20", "addr:place": "Oberberger Alm", "addr:postcode": "9771"}, "content": "Adresse: 20, 9771 Berg im Drautal\nOrt: Berg im Drautal\nPLZ: 9771\nKoordinaten: 46.771750, 13.120712", "doc_type": "addresses"}
{"source": "OSM", "region": "Kärnten", "osm_type": "node", "osm_id": 5586123567, "name": null, "category": null, "address": "7, 9771 Berg im Drautal", "street": null, "housenumber": "7", "postcode": "9771", "place": "Berg im Drautal", "lat": 46.7716365, "lon": 13.1211036, "tags": {"addr:city": "Berg im Drautal", "addr:housenumber": "7", "addr:place": "Oberberger Alm", "addr:postcode": "9771"}, "content": "Adresse: 7, 9771 Berg im Drautal\nOrt: Berg im Drautal\nPLZ: 9771\nKoordinaten: 46.771636, 13.121104", "doc_type": "addresses"}
{"source": "OSM", "region": "Kärnten", "osm_type": "node", "osm_id": 5586123568, "name": null, "category": null, "address": "6, 9771 Berg im Drautal", "street": null, "housenumber": "6", "postcode": "9771", "place": "Berg im Drautal", "lat": 46.7714749, "lon": 13.1211895, "tags": {"addr:city": "Berg im Drautal", "addr:housenumber": "6", "addr:place": "Oberberger Alm", "addr:postcode": "9771"}, "content": "Adresse: 6, 9771 Berg im Drautal\nOrt: Berg im Drautal\nPLZ: 9771\nKoordinaten: 46.771475, 13.121189", "doc_type": "addresses"}
{"source": "OSM", "region": "Kärnten", "osm_type": "node", "osm_id": 5586123569, "name": null, "category": null, "address": "18, 9771 Berg im Drautal", "street": null, "housenumber": "18", "postcode": "9771", "place": "Berg im Drautal", "lat": 46.7712581, "lon": 13.1211895, "tags": {"addr:city": "Berg im Drautal", "addr:housenumber": "18", "addr:place": "Oberberger Alm", "addr:postcode": "9771"}, "content": "Adresse: 18, 9771 Berg im Drautal\nOrt: Berg im Drautal\nPLZ: 9771\nKoordinaten: 46.771258, 13.121189", "doc_type": "addresses"}
{"source": "OSM", "region": "Kärnten", "osm_type": "node", "osm_id": 5586123570, "name": null, "category": null, "address": "9, 9771 Berg im Drautal", "street": null, "housenumber": "9", "postcode": "9771", "place": "Berg im Drautal", "lat": 46.7712875, "lon": 13.1206369, "tags": {"addr:city": "Berg im Drautal", "addr:housenumber": "9", "addr:place": "Oberberger Alm", "addr:postcode": "9771"}, "content": "Adresse: 9, 9771 Berg im Drautal\nOrt: Berg im Drautal\nPLZ: 9771\nKoordinaten: 46.771287, 13.120637", "doc_type": "addresses"}
{"source": "OSM", "region": "Kärnten", "osm_type": "node", "osm_id": 5586123571, "name": null, "category": null, "address": "16, 9771 Berg im Drautal", "street": null, "housenumber": "16", "postcode": "9771", "place": "Berg im Drautal", "lat": 46.771034, "lon": 13.1208461, "tags": {"addr:city": "Berg im Drautal", "addr:housenumber": "16", "addr:place": "Oberberger Alm", "addr:postcode": "9771"}, "content": "Adresse: 16, 9771 Berg im Drautal\nOrt: Berg im Drautal\nPLZ: 9771\nKoordinaten: 46.771034, 13.120846", "doc_type": "addresses"}
{"source": "OSM", "region": "Kärnten", "osm_type": "node", "osm_id": 5586123572, "name": null, "category": null, "address": "10, 9771 Berg im Drautal", "street": null, "housenumber": "10", "postcode": "9771", "place": "Berg im Drautal", "lat": 46.7711479, "lon": 13.1205296, "tags": {"addr:city": "Berg im Drautal", "addr:housenumber": "10", "addr:place": "Oberberger Alm", "addr:postcode": "9771"}, "content": "Adresse: 10, 9771 Berg im Drautal\nOrt: Berg im Drautal\nPLZ: 9771\nKoordinaten: 46.771148, 13.120530", "doc_type": "addresses"}
{"source": "OSM", "region": "Kärnten", "osm_type": "node", "osm_id": 5586123573, "name": null, "category": null, "address": "13, 9771 Berg im Drautal", "street": null, "housenumber": "13", "postcode": "9771", "place": "Berg im Drautal", "lat": 46.7713904, "lon": 13.1199878, "tags": {"addr:city": "Berg im Drautal", "addr:housenumber": "13", "addr:place": "Oberberger Alm", "addr:postcode": "9771"}, "content": "Adresse: 13, 9771 Berg im Drautal\nOrt: Berg im Drautal\nPLZ: 9771\nKoordinaten: 46.771390, 13.119988", "doc_type": "addresses"}
{"source": "OSM", "region": "Kärnten", "osm_type": "node", "osm_id": 5586123574, "name": null, "category": null, "address": "12, 9771 Berg im Drautal", "street": null, "housenumber": "12", "postcode": "9771", "place": "Berg im Drautal", "lat": 46.7716696, "lon": 13.1198162, "tags": {"addr:city": "Berg im Drautal", "addr:housenumber": "12", "addr:place": "Oberberger Alm", "addr:postcode": "9771"}, "content": "Adresse: 12, 9771 Berg im Drautal\nOrt: Berg im Drautal\nPLZ: 9771\nKoordinaten: 46.771670, 13.119816", "doc_type": "addresses"}
{"source": "OSM", "region": "Kärnten", "osm_type": "node", "osm_id": 5586123575, "name": null, "category": null, "address": "14, 9771 Berg im Drautal", "street": null, "housenumber": "14", "postcode": "9771", "place": "Berg im Drautal", "lat": 46.7713463, "lon": 13.1196123, "tags": {"addr:city": "Berg im Drautal", "addr:housenumber": "14", "addr:place": "Oberberger Alm", "addr:postcode": "9771"}, "content": "Adresse: 14, 9771 Berg im Drautal\nOrt: Berg im Drautal\nPLZ: 9771\nKoordinaten: 46.771346, 13.119612", "doc_type": "addresses"}
{"source": "OSM", "region": "Kärnten", "osm_type": "node", "osm_id": 5586123576, "name": null, "category": null, "address": "11, 9771 Berg im Drautal", "street": null, "housenumber": "11", "postcode": "9771", "place": "Berg im Drautal", "lat": 46.7709568, "lon": 13.1198913, "tags": {"addr:city": "Berg im Drautal", "addr:housenumber": "11", "addr:place": "Oberberger Alm", "addr:postcode": "9771"}, "content": "Adresse: 11, 9771 Berg im Drautal\nOrt: Berg im Drautal\nPLZ: 9771\nKoordinaten: 46.770957, 13.119891", "doc_type": "addresses"}
{"source": "OSM", "region": "Kärnten", "osm_type": "node", "osm_id": 5586123577, "name": null, "category": null, "address": "15, 9771 Berg im Drautal", "street": null, "housenumber": "15", "postcode": "9771", "place": "Berg im Drautal", "lat": 46.7705894, "lon": 13.1188881, "tags": {"addr:city": "Berg im Drautal", "addr:housenumber": "15", "addr:place": "Oberberger Alm", "addr:postcode": "9771"}, "content": "Adresse: 15, 9771 Berg im Drautal\nOrt: Berg im Drautal\nPLZ: 9771\nKoordinaten: 46.770589, 13.118888", "doc_type": "addresses"}
{"source": "OSM", "region": "Kärnten", "osm_type": "node", "osm_id": 5586123578, "name": null, "category": null, "address": "4, 9771 Berg im Drautal", "street": null, "housenumber": "4", "postcode": "9771", "place": "Berg im Drautal", "lat": 46.7695661, "lon": 13.1193817, "tags": {"addr:city": "Berg im Drautal", "addr:housenumber": "4", "addr:place": "Oberberger Alm", "addr:postcode": "9771"}, "content": "Adresse: 4, 9771 Berg im Drautal\nOrt: Berg im Drautal\nPLZ: 9771\nKoordinaten: 46.769566, 13.119382", "doc_type": "addresses"}
{"source": "OSM", "region": "Kärnten", "osm_type": "node", "osm_id": 5586123579, "name": null, "category": null, "address": "3, 9771 Berg im Drautal", "street": null, "housenumber": "3", "postcode": "9771", "place": "Berg im Drautal", "lat": 46.7697112, "lon": 13.1185555, "tags": {"addr:city": "Berg im Drautal", "addr:housenumber": "3", "addr:place": "Oberberger Alm", "addr:postcode": "9771"}, "content": "Adresse: 3, 9771 Berg im Drautal\nOrt: Berg im Drautal\nPLZ: 9771\nKoordinaten: 46.769711, 13.118555", "doc_type": "addresses"}
{"source": "OSM", "region": "Kärnten", "osm_type": "node", "osm_id": 5586240389, "name": null, "category": null, "address": "41, 9771 Berg im Drautal", "street": null, "housenumber": "41", "postcode": "9771", "place": "Berg im Drautal", "lat": 46.7397779, "lon": 13.1188613, "tags": {"addr:city": "Berg im Drautal", "addr:housenumber": "41", "addr:place": "Feistritz", "addr:postcode": "9771"}, "content": "Adresse: 41, 9771 Berg im Drautal\nOrt: Berg im Drautal\nPLZ: 9771\nKoordinaten: 46.739778, 13.118861", "doc_type": "addresses"}
{"source": "OSM", "region": "Kärnten", "osm_type": "node", "osm_id": 5586240390, "name": null, "category": null, "address": "45, 9771 Berg im Drautal", "street": null, "housenumber": "45", "postcode": "9771", "place": "Berg im Drautal", "lat": 46.7396382, "lon": 13.1169301, "tags": {"addr:city": "Berg im Drautal", "addr:housenumber": "45", "addr:place": "Feistritz", "addr:postcode": "9771"}, "content": "Adresse: 45, 9771 Berg im Drautal\nOrt: Berg im Drautal\nPLZ: 9771\nKoordinaten: 46.739638, 13.116930", "doc_type": "addresses"}
{"source": "OSM", "region": "Kärnten", "osm_type": "node", "osm_id": 5586240391, "name": null, "category": null, "address": "15, 9771 Berg im Drautal", "street": null, "housenumber": "15", "postcode": "9771", "place": "Berg im Drautal", "lat": 46.738845, "lon": 13.1171367, "tags": {"addr:city": "Berg im Drautal", "addr:housenumber": "15", "addr:place": "Feistritz", "addr:postcode": "9771"}, "content": "Adresse: 15, 9771 Berg im Drautal\nOrt: Berg im Drautal\nPLZ: 9771\nKoordinaten: 46.738845, 13.117137", "doc_type": "addresses"}
{"source": "OSM", "region": "Kärnten", "osm_type": "node", "osm_id": 5586240392, "name": null, "category": null, "address": "31, 9771 Berg im Drautal", "street": null, "housenumber": "31", "postcode": "9771", "place": "Berg im Drautal", "lat": 46.7362301, "lon": 13.1201743, "tags": {"addr:city": "Berg im Drautal", "addr:housenumber": "31", "addr:place": "Feistritz", "addr:postcode": "9771"}, "content": "Adresse: 31, 9771 Berg im Drautal\nOrt: Berg im Drautal\nPLZ: 9771\nKoordinaten: 46.736230, 13.120174", "doc_type": "addresses"}
{"source": "OSM", "region": "Kärnten", "osm_type": "node", "osm_id": 5586240393, "name": null, "category": null, "address": "29, 9771 Berg im Drautal", "street": null, "housenumber": "29", "postcode": "9771", "place": "Berg im Drautal", "lat": 46.7357218, "lon": 13.1206785, "tags": {"addr:city": "Berg im Drautal", "addr:housenumber": "29", "addr:place": "Feistritz", "addr:postcode": "9771"}, "content": "Adresse: 29, 9771 Berg im Drautal\nOrt: Berg im Drautal\nPLZ: 9771\nKoordinaten: 46.735722, 13.120679", "doc_type": "addresses"}
{"source": "OSM", "region": "Kärnten", "osm_type": "node", "osm_id": 5586240394, "name": null, "category": null, "address": "42, 9771 Berg im Drautal", "street": null, "housenumber": "42", "postcode": "9771", "place": "Berg im Drautal", "lat": 46.7359415, "lon": 13.121455, "tags": {"addr:city": "Berg im Drautal", "addr:housenumber": "42", "addr:place": "Feistritz", "addr:postcode": "9771"}, "content": "Adresse: 42, 9771 Berg im Drautal\nOrt: Berg im Drautal\nPLZ: 9771\nKoordinaten: 46.735942, 13.121455", "doc_type": "addresses"}
{"source": "OSM", "region": "Kärnten", "osm_type": "node", "osm_id": 5586240395, "name": null, "category": null, "address": "12, 9771 Berg im Drautal", "street": null, "housenumber": "12", "postcode": "9771", "place": "Berg im Drautal", "lat": 46.7355141, "lon": 13.1211063, "tags": {"addr:city": "Berg im Drautal", "addr:housenumber": "12", "addr:place": "Feistritz", "addr:postcode": "9771"}, "content": "Adresse: 12, 9771 Berg im Drautal\nOrt: Berg im Drautal\nPLZ: 9771\nKoordinaten: 46.735514, 13.121106", "doc_type": "addresses"}
{"source": "OSM", "region": "Kärnten", "osm_type": "node", "osm_id": 5586240396, "name": null, "category": null, "address": "16, 9771 Berg im Drautal", "street": null, "housenumber": "16", "postcode": "9771", "place": "Berg im Drautal", "lat": 46.7355279, "lon": 13.1216012, "tags": {"addr:city": "Berg im Drautal", "addr:housenumber": "16", "addr:place": "Feistritz", "addr:postcode": "9771"}, "content": "Adresse: 16, 9771 Berg im Drautal\nOrt: Berg im Drautal\nPLZ: 9771\nKoordinaten: 46.735528, 13.121601", "doc_type": "addresses"}
{"source": "OSM", "region": "Kärnten", "osm_type": "node", "osm_id": 5586240397, "name": null, "category": null, "address": "21, 9771 Berg im Drautal", "street": null, "housenumber": "21", "postcode": "9771", "place": "Berg im Drautal", "lat": 46.7355573, "lon": 13.121911, "tags": {"addr:city": "Berg im Drautal", "addr:housenumber": "21", "addr:place": "Feistritz", "addr:postcode": "9771"}, "content": "Adresse: 21, 9771 Berg im Drautal\nOrt: Berg im Drautal\nPLZ: 9771\nKoordinaten: 46.735557, 13.121911", "doc_type": "addresses"}
{"source": "OSM", "region": "Kärnten", "osm_type": "node", "osm_id": 5586240398, "name": null, "category": null, "address": "24, 9771 Berg im Drautal", "street": null, "housenumber": "24", "postcode": "9771", "place": "Berg im Drautal", "lat": 46.7355812, "lon": 13.1222342, "tags": {"addr:city": "Berg im Drautal", "addr:housenumber": "24", "addr:place": "Feistritz", "addr:postcode": "9771"}, "content": "Adresse: 24, 9771 Berg im Drautal\nOrt: Berg im Drautal\nPLZ: 9771\nKoordinaten: 46.735581, 13.122234", "doc_type": "addresses"}
{"source": "OSM", "region": "Kärnten", "osm_type": "node", "osm_id": 5586240399, "name": null, "category": null, "address": "32, 9771 Berg im Drautal", "street": null, "housenumber": "32", "postcode": "9771", "place": "Berg im Drautal", "lat": 46.7355757, "lon": 13.1226231, "tags": {"addr:city": "Berg im Drautal", "addr:housenumber": "32", "addr:place": "Feistritz", "addr:postcode": "9771"}, "content": "Adresse: 32, 9771 Berg im Drautal\nOrt: Berg im Drautal\nPLZ: 9771\nKoordinaten: 46.735576, 13.122623", "doc_type": "addresses"}
{"source": "OSM", "region": "Kärnten", "osm_type": "node", "osm_id": 5586240400, "name": null, "category": null, "address": "25, 9771 Berg im Drautal", "street": null, "housenumber": "25", "postcode": "9771", "place": "Berg im Drautal", "lat": 46.7355996, "lon": 13.1228846, "tags": {"addr:city": "Berg im Drautal", "addr:housenumber": "25", "addr:place": "Feistritz", "addr:postcode": "9771"}, "content": "Adresse: 25, 9771 Berg im Drautal\nOrt: Berg im Drautal\nPLZ: 9771\nKoordinaten: 46.735600, 13.122885", "doc_type": "addresses"}
{"source": "OSM", "region": "Kärnten", "osm_type": "node", "osm_id": 5586240401, "name": null, "category": null, "address": "33, 9771 Berg im Drautal", "street": null, "housenumber": "33", "postcode": "9771", "place": "Berg im Drautal", "lat": 46.7355877, "lon": 13.1232655, "tags": {"addr:city": "Berg im Drautal", "addr:housenumber": "33", "addr:place": "Feistritz", "addr:postcode": "9771"}, "content": "Adresse: 33, 9771 Berg im Drautal\nOrt: Berg im Drautal\nPLZ: 9771\nKoordinaten: 46.735588, 13.123266", "doc_type": "addresses"}
{"source": "OSM", "region": "Kärnten", "osm_type": "node", "osm_id": 5586240402, "name": null, "category": null, "address": "40, 9771 Berg im Drautal", "street": null, "housenumber": "40", "postcode": "9771", "place": "Berg im Drautal", "lat": 46.7355365, "lon": 13.1236338, "tags": {"addr:city": "Berg im Drautal", "addr:housenumber": "40", "addr:place": "Feistritz", "addr:postcode": "9771"}, "content": "Adresse: 40, 9771 Berg im Drautal\nOrt: Berg im Drautal\nPLZ: 9771\nKoordinaten: 46.735537, 13.123634", "doc_type": "addresses"}
{"source": "OSM", "region": "Kärnten", "osm_type": "node", "osm_id": 5586240403, "name": null, "category": null, "address": "23, 9771 Berg im Drautal", "street": null, "housenumber": "23", "postcode": "9771", "place": "Berg im Drautal", "lat": 46.7353129, "lon": 13.1232411, "tags": {"addr:city": "Berg im Drautal", "addr:housenumber": "23", "addr:place": "Feistritz", "addr:postcode": "9771"}, "content": "Adresse: 23, 9771 Berg im Drautal\nOrt: Berg im Drautal\nPLZ: 9771\nKoordinaten: 46.735313, 13.123241", "doc_type": "addresses"}
{"source": "OSM", "region": "Kärnten", "osm_type": "node", "osm_id": 5586240404, "name": null, "category": null, "address": "22, 9771 Berg im Drautal", "street": null, "housenumber": "22", "postcode": "9771", "place": "Berg im Drautal", "lat": 46.7353091, "lon": 13.1229986, "tags": {"addr:city": "Berg im Drautal", "addr:housenumber": "22", "addr:place": "Feistritz", "addr:postcode": "9771"}, "content": "Adresse: 22, 9771 Berg im Drautal\nOrt: Berg im Drautal\nPLZ: 9771\nKoordinaten: 46.735309, 13.122999", "doc_type": "addresses"}
{"source": "OSM", "region": "Kärnten", "osm_type": "node", "osm_id": 5586240405, "name": null, "category": null, "address": "26, 9771 Berg im Drautal", "street": null, "housenumber": "26", "postcode": "9771", "place": "Berg im Drautal", "lat": 46.7353073, "lon": 13.1225011, "tags": {"addr:city": "Berg im Drautal", "addr:housenumber": "26", "addr:place": "Feistritz", "addr:postcode": "9771"}, "content": "Adresse: 26, 9771 Berg im Drautal\nOrt: Berg im Drautal\nPLZ: 9771\nKoordinaten: 46.735307, 13.122501", "doc_type": "addresses"}
{"source": "OSM", "region": "Kärnten", "osm_type": "node", "osm_id": 5586240406, "name": null, "category": null, "address": "28, 9771 Berg im Drautal", "street": null, "housenumber": "28", "postcode": "9771", "place": "Berg im Drautal", "lat": 46.7353202, "lon": 13.1223026, "tags": {"addr:city": "Berg im Drautal", "addr:housenumber": "28", "addr:place": "Feistritz", "addr:postcode": "9771"}, "content": "Adresse: 28, 9771 Berg im Drautal\nOrt: Berg im Drautal\nPLZ: 9771\nKoordinaten: 46.735320, 13.122303", "doc_type": "addresses"}
{"source": "OSM", "region": "Kärnten", "osm_type": "node", "osm_id": 5586240407, "name": null, "category": null, "address": "27, 9771 Berg im Drautal", "street": null, "housenumber": "27", "postcode": "9771", "place": "Berg im Drautal", "lat": 46.7351069, "lon": 13.1228136, "tags": {"addr:city": "Berg im Drautal", "addr:housenumber": "27", "addr:place": "Feistritz", "addr:postcode": "9771"}, "content": "Adresse: 27, 9771 Berg im Drautal\nOrt: Berg im Drautal\nPLZ: 9771\nKoordinaten: 46.735107, 13.122814", "doc_type": "addresses"}
{"source": "OSM", "region": "Kärnten", "osm_type": "node", "osm_id": 5586240408, "name": null, "category": null, "address": "20, 9771 Berg im Drautal", "street": null, "housenumber": "20", "postcode": "9771", "place": "Berg im Drautal", "lat": 46.7350858, "lon": 13.122308, "tags": {"addr:city": "Berg im Drautal", "addr:housenumber": "20", "addr:place": "Feistritz", "addr:postcode": "9771"}, "content": "Adresse: 20, 9771 Berg im Drautal\nOrt: Berg im Drautal\nPLZ: 9771\nKoordinaten: 46.735086, 13.122308", "doc_type": "addresses"}
{"source": "OSM", "region": "Kärnten", "osm_type": "node", "osm_id": 5586240409, "name": null, "category": null, "address": "51, 9771 Berg im Drautal", "street": null, "housenumber": "51", "postcode": "9771", "place": "Berg im Drautal", "lat": 46.7348624, "lon": 13.1225547, "tags": {"addr:city": "Berg im Drautal", "addr:housenumber": "51", "addr:place": "Feistritz", "addr:postcode": "9771"}, "content": "Adresse: 51, 9771 Berg im Drautal\nOrt: Berg im Drautal\nPLZ: 9771\nKoordinaten: 46.734862, 13.122555", "doc_type": "addresses"}
{"source": "OSM", "region": "Kärnten", "osm_type": "node", "osm_id": 5586240410, "name": null, "category": null, "address": "37, 9771 Berg im Drautal", "street": null, "housenumber": "37", "postcode": "9771", "place": "Berg im Drautal", "lat": 46.7350251, "lon": 13.1217018, "tags": {"addr:city": "Berg im Drautal", "addr:housenumber": "37", "addr:place": "Feistritz", "addr:postcode": "9771"}, "content": "Adresse: 37, 9771 Berg im Drautal\nOrt: Berg im Drautal\nPLZ: 9771\nKoordinaten: 46.735025, 13.121702", "doc_type": "addresses"}
{"source": "OSM", "region": "Kärnten", "osm_type": "node", "osm_id": 5586240411, "name": null, "category": null, "address": "9, 9771 Berg im Drautal", "street": null, "housenumber": "9", "postcode": "9771", "place": "Berg im Drautal", "lat": 46.7345752, "lon": 13.1218594, "tags": {"addr:city": "Berg im Drautal", "addr:housenumber": "9", "addr:place": "Feistritz", "addr:postcode": "9771"}, "content": "Adresse: 9, 9771 Berg im Drautal\nOrt: Berg im Drautal\nPLZ: 9771\nKoordinaten: 46.734575, 13.121859", "doc_type": "addresses"}
{"source": "OSM", "region": "Kärnten", "osm_type": "node", "osm_id": 5586240413, "name": null, "category": null, "address": "17, 9771 Berg im Drautal", "street": null, "housenumber": "17", "postcode": "9771", "place": "Berg im Drautal", "lat": 46.7349084, "lon": 13.12094, "tags": {"addr:city": "Berg im Drautal", "addr:housenumber": "17", "addr:place": "Feistritz", "addr:postcode": "9771"}, "content": "Adresse: 17, 9771 Berg im Drautal\nOrt: Berg im Drautal\nPLZ: 9771\nKoordinaten: 46.734908, 13.120940", "doc_type": "addresses"}
{"source": "OSM", "region": "Kärnten", "osm_type": "node", "osm_id": 5586240414, "name": null, "category": null, "address": "8, 9771 Berg im Drautal", "street": null, "housenumber": "8", "postcode": "9771", "place": "Berg im Drautal", "lat": 46.7339378, "lon": 13.1217286, "tags": {"addr:city": "Berg im Drautal", "addr:housenumber": "8", "addr:place": "Feistritz", "addr:postcode": "9771"}, "content": "Adresse: 8, 9771 Berg im Drautal\nOrt: Berg im Drautal\nPLZ: 9771\nKoordinaten: 46.733938, 13.121729", "doc_type": "addresses"}
{"source": "OSM", "region": "Kärnten", "osm_type": "node", "osm_id": 5586240415, "name": null, "category": null, "address": "10, 9771 Berg im Drautal", "street": null, "housenumber": "10", "postcode": "9771", "place": "Berg im Drautal", "lat": 46.7338863, "lon": 13.1221014, "tags": {"addr:city": "Berg im Drautal", "addr:housenumber": "10", "addr:place": "Feistritz", "addr:postcode": "9771"}, "content": "Adresse: 10, 9771 Berg im Drautal\nOrt: Berg im Drautal\nPLZ: 9771\nKoordinaten: 46.733886, 13.122101", "doc_type": "addresses"}
{"source": "OSM", "region": "Kärnten", "osm_type": "node", "osm_id": 5586240416, "name": null, "category": null, "address": "44, 9771 Berg im Drautal", "street": null, "housenumber": "44", "postcode": "9771", "place": "Berg im Drautal", "lat": 46.7336841, "lon": 13.1187245, "tags": {"addr:city": "Berg im Drautal", "addr:housenumber": "44", "addr:place": "Feistritz", "addr:postcode": "9771"}, "content": "Adresse: 44, 9771 Berg im Drautal\nOrt: Berg im Drautal\nPLZ: 9771\nKoordinaten: 46.733684, 13.118725", "doc_type": "addresses"}
{"source": "OSM", "region": "Kärnten", "osm_type": "node", "osm_id": 5586240417, "name": null, "category": null, "address": "35, 9771 Berg im Drautal", "street": null, "housenumber": "35", "postcode": "9771", "place": "Berg im Drautal", "lat": 46.7334635, "lon": 13.1192476, "tags": {"addr:city": "Berg im Drautal", "addr:housenumber": "35", "addr:place": "Feistritz", "addr:postcode": "9771"}, "content": "Adresse: 35, 9771 Berg im Drautal\nOrt: Berg im Drautal\nPLZ: 9771\nKoordinaten: 46.733463, 13.119248", "doc_type": "addresses"}
{"source": "OSM", "region": "Kärnten", "osm_type": "node", "osm_id": 5586240418, "name": null, "category": null, "address": "36, 9771 Berg im Drautal", "street": null, "housenumber": "36", "postcode": "9771", "place": "Berg im Drautal", "lat": 46.7332686, "lon": 13.1197411, "tags": {"addr:city": "Berg im Drautal", "addr:housenumber": "36", "addr:place": "Feistritz", "addr:postcode": "9771"}, "content": "Adresse: 36, 9771 Berg im Drautal\nOrt: Berg im Drautal\nPLZ: 9771\nKoordinaten: 46.733269, 13.119741", "doc_type": "addresses"}
{"source": "OSM", "region": "Kärnten", "osm_type": "node", "osm_id": 5586240419, "name": null, "category": null, "address": "7, 9771 Berg im Drautal", "street": null, "housenumber": "7", "postcode": "9771", "place": "Berg im Drautal", "lat": 46.7328311, "lon": 13.1207228, "tags": {"addr:city": "Berg im Drautal", "addr:housenumber": "7", "addr:place": "Feistritz", "addr:postcode": "9771"}, "content": "Adresse: 7, 9771 Berg im Drautal\nOrt: Berg im Drautal\nPLZ: 9771\nKoordinaten: 46.732831, 13.120723", "doc_type": "addresses"}
{"source": "OSM", "region": "Kärnten", "osm_type": "node", "osm_id": 5586240420, "name": null, "category": null, "address": "47, 9771 Berg im Drautal", "street": null, "housenumber": "47", "postcode": "9771", "place": "Berg im Drautal", "lat": 46.7323549, "lon": 13.1201997, "tags": {"addr:city": "Berg im Drautal", "addr:housenumber": "47", "addr:place": "Feistritz", "addr:postcode": "9771"}, "content": "Adresse: 47, 9771 Berg im Drautal\nOrt: Berg im Drautal\nPLZ: 9771\nKoordinaten: 46.732355, 13.120200", "doc_type": "addresses"}
{"source": "OSM", "region": "Kärnten", "osm_type": "node", "osm_id": 5586243921, "name": null, "category": null, "address": "6, 9771 Berg im Drautal", "street": null, "housenumber": "6", "postcode": "9771", "place": "Berg im Drautal", "lat": 46.7326693, "lon": 13.1197196, "tags": {"addr:city": "Berg im Drautal", "addr:housenumber": "6", "addr:place": "Feistritz", "addr:postcode": "9771"}, "content": "Adresse: 6, 9771 Berg im Drautal\nOrt: Berg im Drautal\nPLZ: 9771\nKoordinaten: 46.732669, 13.119720", "doc_type": "addresses"}
{"source": "OSM", "region": "Kärnten", "osm_type": "node", "osm_id": 5586243922, "name": null, "category": null, "address": "5, 9771 Berg im Drautal", "street": null, "housenumber": "5", "postcode": "9771", "place": "Berg im Drautal", "lat": 46.7333348, "lon": 13.118813, "tags": {"addr:city": "Berg im Drautal", "addr:housenumber": "5", "addr:place": "Feistritz", "addr:postcode": "9771"}, "content": "Adresse: 5, 9771 Berg im Drautal\nOrt: Berg im Drautal\nPLZ: 9771\nKoordinaten: 46.733335, 13.118813", "doc_type": "addresses"}
{"source": "OSM", "region": "Kärnten", "osm_type": "node", "osm_id": 5586243923, "name": null, "category": null, "address": "4, 9771 Berg im Drautal", "street": null, "housenumber": "4", "postcode": "9771", "place": "Berg im Drautal", "lat": 46.7329156, "lon": 13.1177563, "tags": {"addr:city": "Berg im Drautal", "addr:housenumber": "4", "addr:place": "Feistritz", "addr:postcode": "9771"}, "content": "Adresse: 4, 9771 Berg im Drautal\nOrt: Berg im Drautal\nPLZ: 9771\nKoordinaten: 46.732916, 13.117756", "doc_type": "addresses"}
{"source": "OSM", "region": "Kärnten", "osm_type": "node", "osm_id": 5586243924, "name": null, "category": null, "address": "57, 9771 Berg im Drautal", "street": null, "housenumber": "57", "postcode": "9771", "place": "Berg im Drautal", "lat": 46.7336896, "lon": 13.11818, "tags": {"addr:city": "Berg im Drautal", "addr:housenumber": "57", "addr:place": "Feistritz", "addr:postcode": "9771"}, "content": "Adresse: 57, 9771 Berg im Drautal\nOrt: Berg im Drautal\nPLZ: 9771\nKoordinaten: 46.733690, 13.118180", "doc_type": "addresses"}
{"source": "OSM", "region": "Kärnten", "osm_type": "node", "osm_id": 5586243925, "name": null, "category": null, "address": "3, 9771 Berg im Drautal", "street": null, "housenumber": "3", "postcode": "9771", "place": "Berg im Drautal", "lat": 46.7336767, "lon": 13.1178957, "tags": {"addr:city": "Berg im Drautal", "addr:housenumber": "3", "addr:place": "Feistritz", "addr:postcode": "9771"}, "content": "Adresse: 3, 9771 Berg im Drautal\nOrt: Berg im Drautal\nPLZ: 9771\nKoordinaten: 46.733677, 13.117896", "doc_type": "addresses"}
{"source": "OSM", "region": "Kärnten", "osm_type": "node", "osm_id": 5586243926, "name": null, "category": null, "address": "58, 9771 Berg im Drautal", "street": null, "housenumber": "58", "postcode": "9771", "place": "Berg im Drautal", "lat": 46.7339561, "lon": 13.1173566, "tags": {"addr:city": "Berg im Drautal", "addr:housenumber": "58", "addr:place": "Feistritz", "addr:postcode": "9771"}, "content": "Adresse: 58, 9771 Berg im Drautal\nOrt: Berg im Drautal\nPLZ: 9771\nKoordinaten: 46.733956, 13.117357", "doc_type": "addresses"}
{"source": "OSM", "region": "Kärnten", "osm_type": "node", "osm_id": 5586243927, "name": null, "category": null, "address": "39, 9771 Berg im Drautal", "street": null, "housenumber": "39", "postcode": "9771", "place": "Berg im Drautal", "lat": 46.733912, "lon": 13.1177562, "tags": {"addr:city": "Berg im Drautal", "addr:housenumber": "39", "addr:place": "Feistritz", "addr:postcode": "9771"}, "content": "Adresse: 39, 9771 Berg im Drautal\nOrt: Berg im Drautal\nPLZ: 9771\nKoordinaten: 46.733912, 13.117756", "doc_type": "addresses"}
{"source": "OSM", "region": "Kärnten", "osm_type": "node", "osm_id": 5586243928, "name": null, "category": null, "address": "2, 9771 Berg im Drautal", "street": null, "housenumber": "2", "postcode": "9771", "place": "Berg im Drautal", "lat": 46.7335738, "lon": 13.1173485, "tags": {"addr:city": "Berg im Drautal", "addr:housenumber": "2", "addr:place": "Feistritz", "addr:postcode": "9771"}, "content": "Adresse: 2, 9771 Berg im Drautal\nOrt: Berg im Drautal\nPLZ: 9771\nKoordinaten: 46.733574, 13.117349", "doc_type": "addresses"}
{"source": "OSM", "region": "Kärnten", "osm_type": "node", "osm_id": 5586243929, "name": null, "category": null, "address": "46, 9771 Berg im Drautal", "street": null, "housenumber": "46", "postcode": "9771", "place": "Berg im Drautal", "lat": 46.7335701, "lon": 13.1158465, "tags": {"addr:city": "Berg im Drautal", "addr:housenumber": "46", "addr:place": "Feistritz", "addr:postcode": "9771"}, "content": "Adresse: 46, 9771 Berg im Drautal\nOrt: Berg im Drautal\nPLZ: 9771\nKoordinaten: 46.733570, 13.115846", "doc_type": "addresses"}
{"source": "OSM", "region": "Kärnten", "osm_type": "node", "osm_id": 5586243930, "name": null, "category": null, "address": "52, 9771 Berg im Drautal", "street": null, "housenumber": "52", "postcode": "9771", "place": "Berg im Drautal", "lat": 46.7337764, "lon": 13.1157795, "tags": {"addr:city": "Berg im Drautal", "addr:housenumber": "52", "addr:place": "Feistritz", "addr:postcode": "9771"}, "content": "Adresse: 52, 9771 Berg im Drautal\nOrt: Berg im Drautal\nPLZ: 9771\nKoordinaten: 46.733776, 13.115780", "doc_type": "addresses"}
{"source": "OSM", "region": "Kärnten", "osm_type": "node", "osm_id": 5586243931, "name": null, "category": null, "address": "11, 9771 Berg im Drautal", "street": null, "housenumber": "11", "postcode": "9771", "place": "Berg im Drautal", "lat": 46.733935, "lon": 13.1144129, "tags": {"addr:city": "Berg im Drautal", "addr:housenumber": "11", "addr:place": "Feistritz", "addr:postcode": "9771"}, "content": "Adresse: 11, 9771 Berg im Drautal\nOrt: Berg im Drautal\nPLZ: 9771\nKoordinaten: 46.733935, 13.114413", "doc_type": "addresses"}
{"source": "OSM", "region": "Kärnten", "osm_type": "node", "osm_id": 5586243932, "name": null, "category": null, "address": "38, 9771 Berg im Drautal", "street": null, "housenumber": "38", "postcode": "9771", "place": "Berg im Drautal", "lat": 46.7336151, "lon": 13.114956, "tags": {"addr:city": "Berg im Drautal", "addr:housenumber": "38", "addr:place": "Feistritz", "addr:postcode": "9771"}, "content": "Adresse: 38, 9771 Berg im Drautal\nOrt: Berg im Drautal\nPLZ: 9771\nKoordinaten: 46.733615, 13.114956", "doc_type": "addresses"}
{"source": "OSM", "region": "Kärnten", "osm_type": "node", "osm_id": 5586243933, "name": null, "category": null, "address": "1, 9771 Berg im Drautal", "street": null, "housenumber": "1", "postcode": "9771", "place": "Berg im Drautal", "lat": 46.7333982, "lon": 13.1144424, "tags": {"addr:city": "Berg im Drautal", "addr:housenumber": "1", "addr:place": "Feistritz", "addr:postcode": "9771"}, "content": "Adresse: 1, 9771 Berg im Drautal\nOrt: Berg im Drautal\nPLZ: 9771\nKoordinaten: 46.733398, 13.114442", "doc_type": "addresses"}
{"source": "OSM", "region": "Kärnten", "osm_type": "node", "osm_id": 5586243934, "name": null, "category": null, "address": "49, 9771 Berg im Drautal", "street": null, "housenumber": "49", "postcode": "9771", "place": "Berg im Drautal", "lat": 46.7333458, "lon": 13.1136994, "tags": {"addr:city": "Berg im Drautal", "addr:housenumber": "49", "addr:place": "Feistritz", "addr:postcode": "9771"}, "content": "Adresse: 49, 9771 Berg im Drautal\nOrt: Berg im Drautal\nPLZ: 9771\nKoordinaten: 46.733346, 13.113699", "doc_type": "addresses"}
{"source": "OSM", "region": "Kärnten", "osm_type": "node", "osm_id": 5586243935, "name": null, "category": null, "address": "54, 9771 Berg im Drautal", "street": null, "housenumber": "54", "postcode": "9771", "place": "Berg im Drautal", "lat": 46.7330572, "lon": 13.1137718, "tags": {"addr:city": "Berg im Drautal", "addr:housenumber": "54", "addr:place": "Feistritz", "addr:postcode": "9771"}, "content": "Adresse: 54, 9771 Berg im Drautal\nOrt: Berg im Drautal\nPLZ: 9771\nKoordinaten: 46.733057, 13.113772", "doc_type": "addresses"}
{"source": "OSM", "region": "Kärnten", "osm_type": "node", "osm_id": 5586243938, "name": null, "category": null, "address": "56, 9771 Berg im Drautal", "street": null, "housenumber": "56", "postcode": "9771", "place": "Berg im Drautal", "lat": 46.7336271, "lon": 13.1262347, "tags": {"addr:city": "Berg im Drautal", "addr:housenumber": "56", "addr:place": "Feistritz", "addr:postcode": "9771"}, "content": "Adresse: 56, 9771 Berg im Drautal\nOrt: Berg im Drautal\nPLZ: 9771\nKoordinaten: 46.733627, 13.126235", "doc_type": "addresses"}
{"source": "OSM", "region": "Kärnten", "osm_type": "node", "osm_id": 5586243939, "name": null, "category": null, "address": "19, 9771 Berg im Drautal", "street": null, "housenumber": "19", "postcode": "9771", "place": "Berg im Drautal", "lat": 46.7319707, "lon": 13.1262213, "tags": {"addr:city": "Berg im Drautal", "addr:housenumber": "19", "addr:place": "Feistritz", "addr:postcode": "9771"}, "content": "Adresse: 19, 9771 Berg im Drautal\nOrt: Berg im Drautal\nPLZ: 9771\nKoordinaten: 46.731971, 13.126221", "doc_type": "addresses"}
{"source": "OSM", "region": "Kärnten", "osm_type": "node", "osm_id": 5586243940, "name": null, "category": null, "address": "55, 9771 Berg im Drautal", "street": null, "housenumber": "55", "postcode": "9771", "place": "Berg im Drautal", "lat": 46.7319688, "lon": 13.1257519, "tags": {"addr:city": "Berg im Drautal", "addr:housenumber": "55", "addr:place": "Feistritz", "addr:postcode": "9771"}, "content": "Adresse: 55, 9771 Berg im Drautal\nOrt: Berg im Drautal\nPLZ: 9771\nKoordinaten: 46.731969, 13.125752", "doc_type": "addresses"}
{"source": "OSM", "region": "Kärnten", "osm_type": "node", "osm_id": 5586338582, "name": null, "category": null, "address": "200, 9771 Berg im Drautal", "street": null, "housenumber": "200", "postcode": "9771", "place": "Berg im Drautal", "lat": 46.745871, "lon": 13.1318593, "tags": {"addr:city": "Berg im Drautal", "addr:housenumber": "200", "addr:place": "Berg", "addr:postcode": "9771"}, "content": "Adresse: 200, 9771 Berg im Drautal\nOrt: Berg im Drautal\nPLZ: 9771\nKoordinaten: 46.745871, 13.131859", "doc_type": "addresses"}
{"source": "OSM", "region": "Kärnten", "osm_type": "node", "osm_id": 5586338583, "name": null, "category": null, "address": "16, 9771 Berg im Drautal", "street": null, "housenumber": "16", "postcode": "9771", "place": "Berg im Drautal", "lat": 46.7471704, "lon": 13.1327149, "tags": {"addr:city": "Berg im Drautal", "addr:housenumber": "16", "addr:place": "Berg", "addr:postcode": "9771"}, "content": "Adresse: 16, 9771 Berg im Drautal\nOrt: Berg im Drautal\nPLZ: 9771\nKoordinaten: 46.747170, 13.132715", "doc_type": "addresses"}
{"source": "OSM", "region": "Kärnten", "osm_type": "node", "osm_id": 5586338584, "name": null, "category": null, "address": "14, 9771 Berg im Drautal", "street": null, "housenumber": "14", "postcode": "9771", "place": "Berg im Drautal", "lat": 46.7471153, "lon": 13.1341445, "tags": {"addr:city": "Berg im Drautal", "addr:housenumber": "14", "addr:place": "Berg", "addr:postcode": "9771"}, "content": "Adresse: 14, 9771 Berg im Drautal\nOrt: Berg im Drautal\nPLZ: 9771\nKoordinaten: 46.747115, 13.134144", "doc_type": "addresses"}
{"source": "OSM", "region": "Kärnten", "osm_type": "node", "osm_id": 5586338585, "name": "Unterwaditzer", "category": "craft:carpenter", "address": "95, 9771 Berg im Drautal", "street": null, "housenumber": "95", "postcode": "9771", "place": "Berg im Drautal", "lat": 46.7465933, "lon": 13.1335786, "tags": {"addr:city": "Berg im Drautal", "addr:housenumber": "95", "addr:place": "Berg", "addr:postcode": "9771", "craft": "carpenter", "name": "Unterwaditzer"}, "content": "Unterwaditzer\nKategorie: craft:carpenter\nAdresse: 95, 9771 Berg im Drautal\nOrt: Berg im Drautal\nPLZ: 9771\nKoordinaten: 46.746593, 13.133579", "doc_type": "addresses"}
{"source": "OSM", "region": "Kärnten", "osm_type": "node", "osm_id": 5586338586, "name": null, "category": null, "address": "196, 9771 Berg im Drautal", "street": null, "housenumber": "196", "postcode": "9771", "place": "Berg im Drautal", "lat": 46.7464426, "lon": 13.1341231, "tags": {"addr:city": "Berg im Drautal", "addr:housenumber": "196", "addr:place": "Berg", "addr:postcode": "9771"}, "content": "Adresse: 196, 9771 Berg im Drautal\nOrt: Berg im Drautal\nPLZ: 9771\nKoordinaten: 46.746443, 13.134123", "doc_type": "addresses"}
{"source": "OSM", "region": "Kärnten", "osm_type": "node", "osm_id": 5586338588, "name": null, "category": null, "address": "222, 9771 Berg im Drautal", "street": null, "housenumber": "222", "postcode": "9771", "place": "Berg im Drautal", "lat": 46.746903, "lon": 13.1320631, "tags": {"addr:city": "Berg im Drautal", "addr:housenumber": "222", "addr:place": "Berg", "addr:postcode": "9771"}, "content": "Adresse: 222, 9771 Berg im Drautal\nOrt: Berg im Drautal\nPLZ: 9771\nKoordinaten: 46.746903, 13.132063", "doc_type": "addresses"}
{"source": "OSM", "region": "Kärnten", "osm_type": "node", "osm_id": 5586338589, "name": null, "category": null, "address": "153, 9771 Berg im Drautal", "street": null, "housenumber": "153", "postcode": "9771", "place": "Berg im Drautal", "lat": 46.7465878, "lon": 13.1322375, "tags": {"addr:city": "Berg im Drautal", "addr:housenumber": "153", "addr:place": "Berg", "addr:postcode": "9771"}, "content": "Adresse: 153, 9771 Berg im Drautal\nOrt: Berg im Drautal\nPLZ: 9771\nKoordinaten: 46.746588, 13.132238", "doc_type": "addresses"}
{"source": "OSM", "region": "Kärnten", "osm_type": "node", "osm_id": 5586338590, "name": null, "category": null, "address": "108, 9771 Berg im Drautal", "street": null, "housenumber": "108", "postcode": "9771", "place": "Berg im Drautal", "lat": 46.7464794, "lon": 13.1312183, "tags": {"addr:city": "Berg im Drautal", "addr:housenumber": "108", "addr:place": "Berg", "addr:postcode": "9771"}, "content": "Adresse: 108, 9771 Berg im Drautal\nOrt: Berg im Drautal\nPLZ: 9771\nKoordinaten: 46.746479, 13.131218", "doc_type": "addresses"}
{"source": "OSM", "region": "Kärnten", "osm_type": "node", "osm_id": 5586338591, "name": null, "category": null, "address": "107, 9771 Berg im Drautal", "street": null, "housenumber": "107", "postcode": "9771", "place": "Berg im Drautal", "lat": 46.7463636, "lon": 13.1315361, "tags": {"addr:city": "Berg im Drautal", "addr:housenumber": "107", "addr:place": "Berg", "addr:postcode": "9771"}, "content": "Adresse: 107, 9771 Berg im Drautal\nOrt: Berg im Drautal\nPLZ: 9771\nKoordinaten: 46.746364, 13.131536", "doc_type": "addresses"}
{"source": "OSM", "region": "Kärnten", "osm_type": "node", "osm_id": 5586338592, "name": null, "category": null, "address": "137, 9771 Berg im Drautal", "street": null, "housenumber": "137", "postcode": "9771", "place": "Berg im Drautal", "lat": 46.7463921, "lon": 13.1306805, "tags": {"addr:city": "Berg im Drautal", "addr:housenumber": "137", "addr:place": "Berg", "addr:postcode": "9771"}, "content": "Adresse: 137, 9771 Berg im Drautal\nOrt: Berg im Drautal\nPLZ: 9771\nKoordinaten: 46.746392, 13.130681", "doc_type": "addresses"}
{"source": "OSM", "region": "Kärnten", "osm_type": "node", "osm_id": 5586338593, "name": null, "category": null, "address": "2, 9771 Berg im Drautal", "street": null, "housenumber": "2", "postcode": "9771", "place": "Berg im Drautal", "lat": 46.7496387, "lon": 13.1299576, "tags": {"addr:city": "Berg im Drautal", "addr:housenumber": "2", "addr:place": "Schlußnig", "addr:postcode": "9771"}, "content": "Adresse: 2, 9771 Berg im Drautal\nOrt: Berg im Drautal\nPLZ: 9771\nKoordinaten: 46.749639, 13.129958", "doc_type": "addresses"}
{"source": "OSM", "region": "Kärnten", "osm_type": "node", "osm_id": 5586338594, "name": null, "category": null, "address": "4, 9771 Berg im Drautal", "street": null, "housenumber": "4", "postcode": "9771", "place": "Berg im Drautal", "lat": 46.7492876, "lon": 13.1306577, "tags": {"addr:city": "Berg im Drautal", "addr:housenumber": "4", "addr:place": "Schlußnig", "addr:postcode": "9771"}, "content": "Adresse: 4, 9771 Berg im Drautal\nOrt: Berg im Drautal\nPLZ: 9771\nKoordinaten: 46.749288, 13.130658", "doc_type": "addresses"}
{"source": "OSM", "region": "Kärnten", "osm_type": "node", "osm_id": 5586338595, "name": null, "category": null, "address": "5, 9771 Berg im Drautal", "street": null, "housenumber": "5", "postcode": "9771", "place": "Berg im Drautal", "lat": 46.7500026, "lon": 13.1323609, "tags": {"addr:city": "Berg im Drautal", "addr:housenumber": "5", "addr:place": "Schlußnig", "addr:postcode": "9771"}, "content": "Adresse: 5, 9771 Berg im Drautal\nOrt: Berg im Drautal\nPLZ: 9771\nKoordinaten: 46.750003, 13.132361", "doc_type": "addresses"}
{"source": "OSM", "region": "Kärnten", "osm_type": "node", "osm_id": 5586338596, "name": null, "category": null, "address": "9, 9771 Berg im Drautal", "street": null, "housenumber": "9", "postcode": "9771", "place": "Berg im Drautal", "lat": 46.7503095, "lon": 13.130537, "tags": {"addr:city": "Berg im Drautal", "addr:housenumber": "9", "addr:place": "Schlußnig", "addr:postcode": "9771"}, "content": "Adresse: 9, 9771 Berg im Drautal\nOrt: Berg im Drautal\nPLZ: 9771\nKoordinaten: 46.750310, 13.130537", "doc_type": "addresses"}
{"source": "OSM", "region": "Kärnten", "osm_type": "node", "osm_id": 5586338597, "name": null, "category": null, "address": "11, 9771 Berg im Drautal", "street": null, "housenumber": "11", "postcode": "9771", "place": "Berg im Drautal", "lat": 46.7503407, "lon": 13.1301829, "tags": {"addr:city": "Berg im Drautal", "addr:housenumber": "11", "addr:place": "Schlußnig", "addr:postcode": "9771"}, "content": "Adresse: 11, 9771 Berg im Drautal\nOrt: Berg im Drautal\nPLZ: 9771\nKoordinaten: 46.750341, 13.130183", "doc_type": "addresses"}
{"source": "OSM", "region": "Kärnten", "osm_type": "node", "osm_id": 5586338598, "name": null, "category": null, "address": "7, 9771 Berg im Drautal", "street": null, "housenumber": "7", "postcode": "9771", "place": "Berg im Drautal", "lat": 46.7503334, "lon": 13.1292576, "tags": {"addr:city": "Berg im Drautal", "addr:housenumber": "7", "addr:place": "Schlußnig", "addr:postcode": "9771"}, "content": "Adresse: 7, 9771 Berg im Drautal\nOrt: Berg im Drautal\nPLZ: 9771\nKoordinaten: 46.750333, 13.129258", "doc_type": "addresses"}
{"source": "OSM", "region": "Kärnten", "osm_type": "node", "osm_id": 5586338599, "name": null, "category": null, "address": "10, 9771 Berg im Drautal", "street": null, "housenumber": "10", "postcode": "9771", "place": "Berg im Drautal", "lat": 46.7503021, "lon": 13.1296384, "tags": {"addr:city": "Berg im Drautal", "addr:housenumber": "10", "addr:place": "Schlußnig", "addr:postcode": "9771"}, "content": "Adresse: 10, 9771 Berg im Drautal\nOrt: Berg im Drautal\nPLZ: 9771\nKoordinaten: 46.750302, 13.129638", "doc_type": "addresses"}
{"source": "OSM", "region": "Kärnten", "osm_type": "node", "osm_id": 5586338600, "name": null, "category": null, "address": "8, 9771 Berg im Drautal", "street": null, "housenumber": "8", "postcode": "9771", "place": "Berg im Drautal", "lat": 46.7501827, "lon": 13.1283939, "tags": {"addr:city": "Berg im Drautal", "addr:housenumber": "8", "addr:place": "Schlußnig", "addr:postcode": "9771"}, "content": "Adresse: 8, 9771 Berg im Drautal\nOrt: Berg im Drautal\nPLZ: 9771\nKoordinaten: 46.750183, 13.128394", "doc_type": "addresses"}
{"source": "OSM", "region": "Kärnten", "osm_type": "node", "osm_id": 5586338601, "name": null, "category": null, "address": "6, 9771 Berg im Drautal", "street": null, "housenumber": "6", "postcode": "9771", "place": "Berg im Drautal", "lat": 46.7506531, "lon": 13.1282142, "tags": {"addr:city": "Berg im Drautal", "addr:housenumber": "6", "addr:place": "Schlußnig", "addr:postcode": "9771"}, "content": "Adresse: 6, 9771 Berg im Drautal\nOrt: Berg im Drautal\nPLZ: 9771\nKoordinaten: 46.750653, 13.128214", "doc_type": "addresses"}
{"source": "OSM", "region": "Kärnten", "osm_type": "node", "osm_id": 5586338602, "name": null, "category": null, "address": "1, 9771 Berg im Drautal", "street": null, "housenumber": "1", "postcode": "9771", "place": "Berg im Drautal", "lat": 46.7505925, "lon": 13.1279191, "tags": {"addr:city": "Berg im Drautal", "addr:housenumber": "1", "addr:place": "Schlußnig", "addr:postcode": "9771"}, "content": "Adresse: 1, 9771 Berg im Drautal\nOrt: Berg im Drautal\nPLZ: 9771\nKoordinaten: 46.750593, 13.127919", "doc_type": "addresses"}
{"source": "OSM", "region": "Kärnten", "osm_type": "node", "osm_id": 5586338603, "name": null, "category": null, "address": "3, 9771 Berg im Drautal", "street": null, "housenumber": "3", "postcode": "9771", "place": "Berg im Drautal", "lat": 46.7490533, "lon": 13.1284247, "tags": {"addr:city": "Berg im Drautal", "addr:housenumber": "3", "addr:place": "Schlußnig", "addr:postcode": "9771"}, "content": "Adresse: 3, 9771 Berg im Drautal\nOrt: Berg im Drautal\nPLZ: 9771\nKoordinaten: 46.749053, 13.128425", "doc_type": "addresses"}
{"source": "OSM", "region": "Kärnten", "osm_type": "node", "osm_id": 5586339036, "name": null, "category": null, "address": "20, 9771 Berg im Drautal", "street": null, "housenumber": "20", "postcode": "9771", "place": "Berg im Drautal", "lat": 46.7439751, "lon": 13.116454, "tags": {"addr:city": "Berg im Drautal", "addr:housenumber": "20", "addr:place": "Frallach", "addr:postcode": "9771"}, "content": "Adresse: 20, 9771 Berg im Drautal\nOrt: Berg im Drautal\nPLZ: 9771\nKoordinaten: 46.743975, 13.116454", "doc_type": "addresses"}
{"source": "OSM", "region": "Kärnten", "osm_type": "node", "osm_id": 5586339037, "name": null, "category": null, "address": "14, 9771 Berg im Drautal", "street": null, "housenumber": "14", "postcode": "9771", "place": "Berg im Drautal", "lat": 46.7437353, "lon": 13.1161201, "tags": {"addr:city": "Berg im Drautal", "addr:housenumber": "14", "addr:place": "Frallach", "addr:postcode": "9771"}, "content": "Adresse: 14, 9771 Berg im Drautal\nOrt: Berg im Drautal\nPLZ: 9771\nKoordinaten: 46.743735, 13.116120", "doc_type": "addresses"}
{"source": "OSM", "region": "Kärnten", "osm_type": "node", "osm_id": 5586339038, "name": null, "category": null, "address": "11, 9771 Berg im Drautal", "street": null, "housenumber": "11", "postcode": "9771", "place": "Berg im Drautal", "lat": 46.7437059, "lon": 13.115015, "tags": {"addr:city": "Berg im Drautal", "addr:housenumber": "11", "addr:place": "Frallach", "addr:postcode": "9771"}, "content": "Adresse: 11, 9771 Berg im Drautal\nOrt: Berg im Drautal\nPLZ: 9771\nKoordinaten: 46.743706, 13.115015", "doc_type": "addresses"}
{"source": "OSM", "region": "Kärnten", "osm_type": "node", "osm_id": 5586339039, "name": null, "category": null, "address": "16, 9771 Berg im Drautal", "street": null, "housenumber": "16", "postcode": "9771", "place": "Berg im Drautal", "lat": 46.7437261, "lon": 13.1137919, "tags": {"addr:city": "Berg im Drautal", "addr:housenumber": "16", "addr:place": "Frallach", "addr:postcode": "9771"}, "content": "Adresse: 16, 9771 Berg im Drautal\nOrt: Berg im Drautal\nPLZ: 9771\nKoordinaten: 46.743726, 13.113792", "doc_type": "addresses"}
{"source": "OSM", "region": "Kärnten", "osm_type": "node", "osm_id": 5586339040, "name": null, "category": null, "address": "23, 9771 Berg im Drautal", "street": null, "housenumber": "23", "postcode": "9771", "place": "Berg im Drautal", "lat": 46.7445918, "lon": 13.1132635, "tags": {"addr:city": "Berg im Drautal", "addr:housenumber": "23", "addr:place": "Frallach", "addr:postcode": "9771"}, "content": "Adresse: 23, 9771 Berg im Drautal\nOrt: Berg im Drautal\nPLZ: 9771\nKoordinaten: 46.744592, 13.113264", "doc_type": "addresses"}
{"source": "OSM", "region": "Kärnten", "osm_type": "node", "osm_id": 5586339041, "name": null, "category": null, "address": "18, 9771 Berg im Drautal", "street": null, "housenumber": "18", "postcode": "9771", "place": "Berg im Drautal", "lat": 46.7443133, "lon": 13.107246, "tags": {"addr:city": "Berg im Drautal", "addr:housenumber": "18", "addr:place": "Frallach", "addr:postcode": "9771"}, "content": "Adresse: 18, 9771 Berg im Drautal\nOrt: Berg im Drautal\nPLZ: 9771\nKoordinaten: 46.744313, 13.107246", "doc_type": "addresses"}
{"source": "OSM", "region": "Kärnten", "osm_type": "node", "osm_id": 5586339042, "name": null, "category": null, "address": "9, 9771 Berg im Drautal", "street": null, "housenumber": "9", "postcode": "9771", "place": "Berg im Drautal", "lat": 46.7440082, "lon": 13.1072983, "tags": {"addr:city": "Berg im Drautal", "addr:housenumber": "9", "addr:place": "Frallach", "addr:postcode": "9771"}, "content": "Adresse: 9, 9771 Berg im Drautal\nOrt: Berg im Drautal\nPLZ: 9771\nKoordinaten: 46.744008, 13.107298", "doc_type": "addresses"}
{"source": "OSM", "region": "Kärnten", "osm_type": "node", "osm_id": 5586339061, "name": null, "category": null, "address": "29, 9771 Berg im Drautal", "street": null, "housenumber": "29", "postcode": "9771", "place": "Berg im Drautal", "lat": 46.7475251, "lon": 13.1140119, "tags": {"addr:city": "Berg im Drautal", "addr:housenumber": "29", "addr:place": "Frallach", "addr:postcode": "9771"}, "content": "Adresse: 29, 9771 Berg im Drautal\nOrt: Berg im Drautal\nPLZ: 9771\nKoordinaten: 46.747525, 13.114012", "doc_type": "addresses"}
{"source": "OSM", "region": "Kärnten", "osm_type": "node", "osm_id": 5586339062, "name": null, "category": null, "address": "25, 9771 Berg im Drautal", "street": null, "housenumber": "25", "postcode": "9771", "place": "Berg im Drautal", "lat": 46.747527, "lon": 13.1136149, "tags": {"addr:city": "Berg im Drautal", "addr:housenumber": "25", "addr:place": "Frallach", "addr:postcode": "9771"}, "content": "Adresse: 25, 9771 Berg im Drautal\nOrt: Berg im Drautal\nPLZ: 9771\nKoordinaten: 46.747527, 13.113615", "doc_type": "addresses"}
{"source": "OSM", "region": "Kärnten", "osm_type": "node", "osm_id": 5586339063, "name": null, "category": null, "address": "24, 9771 Berg im Drautal", "street": null, "housenumber": "24", "postcode": "9771", "place": "Berg im Drautal", "lat": 46.7477971, "lon": 13.1136042, "tags": {"addr:city": "Berg im Drautal", "addr:housenumber": "24", "addr:place": "Frallach", "addr:postcode": "9771"}, "content": "Adresse: 24, 9771 Berg im Drautal\nOrt: Berg im Drautal\nPLZ: 9771\nKoordinaten: 46.747797, 13.113604", "doc_type": "addresses"}
{"source": "OSM", "region": "Kärnten", "osm_type": "node", "osm_id": 5586339064, "name": null, "category": null, "address": "21, 9771 Berg im Drautal", "street": null, "housenumber": "21", "postcode": "9771", "place": "Berg im Drautal", "lat": 46.747799, "lon": 13.1132206, "tags": {"addr:city": "Berg im Drautal", "addr:housenumber": "21", "addr:place": "Frallach", "addr:postcode": "9771"}, "content": "Adresse: 21, 9771 Berg im Drautal\nOrt: Berg im Drautal\nPLZ: 9771\nKoordinaten: 46.747799, 13.113221", "doc_type": "addresses"}
{"source": "OSM", "region": "Kärnten", "osm_type": "node", "osm_id": 5586339065, "name": null, "category": null, "address": "26, 9771 Berg im Drautal", "street": null, "housenumber": "26", "postcode": "9771", "place": "Berg im Drautal", "lat": 46.7477512, "lon": 13.1127995, "tags": {"addr:city": "Berg im Drautal", "addr:housenumber": "26", "addr:place": "Frallach", "addr:postcode": "9771"}, "content": "Adresse: 26, 9771 Berg im Drautal\nOrt: Berg im Drautal\nPLZ: 9771\nKoordinaten: 46.747751, 13.112799", "doc_type": "addresses"}
{"source": "OSM", "region": "Kärnten", "osm_type": "node", "osm_id": 5586339066, "name": null, "category": null, "address": "27, 9771 Berg im Drautal", "street": null, "housenumber": "27", "postcode": "9771", "place": "Berg im Drautal", "lat": 46.7470804, "lon": 13.1123757, "tags": {"addr:city": "Berg im Drautal", "addr:housenumber": "27", "addr:place": "Frallach", "addr:postcode": "9771"}, "content": "Adresse: 27, 9771 Berg im Drautal\nOrt: Berg im Drautal\nPLZ: 9771\nKoordinaten: 46.747080, 13.112376", "doc_type": "addresses"}
{"source": "OSM", "region": "Kärnten", "osm_type": "node", "osm_id": 5586339067, "name": null, "category": null, "address": "33, 9771 Berg im Drautal", "street": null, "housenumber": "33", "postcode": "9771", "place": "Berg im Drautal", "lat": 46.7472274, "lon": 13.1118071, "tags": {"addr:city": "Berg im Drautal", "addr:housenumber": "33", "addr:place": "Frallach", "addr:postcode": "9771"}, "content": "Adresse: 33, 9771 Berg im Drautal\nOrt: Berg im Drautal\nPLZ: 9771\nKoordinaten: 46.747227, 13.111807", "doc_type": "addresses"}
{"source": "OSM", "region": "Kärnten", "osm_type": "node", "osm_id": 5586339068, "name": null, "category": null, "address": "30, 9771 Berg im Drautal", "street": null, "housenumber": "30", "postcode": "9771", "place": "Berg im Drautal", "lat": 46.7470693, "lon": 13.1118178, "tags": {"addr:city": "Berg im Drautal", "addr:housenumber": "30", "addr:place": "Frallach", "addr:postcode": "9771"}, "content": "Adresse: 30, 9771 Berg im Drautal\nOrt: Berg im Drautal\nPLZ: 9771\nKoordinaten: 46.747069, 13.111818", "doc_type": "addresses"}
{"source": "OSM", "region": "Kärnten", "osm_type": "node", "osm_id": 5586339069, "name": null, "category": null, "address": "31, 9771 Berg im Drautal", "street": null, "housenumber": "31", "postcode": "9771", "place": "Berg im Drautal", "lat": 46.7470583, "lon": 13.1114557, "tags": {"addr:city": "Berg im Drautal", "addr:housenumber": "31", "addr:place": "Frallach", "addr:postcode": "9771"}, "content": "Adresse: 31, 9771 Berg im Drautal\nOrt: Berg im Drautal\nPLZ: 9771\nKoordinaten: 46.747058, 13.111456", "doc_type": "addresses"}
{"source": "OSM", "region": "Kärnten", "osm_type": "node", "osm_id": 5586339070, "name": null, "category": null, "address": "2, 9771 Berg im Drautal", "street": null, "housenumber": "2", "postcode": "9771", "place": "Berg im Drautal", "lat": 46.7474479, "lon": 13.1111097, "tags": {"addr:city": "Berg im Drautal", "addr:housenumber": "2", "addr:place": "Frallach", "addr:postcode": "9771"}, "content": "Adresse: 2, 9771 Berg im Drautal\nOrt: Berg im Drautal\nPLZ: 9771\nKoordinaten: 46.747448, 13.111110", "doc_type": "addresses"}
{"source": "OSM", "region": "Kärnten", "osm_type": "node", "osm_id": 5586339071, "name": null, "category": null, "address": "3, 9771 Berg im Drautal", "street": null, "housenumber": "3", "postcode": "9771", "place": "Berg im Drautal", "lat": 46.7478743, "lon": 13.1108281, "tags": {"addr:city": "Berg im Drautal", "addr:housenumber": "3", "addr:place": "Frallach", "addr:postcode": "9771"}, "content": "Adresse: 3, 9771 Berg im Drautal\nOrt: Berg im Drautal\nPLZ: 9771\nKoordinaten: 46.747874, 13.110828", "doc_type": "addresses"}
{"source": "OSM", "region": "Kärnten", "osm_type": "node", "osm_id": 5586339072, "name": null, "category": null, "address": "28, 9771 Berg im Drautal", "street": null, "housenumber": "28", "postcode": "9771", "place": "Berg im Drautal", "lat": 46.7478229, "lon": 13.1105384, "tags": {"addr:city": "Berg im Drautal", "addr:housenumber": "28", "addr:place": "Frallach", "addr:postcode": "9771"}, "content": "Adresse: 28, 9771 Berg im Drautal\nOrt: Berg im Drautal\nPLZ: 9771\nKoordinaten: 46.747823, 13.110538", "doc_type": "addresses"}
{"source": "OSM", "region": "Kärnten", "osm_type": "node", "osm_id": 5586339073, "name": null, "category": null, "address": "6, 9771 Berg im Drautal", "street": null, "housenumber": "6", "postcode": "9771", "place": "Berg im Drautal", "lat": 46.747255, "lon": 13.110297, "tags": {"addr:city": "Berg im Drautal", "addr:housenumber": "6", "addr:place": "Frallach", "addr:postcode": "9771"}, "content": "Adresse: 6, 9771 Berg im Drautal\nOrt: Berg im Drautal\nPLZ: 9771\nKoordinaten: 46.747255, 13.110297", "doc_type": "addresses"}
{"source": "OSM", "region": "Kärnten", "osm_type": "node", "osm_id": 5586339074, "name": null, "category": null, "address": "22, 9771 Berg im Drautal", "street": null, "housenumber": "22", "postcode": "9771", "place": "Berg im Drautal", "lat": 46.7473046, "lon": 13.1093395, "tags": {"addr:city": "Berg im Drautal", "addr:housenumber": "22", "addr:place": "Frallach", "addr:postcode": "9771"}, "content": "Adresse: 22, 9771 Berg im Drautal\nOrt: Berg im Drautal\nPLZ: 9771\nKoordinaten: 46.747305, 13.109340", "doc_type": "addresses"}
{"source": "OSM", "region": "Kärnten", "osm_type": "node", "osm_id": 5586339075, "name": null, "category": null, "address": "32, 9771 Berg im Drautal", "street": null, "housenumber": "32", "postcode": "9771", "place": "Berg im Drautal", "lat": 46.7470087, "lon": 13.1101978, "tags": {"addr:city": "Berg im Drautal", "addr:housenumber": "32", "addr:place": "Frallach", "addr:postcode": "9771"}, "content": "Adresse: 32, 9771 Berg im Drautal\nOrt: Berg im Drautal\nPLZ: 9771\nKoordinaten: 46.747009, 13.110198", "doc_type": "addresses"}
{"source": "OSM", "region": "Kärnten", "osm_type": "node", "osm_id": 5586339077, "name": null, "category": null, "address": "13, 9771 Berg im Drautal", "street": null, "housenumber": "13", "postcode": "9771", "place": "Berg im Drautal", "lat": 46.745928, "lon": 13.1095299, "tags": {"addr:city": "Berg im Drautal", "addr:housenumber": "13", "addr:place": "Frallach", "addr:postcode": "9771"}, "content": "Adresse: 13, 9771 Berg im Drautal\nOrt: Berg im Drautal\nPLZ: 9771\nKoordinaten: 46.745928, 13.109530", "doc_type": "addresses"}
{"source": "OSM", "region": "Kärnten", "osm_type": "node", "osm_id": 5586339080, "name": null, "category": null, "address": "19a, 9771 Berg im Drautal", "street": null, "housenumber": "19a", "postcode": "9771", "place": "Berg im Drautal", "lat": 46.7441043, "lon": 13.1077201, "tags": {"addr:city": "Berg im Drautal", "addr:housenumber": "19a", "addr:place": "Frallach", "addr:postcode": "9771"}, "content": "Adresse: 19a, 9771 Berg im Drautal\nOrt: Berg im Drautal\nPLZ: 9771\nKoordinaten: 46.744104, 13.107720", "doc_type": "addresses"}
{"source": "OSM", "region": "Kärnten", "osm_type": "node", "osm_id": 5586339081, "name": null, "category": null, "address": "19, 9771 Berg im Drautal", "street": null, "housenumber": "19", "postcode": "9771", "place": "Berg im Drautal", "lat": 46.7440611, "lon": 13.1075927, "tags": {"addr:city": "Berg im Drautal", "addr:housenumber": "19", "addr:place": "Frallach", "addr:postcode": "9771"}, "content": "Adresse: 19, 9771 Berg im Drautal\nOrt: Berg im Drautal\nPLZ: 9771\nKoordinaten: 46.744061, 13.107593", "doc_type": "addresses"}
{"source": "OSM", "region": "Kärnten", "osm_type": "node", "osm_id": 5586339082, "name": null, "category": null, "address": "5, 9771 Berg im Drautal", "street": null, "housenumber": "5", "postcode": "9771", "place": "Berg im Drautal", "lat": 46.7434403, "lon": 13.1073506, "tags": {"addr:city": "Berg im Drautal", "addr:housenumber": "5", "addr:place": "Frallach", "addr:postcode": "9771"}, "content": "Adresse: 5, 9771 Berg im Drautal\nOrt: Berg im Drautal\nPLZ: 9771\nKoordinaten: 46.743440, 13.107351", "doc_type": "addresses"}
{"source": "OSM", "region": "Kärnten", "osm_type": "node", "osm_id": 5586339083, "name": null, "category": null, "address": "17, 9771 Berg im Drautal", "street": null, "housenumber": "17", "postcode": "9771", "place": "Berg im Drautal", "lat": 46.7438382, "lon": 13.1073332, "tags": {"addr:city": "Berg im Drautal", "addr:housenumber": "17", "addr:place": "Frallach", "addr:postcode": "9771"}, "content": "Adresse: 17, 9771 Berg im Drautal\nOrt: Berg im Drautal\nPLZ: 9771\nKoordinaten: 46.743838, 13.107333", "doc_type": "addresses"}
{"source": "OSM", "region": "Kärnten", "osm_type": "node", "osm_id": 5586339084, "name": null, "category": null, "address": "17a, 9771 Berg im Drautal", "street": null, "housenumber": "17a", "postcode": "9771", "place": "Berg im Drautal", "lat": 46.7438143, "lon": 13.1070864, "tags": {"addr:city": "Berg im Drautal", "addr:housenumber": "17a", "addr:place": "Frallach", "addr:postcode": "9771"}, "content": "Adresse: 17a, 9771 Berg im Drautal\nOrt: Berg im Drautal\nPLZ: 9771\nKoordinaten: 46.743814, 13.107086", "doc_type": "addresses"}
{"source": "OSM", "region": "Kärnten", "osm_type": "node", "osm_id": 5586352321, "name": null, "category": null, "address": "7, 9771 Berg im Drautal", "street": null, "housenumber": "7", "postcode": "9771", "place": "Berg im Drautal", "lat": 46.7459739, "lon": 13.1346381, "tags": {"addr:city": "Berg im Drautal", "addr:housenumber": "7", "addr:place": "Berg", "addr:postcode": "9771"}, "content": "Adresse: 7, 9771 Berg im Drautal\nOrt: Berg im Drautal\nPLZ: 9771\nKoordinaten: 46.745974, 13.134638", "doc_type": "addresses"}
{"source": "OSM", "region": "Kärnten", "osm_type": "node", "osm_id": 5586352332, "name": null, "category": null, "address": "155, 9771 Berg im Drautal", "street": null, "housenumber": "155", "postcode": "9771", "place": "Berg im Drautal", "lat": 46.7450844, "lon": 13.136757, "tags": {"addr:city": "Berg im Drautal", "addr:housenumber": "155", "addr:place": "Berg", "addr:postcode": "9771"}, "content": "Adresse: 155, 9771 Berg im Drautal\nOrt: Berg im Drautal\nPLZ: 9771\nKoordinaten: 46.745084, 13.136757", "doc_type": "addresses"}
{"source": "OSM", "region": "Kärnten", "osm_type": "node", "osm_id": 5586352333, "name": null, "category": null, "address": "176, 9771 Berg im Drautal", "street": null, "housenumber": "176", "postcode": "9771", "place": "Berg im Drautal", "lat": 46.7458894, "lon": 13.1353891, "tags": {"addr:city": "Berg im Drautal", "addr:housenumber": "176", "addr:place": "Berg", "addr:postcode": "9771"}, "content": "Adresse: 176, 9771 Berg im Drautal\nOrt: Berg im Drautal\nPLZ: 9771\nKoordinaten: 46.745889, 13.135389", "doc_type": "addresses"}
{"source": "OSM", "region": "Kärnten", "osm_type": "node", "osm_id": 5586352334, "name": null, "category": null, "address": "189, 9771 Berg im Drautal", "street": null, "housenumber": "189", "postcode": "9771", "place": "Berg im Drautal", "lat": 46.7461596, "lon": 13.1354293, "tags": {"addr:city": "Berg im Drautal", "addr:housenumber": "189", "addr:place": "Berg", "addr:postcode": "9771"}, "content": "Adresse: 189, 9771 Berg im Drautal\nOrt: Berg im Drautal\nPLZ: 9771\nKoordinaten: 46.746160, 13.135429", "doc_type": "addresses"}
{"source": "OSM", "region": "Kärnten", "osm_type": "node", "osm_id": 5586352335, "name": null, "category": null, "address": "65, 9771 Berg im Drautal", "street": null, "housenumber": "65", "postcode": "9771", "place": "Berg im Drautal", "lat": 46.7471245, "lon": 13.1357914, "tags": {"addr:city": "Berg im Drautal", "addr:housenumber": "65", "addr:place": "Berg", "addr:postcode": "9771"}, "content": "Adresse: 65, 9771 Berg im Drautal\nOrt: Berg im Drautal\nPLZ: 9771\nKoordinaten: 46.747124, 13.135791", "doc_type": "addresses"}
{"source": "OSM", "region": "Kärnten", "osm_type": "node", "osm_id": 5586352336, "name": null, "category": null, "address": "225, 9771 Berg im Drautal", "street": null, "housenumber": "225", "postcode": "9771", "place": "Berg im Drautal", "lat": 46.7500283, "lon": 13.1368616, "tags": {"addr:city": "Berg im Drautal", "addr:housenumber": "225", "addr:place": "Berg", "addr:postcode": "9771"}, "content": "Adresse: 225, 9771 Berg im Drautal\nOrt: Berg im Drautal\nPLZ: 9771\nKoordinaten: 46.750028, 13.136862", "doc_type": "addresses"}
{"source": "OSM", "region": "Kärnten", "osm_type": "node", "osm_id": 5586352337, "name": null, "category": null, "address": "224, 9771 Berg im Drautal", "street": null, "housenumber": "224", "postcode": "9771", "place": "Berg im Drautal", "lat": 46.7503756, "lon": 13.136816, "tags": {"addr:city": "Berg im Drautal", "addr:housenumber": "224", "addr:place": "Berg", "addr:postcode": "9771"}, "content": "Adresse: 224, 9771 Berg im Drautal\nOrt: Berg im Drautal\nPLZ: 9771\nKoordinaten: 46.750376, 13.136816", "doc_type": "addresses"}
{"source": "OSM", "region": "Kärnten", "osm_type": "node", "osm_id": 5586352338, "name": null, "category": null, "address": "169, 9771 Berg im Drautal", "street": null, "housenumber": "169", "postcode": "9771", "place": "Berg im Drautal", "lat": 46.7505759, "lon": 13.1374142, "tags": {"addr:city": "Berg im Drautal", "addr:housenumber": "169", "addr:place": "Berg", "addr:postcode": "9771"}, "content": "Adresse: 169, 9771 Berg im Drautal\nOrt: Berg im Drautal\nPLZ: 9771\nKoordinaten: 46.750576, 13.137414", "doc_type": "addresses"}
{"source": "OSM", "region": "Kärnten", "osm_type": "node", "osm_id": 5586352339, "name": null, "category": null, "address": "11, 9771 Berg im Drautal", "street": null, "housenumber": "11", "postcode": "9771", "place": "Berg im Drautal", "lat": 46.7504069, "lon": 13.1377736, "tags": {"addr:city": "Berg im Drautal", "addr:housenumber": "11", "addr:place": "Berg", "addr:postcode": "9771"}, "content": "Adresse: 11, 9771 Berg im Drautal\nOrt: Berg im Drautal\nPLZ: 9771\nKoordinaten: 46.750407, 13.137774", "doc_type": "addresses"}
{"source": "OSM", "region": "Kärnten", "osm_type": "node", "osm_id": 5586352340, "name": null, "category": null, "address": "184, 9771 Berg im Drautal", "street": null, "housenumber": "184", "postcode": "9771", "place": "Berg im Drautal", "lat": 46.7501257, "lon": 13.1379023, "tags": {"addr:city": "Berg im Drautal", "addr:housenumber": "184", "addr:place": "Berg", "addr:postcode": "9771"}, "content": "Adresse: 184, 9771 Berg im Drautal\nOrt: Berg im Drautal\nPLZ: 9771\nKoordinaten: 46.750126, 13.137902", "doc_type": "addresses"}
{"source": "OSM", "region": "Kärnten", "osm_type": "node", "osm_id": 5586352341, "name": null, "category": null, "address": "71, 9771 Berg im Drautal", "street": null, "housenumber": "71", "postcode": "9771", "place": "Berg im Drautal", "lat": 46.74976, "lon": 13.138361, "tags": {"addr:city": "Berg im Drautal", "addr:housenumber": "71", "addr:place": "Berg", "addr:postcode": "9771"}, "content": "Adresse: 71, 9771 Berg im Drautal\nOrt: Berg im Drautal\nPLZ: 9771\nKoordinaten: 46.749760, 13.138361", "doc_type": "addresses"}
{"source": "OSM", "region": "Kärnten", "osm_type": "node", "osm_id": 5586352342, "name": null, "category": null, "address": "72, 9771 Berg im Drautal", "street": null, "housenumber": "72", "postcode": "9771", "place": "Berg im Drautal", "lat": 46.7499585, "lon": 13.1385836, "tags": {"addr:city": "Berg im Drautal", "addr:housenumber": "72", "addr:place": "Berg", "addr:postcode": "9771"}, "content": "Adresse: 72, 9771 Berg im Drautal\nOrt: Berg im Drautal\nPLZ: 9771\nKoordinaten: 46.749958, 13.138584", "doc_type": "addresses"}
{"source": "OSM", "region": "Kärnten", "osm_type": "node", "osm_id": 5586352343, "name": null, "category": null, "address": "73, 9771 Berg im Drautal", "street": null, "housenumber": "73", "postcode": "9771", "place": "Berg im Drautal", "lat": 46.7497894, "lon": 13.1389108, "tags": {"addr:city": "Berg im Drautal", "addr:housenumber": "73", "addr:place": "Berg", "addr:postcode": "9771"}, "content": "Adresse: 73, 9771 Berg im Drautal\nOrt: Berg im Drautal\nPLZ: 9771\nKoordinaten: 46.749789, 13.138911", "doc_type": "addresses"}
{"source": "OSM", "region": "Kärnten", "osm_type": "node", "osm_id": 5586352344, "name": null, "category": null, "address": "122, 9771 Berg im Drautal", "street": null, "housenumber": "122", "postcode": "9771", "place": "Berg im Drautal", "lat": 46.7497894, "lon": 13.13923, "tags": {"addr:city": "Berg im Drautal", "addr:housenumber": "122", "addr:place": "Berg", "addr:postcode": "9771"}, "content": "Adresse: 122, 9771 Berg im Drautal\nOrt: Berg im Drautal\nPLZ: 9771\nKoordinaten: 46.749789, 13.139230", "doc_type": "addresses"}
{"source": "OSM", "region": "Kärnten", "osm_type": "node", "osm_id": 5586352345, "name": null, "category": null, "address": "123, 9771 Berg im Drautal", "street": null, "housenumber": "123", "postcode": "9771", "place": "Berg im Drautal", "lat": 46.7495045, "lon": 13.1393319, "tags": {"addr:city": "Berg im Drautal", "addr:housenumber": "123", "addr:place": "Berg", "addr:postcode": "9771"}, "content": "Adresse: 123, 9771 Berg im Drautal\nOrt: Berg im Drautal\nPLZ: 9771\nKoordinaten: 46.749505, 13.139332", "doc_type": "addresses"}
{"source": "OSM", "region": "Kärnten", "osm_type": "node", "osm_id": 5586352346, "name": null, "category": null, "address": "118, 9771 Berg im Drautal", "street": null, "housenumber": "118", "postcode": "9771", "place": "Berg im Drautal", "lat": 46.7493115, "lon": 13.1393507, "tags": {"addr:city": "Berg im Drautal", "addr:housenumber": "118", "addr:place": "Berg", "addr:postcode": "9771"}, "content": "Adresse: 118, 9771 Berg im Drautal\nOrt: Berg im Drautal\nPLZ: 9771\nKoordinaten: 46.749311, 13.139351", "doc_type": "addresses"}
{"source": "OSM", "region": "Kärnten", "osm_type": "node", "osm_id": 5586352347, "name": null, "category": null, "address": "3, 9771 Berg im Drautal", "street": null, "housenumber": "3", "postcode": "9771", "place": "Berg im Drautal", "lat": 46.7482897, "lon": 13.1343216, "tags": {"addr:city": "Berg im Drautal", "addr:housenumber": "3", "addr:place": "Berg", "addr:postcode": "9771"}, "content": "Adresse: 3, 9771 Berg im Drautal\nOrt: Berg im Drautal\nPLZ: 9771\nKoordinaten: 46.748290, 13.134322", "doc_type": "addresses"}
{"source": "OSM", "region": "Kärnten", "osm_type": "node", "osm_id": 5586352348, "name": null, "category": null, "address": "30, 9771 Berg im Drautal", "street": null, "housenumber": "30", "postcode": "9771", "place": "Berg im Drautal", "lat": 46.7470307, "lon": 13.1401688, "tags": {"addr:city": "Berg im Drautal", "addr:housenumber": "30", "addr:place": "Berg", "addr:postcode": "9771"}, "content": "Adresse: 30, 9771 Berg im Drautal\nOrt: Berg im Drautal\nPLZ: 9771\nKoordinaten: 46.747031, 13.140169", "doc_type": "addresses"}
{"source": "OSM", "region": "Kärnten", "osm_type": "node", "osm_id": 5586352349, "name": null, "category": null, "address": "82, 9771 Berg im Drautal", "street": null, "housenumber": "82", "postcode": "9771", "place": "Berg im Drautal", "lat": 46.746926, "lon": 13.1413355, "tags": {"addr:city": "Berg im Drautal", "addr:housenumber": "82", "addr:place": "Berg", "addr:postcode": "9771"}, "content": "Adresse: 82, 9771 Berg im Drautal\nOrt: Berg im Drautal\nPLZ: 9771\nKoordinaten: 46.746926, 13.141336", "doc_type": "addresses"}
{"source": "OSM", "region": "Kärnten", "osm_type": "node", "osm_id": 5586352350, "name": null, "category": null, "address": "33, 9771 Berg im Drautal", "street": null, "housenumber": "33", "postcode": "9771", "place": "Berg im Drautal", "lat": 46.7468911, "lon": 13.1409413, "tags": {"addr:city": "Berg im Drautal", "addr:housenumber": "33", "addr:place": "Berg", "addr:postcode": "9771"}, "content": "Adresse: 33, 9771 Berg im Drautal\nOrt: Berg im Drautal\nPLZ: 9771\nKoordinaten: 46.746891, 13.140941", "doc_type": "addresses"}
{"source": "OSM", "region": "Kärnten", "osm_type": "node", "osm_id": 5586352351, "name": null, "category": null, "address": "32, 9771 Berg im Drautal", "street": null, "housenumber": "32", "postcode": "9771", "place": "Berg im Drautal", "lat": 46.7468635, "lon": 13.140429, "tags": {"addr:city": "Berg im Drautal", "addr:housenumber": "32", "addr:place": "Berg", "addr:postcode": "9771"}, "content": "Adresse: 32, 9771 Berg im Drautal\nOrt: Berg im Drautal\nPLZ: 9771\nKoordinaten: 46.746864, 13.140429", "doc_type": "addresses"}
{"source": "OSM", "region": "Kärnten", "osm_type": "node", "osm_id": 5586352355, "name": null, "category": null, "address": "27, 9771 Berg im Drautal", "street": null, "housenumber": "27", "postcode": "9771", "place": "Berg im Drautal", "lat": 46.7474332, "lon": 13.1393105, "tags": {"addr:city": "Berg im Drautal", "addr:housenumber": "27", "addr:place": "Berg", "addr:postcode": "9771"}, "content": "Adresse: 27, 9771 Berg im Drautal\nOrt: Berg im Drautal\nPLZ: 9771\nKoordinaten: 46.747433, 13.139311", "doc_type": "addresses"}
{"source": "OSM", "region": "Kärnten", "osm_type": "node", "osm_id": 5586352356, "name": null, "category": null, "address": "238, 9771 Berg im Drautal", "street": null, "housenumber": "238", "postcode": "9771", "place": "Berg im Drautal", "lat": 46.7473836, "lon": 13.1396618, "tags": {"addr:city": "Berg im Drautal", "addr:housenumber": "238", "addr:place": "Berg", "addr:postcode": "9771"}, "content": "Adresse: 238, 9771 Berg im Drautal\nOrt: Berg im Drautal\nPLZ: 9771\nKoordinaten: 46.747384, 13.139662", "doc_type": "addresses"}
{"source": "OSM", "region": "Kärnten", "osm_type": "node", "osm_id": 5586352357, "name": null, "category": null, "address": "34, 9771 Berg im Drautal", "street": null, "housenumber": "34", "postcode": "9771", "place": "Berg im Drautal", "lat": 46.7473873, "lon": 13.1410378, "tags": {"addr:city": "Berg im Drautal", "addr:housenumber": "34", "addr:place": "Berg", "addr:postcode": "9771"}, "content": "Adresse: 34, 9771 Berg im Drautal\nOrt: Berg im Drautal\nPLZ: 9771\nKoordinaten: 46.747387, 13.141038", "doc_type": "addresses"}
{"source": "OSM", "region": "Kärnten", "osm_type": "node", "osm_id": 5586352358, "name": null, "category": null, "address": "29, 9771 Berg im Drautal", "street": null, "housenumber": "29", "postcode": "9771", "place": "Berg im Drautal", "lat": 46.7475573, "lon": 13.1405094, "tags": {"addr:city": "Berg im Drautal", "addr:housenumber": "29", "addr:place": "Berg", "addr:postcode": "9771"}, "content": "Adresse: 29, 9771 Berg im Drautal\nOrt: Berg im Drautal\nPLZ: 9771\nKoordinaten: 46.747557, 13.140509", "doc_type": "addresses"}
{"source": "OSM", "region": "Kärnten", "osm_type": "node", "osm_id": 5586352359, "name": null, "category": null, "address": "192, 9771 Berg im Drautal", "street": null, "housenumber": "192", "postcode": "9771", "place": "Berg im Drautal", "lat": 46.7476262, "lon": 13.1402197, "tags": {"addr:city": "Berg im Drautal", "addr:housenumber": "192", "addr:place": "Berg", "addr:postcode": "9771"}, "content": "Adresse: 192, 9771 Berg im Drautal\nOrt: Berg im Drautal\nPLZ: 9771\nKoordinaten: 46.747626, 13.140220", "doc_type": "addresses"}
{"source": "OSM", "region": "Kärnten", "osm_type": "node", "osm_id": 5586352360, "name": null, "category": null, "address": "223, 9771 Berg im Drautal", "street": null, "housenumber": "223", "postcode": "9771", "place": "Berg im Drautal", "lat": 46.747833, "lon": 13.1402117, "tags": {"addr:city": "Berg im Drautal", "addr:housenumber": "223", "addr:place": "Berg", "addr:postcode": "9771"}, "content": "Adresse: 223, 9771 Berg im Drautal\nOrt: Berg im Drautal\nPLZ: 9771\nKoordinaten: 46.747833, 13.140212", "doc_type": "addresses"}
{"source": "OSM", "region": "Kärnten", "osm_type": "node", "osm_id": 5586352362, "name": null, "category": null, "address": "28, 9771 Berg im Drautal", "street": null, "housenumber": "28", "postcode": "9771", "place": "Berg im Drautal", "lat": 46.7478596, "lon": 13.1395626, "tags": {"addr:city": "Berg im Drautal", "addr:housenumber": "28", "addr:place": "Berg", "addr:postcode": "9771"}, "content": "Adresse: 28, 9771 Berg im Drautal\nOrt: Berg im Drautal\nPLZ: 9771\nKoordinaten: 46.747860, 13.139563", "doc_type": "addresses"}
{"source": "OSM", "region": "Kärnten", "osm_type": "node", "osm_id": 5586352365, "name": null, "category": null, "address": "132, 9771 Berg im Drautal", "street": null, "housenumber": "132", "postcode": "9771", "place": "Berg im Drautal", "lat": 46.7492766, "lon": 13.1388894, "tags": {"addr:city": "Berg im Drautal", "addr:housenumber": "132", "addr:place": "Berg", "addr:postcode": "9771"}, "content": "Adresse: 132, 9771 Berg im Drautal\nOrt: Berg im Drautal\nPLZ: 9771\nKoordinaten: 46.749277, 13.138889", "doc_type": "addresses"}
{"source": "OSM", "region": "Kärnten", "osm_type": "node", "osm_id": 5586352366, "name": null, "category": null, "address": "191, 9771 Berg im Drautal", "street": null, "housenumber": "191", "postcode": "9771", "place": "Berg im Drautal", "lat": 46.7496111, "lon": 13.1386024, "tags": {"addr:city": "Berg im Drautal", "addr:housenumber": "191", "addr:place": "Berg", "addr:postcode": "9771"}, "content": "Adresse: 191, 9771 Berg im Drautal\nOrt: Berg im Drautal\nPLZ: 9771\nKoordinaten: 46.749611, 13.138602", "doc_type": "addresses"}
{"source": "OSM", "region": "Kärnten", "osm_type": "node", "osm_id": 5586352367, "name": null, "category": null, "address": "23, 9771 Berg im Drautal", "street": null, "housenumber": "23", "postcode": "9771", "place": "Berg im Drautal", "lat": 46.7493336, "lon": 13.1383985, "tags": {"addr:city": "Berg im Drautal", "addr:housenumber": "23", "addr:place": "Berg", "addr:postcode": "9771"}, "content": "Adresse: 23, 9771 Berg im Drautal\nOrt: Berg im Drautal\nPLZ: 9771\nKoordinaten: 46.749334, 13.138398", "doc_type": "addresses"}
{"source": "OSM", "region": "Kärnten", "osm_type": "node", "osm_id": 5586352368, "name": null, "category": null, "address": "147, 9771 Berg im Drautal", "street": null, "housenumber": "147", "postcode": "9771", "place": "Berg im Drautal", "lat": 46.7491498, "lon": 13.1386158, "tags": {"addr:city": "Berg im Drautal", "addr:housenumber": "147", "addr:place": "Berg", "addr:postcode": "9771"}, "content": "Adresse: 147, 9771 Berg im Drautal\nOrt: Berg im Drautal\nPLZ: 9771\nKoordinaten: 46.749150, 13.138616", "doc_type": "addresses"}
{"source": "OSM", "region": "Kärnten", "osm_type": "node", "osm_id": 5586352369, "name": null, "category": null, "address": "154, 9771 Berg im Drautal", "street": null, "housenumber": "154", "postcode": "9771", "place": "Berg im Drautal", "lat": 46.7492399, "lon": 13.136977, "tags": {"addr:city": "Berg im Drautal", "addr:housenumber": "154", "addr:place": "Berg", "addr:postcode": "9771"}, "content": "Adresse: 154, 9771 Berg im Drautal\nOrt: Berg im Drautal\nPLZ: 9771\nKoordinaten: 46.749240, 13.136977", "doc_type": "addresses"}
{"source": "OSM", "region": "Kärnten", "osm_type": "node", "osm_id": 5586352370, "name": null, "category": null, "address": "171, 9771 Berg im Drautal", "street": null, "housenumber": "171", "postcode": "9771", "place": "Berg im Drautal", "lat": 46.7485314, "lon": 13.1374839, "tags": {"addr:city": "Berg im Drautal", "addr:housenumber": "171", "addr:place": "Berg", "addr:postcode": "9771"}, "content": "Adresse: 171, 9771 Berg im Drautal\nOrt: Berg im Drautal\nPLZ: 9771\nKoordinaten: 46.748531, 13.137484", "doc_type": "addresses"}
{"source": "OSM", "region": "Kärnten", "osm_type": "node", "osm_id": 5586352371, "name": null, "category": null, "address": "22, 9771 Berg im Drautal", "street": null, "housenumber": "22", "postcode": "9771", "place": "Berg im Drautal", "lat": 46.7487675, "lon": 13.1376582, "tags": {"addr:city": "Berg im Drautal", "addr:housenumber": "22", "addr:place": "Berg", "addr:postcode": "9771"}, "content": "Adresse: 22, 9771 Berg im Drautal\nOrt: Berg im Drautal\nPLZ: 9771\nKoordinaten: 46.748767, 13.137658", "doc_type": "addresses"}
{"source": "OSM", "region": "Kärnten", "osm_type": "node", "osm_id": 5586352372, "name": null, "category": null, "address": "165, 9771 Berg im Drautal", "street": null, "housenumber": "165", "postcode": "9771", "place": "Berg im Drautal", "lat": 46.7486343, "lon": 13.1377856, "tags": {"addr:city": "Berg im Drautal", "addr:housenumber": "165", "addr:place": "Berg", "addr:postcode": "9771"}, "content": "Adresse: 165, 9771 Berg im Drautal\nOrt: Berg im Drautal\nPLZ: 9771\nKoordinaten: 46.748634, 13.137786", "doc_type": "addresses"}
{"source": "OSM", "region": "Kärnten", "osm_type": "node", "osm_id": 5586352373, "name": "Mehrzweckhaus", "category": null, "address": "1, 9771 Berg im Drautal", "street": null, "housenumber": "1", "postcode": "9771", "place": "Berg im Drautal", "lat": 46.748037, "lon": 13.1379177, "tags": {"addr:city": "Berg im Drautal", "addr:housenumber": "1", "addr:place": "Berg", "addr:postcode": "9771", "name": "Mehrzweckhaus"}, "content": "Mehrzweckhaus\nAdresse: 1, 9771 Berg im Drautal\nOrt: Berg im Drautal\nPLZ: 9771\nKoordinaten: 46.748037, 13.137918", "doc_type": "addresses"}
{"source": "OSM", "region": "Kärnten", "osm_type": "node", "osm_id": 5586352375, "name": null, "category": null, "address": "41, 9771 Berg im Drautal", "street": null, "housenumber": "41", "postcode": "9771", "place": "Berg im Drautal", "lat": 46.7466604, "lon": 13.135715, "tags": {"addr:city": "Berg im Drautal", "addr:housenumber": "41", "addr:place": "Berg", "addr:postcode": "9771"}, "content": "Adresse: 41, 9771 Berg im Drautal\nOrt: Berg im Drautal\nPLZ: 9771\nKoordinaten: 46.746660, 13.135715", "doc_type": "addresses"}
{"source": "OSM", "region": "Kärnten", "osm_type": "node", "osm_id": 5586352376, "name": null, "category": null, "address": "40, 9771 Berg im Drautal", "street": null, "housenumber": "40", "postcode": "9771", "place": "Berg im Drautal", "lat": 46.746484, "lon": 13.1356788, "tags": {"addr:city": "Berg im Drautal", "addr:housenumber": "40", "addr:place": "Berg", "addr:postcode": "9771"}, "content": "Adresse: 40, 9771 Berg im Drautal\nOrt: Berg im Drautal\nPLZ: 9771\nKoordinaten: 46.746484, 13.135679", "doc_type": "addresses"}
{"source": "OSM", "region": "Kärnten", "osm_type": "node", "osm_id": 5586352377, "name": null, "category": null, "address": "47, 9771 Berg im Drautal", "street": null, "housenumber": "47", "postcode": "9771", "place": "Berg im Drautal", "lat": 46.74628, "lon": 13.1359966, "tags": {"addr:city": "Berg im Drautal", "addr:housenumber": "47", "addr:place": "Berg", "addr:postcode": "9771"}, "content": "Adresse: 47, 9771 Berg im Drautal\nOrt: Berg im Drautal\nPLZ: 9771\nKoordinaten: 46.746280, 13.135997", "doc_type": "addresses"}
{"source": "OSM", "region": "Kärnten", "osm_type": "node", "osm_id": 5586352378, "name": null, "category": null, "address": "105, 9771 Berg im Drautal", "street": null, "housenumber": "105", "postcode": "9771", "place": "Berg im Drautal", "lat": 46.7458655, "lon": 13.136242, "tags": {"addr:city": "Berg im Drautal", "addr:housenumber": "105", "addr:place": "Berg", "addr:postcode": "9771"}, "content": "Adresse: 105, 9771 Berg im Drautal\nOrt: Berg im Drautal\nPLZ: 9771\nKoordinaten: 46.745866, 13.136242", "doc_type": "addresses"}
{"source": "OSM", "region": "Kärnten", "osm_type": "node", "osm_id": 5586352379, "name": null, "category": null, "address": "78, 9771 Berg im Drautal", "street": null, "housenumber": "78", "postcode": "9771", "place": "Berg im Drautal", "lat": 46.7455292, "lon": 13.1362769, "tags": {"addr:city": "Berg im Drautal", "addr:housenumber": "78", "addr:place": "Berg", "addr:postcode": "9771"}, "content": "Adresse: 78, 9771 Berg im Drautal\nOrt: Berg im Drautal\nPLZ: 9771\nKoordinaten: 46.745529, 13.136277", "doc_type": "addresses"}
{"source": "OSM", "region": "Kärnten", "osm_type": "node", "osm_id": 5586352380, "name": null, "category": null, "address": "117, 9771 Berg im Drautal", "street": null, "housenumber": "117", "postcode": "9771", "place": "Berg im Drautal", "lat": 46.7452801, "lon": 13.1354374, "tags": {"addr:city": "Berg im Drautal", "addr:housenumber": "117", "addr:place": "Berg", "addr:postcode": "9771"}, "content": "Adresse: 117, 9771 Berg im Drautal\nOrt: Berg im Drautal\nPLZ: 9771\nKoordinaten: 46.745280, 13.135437", "doc_type": "addresses"}
{"source": "OSM", "region": "Kärnten", "osm_type": "node", "osm_id": 5586352381, "name": null, "category": null, "address": "150, 9771 Berg im Drautal", "street": null, "housenumber": "150", "postcode": "9771", "place": "Berg im Drautal", "lat": 46.7453123, "lon": 13.1357713, "tags": {"addr:city": "Berg im Drautal", "addr:housenumber": "150", "addr:place": "Berg", "addr:postcode": "9771"}, "content": "Adresse: 150, 9771 Berg im Drautal\nOrt: Berg im Drautal\nPLZ: 9771\nKoordinaten: 46.745312, 13.135771", "doc_type": "addresses"}
{"source": "OSM", "region": "Kärnten", "osm_type": "node", "osm_id": 5586352382, "name": null, "category": null, "address": "144, 9771 Berg im Drautal", "street": null, "housenumber": "144", "postcode": "9771", "place": "Berg im Drautal", "lat": 46.7452672, "lon": 13.1359577, "tags": {"addr:city": "Berg im Drautal", "addr:housenumber": "144", "addr:place": "Berg", "addr:postcode": "9771"}, "content": "Adresse: 144, 9771 Berg im Drautal\nOrt: Berg im Drautal\nPLZ: 9771\nKoordinaten: 46.745267, 13.135958", "doc_type": "addresses"}
{"source": "OSM", "region": "Kärnten", "osm_type": "node", "osm_id": 5586352385, "name": null, "category": null, "address": "179, 9771 Berg im Drautal", "street": null, "housenumber": "179", "postcode": "9771", "place": "Berg im Drautal", "lat": 46.7448059, "lon": 13.1338415, "tags": {"addr:city": "Berg im Drautal", "addr:housenumber": "179", "addr:place": "Berg", "addr:postcode": "9771"}, "content": "Adresse: 179, 9771 Berg im Drautal\nOrt: Berg im Drautal\nPLZ: 9771\nKoordinaten: 46.744806, 13.133842", "doc_type": "addresses"}
{"source": "OSM", "region": "Kärnten", "osm_type": "node", "osm_id": 5586352386, "name": null, "category": null, "address": "197, 9771 Berg im Drautal", "street": null, "housenumber": "197", "postcode": "9771", "place": "Berg im Drautal", "lat": 46.7449971, "lon": 13.134217, "tags": {"addr:city": "Berg im Drautal", "addr:housenumber": "197", "addr:place": "Berg", "addr:postcode": "9771"}, "content": "Adresse: 197, 9771 Berg im Drautal\nOrt: Berg im Drautal\nPLZ: 9771\nKoordinaten: 46.744997, 13.134217", "doc_type": "addresses"}
{"source": "OSM", "region": "Kärnten", "osm_type": "node", "osm_id": 5586352387, "name": null, "category": null, "address": "151, 9771 Berg im Drautal", "street": null, "housenumber": "151", "postcode": "9771", "place": "Berg im Drautal", "lat": 46.7451551, "lon": 13.134457, "tags": {"addr:city": "Berg im Drautal", "addr:housenumber": "151", "addr:place": "Berg", "addr:postcode": "9771"}, "content": "Adresse: 151, 9771 Berg im Drautal\nOrt: Berg im Drautal\nPLZ: 9771\nKoordinaten: 46.745155, 13.134457", "doc_type": "addresses"}
{"source": "OSM", "region": "Kärnten", "osm_type": "node", "osm_id": 5586352388, "name": null, "category": null, "address": "140, 9771 Berg im Drautal", "street": null, "housenumber": "140", "postcode": "9771", "place": "Berg im Drautal", "lat": 46.7452167, "lon": 13.1350082, "tags": {"addr:city": "Berg im Drautal", "addr:housenumber": "140", "addr:place": "Berg", "addr:postcode": "9771"}, "content": "Adresse: 140, 9771 Berg im Drautal\nOrt: Berg im Drautal\nPLZ: 9771\nKoordinaten: 46.745217, 13.135008", "doc_type": "addresses"}
{"source": "OSM", "region": "Kärnten", "osm_type": "node", "osm_id": 5586352389, "name": null, "category": null, "address": "142, 9771 Berg im Drautal", "street": null, "housenumber": "142", "postcode": "9771", "place": "Berg im Drautal", "lat": 46.7451919, "lon": 13.1347896, "tags": {"addr:city": "Berg im Drautal", "addr:housenumber": "142", "addr:place": "Berg", "addr:postcode": "9771"}, "content": "Adresse: 142, 9771 Berg im Drautal\nOrt: Berg im Drautal\nPLZ: 9771\nKoordinaten: 46.745192, 13.134790", "doc_type": "addresses"}
{"source": "OSM", "region": "Kärnten", "osm_type": "node", "osm_id": 5586352390, "name": null, "category": null, "address": "158, 9771 Berg im Drautal", "street": null, "housenumber": "158", "postcode": "9771", "place": "Berg im Drautal", "lat": 46.7453941, "lon": 13.1349237, "tags": {"addr:city": "Berg im Drautal", "addr:housenumber": "158", "addr:place": "Berg", "addr:postcode": "9771"}, "content": "Adresse: 158, 9771 Berg im Drautal\nOrt: Berg im Drautal\nPLZ: 9771\nKoordinaten: 46.745394, 13.134924", "doc_type": "addresses"}
{"source": "OSM", "region": "Kärnten", "osm_type": "node", "osm_id": 5586352391, "name": null, "category": null, "address": "188, 9771 Berg im Drautal", "street": null, "housenumber": "188", "postcode": "9771", "place": "Berg im Drautal", "lat": 46.7456312, "lon": 13.1351276, "tags": {"addr:city": "Berg im Drautal", "addr:housenumber": "188", "addr:place": "Berg", "addr:postcode": "9771"}, "content": "Adresse: 188, 9771 Berg im Drautal\nOrt: Berg im Drautal\nPLZ: 9771\nKoordinaten: 46.745631, 13.135128", "doc_type": "addresses"}
{"source": "OSM", "region": "Kärnten", "osm_type": "node", "osm_id": 5586352392, "name": null, "category": null, "address": "141, 9771 Berg im Drautal", "street": null, "housenumber": "141", "postcode": "9771", "place": "Berg im Drautal", "lat": 46.7452342, "lon": 13.1352442, "tags": {"addr:city": "Berg im Drautal", "addr:housenumber": "141", "addr:place": "Berg", "addr:postcode": "9771"}, "content": "Adresse: 141, 9771 Berg im Drautal\nOrt: Berg im Drautal\nPLZ: 9771\nKoordinaten: 46.745234, 13.135244", "doc_type": "addresses"}
{"source": "OSM", "region": "Kärnten", "osm_type": "node", "osm_id": 5586352393, "name": null, "category": null, "address": "127, 9771 Berg im Drautal", "street": null, "housenumber": "127", "postcode": "9771", "place": "Berg im Drautal", "lat": 46.7455852, "lon": 13.1356573, "tags": {"addr:city": "Berg im Drautal", "addr:housenumber": "127", "addr:place": "Berg", "addr:postcode": "9771"}, "content": "Adresse: 127, 9771 Berg im Drautal\nOrt: Berg im Drautal\nPLZ: 9771\nKoordinaten: 46.745585, 13.135657", "doc_type": "addresses"}
{"source": "OSM", "region": "Kärnten", "osm_type": "node", "osm_id": 5586352394, "name": null, "category": null, "address": "190, 9771 Berg im Drautal", "street": null, "housenumber": "190", "postcode": "9771", "place": "Berg im Drautal", "lat": 46.7456789, "lon": 13.1359175, "tags": {"addr:city": "Berg im Drautal", "addr:housenumber": "190", "addr:place": "Berg", "addr:postcode": "9771"}, "content": "Adresse: 190, 9771 Berg im Drautal\nOrt: Berg im Drautal\nPLZ: 9771\nKoordinaten: 46.745679, 13.135917", "doc_type": "addresses"}
{"source": "OSM", "region": "Kärnten", "osm_type": "node", "osm_id": 5586352395, "name": null, "category": null, "address": "69, 9771 Berg im Drautal", "street": null, "housenumber": "69", "postcode": "9771", "place": "Berg im Drautal", "lat": 46.7457102, "lon": 13.1354454, "tags": {"addr:city": "Berg im Drautal", "addr:housenumber": "69", "addr:place": "Berg", "addr:postcode": "9771"}, "content": "Adresse: 69, 9771 Berg im Drautal\nOrt: Berg im Drautal\nPLZ: 9771\nKoordinaten: 46.745710, 13.135445", "doc_type": "addresses"}
{"source": "OSM", "region": "Kärnten", "osm_type": "node", "osm_id": 5586352396, "name": null, "category": null, "address": "39, 9771 Berg im Drautal", "street": null, "housenumber": "39", "postcode": "9771", "place": "Berg im Drautal", "lat": 46.7460144, "lon": 13.1356982, "tags": {"addr:city": "Berg im Drautal", "addr:housenumber": "39", "addr:place": "Berg", "addr:postcode": "9771"}, "content": "Adresse: 39, 9771 Berg im Drautal\nOrt: Berg im Drautal\nPLZ: 9771\nKoordinaten: 46.746014, 13.135698", "doc_type": "addresses"}
{"source": "OSM", "region": "Kärnten", "osm_type": "node", "osm_id": 5586352397, "name": null, "category": null, "address": "208, 9771 Berg im Drautal", "street": null, "housenumber": "208", "postcode": "9771", "place": "Berg im Drautal", "lat": 46.7465318, "lon": 13.1346984, "tags": {"addr:city": "Berg im Drautal", "addr:housenumber": "208", "addr:place": "Berg", "addr:postcode": "9771"}, "content": "Adresse: 208, 9771 Berg im Drautal\nOrt: Berg im Drautal\nPLZ: 9771\nKoordinaten: 46.746532, 13.134698", "doc_type": "addresses"}
{"source": "OSM", "region": "Kärnten", "osm_type": "node", "osm_id": 5586352398, "name": null, "category": null, "address": "79, 9771 Berg im Drautal", "street": null, "housenumber": "79", "postcode": "9771", "place": "Berg im Drautal", "lat": 46.746415, "lon": 13.1349465, "tags": {"addr:city": "Berg im Drautal", "addr:housenumber": "79", "addr:place": "Berg", "addr:postcode": "9771"}, "content": "Adresse: 79, 9771 Berg im Drautal\nOrt: Berg im Drautal\nPLZ: 9771\nKoordinaten: 46.746415, 13.134946", "doc_type": "addresses"}
{"source": "OSM", "region": "Kärnten", "osm_type": "node", "osm_id": 5586352399, "name": null, "category": null, "address": "55, 9771 Berg im Drautal", "street": null, "housenumber": "55", "postcode": "9771", "place": "Berg im Drautal", "lat": 46.7470491, "lon": 13.1348406, "tags": {"addr:city": "Berg im Drautal", "addr:housenumber": "55", "addr:place": "Berg", "addr:postcode": "9771"}, "content": "Adresse: 55, 9771 Berg im Drautal\nOrt: Berg im Drautal\nPLZ: 9771\nKoordinaten: 46.747049, 13.134841", "doc_type": "addresses"}
{"source": "OSM", "region": "Kärnten", "osm_type": "node", "osm_id": 5586352400, "name": null, "category": null, "address": "13, 9771 Berg im Drautal", "street": null, "housenumber": "13", "postcode": "9771", "place": "Berg im Drautal", "lat": 46.7471199, "lon": 13.1345482, "tags": {"addr:city": "Berg im Drautal", "addr:housenumber": "13", "addr:place": "Berg", "addr:postcode": "9771"}, "content": "Adresse: 13, 9771 Berg im Drautal\nOrt: Berg im Drautal\nPLZ: 9771\nKoordinaten: 46.747120, 13.134548", "doc_type": "addresses"}
{"source": "OSM", "region": "Kärnten", "osm_type": "node", "osm_id": 5586352401, "name": null, "category": null, "address": "9, 9771 Berg im Drautal", "street": null, "housenumber": "9", "postcode": "9771", "place": "Berg im Drautal", "lat": 46.7472844, "lon": 13.1344342, "tags": {"addr:city": "Berg im Drautal", "addr:housenumber": "9", "addr:place": "Berg", "addr:postcode": "9771"}, "content": "Adresse: 9, 9771 Berg im Drautal\nOrt: Berg im Drautal\nPLZ: 9771\nKoordinaten: 46.747284, 13.134434", "doc_type": "addresses"}
{"source": "OSM", "region": "Kärnten", "osm_type": "node", "osm_id": 5586352402, "name": null, "category": null, "address": "53, 9771 Berg im Drautal", "street": null, "housenumber": "53", "postcode": "9771", "place": "Berg im Drautal", "lat": 46.7473652, "lon": 13.1342049, "tags": {"addr:city": "Berg im Drautal", "addr:housenumber": "53", "addr:place": "Berg", "addr:postcode": "9771"}, "content": "Adresse: 53, 9771 Berg im Drautal\nOrt: Berg im Drautal\nPLZ: 9771\nKoordinaten: 46.747365, 13.134205", "doc_type": "addresses"}
{"source": "OSM", "region": "Kärnten", "osm_type": "node", "osm_id": 5586352403, "name": null, "category": null, "address": "5, 9771 Berg im Drautal", "street": null, "housenumber": "5", "postcode": "9771", "place": "Berg im Drautal", "lat": 46.7477411, "lon": 13.1344222, "tags": {"addr:city": "Berg im Drautal", "addr:housenumber": "5", "addr:place": "Berg", "addr:postcode": "9771"}, "content": "Adresse: 5, 9771 Berg im Drautal\nOrt: Berg im Drautal\nPLZ: 9771\nKoordinaten: 46.747741, 13.134422", "doc_type": "addresses"}
{"source": "OSM", "region": "Kärnten", "osm_type": "node", "osm_id": 5586352404, "name": "Gemeindeamt", "category": null, "address": "121, 9771 Berg im Drautal", "street": null, "housenumber": "121", "postcode": "9771", "place": "Berg im Drautal", "lat": 46.7480526, "lon": 13.1346783, "tags": {"addr:city": "Berg im Drautal", "addr:housenumber": "121", "addr:place": "Berg", "addr:postcode": "9771", "name": "Gemeindeamt"}, "content": "Gemeindeamt\nAdresse: 121, 9771 Berg im Drautal\nOrt: Berg im Drautal\nPLZ: 9771\nKoordinaten: 46.748053, 13.134678", "doc_type": "addresses"}
{"source": "OSM", "region": "Kärnten", "osm_type": "node", "osm_id": 5586352405, "name": null, "category": null, "address": "113, 9771 Berg im Drautal", "street": null, "housenumber": "113", "postcode": "9771", "place": "Berg im Drautal", "lat": 46.7484514, "lon": 13.1338415, "tags": {"addr:city": "Berg im Drautal", "addr:housenumber": "113", "addr:place": "Berg", "addr:postcode": "9771"}, "content": "Adresse: 113, 9771 Berg im Drautal\nOrt: Berg im Drautal\nPLZ: 9771\nKoordinaten: 46.748451, 13.133842", "doc_type": "addresses"}
{"source": "OSM", "region": "Kärnten", "osm_type": "node", "osm_id": 5586352406, "name": null, "category": null, "address": "244, 9771 Berg im Drautal", "street": null, "housenumber": "244", "postcode": "9771", "place": "Berg im Drautal", "lat": 46.748808, "lon": 13.1333895, "tags": {"addr:city": "Berg im Drautal", "addr:housenumber": "244", "addr:place": "Berg", "addr:postcode": "9771"}, "content": "Adresse: 244, 9771 Berg im Drautal\nOrt: Berg im Drautal\nPLZ: 9771\nKoordinaten: 46.748808, 13.133389", "doc_type": "addresses"}
{"source": "OSM", "region": "Kärnten", "osm_type": "node", "osm_id": 5586352407, "name": null, "category": null, "address": "124, 9771 Berg im Drautal", "street": null, "housenumber": "124", "postcode": "9771", "place": "Berg im Drautal", "lat": 46.7486398, "lon": 13.1326398, "tags": {"addr:city": "Berg im Drautal", "addr:housenumber": "124", "addr:place": "Berg", "addr:postcode": "9771"}, "content": "Adresse: 124, 9771 Berg im Drautal\nOrt: Berg im Drautal\nPLZ: 9771\nKoordinaten: 46.748640, 13.132640", "doc_type": "addresses"}
{"source": "OSM", "region": "Kärnten", "osm_type": "node", "osm_id": 5586352408, "name": null, "category": null, "address": "136, 9771 Berg im Drautal", "street": null, "housenumber": "136", "postcode": "9771", "place": "Berg im Drautal", "lat": 46.7484533, "lon": 13.1332675, "tags": {"addr:city": "Berg im Drautal", "addr:housenumber": "136", "addr:place": "Berg", "addr:postcode": "9771"}, "content": "Adresse: 136, 9771 Berg im Drautal\nOrt: Berg im Drautal\nPLZ: 9771\nKoordinaten: 46.748453, 13.133268", "doc_type": "addresses"}
{"source": "OSM", "region": "Kärnten", "osm_type": "node", "osm_id": 5586352409, "name": null, "category": null, "address": "116, 9771 Berg im Drautal", "street": null, "housenumber": "116", "postcode": "9771", "place": "Berg im Drautal", "lat": 46.7480995, "lon": 13.1330717, "tags": {"addr:city": "Berg im Drautal", "addr:housenumber": "116", "addr:place": "Berg", "addr:postcode": "9771"}, "content": "Adresse: 116, 9771 Berg im Drautal\nOrt: Berg im Drautal\nPLZ: 9771\nKoordinaten: 46.748100, 13.133072", "doc_type": "addresses"}
{"source": "OSM", "region": "Kärnten", "osm_type": "node", "osm_id": 5586352410, "name": null, "category": null, "address": "86, 9771 Berg im Drautal", "street": null, "housenumber": "86", "postcode": "9771", "place": "Berg im Drautal", "lat": 46.7480581, "lon": 13.1323662, "tags": {"addr:city": "Berg im Drautal", "addr:housenumber": "86", "addr:place": "Berg", "addr:postcode": "9771"}, "content": "Adresse: 86, 9771 Berg im Drautal\nOrt: Berg im Drautal\nPLZ: 9771\nKoordinaten: 46.748058, 13.132366", "doc_type": "addresses"}
{"source": "OSM", "region": "Kärnten", "osm_type": "node", "osm_id": 5586352411, "name": null, "category": null, "address": "152, 9771 Berg im Drautal", "street": null, "housenumber": "152", "postcode": "9771", "place": "Berg im Drautal", "lat": 46.7478762, "lon": 13.1315884, "tags": {"addr:city": "Berg im Drautal", "addr:housenumber": "152", "addr:place": "Berg", "addr:postcode": "9771"}, "content": "Adresse: 152, 9771 Berg im Drautal\nOrt: Berg im Drautal\nPLZ: 9771\nKoordinaten: 46.747876, 13.131588", "doc_type": "addresses"}
{"source": "OSM", "region": "Kärnten", "osm_type": "node", "osm_id": 5586338585, "name": "Unterwaditzer", "category": "craft:carpenter", "address": "95, 9771 Berg im Drautal", "street": null, "housenumber": "95", "postcode": "9771", "place": "Berg im Drautal", "lat": 46.7465933, "lon": 13.1335786, "tags": {"addr:city": "Berg im Drautal", "addr:housenumber": "95", "addr:place": "Berg", "addr:postcode": "9771", "craft": "carpenter", "name": "Unterwaditzer"}, "content": "Unterwaditzer\nKategorie: craft:carpenter\nAdresse: 95, 9771 Berg im Drautal\nOrt: Berg im Drautal\nPLZ: 9771\nKoordinaten: 46.746593, 13.133579", "doc_type": "pois"}
