{"source": "OSM", "region": "Kärnten", "osm_type": "node", "osm_id": 340519719, "name": "Postpartner 8822, ADEG Egger", "category": "amenity:post_office", "address": "21, 8822 Mühlen", "street": null, "housenumber": "21", "postcode": "8822", "place": "Mühlen", "lat": 47.0312768, "lon": 14.507567, "tags": {"addr:city": "Mühlen", "addr:housenumber": "21", "addr:place": "Mühlen", "addr:postcode": "8822", "amenity": "post_office", "name": "Postpartner 8822, ADEG Egger"}, "content": "Postpartner 8822, ADEG Egger\nKategorie: amenity:post_office\nAdresse: 21, 8822 Mühlen\nOrt: Mühlen\nPLZ: 8822\nKoordinaten: 47.031277, 14.507567\nTags: amenity=post_office", "doc_type": "addresses"}
{"source": "OSM", "region": "Kärnten", "osm_type": "node", "osm_id": 2459143720, "name": "Dr. Johann Rainer", "category": "amenity:doctors", "address": "32, 8822 Mühlen", "street": null, "housenumber": "32", "postcode": "8822", "place": "Mühlen", "lat": 47.0300693, "lon": 14.5080095, "tags": {"addr:city": "Mühlen", "addr:housenumber": "32", "addr:place": "Mühlen", "addr:postcode": "8822", "amenity": "doctors", "healthcare": "doctor", "name": "Dr. Johann Rainer"}, "content": "Dr. Johann Rainer\nKategorie: amenity:doctors\nAdresse: 32, 8822 Mühlen\nOrt: Mühlen\nPLZ: 8822\nKoordinaten: 47.030069, 14.508010\nTags: amenity=doctors, healthcare=doctor", "doc_type": "addresses"}
{"source": "OSM", "region": "Kärnten", "osm_type": "node", "osm_id": 3668374060, "name": "Gasthaus Hirschenwirt", "category": "amenity:restaurant", "address": "19, 8822 Mühlen", "street": null, "housenumber": "19", "postcode": "8822", "place": "Mühlen", "lat": 47.0317771, "lon": 14.5080014, "tags": {"addr:city": "Mühlen", "addr:housenumber": "19", "addr:place": "Mühlen", "addr:postcode": "8822", "amenity": "restaurant", "name": "Gasthaus Hirschenwirt", "operator": "Fam. Matschnigg", "phone": "+433586 2228", "website": "https://www.gasthaus-hirschenwirt.at/"}, "content": "Gasthaus Hirschenwirt\nKategorie: amenity:restaurant\nAdresse: 19, 8822 Mühlen\nOrt: Mühlen\nPLZ: 8822\nKoordinaten: 47.031777, 14.508001\nTags: amenity=restaurant, operator=Fam. Matschnigg, phone=+433586 2228, website=https://www.gasthaus-hirschenwirt.at/", "doc_type": "addresses"}
{"source": "OSM", "region": "Kärnten", "osm_type": "node", "osm_id": 3668374078, "name": "Gasthaus Gössler", "category": "amenity:restaurant", "address": "25, 8822 Mühlen", "street": null, "housenumber": "25", "postcode": "8822", "place": "Mühlen", "lat": 47.0309356, "lon": 14.5084741, "tags": {"addr:city": "Mühlen", "addr:housenumber": "25", "addr:place": "Mühlen", "addr:postcode": "8822", "amenity": "restaurant", "name": "Gasthaus Gössler", "operator": "Marianne Ferner", "phone": "+433586 2251", "website": "https://www.gasthaus-goessler.at/"}, "content": "Gasthaus Gössler\nKategorie: amenity:restaurant\nAdresse: 25, 8822 Mühlen\nOrt: Mühlen\nPLZ: 8822\nKoordinaten: 47.030936, 14.508474\nTags: amenity=restaurant, operator=Marianne Ferner, phone=+433586 2251, website=https://www.gasthaus-goessler.at/", "doc_type": "addresses"}
{"source": "OSM", "region": "Kärnten", "osm_type": "node", "osm_id": 5587660108, "name": "Gasthof Steiner", "category": "amenity:restaurant", "address": "Mondorf 41, 8822 Mühlen", "street": "Mondorf 41", "housenumber": null, "postcode": "8822", "place": "Mühlen", "lat": 47.022683, "lon": 14.5191112, "tags": {"addr:city": "Mühlen", "addr:postcode": "8822", "addr:street": "Mondorf 41", "amenity": "restaurant", "name": "Gasthof Steiner"}, "content": "Gasthof Steiner\nKategorie: amenity:restaurant\nAdresse: Mondorf 41, 8822 Mühlen\nOrt: Mühlen\nPLZ: 8822\nKoordinaten: 47.022683, 14.519111\nTags: amenity=restaurant", "doc_type": "addresses"}
{"source": "OSM", "region": "Kärnten", "osm_type": "node", "osm_id": 340519719, "name": "Postpartner 8822, ADEG Egger", "category": "amenity:post_office", "address": "21, 8822 Mühlen", "street": null, "housenumber": "21", "postcode": "8822", "place": "Mühlen", "lat": 47.0312768, "lon": 14.507567, "tags": {"addr:city": "Mühlen", "addr:housenumber": "21", "addr:place": "Mühlen", "addr:postcode": "8822", "amenity": "post_office", "name": "Postpartner 8822, ADEG Egger"}, "content": "Postpartner 8822, ADEG Egger\nKategorie: amenity:post_office\nAdresse: 21, 8822 Mühlen\nOrt: Mühlen\nPLZ: 8822\nKoordinaten: 47.031277, 14.507567\nTags: amenity=post_office", "doc_type": "pois"}
{"source": "OSM", "region": "Kärnten", "osm_type": "node", "osm_id": 2459143720, "name": "Dr. Johann Rainer", "category": "amenity:doctors", "address": "32, 8822 Mühlen", "street": null, "housenumber": "32", "postcode": "8822", "place": "Mühlen", "lat": 47.0300693, "lon": 14.5080095, "tags": {"addr:city": "Mühlen", "addr:housenumber": "32", "addr:place": "Mühlen", "addr:postcode": "8822", "amenity": "doctors", "healthcare": "doctor", "name": "Dr. Johann Rainer"}, "content": "Dr. Johann Rainer\nKategorie: amenity:doctors\nAdresse: 32, 8822 Mühlen\nOrt: Mühlen\nPLZ: 8822\nKoordinaten: 47.030069, 14.508010\nTags: amenity=doctors, healthcare=doctor", "doc_type": "pois"}
{"source": "OSM", "region": "Kärnten", "osm_type": "node", "osm_id": 3668374060, "name": "Gasthaus Hirschenwirt", "category": "amenity:restaurant", "address": "19, 8822 Mühlen", "street": null, "housenumber": "19", "postcode": "8822", "place": "Mühlen", "lat": 47.0317771, "lon": 14.5080014, "tags": {"addr:city": "Mühlen", "addr:housenumber": "19", "addr:place": "Mühlen", "addr:postcode": "8822", "amenity": "restaurant", "name": "Gasthaus Hirschenwirt", "operator": "Fam. Matschnigg", "phone": "+433586 2228", "website": "https://www.gasthaus-hirschenwirt.at/"}, "content": "Gasthaus Hirschenwirt\nKategorie: amenity:restaurant\nAdresse: 19, 8822 Mühlen\nOrt: Mühlen\nPLZ: 8822\nKoordinaten: 47.031777, 14.508001\nTags: amenity=restaurant, operator=Fam. Matschnigg, phone=+433586 2228, website=https://www.gasthaus-hirschenwirt.at/", "doc_type": "pois"}
{"source": "OSM", "region": "Kärnten", "osm_type": "node", "osm_id": 3668374078, "name": "Gasthaus Gössler", "category": "amenity:restaurant", "address": "25, 8822 Mühlen", "street": null, "housenumber": "25", "postcode": "8822", "place": "Mühlen", "lat": 47.0309356, "lon": 14.5084741, "tags": {"addr:city": "Mühlen", "addr:housenumber": "25", "addr:place": "Mühlen", "addr:postcode": "8822", "amenity": "restaurant", "name": "Gasthaus Gössler", "operator": "Marianne Ferner", "phone": "+433586 2251", "website": "https://www.gasthaus-goessler.at/"}, "content": "Gasthaus Gössler\nKategorie: amenity:restaurant\nAdresse: 25, 8822 Mühlen\nOrt: Mühlen\nPLZ: 8822\nKoordinaten: 47.030936, 14.508474\nTags: amenity=restaurant, operator=Marianne Ferner, phone=+433586 2251, website=https://www.gasthaus-goessler.at/", "doc_type": "pois"}
{"source": "OSM", "region": "Kärnten", "osm_type": "node", "osm_id": 5587660108, "name": "Gasthof Steiner", "category": "amenity:restaurant", "address": "Mondorf 41, 8822 Mühlen", "street": "Mondorf 41", "housenumber": null, "postcode": "8822", "place": "Mühlen", "lat": 47.022683, "lon": 14.5191112, "tags": {"addr:city": "Mühlen", "addr:postcode": "8822", "addr:street": "Mondorf 41", "amenity": "restaurant", "name": "Gasthof Steiner"}, "content": "Gasthof Steiner\nKategorie: amenity:restaurant\nAdresse: Mondorf 41, 8822 Mühlen\nOrt: Mühlen\nPLZ: 8822\nKoordinaten: 47.022683, 14.519111\nTags: amenity=restaurant", "doc_type": "pois"}
