{"source": "OSM", "region": "Kärnten", "osm_type": "node", "osm_id": 346120885, "name": "Café Biero", "category": "amenity:cafe", "address": "Lobisserweg 2, 9551 Bodensdorf", "street": "Lobisserweg", "housenumber": "2", "postcode": "9551", "place": "Bodensdorf", "lat": 46.6829663, "lon": 13.9712984, "tags": {"addr:city": "Bodensdorf", "addr:housenumber": "2", "addr:postcode": "9551", "addr:street": "Lobisserweg", "amenity": "cafe", "name": "Café Biero"}, "content": "Café Biero\nKategorie: amenity:cafe\nAdresse: Lobisserweg 2, 9551 Bodensdorf\nOrt: Bodensdorf\nPLZ: 9551\nKoordinaten: 46.682966, 13.971298\nTags: amenity=cafe", "doc_type": "addresses"}
{"source": "OSM", "region": "Kärnten", "osm_type": "node", "osm_id": 538375491, "name": "Pizzeria Santa Lucia", "category": "amenity:restaurant", "address": "Poststraße 23, 9551 Bodensdorf", "street": "Poststraße", "housenumber": "23", "postcode": "9551", "place": "Bodensdorf", "lat": 46.6846106, "lon": 13.9741348, "tags": {"addr:city": "Bodensdorf", "addr:housenumber": "23", "addr:postcode": "9551", "addr:street": "Poststraße", "amenity": "restaurant", "name": "Pizzeria Santa Lucia", "phone": "+43 4243 45601", "website": "https://pizzeria-santa-lucia-bodensdorf.business.site"}, "content": "Pizzeria Santa Lucia\nKategorie: amenity:restaurant\nAdresse: Poststraße 23, 9551 Bodensdorf\nOrt: Bodensdorf\nPLZ: 9551\nKoordinaten: 46.684611, 13.974135\nTags: amenity=restaurant, phone=+43 4243 45601, website=https://pizzeria-santa-lucia-bodensdorf.business.site", "doc_type": "addresses"}
{"source": "OSM", "region": "Kärnten", "osm_type": "node", "osm_id": 894367070, "name": "Schieder", "category": "shop:bakery", "address": "Lobisserweg 1, 9551 Bodensdorf", "street": "Lobisserweg", "housenumber": "1", "postcode": "9551", "place": "Bodensdorf", "lat": 46.6825183, "lon": 13.9715028, "tags": {"addr:city": "Bodensdorf", "addr:housenumber": "1", "addr:postcode": "9551", "addr:street": "Lobisserweg", "name": "Schieder", "shop": "bakery"}, "content": "Schieder\nKategorie: shop:bakery\nAdresse: Lobisserweg 1, 9551 Bodensdorf\nOrt: Bodensdorf\nPLZ: 9551\nKoordinaten: 46.682518, 13.971503\nTags: shop=bakery", "doc_type": "addresses"}
{"source": "OSM", "region": "Kärnten", "osm_type": "node", "osm_id": 3660216163, "name": "Polizeiinspektion Bodensdorf", "category": "amenity:police", "address": "10.-Oktober-Straße 2, 9551 Bodensdorf", "street": "10.-Oktober-Straße", "housenumber": "2", "postcode": "9551", "place": "Bodensdorf", "lat": 46.6853866, "lon": 13.9742273, "tags": {"addr:city": "Bodensdorf", "addr:housenumber": "2", "addr:postcode": "9551", "addr:street": "10.-Oktober-Straße", "amenity": "police", "name": "Polizeiinspektion Bodensdorf", "phone": "+43 59133 2201100"}, "content": "Polizeiinspektion Bodensdorf\nKategorie: amenity:police\nAdresse: 10.-Oktober-Straße 2, 9551 Bodensdorf\nOrt: Bodensdorf\nPLZ: 9551\nKoordinaten: 46.685387, 13.974227\nTags: amenity=police, phone=+43 59133 2201100", "doc_type": "addresses"}
{"source": "OSM", "region": "Kärnten", "osm_type": "node", "osm_id": 346120885, "name": "Café Biero", "category": "amenity:cafe", "address": "Lobisserweg 2, 9551 Bodensdorf", "street": "Lobisserweg", "housenumber": "2", "postcode": "9551", "place": "Bodensdorf", "lat": 46.6829663, "lon": 13.9712984, "tags": {"addr:city": "Bodensdorf", "addr:housenumber": "2", "addr:postcode": "9551", "addr:street": "Lobisserweg", "amenity": "cafe", "name": "Café Biero"}, "content": "Café Biero\nKategorie: amenity:cafe\nAdresse: Lobisserweg 2, 9551 Bodensdorf\nOrt: Bodensdorf\nPLZ: 9551\nKoordinaten: 46.682966, 13.971298\nTags: amenity=cafe", "doc_type": "pois"}
{"source": "OSM", "region": "Kärnten", "osm_type": "node", "osm_id": 538375491, "name": "Pizzeria Santa Lucia", "category": "amenity:restaurant", "address": "Poststraße 23, 9551 Bodensdorf", "street": "Poststraße", "housenumber": "23", "postcode": "9551", "place": "Bodensdorf", "lat": 46.6846106, "lon": 13.9741348, "tags": {"addr:city": "Bodensdorf", "addr:housenumber": "23", "addr:postcode": "9551", "addr:street": "Poststraße", "amenity": "restaurant", "name": "Pizzeria Santa Lucia", "phone": "+43 4243 45601", "website": "https://pizzeria-santa-lucia-bodensdorf.business.site"}, "content": "Pizzeria Santa Lucia\nKategorie: amenity:restaurant\nAdresse: Poststraße 23, 9551 Bodensdorf\nOrt: Bodensdorf\nPLZ: 9551\nKoordinaten: 46.684611, 13.974135\nTags: amenity=restaurant, phone=+43 4243 45601, website=https://pizzeria-santa-lucia-bodensdorf.business.site", "doc_type": "pois"}
{"source": "OSM", "region": "Kärnten", "osm_type": "node", "osm_id": 894367070, "name": "Schieder", "category": "shop:bakery", "address": "Lobisserweg 1, 9551 Bodensdorf", "street": "Lobisserweg", "housenumber": "1", "postcode": "9551", "place": "Bodensdorf", "lat": 46.6825183, "lon": 13.9715028, "tags": {"addr:city": "Bodensdorf", "addr:housenumber": "1", "addr:postcode": "9551", "addr:street": "Lobisserweg", "name": "Schieder", "shop": "bakery"}, "content": "Schieder\nKategorie: shop:bakery\nAdresse: Lobisserweg 1, 9551 Bodensdorf\nOrt: Bodensdorf\nPLZ: 9551\nKoordinaten: 46.682518, 13.971503\nTags: shop=bakery", "doc_type": "pois"}
{"source": "OSM", "region": "Kärnten", "osm_type": "node", "osm_id": 3660216163, "name": "Polizeiinspektion Bodensdorf", "category": "amenity:police", "address": "10.-Oktober-Straße 2, 9551 Bodensdorf", "street": "10.-Oktober-Straße", "housenumber": "2", "postcode": "9551", "place": "Bodensdorf", "lat": 46.6853866, "lon": 13.9742273, "tags": {"addr:city": "Bodensdorf", "addr:housenumber": "2", "addr:postcode": "9551", "addr:street": "10.-Oktober-Straße", "amenity": "police", "name": "Polizeiinspektion Bodensdorf", "phone": "+43 59133 2201100"}, "content": "Polizeiinspektion Bodensdorf\nKategorie: amenity:police\nAdresse: 10.-Oktober-Straße 2, 9551 Bodensdorf\nOrt: Bodensdorf\nPLZ: 9551\nKoordinaten: 46.685387, 13.974227\nTags: amenity=police, phone=+43 59133 2201100", "doc_type": "pois"}
