{"source": "OSM", "region": "Kärnten", "osm_type": "node", "osm_id": 2353339949, "name": null, "category": null, "address": "40, 9943 Untertilliach", "street": null, "housenumber": "40", "postcode": "9943", "place": "Untertilliach", "lat": 46.7050363, "lon": 12.6694651, "tags": {"addr:city": "Untertilliach", "addr:housenumber": "40", "addr:place": "Untertilliach", "addr:postcode": "9943"}, "content": "Adresse: 40, 9943 Untertilliach\nOrt: Untertilliach\nPLZ: 9943\nKoordinaten: 46.705036, 12.669465", "doc_type": "addresses"}
{"source": "OSM", "region": "Kärnten", "osm_type": "node", "osm_id": 2353339955, "name": null, "category": null, "address": "41, 9943 Untertilliach", "street": null, "housenumber": "41", "postcode": "9943", "place": "Untertilliach", "lat": 46.7050458, "lon": 12.670774, "tags": {"addr:city": "Untertilliach", "addr:housenumber": "41", "addr:place": "Untertilliach", "addr:postcode": "9943"}, "content": "Adresse: 41, 9943 Untertilliach\nOrt: Untertilliach\nPLZ: 9943\nKoordinaten: 46.705046, 12.670774", "doc_type": "addresses"}
{"source": "OSM", "region": "Kärnten", "osm_type": "node", "osm_id": 2353339960, "name": null, "category": null, "address": "21, 9943 Untertilliach", "street": null, "housenumber": "21", "postcode": "9943", "place": "Untertilliach", "lat": 46.7081084, "lon": 12.6824951, "tags": {"addr:city": "Untertilliach", "addr:housenumber": "21", "addr:place": "Untertilliach", "addr:postcode": "9943"}, "content": "Adresse: 21, 9943 Untertilliach\nOrt: Untertilliach\nPLZ: 9943\nKoordinaten: 46.708108, 12.682495", "doc_type": "addresses"}
{"source": "OSM", "region": "Kärnten", "osm_type": "node", "osm_id": 3062835817, "name": "Gemeindeamt Untertilliach", "category": "amenity:townhall", "address": "Kirchberg 62a, 9943 Untertilliach", "street": "Kirchberg", "housenumber": "62a", "postcode": "9943", "place": "Untertilliach", "lat": 46.7037341, "lon": 12.6778828, "tags": {"addr:city": "Untertilliach", "addr:housenumber": "62a", "addr:postcode": "9943", "addr:street": "Kirchberg", "amenity": "townhall", "name": "Gemeindeamt Untertilliach", "website": "https://www.untertilliach.at"}, "content": "Gemeindeamt Untertilliach\nKategorie: amenity:townhall\nAdresse: Kirchberg 62a, 9943 Untertilliach\nOrt: Untertilliach\nPLZ: 9943\nKoordinaten: 46.703734, 12.677883\nTags: amenity=townhall, website=https://www.untertilliach.at", "doc_type": "addresses"}
{"source": "OSM", "region": "Kärnten", "osm_type": "node", "osm_id": 5583685616, "name": null, "category": null, "address": "4, 9943 Untertilliach", "street": null, "housenumber": "4", "postcode": "9943", "place": "Untertilliach", "lat": 46.7048858, "lon": 12.7190244, "tags": {"addr:city": "Untertilliach", "addr:housenumber": "4", "addr:place": "Untertilliach", "addr:postcode": "9943"}, "content": "Adresse: 4, 9943 Untertilliach\nOrt: Untertilliach\nPLZ: 9943\nKoordinaten: 46.704886, 12.719024", "doc_type": "addresses"}
{"source": "OSM", "region": "Kärnten", "osm_type": "node", "osm_id": 3062835817, "name": "Gemeindeamt Untertilliach", "category": "amenity:townhall", "address": "Kirchberg 62a, 9943 Untertilliach", "street": "Kirchberg", "housenumber": "62a", "postcode": "9943", "place": "Untertilliach", "lat": 46.7037341, "lon": 12.6778828, "tags": {"addr:city": "Untertilliach", "addr:housenumber": "62a", "addr:postcode": "9943", "addr:street": "Kirchberg", "amenity": "townhall", "name": "Gemeindeamt Untertilliach", "website": "https://www.untertilliach.at"}, "content": "Gemeindeamt Untertilliach\nKategorie: amenity:townhall\nAdresse: Kirchberg 62a, 9943 Untertilliach\nOrt: Untertilliach\nPLZ: 9943\nKoordinaten: 46.703734, 12.677883\nTags: amenity=townhall, website=https://www.untertilliach.at", "doc_type": "pois"}
