{"source": "OSM", "region": "Kärnten", "osm_type": "node", "osm_id": 4742872714, "name": null, "category": null, "address": "Libeliče 3, 2372 Libeliče", "street": "Libeliče", "housenumber": "3", "postcode": "2372", "place": "Libeliče", "lat": 46.6186022, "lon": 14.950769, "tags": {"addr:city": "Libeliče", "addr:housenumber": "3", "addr:postcode": "2372", "addr:street": "Libeliče"}, "content": "Adresse: Libeliče 3, 2372 Libeliče\nOrt: Libeliče\nPLZ: 2372\nKoordinaten: 46.618602, 14.950769", "doc_type": "addresses"}
{"source": "OSM", "region": "Kärnten", "osm_type": "node", "osm_id": 4742872715, "name": null, "category": null, "address": "Libeliče 2, 2372 Libeliče", "street": "Libeliče", "housenumber": "2", "postcode": "2372", "place": "Libeliče", "lat": 46.6182336, "lon": 14.9515005, "tags": {"addr:city": "Libeliče", "addr:housenumber": "2", "addr:postcode": "2372", "addr:street": "Libeliče"}, "content": "Adresse: Libeliče 2, 2372 Libeliče\nOrt: Libeliče\nPLZ: 2372\nKoordinaten: 46.618234, 14.951500", "doc_type": "addresses"}
{"source": "OSM", "region": "Kärnten", "osm_type": "node", "osm_id": 4742872716, "name": null, "category": null, "address": "Libeliče 2B, 2372 Libeliče", "street": "Libeliče", "housenumber": "2B", "postcode": "2372", "place": "Libeliče", "lat": 46.617685, "lon": 14.951958, "tags": {"addr:city": "Libeliče", "addr:housenumber": "2B", "addr:postcode": "2372", "addr:street": "Libeliče"}, "content": "Adresse: Libeliče 2B, 2372 Libeliče\nOrt: Libeliče\nPLZ: 2372\nKoordinaten: 46.617685, 14.951958", "doc_type": "addresses"}
{"source": "OSM", "region": "Kärnten", "osm_type": "node", "osm_id": 4742872717, "name": null, "category": null, "address": "Libeliče 2C, 2372 Libeliče", "street": "Libeliče", "housenumber": "2C", "postcode": "2372", "place": "Libeliče", "lat": 46.6170644, "lon": 14.9524677, "tags": {"addr:city": "Libeliče", "addr:housenumber": "2C", "addr:postcode": "2372", "addr:street": "Libeliče"}, "content": "Adresse: Libeliče 2C, 2372 Libeliče\nOrt: Libeliče\nPLZ: 2372\nKoordinaten: 46.617064, 14.952468", "doc_type": "addresses"}
{"source": "OSM", "region": "Kärnten", "osm_type": "node", "osm_id": 4742872718, "name": null, "category": null, "address": "Libeliče 2A, 2372 Libeliče", "street": "Libeliče", "housenumber": "2A", "postcode": "2372", "place": "Libeliče", "lat": 46.6173433, "lon": 14.9523761, "tags": {"addr:city": "Libeliče", "addr:housenumber": "2A", "addr:postcode": "2372", "addr:street": "Libeliče"}, "content": "Adresse: Libeliče 2A, 2372 Libeliče\nOrt: Libeliče\nPLZ: 2372\nKoordinaten: 46.617343, 14.952376", "doc_type": "addresses"}
{"source": "OSM", "region": "Kärnten", "osm_type": "node", "osm_id": 4742872719, "name": null, "category": null, "address": "Libeliška Gora 47, 2372 Libeliče", "street": "Libeliška Gora", "housenumber": "47", "postcode": "2372", "place": "Libeliče", "lat": 46.6165337, "lon": 14.9526771, "tags": {"addr:city": "Libeliče", "addr:housenumber": "47", "addr:postcode": "2372", "addr:street": "Libeliška Gora"}, "content": "Adresse: Libeliška Gora 47, 2372 Libeliče\nOrt: Libeliče\nPLZ: 2372\nKoordinaten: 46.616534, 14.952677", "doc_type": "addresses"}
{"source": "OSM", "region": "Kärnten", "osm_type": "node", "osm_id": 4742872720, "name": null, "category": null, "address": "Libeliče 2D, 2372 Libeliče", "street": "Libeliče", "housenumber": "2D", "postcode": "2372", "place": "Libeliče", "lat": 46.6175231, "lon": 14.9520756, "tags": {"addr:city": "Libeliče", "addr:housenumber": "2D", "addr:postcode": "2372", "addr:street": "Libeliče"}, "content": "Adresse: Libeliče 2D, 2372 Libeliče\nOrt: Libeliče\nPLZ: 2372\nKoordinaten: 46.617523, 14.952076", "doc_type": "addresses"}
{"source": "OSM", "region": "Kärnten", "osm_type": "node", "osm_id": 4742872721, "name": null, "category": null, "address": "Libeliče 1, 2372 Libeliče", "street": "Libeliče", "housenumber": "1", "postcode": "2372", "place": "Libeliče", "lat": 46.6187462, "lon": 14.9509647, "tags": {"addr:city": "Libeliče", "addr:housenumber": "1", "addr:postcode": "2372", "addr:street": "Libeliče"}, "content": "Adresse: Libeliče 1, 2372 Libeliče\nOrt: Libeliče\nPLZ: 2372\nKoordinaten: 46.618746, 14.950965", "doc_type": "addresses"}
{"source": "OSM", "region": "Kärnten", "osm_type": "node", "osm_id": 4742872901, "name": null, "category": null, "address": "Libeliče 36A, 2372 Libeliče", "street": "Libeliče", "housenumber": "36A", "postcode": "2372", "place": "Libeliče", "lat": 46.6228278, "lon": 14.9443929, "tags": {"addr:city": "Libeliče", "addr:housenumber": "36A", "addr:postcode": "2372", "addr:street": "Libeliče"}, "content": "Adresse: Libeliče 36A, 2372 Libeliče\nOrt: Libeliče\nPLZ: 2372\nKoordinaten: 46.622828, 14.944393", "doc_type": "addresses"}
{"source": "OSM", "region": "Kärnten", "osm_type": "node", "osm_id": 4742872902, "name": null, "category": null, "address": "Libeliče 38, 2372 Libeliče", "street": "Libeliče", "housenumber": "38", "postcode": "2372", "place": "Libeliče", "lat": 46.6231245, "lon": 14.9438703, "tags": {"addr:city": "Libeliče", "addr:housenumber": "38", "addr:postcode": "2372", "addr:street": "Libeliče"}, "content": "Adresse: Libeliče 38, 2372 Libeliče\nOrt: Libeliče\nPLZ: 2372\nKoordinaten: 46.623125, 14.943870", "doc_type": "addresses"}
{"source": "OSM", "region": "Kärnten", "osm_type": "node", "osm_id": 4742872903, "name": null, "category": null, "address": "Libeliče 37, 2372 Libeliče", "street": "Libeliče", "housenumber": "37", "postcode": "2372", "place": "Libeliče", "lat": 46.6230706, "lon": 14.9441054, "tags": {"addr:city": "Libeliče", "addr:housenumber": "37", "addr:postcode": "2372", "addr:street": "Libeliče"}, "content": "Adresse: Libeliče 37, 2372 Libeliče\nOrt: Libeliče\nPLZ: 2372\nKoordinaten: 46.623071, 14.944105", "doc_type": "addresses"}
{"source": "OSM", "region": "Kärnten", "osm_type": "node", "osm_id": 4742872904, "name": null, "category": null, "address": "Libeliče 35, 2372 Libeliče", "street": "Libeliče", "housenumber": "35", "postcode": "2372", "place": "Libeliče", "lat": 46.622891, "lon": 14.9448629, "tags": {"addr:city": "Libeliče", "addr:housenumber": "35", "addr:postcode": "2372", "addr:street": "Libeliče"}, "content": "Adresse: Libeliče 35, 2372 Libeliče\nOrt: Libeliče\nPLZ: 2372\nKoordinaten: 46.622891, 14.944863", "doc_type": "addresses"}
{"source": "OSM", "region": "Kärnten", "osm_type": "node", "osm_id": 4742872905, "name": null, "category": null, "address": "Libeliče 36, 2372 Libeliče", "street": "Libeliče", "housenumber": "36", "postcode": "2372", "place": "Libeliče", "lat": 46.6229447, "lon": 14.94421, "tags": {"addr:city": "Libeliče", "addr:housenumber": "36", "addr:postcode": "2372", "addr:street": "Libeliče"}, "content": "Adresse: Libeliče 36, 2372 Libeliče\nOrt: Libeliče\nPLZ: 2372\nKoordinaten: 46.622945, 14.944210", "doc_type": "addresses"}
