{"source": "OSM", "region": "Kärnten", "osm_type": "node", "osm_id": 340519615, "name": "Post Filiale 9620", "category": "amenity:post_office", "address": "Bahnhofstraße 5, 9620 Hermagor", "street": "Bahnhofstraße", "housenumber": "5", "postcode": "9620", "place": "Hermagor", "lat": 46.6270748, "lon": 13.3744013, "tags": {"addr:city": "Hermagor", "addr:housenumber": "5", "addr:postcode": "9620", "addr:street": "Bahnhofstraße", "amenity": "post_office", "name": "Post Filiale 9620", "operator": "Österreichische Post AG", "website": "https://www.post.at"}, "content": "Post Filiale 9620\nKategorie: amenity:post_office\nAdresse: Bahnhofstraße 5, 9620 Hermagor\nOrt: Hermagor\nPLZ: 9620\nKoordinaten: 46.627075, 13.374401\nTags: amenity=post_office, operator=Österreichische Post AG, website=https://www.post.at", "doc_type": "addresses"}
{"source": "OSM", "region": "Kärnten", "osm_type": "node", "osm_id": 881244627, "name": null, "category": null, "address": "Thurnhof 7, Hermagor", "street": "Thurnhof", "housenumber": "7", "postcode": null, "place": "Hermagor", "lat": 46.6319877, "lon": 13.3630221, "tags": {"addr:city": "Hermagor", "addr:housenumber": "7", "addr:street": "Thurnhof"}, "content": "Adresse: Thurnhof 7, Hermagor\nOrt: Hermagor\nKoordinaten: 46.631988, 13.363022", "doc_type": "addresses"}
{"source": "OSM", "region": "Kärnten", "osm_type": "node", "osm_id": 881244850, "name": null, "category": null, "address": "Thurnhof 6, Hermagor", "street": "Thurnhof", "housenumber": "6", "postcode": null, "place": "Hermagor", "lat": 46.6320474, "lon": 13.3626715, "tags": {"addr:city": "Hermagor", "addr:housenumber": "6", "addr:street": "Thurnhof"}, "content": "Adresse: Thurnhof 6, Hermagor\nOrt: Hermagor\nKoordinaten: 46.632047, 13.362671", "doc_type": "addresses"}
{"source": "OSM", "region": "Kärnten", "osm_type": "node", "osm_id": 2289117374, "name": "Kury Uhren Schmuck", "category": "shop:jewelry", "address": "Hauptstraße 6, 9620 Hermagor", "street": "Hauptstraße", "housenumber": "6", "postcode": "9620", "place": "Hermagor", "lat": 46.6274178, "lon": 13.3700534, "tags": {"addr:city": "Hermagor", "addr:housenumber": "6", "addr:postcode": "9620", "addr:street": "Hauptstraße", "name": "Kury Uhren Schmuck", "phone": "+43676841584400", "shop": "jewelry", "website": "https://www.kury.eu/"}, "content": "Kury Uhren Schmuck\nKategorie: shop:jewelry\nAdresse: Hauptstraße 6, 9620 Hermagor\nOrt: Hermagor\nPLZ: 9620\nKoordinaten: 46.627418, 13.370053\nTags: shop=jewelry, phone=+43676841584400, website=https://www.kury.eu/", "doc_type": "addresses"}
{"source": "OSM", "region": "Kärnten", "osm_type": "node", "osm_id": 2577360186, "name": "Ferienwohnungen Dzido", "category": "tourism:apartment", "address": "Hauptstraße 24, 9620 Hermagor", "street": "Hauptstraße", "housenumber": "24", "postcode": "9620", "place": "Hermagor", "lat": 46.6275778, "lon": 13.3672734, "tags": {"addr:city": "Hermagor", "addr:housenumber": "24", "addr:postcode": "9620", "addr:street": "Hauptstraße", "name": "Ferienwohnungen Dzido", "tourism": "apartment", "website": "http://www.dzido-nassfeld.at/"}, "content": "Ferienwohnungen Dzido\nKategorie: tourism:apartment\nAdresse: Hauptstraße 24, 9620 Hermagor\nOrt: Hermagor\nPLZ: 9620\nKoordinaten: 46.627578, 13.367273\nTags: website=http://www.dzido-nassfeld.at/", "doc_type": "addresses"}
{"source": "OSM", "region": "Kärnten", "osm_type": "node", "osm_id": 3621783647, "name": "Appartementhaus Alpenrose", "category": null, "address": "Naßfeld 5, 9620 Hermagor", "street": "Naßfeld", "housenumber": "5", "postcode": "9620", "place": "Hermagor", "lat": 46.563395, "lon": 13.2742091, "tags": {"addr:city": "Hermagor", "addr:housenumber": "5", "addr:postcode": "9620", "addr:street": "Naßfeld", "name": "Appartementhaus Alpenrose"}, "content": "Appartementhaus Alpenrose\nAdresse: Naßfeld 5, 9620 Hermagor\nOrt: Hermagor\nPLZ: 9620\nKoordinaten: 46.563395, 13.274209", "doc_type": "addresses"}
{"source": "OSM", "region": "Kärnten", "osm_type": "node", "osm_id": 5130535623, "name": "Bipa", "category": "shop:chemist", "address": "10. Oktober-Straße 3, 9620 Hermagor", "street": "10. Oktober-Straße", "housenumber": "3", "postcode": "9620", "place": "Hermagor", "lat": 46.6269519, "lon": 13.3712259, "tags": {"addr:city": "Hermagor", "addr:housenumber": "3", "addr:postcode": "9620", "addr:street": "10. Oktober-Straße", "brand": "Bipa", "name": "Bipa", "shop": "chemist"}, "content": "Bipa\nKategorie: shop:chemist\nAdresse: 10. Oktober-Straße 3, 9620 Hermagor\nOrt: Hermagor\nPLZ: 9620\nKoordinaten: 46.626952, 13.371226\nTags: shop=chemist, brand=Bipa", "doc_type": "addresses"}
{"source": "OSM", "region": "Kärnten", "osm_type": "node", "osm_id": 340519615, "name": "Post Filiale 9620", "category": "amenity:post_office", "address": "Bahnhofstraße 5, 9620 Hermagor", "street": "Bahnhofstraße", "housenumber": "5", "postcode": "9620", "place": "Hermagor", "lat": 46.6270748, "lon": 13.3744013, "tags": {"addr:city": "Hermagor", "addr:housenumber": "5", "addr:postcode": "9620", "addr:street": "Bahnhofstraße", "amenity": "post_office", "name": "Post Filiale 9620", "operator": "Österreichische Post AG", "website": "https://www.post.at"}, "content": "Post Filiale 9620\nKategorie: amenity:post_office\nAdresse: Bahnhofstraße 5, 9620 Hermagor\nOrt: Hermagor\nPLZ: 9620\nKoordinaten: 46.627075, 13.374401\nTags: amenity=post_office, operator=Österreichische Post AG, website=https://www.post.at", "doc_type": "pois"}
{"source": "OSM", "region": "Kärnten", "osm_type": "node", "osm_id": 2289117374, "name": "Kury Uhren Schmuck", "category": "shop:jewelry", "address": "Hauptstraße 6, 9620 Hermagor", "street": "Hauptstraße", "housenumber": "6", "postcode": "9620", "place": "Hermagor", "lat": 46.6274178, "lon": 13.3700534, "tags": {"addr:city": "Hermagor", "addr:housenumber": "6", "addr:postcode": "9620", "addr:street": "Hauptstraße", "name": "Kury Uhren Schmuck", "phone": "+43676841584400", "shop": "jewelry", "website": "https://www.kury.eu/"}, "content": "Kury Uhren Schmuck\nKategorie: shop:jewelry\nAdresse: Hauptstraße 6, 9620 Hermagor\nOrt: Hermagor\nPLZ: 9620\nKoordinaten: 46.627418, 13.370053\nTags: shop=jewelry, phone=+43676841584400, website=https://www.kury.eu/", "doc_type": "pois"}
{"source": "OSM", "region": "Kärnten", "osm_type": "node", "osm_id": 2577360186, "name": "Ferienwohnungen Dzido", "category": "tourism:apartment", "address": "Hauptstraße 24, 9620 Hermagor", "street": "Hauptstraße", "housenumber": "24", "postcode": "9620", "place": "Hermagor", "lat": 46.6275778, "lon": 13.3672734, "tags": {"addr:city": "Hermagor", "addr:housenumber": "24", "addr:postcode": "9620", "addr:street": "Hauptstraße", "name": "Ferienwohnungen Dzido", "tourism": "apartment", "website": "http://www.dzido-nassfeld.at/"}, "content": "Ferienwohnungen Dzido\nKategorie: tourism:apartment\nAdresse: Hauptstraße 24, 9620 Hermagor\nOrt: Hermagor\nPLZ: 9620\nKoordinaten: 46.627578, 13.367273\nTags: website=http://www.dzido-nassfeld.at/", "doc_type": "pois"}
{"source": "OSM", "region": "Kärnten", "osm_type": "node", "osm_id": 5130535623, "name": "Bipa", "category": "shop:chemist", "address": "10. Oktober-Straße 3, 9620 Hermagor", "street": "10. Oktober-Straße", "housenumber": "3", "postcode": "9620", "place": "Hermagor", "lat": 46.6269519, "lon": 13.3712259, "tags": {"addr:city": "Hermagor", "addr:housenumber": "3", "addr:postcode": "9620", "addr:street": "10. Oktober-Straße", "brand": "Bipa", "name": "Bipa", "shop": "chemist"}, "content": "Bipa\nKategorie: shop:chemist\nAdresse: 10. Oktober-Straße 3, 9620 Hermagor\nOrt: Hermagor\nPLZ: 9620\nKoordinaten: 46.626952, 13.371226\nTags: shop=chemist, brand=Bipa", "doc_type": "pois"}
