{"source": "OSM", "region": "Kärnten", "osm_type": "node", "osm_id": 1293104958, "name": "Buschenschank Liendl", "category": "amenity:restaurant", "address": "3, 9074 Keutschach am See", "street": null, "housenumber": "3", "postcode": "9074", "place": "Keutschach am See", "lat": 46.5902798, "lon": 14.1714942, "tags": {"addr:city": "Keutschach am See", "addr:housenumber": "3", "addr:place": "Plaschischen", "addr:postcode": "9074", "amenity": "restaurant", "name": "Buschenschank Liendl", "phone": "+43 4273 2644 0", "website": "https://www.liendl.at/"}, "content": "Buschenschank Liendl\nKategorie: amenity:restaurant\nAdresse: 3, 9074 Keutschach am See\nOrt: Keutschach am See\nPLZ: 9074\nKoordinaten: 46.590280, 14.171494\nTags: amenity=restaurant, phone=+43 4273 2644 0, website=https://www.liendl.at/", "doc_type": "addresses"}
{"source": "OSM", "region": "Kärnten", "osm_type": "node", "osm_id": 2529347369, "name": null, "category": null, "address": "Keutschach 60a, 9074 Keutschach am See", "street": "Keutschach", "housenumber": "60a", "postcode": "9074", "place": "Keutschach am See", "lat": 46.5919023, "lon": 14.1831105, "tags": {"addr:city": "Keutschach am See", "addr:housenumber": "60a", "addr:postcode": "9074", "addr:street": "Keutschach"}, "content": "Adresse: Keutschach 60a, 9074 Keutschach am See\nOrt: Keutschach am See\nPLZ: 9074\nKoordinaten: 46.591902, 14.183110", "doc_type": "addresses"}
{"source": "OSM", "region": "Kärnten", "osm_type": "node", "osm_id": 2529347374, "name": null, "category": null, "address": "Keutschach 60b, 9074 Keutschach am See", "street": "Keutschach", "housenumber": "60b", "postcode": "9074", "place": "Keutschach am See", "lat": 46.5917886, "lon": 14.1832673, "tags": {"addr:city": "Keutschach am See", "addr:housenumber": "60b", "addr:postcode": "9074", "addr:street": "Keutschach"}, "content": "Adresse: Keutschach 60b, 9074 Keutschach am See\nOrt: Keutschach am See\nPLZ: 9074\nKoordinaten: 46.591789, 14.183267", "doc_type": "addresses"}
{"source": "OSM", "region": "Kärnten", "osm_type": "node", "osm_id": 2529347378, "name": null, "category": null, "address": "Keutschach 62, 9074 Keutschach am See", "street": "Keutschach", "housenumber": "62", "postcode": "9074", "place": "Keutschach am See", "lat": 46.5918428, "lon": 14.1837545, "tags": {"addr:city": "Keutschach am See", "addr:housenumber": "62", "addr:postcode": "9074", "addr:street": "Keutschach"}, "content": "Adresse: Keutschach 62, 9074 Keutschach am See\nOrt: Keutschach am See\nPLZ: 9074\nKoordinaten: 46.591843, 14.183754", "doc_type": "addresses"}
{"source": "OSM", "region": "Kärnten", "osm_type": "node", "osm_id": 2529347382, "name": null, "category": null, "address": "Keutschach 63, 9074 Keutschach am See", "street": "Keutschach", "housenumber": "63", "postcode": "9074", "place": "Keutschach am See", "lat": 46.5918793, "lon": 14.1838574, "tags": {"addr:city": "Keutschach am See", "addr:housenumber": "63", "addr:postcode": "9074", "addr:street": "Keutschach"}, "content": "Adresse: Keutschach 63, 9074 Keutschach am See\nOrt: Keutschach am See\nPLZ: 9074\nKoordinaten: 46.591879, 14.183857", "doc_type": "addresses"}
{"source": "OSM", "region": "Kärnten", "osm_type": "node", "osm_id": 2529347385, "name": null, "category": null, "address": "Keutschach 64, 9074 Keutschach am See", "street": "Keutschach", "housenumber": "64", "postcode": "9074", "place": "Keutschach am See", "lat": 46.59195, "lon": 14.1840432, "tags": {"addr:city": "Keutschach am See", "addr:housenumber": "64", "addr:postcode": "9074", "addr:street": "Keutschach"}, "content": "Adresse: Keutschach 64, 9074 Keutschach am See\nOrt: Keutschach am See\nPLZ: 9074\nKoordinaten: 46.591950, 14.184043", "doc_type": "addresses"}
{"source": "OSM", "region": "Kärnten", "osm_type": "node", "osm_id": 2529347389, "name": null, "category": null, "address": "Keutschach 65, 9074 Keutschach am See", "street": "Keutschach", "housenumber": "65", "postcode": "9074", "place": "Keutschach am See", "lat": 46.5920013, "lon": 14.1841908, "tags": {"addr:city": "Keutschach am See", "addr:housenumber": "65", "addr:postcode": "9074", "addr:street": "Keutschach"}, "content": "Adresse: Keutschach 65, 9074 Keutschach am See\nOrt: Keutschach am See\nPLZ: 9074\nKoordinaten: 46.592001, 14.184191", "doc_type": "addresses"}
{"source": "OSM", "region": "Kärnten", "osm_type": "node", "osm_id": 2529347396, "name": null, "category": null, "address": "Keutschach 66, 9074 Keutschach am See", "street": "Keutschach", "housenumber": "66", "postcode": "9074", "place": "Keutschach am See", "lat": 46.5920925, "lon": 14.1843998, "tags": {"addr:city": "Keutschach am See", "addr:housenumber": "66", "addr:postcode": "9074", "addr:street": "Keutschach"}, "content": "Adresse: Keutschach 66, 9074 Keutschach am See\nOrt: Keutschach am See\nPLZ: 9074\nKoordinaten: 46.592092, 14.184400", "doc_type": "addresses"}
{"source": "OSM", "region": "Kärnten", "osm_type": "node", "osm_id": 2529347403, "name": null, "category": null, "address": "Keutschach 67, 9074 Keutschach am See", "street": "Keutschach", "housenumber": "67", "postcode": "9074", "place": "Keutschach am See", "lat": 46.5921483, "lon": 14.184496, "tags": {"addr:city": "Keutschach am See", "addr:housenumber": "67", "addr:postcode": "9074", "addr:street": "Keutschach"}, "content": "Adresse: Keutschach 67, 9074 Keutschach am See\nOrt: Keutschach am See\nPLZ: 9074\nKoordinaten: 46.592148, 14.184496", "doc_type": "addresses"}
{"source": "OSM", "region": "Kärnten", "osm_type": "node", "osm_id": 2529347410, "name": null, "category": null, "address": "Keutschach 68, 9074 Keutschach am See", "street": "Keutschach", "housenumber": "68", "postcode": "9074", "place": "Keutschach am See", "lat": 46.5922441, "lon": 14.1846635, "tags": {"addr:city": "Keutschach am See", "addr:housenumber": "68", "addr:postcode": "9074", "addr:street": "Keutschach"}, "content": "Adresse: Keutschach 68, 9074 Keutschach am See\nOrt: Keutschach am See\nPLZ: 9074\nKoordinaten: 46.592244, 14.184663", "doc_type": "addresses"}
{"source": "OSM", "region": "Kärnten", "osm_type": "node", "osm_id": 2529347414, "name": null, "category": null, "address": "Keutschach 69, 9074 Keutschach am See", "street": "Keutschach", "housenumber": "69", "postcode": "9074", "place": "Keutschach am See", "lat": 46.5923318, "lon": 14.184773, "tags": {"addr:city": "Keutschach am See", "addr:housenumber": "69", "addr:postcode": "9074", "addr:street": "Keutschach"}, "content": "Adresse: Keutschach 69, 9074 Keutschach am See\nOrt: Keutschach am See\nPLZ: 9074\nKoordinaten: 46.592332, 14.184773", "doc_type": "addresses"}
{"source": "OSM", "region": "Kärnten", "osm_type": "node", "osm_id": 2529347418, "name": null, "category": null, "address": "Keutschach 87, 9074 Keutschach am See", "street": "Keutschach", "housenumber": "87", "postcode": "9074", "place": "Keutschach am See", "lat": 46.5910633, "lon": 14.1776177, "tags": {"addr:city": "Keutschach am See", "addr:housenumber": "87", "addr:postcode": "9074", "addr:street": "Keutschach"}, "content": "Adresse: Keutschach 87, 9074 Keutschach am See\nOrt: Keutschach am See\nPLZ: 9074\nKoordinaten: 46.591063, 14.177618", "doc_type": "addresses"}
{"source": "OSM", "region": "Kärnten", "osm_type": "node", "osm_id": 2529347423, "name": null, "category": null, "address": "Keutschach 88, 9074 Keutschach am See", "street": "Keutschach", "housenumber": "88", "postcode": "9074", "place": "Keutschach am See", "lat": 46.5910865, "lon": 14.1772408, "tags": {"addr:city": "Keutschach am See", "addr:housenumber": "88", "addr:postcode": "9074", "addr:street": "Keutschach"}, "content": "Adresse: Keutschach 88, 9074 Keutschach am See\nOrt: Keutschach am See\nPLZ: 9074\nKoordinaten: 46.591087, 14.177241", "doc_type": "addresses"}
{"source": "OSM", "region": "Kärnten", "osm_type": "node", "osm_id": 2577247831, "name": null, "category": null, "address": "Keutschach 89, 9074 Keutschach am See", "street": "Keutschach", "housenumber": "89", "postcode": "9074", "place": "Keutschach am See", "lat": 46.5914594, "lon": 14.1778398, "tags": {"addr:city": "Keutschach am See", "addr:housenumber": "89", "addr:postcode": "9074", "addr:street": "Keutschach"}, "content": "Adresse: Keutschach 89, 9074 Keutschach am See\nOrt: Keutschach am See\nPLZ: 9074\nKoordinaten: 46.591459, 14.177840", "doc_type": "addresses"}
{"source": "OSM", "region": "Kärnten", "osm_type": "node", "osm_id": 2577247832, "name": null, "category": null, "address": "Keutschach 90, 9074 Keutschach am See", "street": "Keutschach", "housenumber": "90", "postcode": "9074", "place": "Keutschach am See", "lat": 46.5914444, "lon": 14.1775636, "tags": {"addr:city": "Keutschach am See", "addr:housenumber": "90", "addr:postcode": "9074", "addr:street": "Keutschach"}, "content": "Adresse: Keutschach 90, 9074 Keutschach am See\nOrt: Keutschach am See\nPLZ: 9074\nKoordinaten: 46.591444, 14.177564", "doc_type": "addresses"}
{"source": "OSM", "region": "Kärnten", "osm_type": "node", "osm_id": 2577247833, "name": null, "category": null, "address": "Keutschach 91, 9074 Keutschach am See", "street": "Keutschach", "housenumber": "91", "postcode": "9074", "place": "Keutschach am See", "lat": 46.5914406, "lon": 14.1772563, "tags": {"addr:city": "Keutschach am See", "addr:housenumber": "91", "addr:postcode": "9074", "addr:street": "Keutschach"}, "content": "Adresse: Keutschach 91, 9074 Keutschach am See\nOrt: Keutschach am See\nPLZ: 9074\nKoordinaten: 46.591441, 14.177256", "doc_type": "addresses"}
{"source": "OSM", "region": "Kärnten", "osm_type": "node", "osm_id": 2577247834, "name": null, "category": null, "address": "Keutschach 92, 9074 Keutschach am See", "street": "Keutschach", "housenumber": "92", "postcode": "9074", "place": "Keutschach am See", "lat": 46.5917372, "lon": 14.1771027, "tags": {"addr:city": "Keutschach am See", "addr:housenumber": "92", "addr:postcode": "9074", "addr:street": "Keutschach"}, "content": "Adresse: Keutschach 92, 9074 Keutschach am See\nOrt: Keutschach am See\nPLZ: 9074\nKoordinaten: 46.591737, 14.177103", "doc_type": "addresses"}
{"source": "OSM", "region": "Kärnten", "osm_type": "node", "osm_id": 2577247835, "name": null, "category": null, "address": "Keutschach 93, 9074 Keutschach am See", "street": "Keutschach", "housenumber": "93", "postcode": "9074", "place": "Keutschach am See", "lat": 46.5918327, "lon": 14.1774045, "tags": {"addr:city": "Keutschach am See", "addr:housenumber": "93", "addr:postcode": "9074", "addr:street": "Keutschach"}, "content": "Adresse: Keutschach 93, 9074 Keutschach am See\nOrt: Keutschach am See\nPLZ: 9074\nKoordinaten: 46.591833, 14.177404", "doc_type": "addresses"}
{"source": "OSM", "region": "Kärnten", "osm_type": "node", "osm_id": 2577247836, "name": null, "category": null, "address": "Keutschach 94, 9074 Keutschach am See", "street": "Keutschach", "housenumber": "94", "postcode": "9074", "place": "Keutschach am See", "lat": 46.5918265, "lon": 14.1776989, "tags": {"addr:city": "Keutschach am See", "addr:housenumber": "94", "addr:postcode": "9074", "addr:street": "Keutschach"}, "content": "Adresse: Keutschach 94, 9074 Keutschach am See\nOrt: Keutschach am See\nPLZ: 9074\nKoordinaten: 46.591827, 14.177699", "doc_type": "addresses"}
{"source": "OSM", "region": "Kärnten", "osm_type": "node", "osm_id": 2578116476, "name": null, "category": null, "address": "Rauth 66, 9074 Keutschach am See", "street": "Rauth", "housenumber": "66", "postcode": "9074", "place": "Keutschach am See", "lat": 46.6004103, "lon": 14.191599, "tags": {"addr:city": "Keutschach am See", "addr:housenumber": "66", "addr:postcode": "9074", "addr:street": "Rauth"}, "content": "Adresse: Rauth 66, 9074 Keutschach am See\nOrt: Keutschach am See\nPLZ: 9074\nKoordinaten: 46.600410, 14.191599", "doc_type": "addresses"}
{"source": "OSM", "region": "Kärnten", "osm_type": "node", "osm_id": 2578116477, "name": null, "category": null, "address": "Rauth 67, 9074 Keutschach am See", "street": "Rauth", "housenumber": "67", "postcode": "9074", "place": "Keutschach am See", "lat": 46.6005251, "lon": 14.1915849, "tags": {"addr:city": "Keutschach am See", "addr:housenumber": "67", "addr:postcode": "9074", "addr:street": "Rauth"}, "content": "Adresse: Rauth 67, 9074 Keutschach am See\nOrt: Keutschach am See\nPLZ: 9074\nKoordinaten: 46.600525, 14.191585", "doc_type": "addresses"}
{"source": "OSM", "region": "Kärnten", "osm_type": "node", "osm_id": 4609401945, "name": null, "category": null, "address": "Leisbach 42, 9074 Keutschach am See", "street": "Leisbach", "housenumber": "42", "postcode": "9074", "place": "Keutschach am See", "lat": 46.5945904, "lon": 14.2282486, "tags": {"addr:city": "Keutschach am See", "addr:housenumber": "42", "addr:postcode": "9074", "addr:street": "Leisbach"}, "content": "Adresse: Leisbach 42, 9074 Keutschach am See\nOrt: Keutschach am See\nPLZ: 9074\nKoordinaten: 46.594590, 14.228249", "doc_type": "addresses"}
{"source": "OSM", "region": "Kärnten", "osm_type": "node", "osm_id": 4982483599, "name": null, "category": null, "address": "Reauz 34a, 9074 Keutschach am See", "street": "Reauz", "housenumber": "34a", "postcode": "9074", "place": "Keutschach am See", "lat": 46.5875223, "lon": 14.233011, "tags": {"addr:city": "Keutschach am See", "addr:housenumber": "34a", "addr:postcode": "9074", "addr:street": "Reauz"}, "content": "Adresse: Reauz 34a, 9074 Keutschach am See\nOrt: Keutschach am See\nPLZ: 9074\nKoordinaten: 46.587522, 14.233011", "doc_type": "addresses"}
{"source": "OSM", "region": "Kärnten", "osm_type": "node", "osm_id": 4982483600, "name": null, "category": null, "address": "Reauz 26a, 9074 Keutschach am See", "street": "Reauz", "housenumber": "26a", "postcode": "9074", "place": "Keutschach am See", "lat": 46.5836058, "lon": 14.2312776, "tags": {"addr:city": "Keutschach am See", "addr:housenumber": "26a", "addr:postcode": "9074", "addr:street": "Reauz"}, "content": "Adresse: Reauz 26a, 9074 Keutschach am See\nOrt: Keutschach am See\nPLZ: 9074\nKoordinaten: 46.583606, 14.231278", "doc_type": "addresses"}
{"source": "OSM", "region": "Kärnten", "osm_type": "node", "osm_id": 4982483601, "name": null, "category": null, "address": "Reauz 9a, 9074 Keutschach am See", "street": "Reauz", "housenumber": "9a", "postcode": "9074", "place": "Keutschach am See", "lat": 46.5854953, "lon": 14.2353279, "tags": {"addr:city": "Keutschach am See", "addr:housenumber": "9a", "addr:postcode": "9074", "addr:street": "Reauz"}, "content": "Adresse: Reauz 9a, 9074 Keutschach am See\nOrt: Keutschach am See\nPLZ: 9074\nKoordinaten: 46.585495, 14.235328", "doc_type": "addresses"}
{"source": "OSM", "region": "Kärnten", "osm_type": "node", "osm_id": 4982483602, "name": null, "category": null, "address": "Reauz 4a, 9074 Keutschach am See", "street": "Reauz", "housenumber": "4a", "postcode": "9074", "place": "Keutschach am See", "lat": 46.5860531, "lon": 14.2274459, "tags": {"addr:city": "Keutschach am See", "addr:housenumber": "4a", "addr:postcode": "9074", "addr:street": "Reauz"}, "content": "Adresse: Reauz 4a, 9074 Keutschach am See\nOrt: Keutschach am See\nPLZ: 9074\nKoordinaten: 46.586053, 14.227446", "doc_type": "addresses"}
{"source": "OSM", "region": "Kärnten", "osm_type": "node", "osm_id": 4982483603, "name": null, "category": null, "address": "Leisbach 47, 9074 Keutschach am See", "street": "Leisbach", "housenumber": "47", "postcode": "9074", "place": "Keutschach am See", "lat": 46.5935794, "lon": 14.2393214, "tags": {"addr:city": "Keutschach am See", "addr:housenumber": "47", "addr:postcode": "9074", "addr:street": "Leisbach"}, "content": "Adresse: Leisbach 47, 9074 Keutschach am See\nOrt: Keutschach am See\nPLZ: 9074\nKoordinaten: 46.593579, 14.239321", "doc_type": "addresses"}
{"source": "OSM", "region": "Kärnten", "osm_type": "node", "osm_id": 4982483604, "name": null, "category": null, "address": "Leisbach 11a, 9074 Keutschach am See", "street": "Leisbach", "housenumber": "11a", "postcode": "9074", "place": "Keutschach am See", "lat": 46.5966821, "lon": 14.2363345, "tags": {"addr:city": "Keutschach am See", "addr:housenumber": "11a", "addr:postcode": "9074", "addr:street": "Leisbach"}, "content": "Adresse: Leisbach 11a, 9074 Keutschach am See\nOrt: Keutschach am See\nPLZ: 9074\nKoordinaten: 46.596682, 14.236334", "doc_type": "addresses"}
{"source": "OSM", "region": "Kärnten", "osm_type": "node", "osm_id": 4982483605, "name": null, "category": null, "address": "Leisbach 1a, 9074 Keutschach am See", "street": "Leisbach", "housenumber": "1a", "postcode": "9074", "place": "Keutschach am See", "lat": 46.5924538, "lon": 14.2375042, "tags": {"addr:city": "Keutschach am See", "addr:housenumber": "1a", "addr:postcode": "9074", "addr:street": "Leisbach"}, "content": "Adresse: Leisbach 1a, 9074 Keutschach am See\nOrt: Keutschach am See\nPLZ: 9074\nKoordinaten: 46.592454, 14.237504", "doc_type": "addresses"}
{"source": "OSM", "region": "Kärnten", "osm_type": "node", "osm_id": 4982483606, "name": null, "category": null, "address": "Reauz 138, 9074 Keutschach am See", "street": "Reauz", "housenumber": "138", "postcode": "9074", "place": "Keutschach am See", "lat": 46.5852492, "lon": 14.2339525, "tags": {"addr:city": "Keutschach am See", "addr:housenumber": "138", "addr:postcode": "9074", "addr:street": "Reauz"}, "content": "Adresse: Reauz 138, 9074 Keutschach am See\nOrt: Keutschach am See\nPLZ: 9074\nKoordinaten: 46.585249, 14.233952", "doc_type": "addresses"}
{"source": "OSM", "region": "Kärnten", "osm_type": "node", "osm_id": 4982483607, "name": null, "category": null, "address": "Reauz 136, 9074 Keutschach am See", "street": "Reauz", "housenumber": "136", "postcode": "9074", "place": "Keutschach am See", "lat": 46.5871505, "lon": 14.2378113, "tags": {"addr:city": "Keutschach am See", "addr:housenumber": "136", "addr:postcode": "9074", "addr:street": "Reauz"}, "content": "Adresse: Reauz 136, 9074 Keutschach am See\nOrt: Keutschach am See\nPLZ: 9074\nKoordinaten: 46.587150, 14.237811", "doc_type": "addresses"}
{"source": "OSM", "region": "Kärnten", "osm_type": "node", "osm_id": 4982483608, "name": null, "category": null, "address": "Reauz 135, 9074 Keutschach am See", "street": "Reauz", "housenumber": "135", "postcode": "9074", "place": "Keutschach am See", "lat": 46.5865906, "lon": 14.2338586, "tags": {"addr:city": "Keutschach am See", "addr:housenumber": "135", "addr:postcode": "9074", "addr:street": "Reauz"}, "content": "Adresse: Reauz 135, 9074 Keutschach am See\nOrt: Keutschach am See\nPLZ: 9074\nKoordinaten: 46.586591, 14.233859", "doc_type": "addresses"}
{"source": "OSM", "region": "Kärnten", "osm_type": "node", "osm_id": 5049142146, "name": null, "category": null, "address": "Höflein 16a, 9074 Keutschach am See", "street": "Höflein", "housenumber": "16a", "postcode": "9074", "place": "Keutschach am See", "lat": 46.5892621, "lon": 14.2211668, "tags": {"addr:city": "Keutschach am See", "addr:housenumber": "16a", "addr:postcode": "9074", "addr:street": "Höflein"}, "content": "Adresse: Höflein 16a, 9074 Keutschach am See\nOrt: Keutschach am See\nPLZ: 9074\nKoordinaten: 46.589262, 14.221167", "doc_type": "addresses"}
{"source": "OSM", "region": "Kärnten", "osm_type": "node", "osm_id": 5049142147, "name": null, "category": null, "address": "Höflein 8a, 9074 Keutschach am See", "street": "Höflein", "housenumber": "8a", "postcode": "9074", "place": "Keutschach am See", "lat": 46.5890424, "lon": 14.2103405, "tags": {"addr:city": "Keutschach am See", "addr:housenumber": "8a", "addr:postcode": "9074", "addr:street": "Höflein"}, "content": "Adresse: Höflein 8a, 9074 Keutschach am See\nOrt: Keutschach am See\nPLZ: 9074\nKoordinaten: 46.589042, 14.210340", "doc_type": "addresses"}
{"source": "OSM", "region": "Kärnten", "osm_type": "node", "osm_id": 5049142148, "name": null, "category": null, "address": "Reauz 3a, 9074 Keutschach am See", "street": "Reauz", "housenumber": "3a", "postcode": "9074", "place": "Keutschach am See", "lat": 46.5869555, "lon": 14.2111084, "tags": {"addr:city": "Keutschach am See", "addr:housenumber": "3a", "addr:postcode": "9074", "addr:street": "Reauz"}, "content": "Adresse: Reauz 3a, 9074 Keutschach am See\nOrt: Keutschach am See\nPLZ: 9074\nKoordinaten: 46.586956, 14.211108", "doc_type": "addresses"}
{"source": "OSM", "region": "Kärnten", "osm_type": "node", "osm_id": 5049272574, "name": null, "category": null, "address": "Rauth 28, 9074 Keutschach am See", "street": "Rauth", "housenumber": "28", "postcode": "9074", "place": "Keutschach am See", "lat": 46.5933173, "lon": 14.1990224, "tags": {"addr:city": "Keutschach am See", "addr:housenumber": "28", "addr:postcode": "9074", "addr:street": "Rauth"}, "content": "Adresse: Rauth 28, 9074 Keutschach am See\nOrt: Keutschach am See\nPLZ: 9074\nKoordinaten: 46.593317, 14.199022", "doc_type": "addresses"}
{"source": "OSM", "region": "Kärnten", "osm_type": "node", "osm_id": 5049272575, "name": null, "category": null, "address": "Rauth 26, 9074 Keutschach am See", "street": "Rauth", "housenumber": "26", "postcode": "9074", "place": "Keutschach am See", "lat": 46.6009021, "lon": 14.1916513, "tags": {"addr:city": "Keutschach am See", "addr:housenumber": "26", "addr:postcode": "9074", "addr:street": "Rauth"}, "content": "Adresse: Rauth 26, 9074 Keutschach am See\nOrt: Keutschach am See\nPLZ: 9074\nKoordinaten: 46.600902, 14.191651", "doc_type": "addresses"}
{"source": "OSM", "region": "Kärnten", "osm_type": "node", "osm_id": 5049272576, "name": null, "category": null, "address": "Rauth 14a, 9074 Keutschach am See", "street": "Rauth", "housenumber": "14a", "postcode": "9074", "place": "Keutschach am See", "lat": 46.6007552, "lon": 14.1920536, "tags": {"addr:city": "Keutschach am See", "addr:housenumber": "14a", "addr:postcode": "9074", "addr:street": "Rauth"}, "content": "Adresse: Rauth 14a, 9074 Keutschach am See\nOrt: Keutschach am See\nPLZ: 9074\nKoordinaten: 46.600755, 14.192054", "doc_type": "addresses"}
{"source": "OSM", "region": "Kärnten", "osm_type": "node", "osm_id": 5049272577, "name": null, "category": null, "address": "Rauth 138, 9074 Keutschach am See", "street": "Rauth", "housenumber": "138", "postcode": "9074", "place": "Keutschach am See", "lat": 46.5940026, "lon": 14.19148, "tags": {"addr:city": "Keutschach am See", "addr:housenumber": "138", "addr:postcode": "9074", "addr:street": "Rauth"}, "content": "Adresse: Rauth 138, 9074 Keutschach am See\nOrt: Keutschach am See\nPLZ: 9074\nKoordinaten: 46.594003, 14.191480", "doc_type": "addresses"}
{"source": "OSM", "region": "Kärnten", "osm_type": "node", "osm_id": 5049272578, "name": null, "category": null, "address": "Dobeinitz 41, 9074 Keutschach am See", "street": "Dobeinitz", "housenumber": "41", "postcode": "9074", "place": "Keutschach am See", "lat": 46.5892665, "lon": 14.1978486, "tags": {"addr:city": "Keutschach am See", "addr:housenumber": "41", "addr:postcode": "9074", "addr:street": "Dobeinitz"}, "content": "Adresse: Dobeinitz 41, 9074 Keutschach am See\nOrt: Keutschach am See\nPLZ: 9074\nKoordinaten: 46.589267, 14.197849", "doc_type": "addresses"}
{"source": "OSM", "region": "Kärnten", "osm_type": "node", "osm_id": 5049272579, "name": null, "category": null, "address": "Rauth 136, 9074 Keutschach am See", "street": "Rauth", "housenumber": "136", "postcode": "9074", "place": "Keutschach am See", "lat": 46.600721, "lon": 14.189942, "tags": {"addr:city": "Keutschach am See", "addr:housenumber": "136", "addr:postcode": "9074", "addr:street": "Rauth"}, "content": "Adresse: Rauth 136, 9074 Keutschach am See\nOrt: Keutschach am See\nPLZ: 9074\nKoordinaten: 46.600721, 14.189942", "doc_type": "addresses"}
{"source": "OSM", "region": "Kärnten", "osm_type": "node", "osm_id": 5049272580, "name": null, "category": null, "address": "Rauth 135, 9074 Keutschach am See", "street": "Rauth", "housenumber": "135", "postcode": "9074", "place": "Keutschach am See", "lat": 46.6012224, "lon": 14.1903331, "tags": {"addr:city": "Keutschach am See", "addr:housenumber": "135", "addr:postcode": "9074", "addr:street": "Rauth"}, "content": "Adresse: Rauth 135, 9074 Keutschach am See\nOrt: Keutschach am See\nPLZ: 9074\nKoordinaten: 46.601222, 14.190333", "doc_type": "addresses"}
{"source": "OSM", "region": "Kärnten", "osm_type": "node", "osm_id": 5049272581, "name": null, "category": null, "address": "Rauth 134, 9074 Keutschach am See", "street": "Rauth", "housenumber": "134", "postcode": "9074", "place": "Keutschach am See", "lat": 46.6010728, "lon": 14.1914433, "tags": {"addr:city": "Keutschach am See", "addr:housenumber": "134", "addr:postcode": "9074", "addr:street": "Rauth"}, "content": "Adresse: Rauth 134, 9074 Keutschach am See\nOrt: Keutschach am See\nPLZ: 9074\nKoordinaten: 46.601073, 14.191443", "doc_type": "addresses"}
{"source": "OSM", "region": "Kärnten", "osm_type": "node", "osm_id": 5049272582, "name": null, "category": null, "address": "Rauth 133, 9074 Keutschach am See", "street": "Rauth", "housenumber": "133", "postcode": "9074", "place": "Keutschach am See", "lat": 46.599909, "lon": 14.1927894, "tags": {"addr:city": "Keutschach am See", "addr:housenumber": "133", "addr:postcode": "9074", "addr:street": "Rauth"}, "content": "Adresse: Rauth 133, 9074 Keutschach am See\nOrt: Keutschach am See\nPLZ: 9074\nKoordinaten: 46.599909, 14.192789", "doc_type": "addresses"}
{"source": "OSM", "region": "Kärnten", "osm_type": "node", "osm_id": 5049272583, "name": null, "category": null, "address": "Rauth 132, 9074 Keutschach am See", "street": "Rauth", "housenumber": "132", "postcode": "9074", "place": "Keutschach am See", "lat": 46.6010023, "lon": 14.1903248, "tags": {"addr:city": "Keutschach am See", "addr:housenumber": "132", "addr:postcode": "9074", "addr:street": "Rauth"}, "content": "Adresse: Rauth 132, 9074 Keutschach am See\nOrt: Keutschach am See\nPLZ: 9074\nKoordinaten: 46.601002, 14.190325", "doc_type": "addresses"}
{"source": "OSM", "region": "Kärnten", "osm_type": "node", "osm_id": 5049272584, "name": null, "category": null, "address": "Rauth 31a, 9074 Keutschach am See", "street": "Rauth", "housenumber": "31a", "postcode": "9074", "place": "Keutschach am See", "lat": 46.5934318, "lon": 14.1981499, "tags": {"addr:city": "Keutschach am See", "addr:housenumber": "31a", "addr:postcode": "9074", "addr:street": "Rauth"}, "content": "Adresse: Rauth 31a, 9074 Keutschach am See\nOrt: Keutschach am See\nPLZ: 9074\nKoordinaten: 46.593432, 14.198150", "doc_type": "addresses"}
{"source": "OSM", "region": "Kärnten", "osm_type": "node", "osm_id": 5053329093, "name": null, "category": null, "address": "Dobeinitz 14a, 9074 Keutschach am See", "street": "Dobeinitz", "housenumber": "14a", "postcode": "9074", "place": "Keutschach am See", "lat": 46.5833599, "lon": 14.1746881, "tags": {"addr:city": "Keutschach am See", "addr:housenumber": "14a", "addr:postcode": "9074", "addr:street": "Dobeinitz"}, "content": "Adresse: Dobeinitz 14a, 9074 Keutschach am See\nOrt: Keutschach am See\nPLZ: 9074\nKoordinaten: 46.583360, 14.174688", "doc_type": "addresses"}
{"source": "OSM", "region": "Kärnten", "osm_type": "node", "osm_id": 5053329094, "name": null, "category": null, "address": "Plescherken 115, 9074 Keutschach am See", "street": "Plescherken", "housenumber": "115", "postcode": "9074", "place": "Keutschach am See", "lat": 46.5849367, "lon": 14.1445832, "tags": {"addr:city": "Keutschach am See", "addr:housenumber": "115", "addr:postcode": "9074", "addr:street": "Plescherken"}, "content": "Adresse: Plescherken 115, 9074 Keutschach am See\nOrt: Keutschach am See\nPLZ: 9074\nKoordinaten: 46.584937, 14.144583", "doc_type": "addresses"}
{"source": "OSM", "region": "Kärnten", "osm_type": "node", "osm_id": 5053329095, "name": null, "category": null, "address": "Plescherken 112, 9074 Keutschach am See", "street": "Plescherken", "housenumber": "112", "postcode": "9074", "place": "Keutschach am See", "lat": 46.5897974, "lon": 14.1525469, "tags": {"addr:city": "Keutschach am See", "addr:housenumber": "112", "addr:postcode": "9074", "addr:street": "Plescherken"}, "content": "Adresse: Plescherken 112, 9074 Keutschach am See\nOrt: Keutschach am See\nPLZ: 9074\nKoordinaten: 46.589797, 14.152547", "doc_type": "addresses"}
{"source": "OSM", "region": "Kärnten", "osm_type": "node", "osm_id": 5053329096, "name": null, "category": null, "address": "Plescherken 110, 9074 Keutschach am See", "street": "Plescherken", "housenumber": "110", "postcode": "9074", "place": "Keutschach am See", "lat": 46.5885903, "lon": 14.1530301, "tags": {"addr:city": "Keutschach am See", "addr:housenumber": "110", "addr:postcode": "9074", "addr:street": "Plescherken"}, "content": "Adresse: Plescherken 110, 9074 Keutschach am See\nOrt: Keutschach am See\nPLZ: 9074\nKoordinaten: 46.588590, 14.153030", "doc_type": "addresses"}
{"source": "OSM", "region": "Kärnten", "osm_type": "node", "osm_id": 5053329097, "name": null, "category": null, "address": "Dobein 13, 9074 Keutschach am See", "street": "Dobein", "housenumber": "13", "postcode": "9074", "place": "Keutschach am See", "lat": 46.5797828, "lon": 14.1593818, "tags": {"addr:city": "Keutschach am See", "addr:housenumber": "13", "addr:postcode": "9074", "addr:street": "Dobein"}, "content": "Adresse: Dobein 13, 9074 Keutschach am See\nOrt: Keutschach am See\nPLZ: 9074\nKoordinaten: 46.579783, 14.159382", "doc_type": "addresses"}
{"source": "OSM", "region": "Kärnten", "osm_type": "node", "osm_id": 5053329098, "name": null, "category": null, "address": "Plescherken 91, 9074 Keutschach am See", "street": "Plescherken", "housenumber": "91", "postcode": "9074", "place": "Keutschach am See", "lat": 46.5856834, "lon": 14.1456145, "tags": {"addr:city": "Keutschach am See", "addr:housenumber": "91", "addr:postcode": "9074", "addr:street": "Plescherken"}, "content": "Adresse: Plescherken 91, 9074 Keutschach am See\nOrt: Keutschach am See\nPLZ: 9074\nKoordinaten: 46.585683, 14.145615", "doc_type": "addresses"}
{"source": "OSM", "region": "Kärnten", "osm_type": "node", "osm_id": 5053329099, "name": null, "category": null, "address": "Dobein 5a, 9074 Keutschach am See", "street": "Dobein", "housenumber": "5a", "postcode": "9074", "place": "Keutschach am See", "lat": 46.5724536, "lon": 14.1515094, "tags": {"addr:city": "Keutschach am See", "addr:housenumber": "5a", "addr:postcode": "9074", "addr:street": "Dobein"}, "content": "Adresse: Dobein 5a, 9074 Keutschach am See\nOrt: Keutschach am See\nPLZ: 9074\nKoordinaten: 46.572454, 14.151509", "doc_type": "addresses"}
{"source": "OSM", "region": "Kärnten", "osm_type": "node", "osm_id": 5053329100, "name": null, "category": null, "address": "Dobein 3, 9074 Keutschach am See", "street": "Dobein", "housenumber": "3", "postcode": "9074", "place": "Keutschach am See", "lat": 46.5721591, "lon": 14.133308, "tags": {"addr:city": "Keutschach am See", "addr:housenumber": "3", "addr:postcode": "9074", "addr:street": "Dobein"}, "content": "Adresse: Dobein 3, 9074 Keutschach am See\nOrt: Keutschach am See\nPLZ: 9074\nKoordinaten: 46.572159, 14.133308", "doc_type": "addresses"}
{"source": "OSM", "region": "Kärnten", "osm_type": "node", "osm_id": 5053329101, "name": null, "category": null, "address": "Dobein 1, 9074 Keutschach am See", "street": "Dobein", "housenumber": "1", "postcode": "9074", "place": "Keutschach am See", "lat": 46.5720043, "lon": 14.1335797, "tags": {"addr:city": "Keutschach am See", "addr:housenumber": "1", "addr:postcode": "9074", "addr:street": "Dobein"}, "content": "Adresse: Dobein 1, 9074 Keutschach am See\nOrt: Keutschach am See\nPLZ: 9074\nKoordinaten: 46.572004, 14.133580", "doc_type": "addresses"}
{"source": "OSM", "region": "Kärnten", "osm_type": "node", "osm_id": 5053329102, "name": null, "category": null, "address": "Plescherken 84, 9074 Keutschach am See", "street": "Plescherken", "housenumber": "84", "postcode": "9074", "place": "Keutschach am See", "lat": 46.5882165, "lon": 14.1528628, "tags": {"addr:city": "Keutschach am See", "addr:housenumber": "84", "addr:postcode": "9074", "addr:street": "Plescherken"}, "content": "Adresse: Plescherken 84, 9074 Keutschach am See\nOrt: Keutschach am See\nPLZ: 9074\nKoordinaten: 46.588217, 14.152863", "doc_type": "addresses"}
{"source": "OSM", "region": "Kärnten", "osm_type": "node", "osm_id": 5053329103, "name": null, "category": null, "address": "Plescherken 37c, 9074 Keutschach am See", "street": "Plescherken", "housenumber": "37c", "postcode": "9074", "place": "Keutschach am See", "lat": 46.5809585, "lon": 14.1395297, "tags": {"addr:city": "Keutschach am See", "addr:housenumber": "37c", "addr:postcode": "9074", "addr:street": "Plescherken"}, "content": "Adresse: Plescherken 37c, 9074 Keutschach am See\nOrt: Keutschach am See\nPLZ: 9074\nKoordinaten: 46.580959, 14.139530", "doc_type": "addresses"}
{"source": "OSM", "region": "Kärnten", "osm_type": "node", "osm_id": 5053329104, "name": null, "category": null, "address": "Plescherken 20a, 9074 Keutschach am See", "street": "Plescherken", "housenumber": "20a", "postcode": "9074", "place": "Keutschach am See", "lat": 46.5857142, "lon": 14.1458653, "tags": {"addr:city": "Keutschach am See", "addr:housenumber": "20a", "addr:postcode": "9074", "addr:street": "Plescherken"}, "content": "Adresse: Plescherken 20a, 9074 Keutschach am See\nOrt: Keutschach am See\nPLZ: 9074\nKoordinaten: 46.585714, 14.145865", "doc_type": "addresses"}
{"source": "OSM", "region": "Kärnten", "osm_type": "node", "osm_id": 1293104958, "name": "Buschenschank Liendl", "category": "amenity:restaurant", "address": "3, 9074 Keutschach am See", "street": null, "housenumber": "3", "postcode": "9074", "place": "Keutschach am See", "lat": 46.5902798, "lon": 14.1714942, "tags": {"addr:city": "Keutschach am See", "addr:housenumber": "3", "addr:place": "Plaschischen", "addr:postcode": "9074", "amenity": "restaurant", "name": "Buschenschank Liendl", "phone": "+43 4273 2644 0", "website": "https://www.liendl.at/"}, "content": "Buschenschank Liendl\nKategorie: amenity:restaurant\nAdresse: 3, 9074 Keutschach am See\nOrt: Keutschach am See\nPLZ: 9074\nKoordinaten: 46.590280, 14.171494\nTags: amenity=restaurant, phone=+43 4273 2644 0, website=https://www.liendl.at/", "doc_type": "pois"}
