{"source": "OSM", "region": "Kärnten", "osm_type": "node", "osm_id": 31238558, "name": "Malteinerhof", "category": "amenity:restaurant", "address": "39, 9854 Malta", "street": null, "housenumber": "39", "postcode": "9854", "place": "Malta", "lat": 46.9553965, "lon": 13.5031844, "tags": {"addr:city": "Malta", "addr:housenumber": "39", "addr:place": "Malta", "addr:postcode": "9854", "amenity": "restaurant", "name": "Malteinerhof", "tourism": "hotel"}, "content": "Malteinerhof\nKategorie: amenity:restaurant\nAdresse: 39, 9854 Malta\nOrt: Malta\nPLZ: 9854\nKoordinaten: 46.955396, 13.503184\nTags: amenity=restaurant", "doc_type": "addresses"}
{"source": "OSM", "region": "Kärnten", "osm_type": "node", "osm_id": 36476493, "name": "ADEG Danler-Swatt", "category": "amenity:post_office", "address": "53, 9854 Malta", "street": null, "housenumber": "53", "postcode": "9854", "place": "Malta", "lat": 46.9541318, "lon": 13.5073188, "tags": {"addr:city": "Malta", "addr:housenumber": "53", "addr:place": "Malta", "addr:postcode": "9854", "amenity": "post_office", "operator": "ADEG Danler-Swatt"}, "content": "ADEG Danler-Swatt\nKategorie: amenity:post_office\nAdresse: 53, 9854 Malta\nOrt: Malta\nPLZ: 9854\nKoordinaten: 46.954132, 13.507319\nTags: amenity=post_office, operator=ADEG Danler-Swatt", "doc_type": "addresses"}
{"source": "OSM", "region": "Kärnten", "osm_type": "node", "osm_id": 1770658122, "name": "Buschenschank Mühlbacher", "category": "amenity:restaurant", "address": "Feistritz 5, 9854 Malta", "street": "Feistritz", "housenumber": "5", "postcode": "9854", "place": "Malta", "lat": 46.9640686, "lon": 13.4889751, "tags": {"addr:city": "Malta", "addr:housenumber": "5", "addr:postcode": "9854", "addr:street": "Feistritz", "amenity": "restaurant", "name": "Buschenschank Mühlbacher"}, "content": "Buschenschank Mühlbacher\nKategorie: amenity:restaurant\nAdresse: Feistritz 5, 9854 Malta\nOrt: Malta\nPLZ: 9854\nKoordinaten: 46.964069, 13.488975\nTags: amenity=restaurant", "doc_type": "addresses"}
{"source": "OSM", "region": "Kärnten", "osm_type": "node", "osm_id": 4694196497, "name": null, "category": null, "address": "Malta 2, 9854 Malta", "street": "Malta", "housenumber": "2", "postcode": "9854", "place": "Malta", "lat": 46.9605395, "lon": 13.4923724, "tags": {"addr:city": "Malta", "addr:housenumber": "2", "addr:postcode": "9854", "addr:street": "Malta"}, "content": "Adresse: Malta 2, 9854 Malta\nOrt: Malta\nPLZ: 9854\nKoordinaten: 46.960540, 13.492372", "doc_type": "addresses"}
{"source": "OSM", "region": "Kärnten", "osm_type": "node", "osm_id": 31238558, "name": "Malteinerhof", "category": "amenity:restaurant", "address": "39, 9854 Malta", "street": null, "housenumber": "39", "postcode": "9854", "place": "Malta", "lat": 46.9553965, "lon": 13.5031844, "tags": {"addr:city": "Malta", "addr:housenumber": "39", "addr:place": "Malta", "addr:postcode": "9854", "amenity": "restaurant", "name": "Malteinerhof", "tourism": "hotel"}, "content": "Malteinerhof\nKategorie: amenity:restaurant\nAdresse: 39, 9854 Malta\nOrt: Malta\nPLZ: 9854\nKoordinaten: 46.955396, 13.503184\nTags: amenity=restaurant", "doc_type": "pois"}
{"source": "OSM", "region": "Kärnten", "osm_type": "node", "osm_id": 36476493, "name": "ADEG Danler-Swatt", "category": "amenity:post_office", "address": "53, 9854 Malta", "street": null, "housenumber": "53", "postcode": "9854", "place": "Malta", "lat": 46.9541318, "lon": 13.5073188, "tags": {"addr:city": "Malta", "addr:housenumber": "53", "addr:place": "Malta", "addr:postcode": "9854", "amenity": "post_office", "operator": "ADEG Danler-Swatt"}, "content": "ADEG Danler-Swatt\nKategorie: amenity:post_office\nAdresse: 53, 9854 Malta\nOrt: Malta\nPLZ: 9854\nKoordinaten: 46.954132, 13.507319\nTags: amenity=post_office, operator=ADEG Danler-Swatt", "doc_type": "pois"}
{"source": "OSM", "region": "Kärnten", "osm_type": "node", "osm_id": 1770658122, "name": "Buschenschank Mühlbacher", "category": "amenity:restaurant", "address": "Feistritz 5, 9854 Malta", "street": "Feistritz", "housenumber": "5", "postcode": "9854", "place": "Malta", "lat": 46.9640686, "lon": 13.4889751, "tags": {"addr:city": "Malta", "addr:housenumber": "5", "addr:postcode": "9854", "addr:street": "Feistritz", "amenity": "restaurant", "name": "Buschenschank Mühlbacher"}, "content": "Buschenschank Mühlbacher\nKategorie: amenity:restaurant\nAdresse: Feistritz 5, 9854 Malta\nOrt: Malta\nPLZ: 9854\nKoordinaten: 46.964069, 13.488975\nTags: amenity=restaurant", "doc_type": "pois"}
