{"source": "OSM", "region": "Kärnten", "osm_type": "node", "osm_id": 355619342, "name": "Volksschule Grafenstein : Clemens Holzmeister", "category": "amenity:school", "address": "C.-Holzmeister-Straße 34, 9131 Grafenstein", "street": "C.-Holzmeister-Straße", "housenumber": "34", "postcode": "9131", "place": "Grafenstein", "lat": 46.6158063, "lon": 14.4676582, "tags": {"addr:city": "Grafenstein", "addr:housenumber": "34", "addr:postcode": "9131", "addr:street": "C.-Holzmeister-Straße", "amenity": "school", "name": "Volksschule Grafenstein : Clemens Holzmeister"}, "content": "Volksschule Grafenstein : Clemens Holzmeister\nKategorie: amenity:school\nAdresse: C.-Holzmeister-Straße 34, 9131 Grafenstein\nOrt: Grafenstein\nPLZ: 9131\nKoordinaten: 46.615806, 14.467658\nTags: amenity=school", "doc_type": "addresses"}
{"source": "OSM", "region": "Kärnten", "osm_type": "node", "osm_id": 355619904, "name": "Gemeindeamt Grafenstein", "category": "amenity:townhall", "address": "ÖR-Valentin-Deutschmann-Platz 1, 9131 Grafenstein", "street": "ÖR-Valentin-Deutschmann-Platz", "housenumber": "1", "postcode": "9131", "place": "Grafenstein", "lat": 46.6173475, "lon": 14.465495, "tags": {"addr:city": "Grafenstein", "addr:housenumber": "1", "addr:postcode": "9131", "addr:street": "ÖR-Valentin-Deutschmann-Platz", "amenity": "townhall", "name": "Gemeindeamt Grafenstein", "phone": "+43 4225-2220-0", "website": "https://www.grafenstein.gv.at/"}, "content": "Gemeindeamt Grafenstein\nKategorie: amenity:townhall\nAdresse: ÖR-Valentin-Deutschmann-Platz 1, 9131 Grafenstein\nOrt: Grafenstein\nPLZ: 9131\nKoordinaten: 46.617348, 14.465495\nTags: amenity=townhall, phone=+43 4225-2220-0, website=https://www.grafenstein.gv.at/", "doc_type": "addresses"}
{"source": "OSM", "region": "Kärnten", "osm_type": "node", "osm_id": 355897149, "name": "Gasthaus Kulterer", "category": "amenity:restaurant", "address": "Hauptstraße 107, 9131 Grafenstein", "street": "Hauptstraße", "housenumber": "107", "postcode": "9131", "place": "Grafenstein", "lat": 46.6106486, "lon": 14.4683258, "tags": {"addr:city": "Grafenstein", "addr:housenumber": "107", "addr:postcode": "9131", "addr:street": "Hauptstraße", "amenity": "restaurant", "name": "Gasthaus Kulterer", "phone": "+43 4225 2243"}, "content": "Gasthaus Kulterer\nKategorie: amenity:restaurant\nAdresse: Hauptstraße 107, 9131 Grafenstein\nOrt: Grafenstein\nPLZ: 9131\nKoordinaten: 46.610649, 14.468326\nTags: amenity=restaurant, phone=+43 4225 2243", "doc_type": "addresses"}
{"source": "OSM", "region": "Kärnten", "osm_type": "node", "osm_id": 604704092, "name": "Buschenschenke Taupe vlg. Knapp", "category": "amenity:restaurant", "address": "Sankt Peter 17, Grafenstein", "street": "Sankt Peter", "housenumber": "17", "postcode": null, "place": "Grafenstein", "lat": 46.6116688, "lon": 14.4870874, "tags": {"addr:city": "Grafenstein", "addr:housenumber": "17", "addr:street": "Sankt Peter", "amenity": "restaurant", "name": "Buschenschenke Taupe vlg. Knapp"}, "content": "Buschenschenke Taupe vlg. Knapp\nKategorie: amenity:restaurant\nAdresse: Sankt Peter 17, Grafenstein\nOrt: Grafenstein\nKoordinaten: 46.611669, 14.487087\nTags: amenity=restaurant", "doc_type": "addresses"}
{"source": "OSM", "region": "Kärnten", "osm_type": "node", "osm_id": 604740626, "name": "Mag. Helmut Rothbauer", "category": "amenity:veterinary", "address": "Hauptstraße 140, 9131 Grafenstein", "street": "Hauptstraße", "housenumber": "140", "postcode": "9131", "place": "Grafenstein", "lat": 46.607876, "lon": 14.4732896, "tags": {"addr:city": "Grafenstein", "addr:housenumber": "140", "addr:postcode": "9131", "addr:street": "Hauptstraße", "amenity": "veterinary", "name": "Mag. Helmut Rothbauer"}, "content": "Mag. Helmut Rothbauer\nKategorie: amenity:veterinary\nAdresse: Hauptstraße 140, 9131 Grafenstein\nOrt: Grafenstein\nPLZ: 9131\nKoordinaten: 46.607876, 14.473290\nTags: amenity=veterinary", "doc_type": "addresses"}
{"source": "OSM", "region": "Kärnten", "osm_type": "node", "osm_id": 604740633, "name": "Dr. Kurt Ott", "category": "amenity:doctors", "address": "Sandgasse 13, 9131 Grafenstein", "street": "Sandgasse", "housenumber": "13", "postcode": "9131", "place": "Grafenstein", "lat": 46.6086575, "lon": 14.4751383, "tags": {"addr:city": "Grafenstein", "addr:housenumber": "13", "addr:postcode": "9131", "addr:street": "Sandgasse", "amenity": "doctors", "healthcare": "doctor", "name": "Dr. Kurt Ott", "phone": "04225 2144"}, "content": "Dr. Kurt Ott\nKategorie: amenity:doctors\nAdresse: Sandgasse 13, 9131 Grafenstein\nOrt: Grafenstein\nPLZ: 9131\nKoordinaten: 46.608657, 14.475138\nTags: amenity=doctors, healthcare=doctor, phone=04225 2144", "doc_type": "addresses"}
{"source": "OSM", "region": "Kärnten", "osm_type": "node", "osm_id": 604751045, "name": "Dr. Ilse Barthol", "category": "amenity:dentist", "address": "Hauptstraße 103, 9131 Grafenstein", "street": "Hauptstraße", "housenumber": "103", "postcode": "9131", "place": "Grafenstein", "lat": 46.6108815, "lon": 14.4678811, "tags": {"addr:city": "Grafenstein", "addr:housenumber": "103", "addr:postcode": "9131", "addr:street": "Hauptstraße", "amenity": "dentist", "healthcare": "dentist", "name": "Dr. Ilse Barthol"}, "content": "Dr. Ilse Barthol\nKategorie: amenity:dentist\nAdresse: Hauptstraße 103, 9131 Grafenstein\nOrt: Grafenstein\nPLZ: 9131\nKoordinaten: 46.610881, 14.467881\nTags: amenity=dentist, healthcare=dentist", "doc_type": "addresses"}
{"source": "OSM", "region": "Kärnten", "osm_type": "node", "osm_id": 604751060, "name": "Dr. Martin Pasiut", "category": "amenity:doctors", "address": "Blumengasse 31, 9131 Grafenstein", "street": "Blumengasse", "housenumber": "31", "postcode": "9131", "place": "Grafenstein", "lat": 46.6131145, "lon": 14.4659051, "tags": {"addr:city": "Grafenstein", "addr:housenumber": "31", "addr:postcode": "9131", "addr:street": "Blumengasse", "amenity": "doctors", "healthcare": "doctor", "name": "Dr. Martin Pasiut"}, "content": "Dr. Martin Pasiut\nKategorie: amenity:doctors\nAdresse: Blumengasse 31, 9131 Grafenstein\nOrt: Grafenstein\nPLZ: 9131\nKoordinaten: 46.613115, 14.465905\nTags: amenity=doctors, healthcare=doctor", "doc_type": "addresses"}
{"source": "OSM", "region": "Kärnten", "osm_type": "node", "osm_id": 604855390, "name": null, "category": null, "address": "Hauptstraße 98, 9131 Grafenstein", "street": "Hauptstraße", "housenumber": "98", "postcode": "9131", "place": "Grafenstein", "lat": 46.6105335, "lon": 14.4671297, "tags": {"addr:city": "Grafenstein", "addr:housenumber": "98", "addr:postcode": "9131", "addr:street": "Hauptstraße"}, "content": "Adresse: Hauptstraße 98, 9131 Grafenstein\nOrt: Grafenstein\nPLZ: 9131\nKoordinaten: 46.610534, 14.467130", "doc_type": "addresses"}
{"source": "OSM", "region": "Kärnten", "osm_type": "node", "osm_id": 604855403, "name": null, "category": null, "address": "Hauptstraße 104, 9131 Grafenstein", "street": "Hauptstraße", "housenumber": "104", "postcode": "9131", "place": "Grafenstein", "lat": 46.6105062, "lon": 14.4678757, "tags": {"addr:city": "Grafenstein", "addr:housenumber": "104", "addr:postcode": "9131", "addr:street": "Hauptstraße"}, "content": "Adresse: Hauptstraße 104, 9131 Grafenstein\nOrt: Grafenstein\nPLZ: 9131\nKoordinaten: 46.610506, 14.467876", "doc_type": "addresses"}
{"source": "OSM", "region": "Kärnten", "osm_type": "node", "osm_id": 604938270, "name": "Mag. Tanja Spitra", "category": "amenity:veterinary", "address": "1, 9131 Grafenstein", "street": null, "housenumber": "1", "postcode": "9131", "place": "Grafenstein", "lat": 46.6054026, "lon": 14.4806116, "tags": {"addr:city": "Grafenstein", "addr:housenumber": "1", "addr:place": "Sand", "addr:postcode": "9131", "amenity": "veterinary", "name": "Mag. Tanja Spitra"}, "content": "Mag. Tanja Spitra\nKategorie: amenity:veterinary\nAdresse: 1, 9131 Grafenstein\nOrt: Grafenstein\nPLZ: 9131\nKoordinaten: 46.605403, 14.480612\nTags: amenity=veterinary", "doc_type": "addresses"}
{"source": "OSM", "region": "Kärnten", "osm_type": "node", "osm_id": 936620138, "name": "Mostschenke Linsendorf", "category": "amenity:restaurant", "address": "Linsendorf 2, 9131 Grafenstein", "street": "Linsendorf", "housenumber": "2", "postcode": "9131", "place": "Grafenstein", "lat": 46.5651578, "lon": 14.4642421, "tags": {"addr:city": "Grafenstein", "addr:housenumber": "2", "addr:postcode": "9131", "addr:street": "Linsendorf", "amenity": "restaurant", "name": "Mostschenke Linsendorf", "phone": "+43-664-1974934", "website": "http://www.mostschenke-linsendorf.at"}, "content": "Mostschenke Linsendorf\nKategorie: amenity:restaurant\nAdresse: Linsendorf 2, 9131 Grafenstein\nOrt: Grafenstein\nPLZ: 9131\nKoordinaten: 46.565158, 14.464242\nTags: amenity=restaurant, phone=+43-664-1974934, website=http://www.mostschenke-linsendorf.at", "doc_type": "addresses"}
{"source": "OSM", "region": "Kärnten", "osm_type": "node", "osm_id": 4733548936, "name": "BÜM Grafenstein", "category": "amenity:kindergarten", "address": "C.-Holzmeister-Straße 34a, 9131 Grafenstein", "street": "C.-Holzmeister-Straße", "housenumber": "34a", "postcode": "9131", "place": "Grafenstein", "lat": 46.6156344, "lon": 14.4682096, "tags": {"addr:city": "Grafenstein", "addr:housenumber": "34a", "addr:postcode": "9131", "addr:street": "C.-Holzmeister-Straße", "amenity": "kindergarten", "name": "BÜM Grafenstein"}, "content": "BÜM Grafenstein\nKategorie: amenity:kindergarten\nAdresse: C.-Holzmeister-Straße 34a, 9131 Grafenstein\nOrt: Grafenstein\nPLZ: 9131\nKoordinaten: 46.615634, 14.468210\nTags: amenity=kindergarten", "doc_type": "addresses"}
{"source": "OSM", "region": "Kärnten", "osm_type": "node", "osm_id": 4733548938, "name": "Polizeiinspektion Grafenstein", "category": "amenity:police", "address": "ÖR-Valentin-Deutschmann-Platz 1, 9131 Grafenstein", "street": "ÖR-Valentin-Deutschmann-Platz", "housenumber": "1", "postcode": "9131", "place": "Grafenstein", "lat": 46.6172382, "lon": 14.465506, "tags": {"addr:city": "Grafenstein", "addr:housenumber": "1", "addr:postcode": "9131", "addr:street": "ÖR-Valentin-Deutschmann-Platz", "amenity": "police", "name": "Polizeiinspektion Grafenstein", "phone": "+43 59133 2106-100"}, "content": "Polizeiinspektion Grafenstein\nKategorie: amenity:police\nAdresse: ÖR-Valentin-Deutschmann-Platz 1, 9131 Grafenstein\nOrt: Grafenstein\nPLZ: 9131\nKoordinaten: 46.617238, 14.465506\nTags: amenity=police, phone=+43 59133 2106-100", "doc_type": "addresses"}
{"source": "OSM", "region": "Kärnten", "osm_type": "node", "osm_id": 4969280752, "name": null, "category": null, "address": "Hauptstraße 106, 9131 Grafenstein", "street": "Hauptstraße", "housenumber": "106", "postcode": "9131", "place": "Grafenstein", "lat": 46.6105367, "lon": 14.4679672, "tags": {"addr:city": "Grafenstein", "addr:housenumber": "106", "addr:postcode": "9131", "addr:street": "Hauptstraße"}, "content": "Adresse: Hauptstraße 106, 9131 Grafenstein\nOrt: Grafenstein\nPLZ: 9131\nKoordinaten: 46.610537, 14.467967", "doc_type": "addresses"}
{"source": "OSM", "region": "Kärnten", "osm_type": "node", "osm_id": 4969280753, "name": null, "category": null, "address": "Hauptstraße 100, 9131 Grafenstein", "street": "Hauptstraße", "housenumber": "100", "postcode": "9131", "place": "Grafenstein", "lat": 46.6105277, "lon": 14.4672488, "tags": {"addr:city": "Grafenstein", "addr:housenumber": "100", "addr:postcode": "9131", "addr:street": "Hauptstraße"}, "content": "Adresse: Hauptstraße 100, 9131 Grafenstein\nOrt: Grafenstein\nPLZ: 9131\nKoordinaten: 46.610528, 14.467249", "doc_type": "addresses"}
{"source": "OSM", "region": "Kärnten", "osm_type": "node", "osm_id": 4969280754, "name": null, "category": null, "address": "Hauptstraße 50, 9131 Grafenstein", "street": "Hauptstraße", "housenumber": "50", "postcode": "9131", "place": "Grafenstein", "lat": 46.6171911, "lon": 14.4647634, "tags": {"addr:city": "Grafenstein", "addr:housenumber": "50", "addr:postcode": "9131", "addr:street": "Hauptstraße"}, "content": "Adresse: Hauptstraße 50, 9131 Grafenstein\nOrt: Grafenstein\nPLZ: 9131\nKoordinaten: 46.617191, 14.464763", "doc_type": "addresses"}
{"source": "OSM", "region": "Kärnten", "osm_type": "node", "osm_id": 4969280755, "name": null, "category": null, "address": "Sonnengasse 8a, 9131 Grafenstein", "street": "Sonnengasse", "housenumber": "8a", "postcode": "9131", "place": "Grafenstein", "lat": 46.6096673, "lon": 14.4729385, "tags": {"addr:city": "Grafenstein", "addr:housenumber": "8a", "addr:postcode": "9131", "addr:street": "Sonnengasse"}, "content": "Adresse: Sonnengasse 8a, 9131 Grafenstein\nOrt: Grafenstein\nPLZ: 9131\nKoordinaten: 46.609667, 14.472938", "doc_type": "addresses"}
{"source": "OSM", "region": "Kärnten", "osm_type": "node", "osm_id": 4969280756, "name": null, "category": null, "address": "Auenweg 7, 9131 Grafenstein", "street": "Auenweg", "housenumber": "7", "postcode": "9131", "place": "Grafenstein", "lat": 46.6099897, "lon": 14.4661541, "tags": {"addr:city": "Grafenstein", "addr:housenumber": "7", "addr:postcode": "9131", "addr:street": "Auenweg"}, "content": "Adresse: Auenweg 7, 9131 Grafenstein\nOrt: Grafenstein\nPLZ: 9131\nKoordinaten: 46.609990, 14.466154", "doc_type": "addresses"}
{"source": "OSM", "region": "Kärnten", "osm_type": "node", "osm_id": 4969280758, "name": null, "category": null, "address": "Auenweg 3, 9131 Grafenstein", "street": "Auenweg", "housenumber": "3", "postcode": "9131", "place": "Grafenstein", "lat": 46.6104691, "lon": 14.4668037, "tags": {"addr:city": "Grafenstein", "addr:housenumber": "3", "addr:postcode": "9131", "addr:street": "Auenweg"}, "content": "Adresse: Auenweg 3, 9131 Grafenstein\nOrt: Grafenstein\nPLZ: 9131\nKoordinaten: 46.610469, 14.466804", "doc_type": "addresses"}
{"source": "OSM", "region": "Kärnten", "osm_type": "node", "osm_id": 4969280759, "name": null, "category": null, "address": "Auenweg 1, 9131 Grafenstein", "street": "Auenweg", "housenumber": "1", "postcode": "9131", "place": "Grafenstein", "lat": 46.6104995, "lon": 14.4667938, "tags": {"addr:city": "Grafenstein", "addr:housenumber": "1", "addr:postcode": "9131", "addr:street": "Auenweg"}, "content": "Adresse: Auenweg 1, 9131 Grafenstein\nOrt: Grafenstein\nPLZ: 9131\nKoordinaten: 46.610500, 14.466794", "doc_type": "addresses"}
{"source": "OSM", "region": "Kärnten", "osm_type": "node", "osm_id": 4969974564, "name": null, "category": null, "address": "6, 9131 Grafenstein", "street": null, "housenumber": "6", "postcode": "9131", "place": "Grafenstein", "lat": 46.6360635, "lon": 14.4473396, "tags": {"addr:city": "Grafenstein", "addr:housenumber": "6", "addr:place": "Oberwuchel", "addr:postcode": "9131"}, "content": "Adresse: 6, 9131 Grafenstein\nOrt: Grafenstein\nPLZ: 9131\nKoordinaten: 46.636063, 14.447340", "doc_type": "addresses"}
{"source": "OSM", "region": "Kärnten", "osm_type": "node", "osm_id": 4969974565, "name": null, "category": null, "address": "3, 9131 Grafenstein", "street": null, "housenumber": "3", "postcode": "9131", "place": "Grafenstein", "lat": 46.6325096, "lon": 14.4514023, "tags": {"addr:city": "Grafenstein", "addr:housenumber": "3", "addr:place": "Oberwuchel", "addr:postcode": "9131"}, "content": "Adresse: 3, 9131 Grafenstein\nOrt: Grafenstein\nPLZ: 9131\nKoordinaten: 46.632510, 14.451402", "doc_type": "addresses"}
{"source": "OSM", "region": "Kärnten", "osm_type": "node", "osm_id": 4969974566, "name": null, "category": null, "address": "10.-Oktober-Straße 52, 9131 Grafenstein", "street": "10.-Oktober-Straße", "housenumber": "52", "postcode": "9131", "place": "Grafenstein", "lat": 46.6298647, "lon": 14.435523, "tags": {"addr:city": "Grafenstein", "addr:housenumber": "52", "addr:postcode": "9131", "addr:street": "10.-Oktober-Straße"}, "content": "Adresse: 10.-Oktober-Straße 52, 9131 Grafenstein\nOrt: Grafenstein\nPLZ: 9131\nKoordinaten: 46.629865, 14.435523", "doc_type": "addresses"}
{"source": "OSM", "region": "Kärnten", "osm_type": "node", "osm_id": 4969974568, "name": null, "category": null, "address": "Haidach 32, 9131 Grafenstein", "street": "Haidach", "housenumber": "32", "postcode": "9131", "place": "Grafenstein", "lat": 46.6389366, "lon": 14.4274833, "tags": {"addr:city": "Grafenstein", "addr:housenumber": "32", "addr:postcode": "9131", "addr:street": "Haidach"}, "content": "Adresse: Haidach 32, 9131 Grafenstein\nOrt: Grafenstein\nPLZ: 9131\nKoordinaten: 46.638937, 14.427483", "doc_type": "addresses"}
{"source": "OSM", "region": "Kärnten", "osm_type": "node", "osm_id": 4969974569, "name": null, "category": null, "address": "Dolina 2, 9131 Grafenstein", "street": "Dolina", "housenumber": "2", "postcode": "9131", "place": "Grafenstein", "lat": 46.6404475, "lon": 14.4482771, "tags": {"addr:city": "Grafenstein", "addr:housenumber": "2", "addr:postcode": "9131", "addr:street": "Dolina"}, "content": "Adresse: Dolina 2, 9131 Grafenstein\nOrt: Grafenstein\nPLZ: 9131\nKoordinaten: 46.640448, 14.448277", "doc_type": "addresses"}
{"source": "OSM", "region": "Kärnten", "osm_type": "node", "osm_id": 4970085334, "name": null, "category": null, "address": "Adlergasse 10, 9131 Grafenstein", "street": "Adlergasse", "housenumber": "10", "postcode": "9131", "place": "Grafenstein", "lat": 46.6140765, "lon": 14.4502996, "tags": {"addr:city": "Grafenstein", "addr:housenumber": "10", "addr:postcode": "9131", "addr:street": "Adlergasse"}, "content": "Adresse: Adlergasse 10, 9131 Grafenstein\nOrt: Grafenstein\nPLZ: 9131\nKoordinaten: 46.614077, 14.450300", "doc_type": "addresses"}
{"source": "OSM", "region": "Kärnten", "osm_type": "node", "osm_id": 4970085335, "name": null, "category": null, "address": "Mühlweg 8, 9131 Grafenstein", "street": "Mühlweg", "housenumber": "8", "postcode": "9131", "place": "Grafenstein", "lat": 46.620439, "lon": 14.4528564, "tags": {"addr:city": "Grafenstein", "addr:housenumber": "8", "addr:postcode": "9131", "addr:street": "Mühlweg"}, "content": "Adresse: Mühlweg 8, 9131 Grafenstein\nOrt: Grafenstein\nPLZ: 9131\nKoordinaten: 46.620439, 14.452856", "doc_type": "addresses"}
{"source": "OSM", "region": "Kärnten", "osm_type": "node", "osm_id": 4970085336, "name": null, "category": null, "address": "Mühlweg 7, 9131 Grafenstein", "street": "Mühlweg", "housenumber": "7", "postcode": "9131", "place": "Grafenstein", "lat": 46.6209593, "lon": 14.4529606, "tags": {"addr:city": "Grafenstein", "addr:housenumber": "7", "addr:postcode": "9131", "addr:street": "Mühlweg"}, "content": "Adresse: Mühlweg 7, 9131 Grafenstein\nOrt: Grafenstein\nPLZ: 9131\nKoordinaten: 46.620959, 14.452961", "doc_type": "addresses"}
{"source": "OSM", "region": "Kärnten", "osm_type": "node", "osm_id": 4970085338, "name": null, "category": null, "address": "Flurweg 14, 9131 Grafenstein", "street": "Flurweg", "housenumber": "14", "postcode": "9131", "place": "Grafenstein", "lat": 46.6153598, "lon": 14.4470169, "tags": {"addr:city": "Grafenstein", "addr:housenumber": "14", "addr:postcode": "9131", "addr:street": "Flurweg"}, "content": "Adresse: Flurweg 14, 9131 Grafenstein\nOrt: Grafenstein\nPLZ: 9131\nKoordinaten: 46.615360, 14.447017", "doc_type": "addresses"}
{"source": "OSM", "region": "Kärnten", "osm_type": "node", "osm_id": 4970085339, "name": null, "category": null, "address": "Bahnweg 17a, 9131 Grafenstein", "street": "Bahnweg", "housenumber": "17a", "postcode": "9131", "place": "Grafenstein", "lat": 46.6196026, "lon": 14.4481803, "tags": {"addr:city": "Grafenstein", "addr:housenumber": "17a", "addr:postcode": "9131", "addr:street": "Bahnweg"}, "content": "Adresse: Bahnweg 17a, 9131 Grafenstein\nOrt: Grafenstein\nPLZ: 9131\nKoordinaten: 46.619603, 14.448180", "doc_type": "addresses"}
{"source": "OSM", "region": "Kärnten", "osm_type": "node", "osm_id": 4970085341, "name": null, "category": null, "address": "Hauptstraße 42, 9131 Grafenstein", "street": "Hauptstraße", "housenumber": "42", "postcode": "9131", "place": "Grafenstein", "lat": 46.618838, "lon": 14.4592229, "tags": {"addr:city": "Grafenstein", "addr:housenumber": "42", "addr:postcode": "9131", "addr:street": "Hauptstraße"}, "content": "Adresse: Hauptstraße 42, 9131 Grafenstein\nOrt: Grafenstein\nPLZ: 9131\nKoordinaten: 46.618838, 14.459223", "doc_type": "addresses"}
{"source": "OSM", "region": "Kärnten", "osm_type": "node", "osm_id": 4970239077, "name": null, "category": null, "address": "8, 9131 Grafenstein", "street": null, "housenumber": "8", "postcode": "9131", "place": "Grafenstein", "lat": 46.6013037, "lon": 14.4851094, "tags": {"addr:city": "Grafenstein", "addr:housenumber": "8", "addr:place": "Gumisch", "addr:postcode": "9131"}, "content": "Adresse: 8, 9131 Grafenstein\nOrt: Grafenstein\nPLZ: 9131\nKoordinaten: 46.601304, 14.485109", "doc_type": "addresses"}
{"source": "OSM", "region": "Kärnten", "osm_type": "node", "osm_id": 4970239080, "name": null, "category": null, "address": "44, 9131 Grafenstein", "street": null, "housenumber": "44", "postcode": "9131", "place": "Grafenstein", "lat": 46.6222005, "lon": 14.4890161, "tags": {"addr:city": "Grafenstein", "addr:housenumber": "44", "addr:place": "Froschendorf", "addr:postcode": "9131"}, "content": "Adresse: 44, 9131 Grafenstein\nOrt: Grafenstein\nPLZ: 9131\nKoordinaten: 46.622200, 14.489016", "doc_type": "addresses"}
{"source": "OSM", "region": "Kärnten", "osm_type": "node", "osm_id": 4970239081, "name": null, "category": null, "address": "32, 9131 Grafenstein", "street": null, "housenumber": "32", "postcode": "9131", "place": "Grafenstein", "lat": 46.6178959, "lon": 14.4784277, "tags": {"addr:city": "Grafenstein", "addr:housenumber": "32", "addr:place": "Froschendorf", "addr:postcode": "9131"}, "content": "Adresse: 32, 9131 Grafenstein\nOrt: Grafenstein\nPLZ: 9131\nKoordinaten: 46.617896, 14.478428", "doc_type": "addresses"}
{"source": "OSM", "region": "Kärnten", "osm_type": "node", "osm_id": 4970239083, "name": null, "category": null, "address": "Truttendorfer Straße 11a, 9131 Grafenstein", "street": "Truttendorfer Straße", "housenumber": "11a", "postcode": "9131", "place": "Grafenstein", "lat": 46.6188812, "lon": 14.4566387, "tags": {"addr:city": "Grafenstein", "addr:housenumber": "11a", "addr:postcode": "9131", "addr:street": "Truttendorfer Straße"}, "content": "Adresse: Truttendorfer Straße 11a, 9131 Grafenstein\nOrt: Grafenstein\nPLZ: 9131\nKoordinaten: 46.618881, 14.456639", "doc_type": "addresses"}
{"source": "OSM", "region": "Kärnten", "osm_type": "node", "osm_id": 4970239085, "name": null, "category": null, "address": "13, 9131 Grafenstein", "street": null, "housenumber": "13", "postcode": "9131", "place": "Grafenstein", "lat": 46.6297697, "lon": 14.4781093, "tags": {"addr:city": "Grafenstein", "addr:housenumber": "13", "addr:place": "Thon", "addr:postcode": "9131"}, "content": "Adresse: 13, 9131 Grafenstein\nOrt: Grafenstein\nPLZ: 9131\nKoordinaten: 46.629770, 14.478109", "doc_type": "addresses"}
{"source": "OSM", "region": "Kärnten", "osm_type": "node", "osm_id": 4970239086, "name": null, "category": null, "address": "5, 9131 Grafenstein", "street": null, "housenumber": "5", "postcode": "9131", "place": "Grafenstein", "lat": 46.6306011, "lon": 14.4795372, "tags": {"addr:city": "Grafenstein", "addr:housenumber": "5", "addr:place": "Thon", "addr:postcode": "9131"}, "content": "Adresse: 5, 9131 Grafenstein\nOrt: Grafenstein\nPLZ: 9131\nKoordinaten: 46.630601, 14.479537", "doc_type": "addresses"}
{"source": "OSM", "region": "Kärnten", "osm_type": "node", "osm_id": 4970239087, "name": null, "category": null, "address": "St. Peter 11, 9131 Grafenstein", "street": "St. Peter", "housenumber": "11", "postcode": "9131", "place": "Grafenstein", "lat": 46.6111178, "lon": 14.4857548, "tags": {"addr:city": "Grafenstein", "addr:housenumber": "11", "addr:postcode": "9131", "addr:street": "St. Peter"}, "content": "Adresse: St. Peter 11, 9131 Grafenstein\nOrt: Grafenstein\nPLZ: 9131\nKoordinaten: 46.611118, 14.485755", "doc_type": "addresses"}
{"source": "OSM", "region": "Kärnten", "osm_type": "node", "osm_id": 4970239088, "name": null, "category": null, "address": "St. Peter 5, 9131 Grafenstein", "street": "St. Peter", "housenumber": "5", "postcode": "9131", "place": "Grafenstein", "lat": 46.6116519, "lon": 14.4871143, "tags": {"addr:city": "Grafenstein", "addr:housenumber": "5", "addr:postcode": "9131", "addr:street": "St. Peter"}, "content": "Adresse: St. Peter 5, 9131 Grafenstein\nOrt: Grafenstein\nPLZ: 9131\nKoordinaten: 46.611652, 14.487114", "doc_type": "addresses"}
{"source": "OSM", "region": "Kärnten", "osm_type": "node", "osm_id": 4970239089, "name": null, "category": null, "address": "St. Peter 4, 9131 Grafenstein", "street": "St. Peter", "housenumber": "4", "postcode": "9131", "place": "Grafenstein", "lat": 46.612425, "lon": 14.4871698, "tags": {"addr:city": "Grafenstein", "addr:housenumber": "4", "addr:postcode": "9131", "addr:street": "St. Peter"}, "content": "Adresse: St. Peter 4, 9131 Grafenstein\nOrt: Grafenstein\nPLZ: 9131\nKoordinaten: 46.612425, 14.487170", "doc_type": "addresses"}
{"source": "OSM", "region": "Kärnten", "osm_type": "node", "osm_id": 4970239091, "name": null, "category": null, "address": "Saager 27, 9131 Grafenstein", "street": "Saager", "housenumber": "27", "postcode": "9131", "place": "Grafenstein", "lat": 46.5656385, "lon": 14.4789931, "tags": {"addr:city": "Grafenstein", "addr:housenumber": "27", "addr:postcode": "9131", "addr:street": "Saager"}, "content": "Adresse: Saager 27, 9131 Grafenstein\nOrt: Grafenstein\nPLZ: 9131\nKoordinaten: 46.565638, 14.478993", "doc_type": "addresses"}
{"source": "OSM", "region": "Kärnten", "osm_type": "node", "osm_id": 4970239092, "name": null, "category": null, "address": "Saager 24a, 9131 Grafenstein", "street": "Saager", "housenumber": "24a", "postcode": "9131", "place": "Grafenstein", "lat": 46.5647166, "lon": 14.4760785, "tags": {"addr:city": "Grafenstein", "addr:housenumber": "24a", "addr:postcode": "9131", "addr:street": "Saager"}, "content": "Adresse: Saager 24a, 9131 Grafenstein\nOrt: Grafenstein\nPLZ: 9131\nKoordinaten: 46.564717, 14.476078", "doc_type": "addresses"}
{"source": "OSM", "region": "Kärnten", "osm_type": "node", "osm_id": 4970239093, "name": null, "category": null, "address": "Saager 20, 9131 Grafenstein", "street": "Saager", "housenumber": "20", "postcode": "9131", "place": "Grafenstein", "lat": 46.5648491, "lon": 14.4862225, "tags": {"addr:city": "Grafenstein", "addr:housenumber": "20", "addr:postcode": "9131", "addr:street": "Saager"}, "content": "Adresse: Saager 20, 9131 Grafenstein\nOrt: Grafenstein\nPLZ: 9131\nKoordinaten: 46.564849, 14.486223", "doc_type": "addresses"}
{"source": "OSM", "region": "Kärnten", "osm_type": "node", "osm_id": 4970239094, "name": null, "category": null, "address": "Saager 19, 9131 Grafenstein", "street": "Saager", "housenumber": "19", "postcode": "9131", "place": "Grafenstein", "lat": 46.5648553, "lon": 14.4862288, "tags": {"addr:city": "Grafenstein", "addr:housenumber": "19", "addr:postcode": "9131", "addr:street": "Saager"}, "content": "Adresse: Saager 19, 9131 Grafenstein\nOrt: Grafenstein\nPLZ: 9131\nKoordinaten: 46.564855, 14.486229", "doc_type": "addresses"}
{"source": "OSM", "region": "Kärnten", "osm_type": "node", "osm_id": 4970239095, "name": null, "category": null, "address": "Saager 18, 9131 Grafenstein", "street": "Saager", "housenumber": "18", "postcode": "9131", "place": "Grafenstein", "lat": 46.5648616, "lon": 14.4862351, "tags": {"addr:city": "Grafenstein", "addr:housenumber": "18", "addr:postcode": "9131", "addr:street": "Saager"}, "content": "Adresse: Saager 18, 9131 Grafenstein\nOrt: Grafenstein\nPLZ: 9131\nKoordinaten: 46.564862, 14.486235", "doc_type": "addresses"}
{"source": "OSM", "region": "Kärnten", "osm_type": "node", "osm_id": 4970239096, "name": null, "category": null, "address": "1, 9131 Grafenstein", "street": null, "housenumber": "1", "postcode": "9131", "place": "Grafenstein", "lat": 46.6260084, "lon": 14.4618782, "tags": {"addr:city": "Grafenstein", "addr:housenumber": "1", "addr:place": "Münzendorf", "addr:postcode": "9131"}, "content": "Adresse: 1, 9131 Grafenstein\nOrt: Grafenstein\nPLZ: 9131\nKoordinaten: 46.626008, 14.461878", "doc_type": "addresses"}
{"source": "OSM", "region": "Kärnten", "osm_type": "node", "osm_id": 4970299765, "name": null, "category": null, "address": "5, 9131 Grafenstein", "street": null, "housenumber": "5", "postcode": "9131", "place": "Grafenstein", "lat": 46.612503, "lon": 14.4995916, "tags": {"addr:city": "Grafenstein", "addr:housenumber": "5", "addr:place": "Wölfnitz", "addr:postcode": "9131"}, "content": "Adresse: 5, 9131 Grafenstein\nOrt: Grafenstein\nPLZ: 9131\nKoordinaten: 46.612503, 14.499592", "doc_type": "addresses"}
{"source": "OSM", "region": "Kärnten", "osm_type": "node", "osm_id": 4970299769, "name": null, "category": null, "address": "13, 9131 Grafenstein", "street": null, "housenumber": "13", "postcode": "9131", "place": "Grafenstein", "lat": 46.6166409, "lon": 14.5043354, "tags": {"addr:city": "Grafenstein", "addr:housenumber": "13", "addr:place": "Althofen", "addr:postcode": "9131"}, "content": "Adresse: 13, 9131 Grafenstein\nOrt: Grafenstein\nPLZ: 9131\nKoordinaten: 46.616641, 14.504335", "doc_type": "addresses"}
{"source": "OSM", "region": "Kärnten", "osm_type": "node", "osm_id": 355619342, "name": "Volksschule Grafenstein : Clemens Holzmeister", "category": "amenity:school", "address": "C.-Holzmeister-Straße 34, 9131 Grafenstein", "street": "C.-Holzmeister-Straße", "housenumber": "34", "postcode": "9131", "place": "Grafenstein", "lat": 46.6158063, "lon": 14.4676582, "tags": {"addr:city": "Grafenstein", "addr:housenumber": "34", "addr:postcode": "9131", "addr:street": "C.-Holzmeister-Straße", "amenity": "school", "name": "Volksschule Grafenstein : Clemens Holzmeister"}, "content": "Volksschule Grafenstein : Clemens Holzmeister\nKategorie: amenity:school\nAdresse: C.-Holzmeister-Straße 34, 9131 Grafenstein\nOrt: Grafenstein\nPLZ: 9131\nKoordinaten: 46.615806, 14.467658\nTags: amenity=school", "doc_type": "pois"}
{"source": "OSM", "region": "Kärnten", "osm_type": "node", "osm_id": 355619904, "name": "Gemeindeamt Grafenstein", "category": "amenity:townhall", "address": "ÖR-Valentin-Deutschmann-Platz 1, 9131 Grafenstein", "street": "ÖR-Valentin-Deutschmann-Platz", "housenumber": "1", "postcode": "9131", "place": "Grafenstein", "lat": 46.6173475, "lon": 14.465495, "tags": {"addr:city": "Grafenstein", "addr:housenumber": "1", "addr:postcode": "9131", "addr:street": "ÖR-Valentin-Deutschmann-Platz", "amenity": "townhall", "name": "Gemeindeamt Grafenstein", "phone": "+43 4225-2220-0", "website": "https://www.grafenstein.gv.at/"}, "content": "Gemeindeamt Grafenstein\nKategorie: amenity:townhall\nAdresse: ÖR-Valentin-Deutschmann-Platz 1, 9131 Grafenstein\nOrt: Grafenstein\nPLZ: 9131\nKoordinaten: 46.617348, 14.465495\nTags: amenity=townhall, phone=+43 4225-2220-0, website=https://www.grafenstein.gv.at/", "doc_type": "pois"}
{"source": "OSM", "region": "Kärnten", "osm_type": "node", "osm_id": 355897149, "name": "Gasthaus Kulterer", "category": "amenity:restaurant", "address": "Hauptstraße 107, 9131 Grafenstein", "street": "Hauptstraße", "housenumber": "107", "postcode": "9131", "place": "Grafenstein", "lat": 46.6106486, "lon": 14.4683258, "tags": {"addr:city": "Grafenstein", "addr:housenumber": "107", "addr:postcode": "9131", "addr:street": "Hauptstraße", "amenity": "restaurant", "name": "Gasthaus Kulterer", "phone": "+43 4225 2243"}, "content": "Gasthaus Kulterer\nKategorie: amenity:restaurant\nAdresse: Hauptstraße 107, 9131 Grafenstein\nOrt: Grafenstein\nPLZ: 9131\nKoordinaten: 46.610649, 14.468326\nTags: amenity=restaurant, phone=+43 4225 2243", "doc_type": "pois"}
{"source": "OSM", "region": "Kärnten", "osm_type": "node", "osm_id": 604704092, "name": "Buschenschenke Taupe vlg. Knapp", "category": "amenity:restaurant", "address": "Sankt Peter 17, Grafenstein", "street": "Sankt Peter", "housenumber": "17", "postcode": null, "place": "Grafenstein", "lat": 46.6116688, "lon": 14.4870874, "tags": {"addr:city": "Grafenstein", "addr:housenumber": "17", "addr:street": "Sankt Peter", "amenity": "restaurant", "name": "Buschenschenke Taupe vlg. Knapp"}, "content": "Buschenschenke Taupe vlg. Knapp\nKategorie: amenity:restaurant\nAdresse: Sankt Peter 17, Grafenstein\nOrt: Grafenstein\nKoordinaten: 46.611669, 14.487087\nTags: amenity=restaurant", "doc_type": "pois"}
{"source": "OSM", "region": "Kärnten", "osm_type": "node", "osm_id": 604740626, "name": "Mag. Helmut Rothbauer", "category": "amenity:veterinary", "address": "Hauptstraße 140, 9131 Grafenstein", "street": "Hauptstraße", "housenumber": "140", "postcode": "9131", "place": "Grafenstein", "lat": 46.607876, "lon": 14.4732896, "tags": {"addr:city": "Grafenstein", "addr:housenumber": "140", "addr:postcode": "9131", "addr:street": "Hauptstraße", "amenity": "veterinary", "name": "Mag. Helmut Rothbauer"}, "content": "Mag. Helmut Rothbauer\nKategorie: amenity:veterinary\nAdresse: Hauptstraße 140, 9131 Grafenstein\nOrt: Grafenstein\nPLZ: 9131\nKoordinaten: 46.607876, 14.473290\nTags: amenity=veterinary", "doc_type": "pois"}
{"source": "OSM", "region": "Kärnten", "osm_type": "node", "osm_id": 604740633, "name": "Dr. Kurt Ott", "category": "amenity:doctors", "address": "Sandgasse 13, 9131 Grafenstein", "street": "Sandgasse", "housenumber": "13", "postcode": "9131", "place": "Grafenstein", "lat": 46.6086575, "lon": 14.4751383, "tags": {"addr:city": "Grafenstein", "addr:housenumber": "13", "addr:postcode": "9131", "addr:street": "Sandgasse", "amenity": "doctors", "healthcare": "doctor", "name": "Dr. Kurt Ott", "phone": "04225 2144"}, "content": "Dr. Kurt Ott\nKategorie: amenity:doctors\nAdresse: Sandgasse 13, 9131 Grafenstein\nOrt: Grafenstein\nPLZ: 9131\nKoordinaten: 46.608657, 14.475138\nTags: amenity=doctors, healthcare=doctor, phone=04225 2144", "doc_type": "pois"}
{"source": "OSM", "region": "Kärnten", "osm_type": "node", "osm_id": 604751045, "name": "Dr. Ilse Barthol", "category": "amenity:dentist", "address": "Hauptstraße 103, 9131 Grafenstein", "street": "Hauptstraße", "housenumber": "103", "postcode": "9131", "place": "Grafenstein", "lat": 46.6108815, "lon": 14.4678811, "tags": {"addr:city": "Grafenstein", "addr:housenumber": "103", "addr:postcode": "9131", "addr:street": "Hauptstraße", "amenity": "dentist", "healthcare": "dentist", "name": "Dr. Ilse Barthol"}, "content": "Dr. Ilse Barthol\nKategorie: amenity:dentist\nAdresse: Hauptstraße 103, 9131 Grafenstein\nOrt: Grafenstein\nPLZ: 9131\nKoordinaten: 46.610881, 14.467881\nTags: amenity=dentist, healthcare=dentist", "doc_type": "pois"}
{"source": "OSM", "region": "Kärnten", "osm_type": "node", "osm_id": 604751060, "name": "Dr. Martin Pasiut", "category": "amenity:doctors", "address": "Blumengasse 31, 9131 Grafenstein", "street": "Blumengasse", "housenumber": "31", "postcode": "9131", "place": "Grafenstein", "lat": 46.6131145, "lon": 14.4659051, "tags": {"addr:city": "Grafenstein", "addr:housenumber": "31", "addr:postcode": "9131", "addr:street": "Blumengasse", "amenity": "doctors", "healthcare": "doctor", "name": "Dr. Martin Pasiut"}, "content": "Dr. Martin Pasiut\nKategorie: amenity:doctors\nAdresse: Blumengasse 31, 9131 Grafenstein\nOrt: Grafenstein\nPLZ: 9131\nKoordinaten: 46.613115, 14.465905\nTags: amenity=doctors, healthcare=doctor", "doc_type": "pois"}
{"source": "OSM", "region": "Kärnten", "osm_type": "node", "osm_id": 604938270, "name": "Mag. Tanja Spitra", "category": "amenity:veterinary", "address": "1, 9131 Grafenstein", "street": null, "housenumber": "1", "postcode": "9131", "place": "Grafenstein", "lat": 46.6054026, "lon": 14.4806116, "tags": {"addr:city": "Grafenstein", "addr:housenumber": "1", "addr:place": "Sand", "addr:postcode": "9131", "amenity": "veterinary", "name": "Mag. Tanja Spitra"}, "content": "Mag. Tanja Spitra\nKategorie: amenity:veterinary\nAdresse: 1, 9131 Grafenstein\nOrt: Grafenstein\nPLZ: 9131\nKoordinaten: 46.605403, 14.480612\nTags: amenity=veterinary", "doc_type": "pois"}
{"source": "OSM", "region": "Kärnten", "osm_type": "node", "osm_id": 936620138, "name": "Mostschenke Linsendorf", "category": "amenity:restaurant", "address": "Linsendorf 2, 9131 Grafenstein", "street": "Linsendorf", "housenumber": "2", "postcode": "9131", "place": "Grafenstein", "lat": 46.5651578, "lon": 14.4642421, "tags": {"addr:city": "Grafenstein", "addr:housenumber": "2", "addr:postcode": "9131", "addr:street": "Linsendorf", "amenity": "restaurant", "name": "Mostschenke Linsendorf", "phone": "+43-664-1974934", "website": "http://www.mostschenke-linsendorf.at"}, "content": "Mostschenke Linsendorf\nKategorie: amenity:restaurant\nAdresse: Linsendorf 2, 9131 Grafenstein\nOrt: Grafenstein\nPLZ: 9131\nKoordinaten: 46.565158, 14.464242\nTags: amenity=restaurant, phone=+43-664-1974934, website=http://www.mostschenke-linsendorf.at", "doc_type": "pois"}
{"source": "OSM", "region": "Kärnten", "osm_type": "node", "osm_id": 4733548936, "name": "BÜM Grafenstein", "category": "amenity:kindergarten", "address": "C.-Holzmeister-Straße 34a, 9131 Grafenstein", "street": "C.-Holzmeister-Straße", "housenumber": "34a", "postcode": "9131", "place": "Grafenstein", "lat": 46.6156344, "lon": 14.4682096, "tags": {"addr:city": "Grafenstein", "addr:housenumber": "34a", "addr:postcode": "9131", "addr:street": "C.-Holzmeister-Straße", "amenity": "kindergarten", "name": "BÜM Grafenstein"}, "content": "BÜM Grafenstein\nKategorie: amenity:kindergarten\nAdresse: C.-Holzmeister-Straße 34a, 9131 Grafenstein\nOrt: Grafenstein\nPLZ: 9131\nKoordinaten: 46.615634, 14.468210\nTags: amenity=kindergarten", "doc_type": "pois"}
{"source": "OSM", "region": "Kärnten", "osm_type": "node", "osm_id": 4733548938, "name": "Polizeiinspektion Grafenstein", "category": "amenity:police", "address": "ÖR-Valentin-Deutschmann-Platz 1, 9131 Grafenstein", "street": "ÖR-Valentin-Deutschmann-Platz", "housenumber": "1", "postcode": "9131", "place": "Grafenstein", "lat": 46.6172382, "lon": 14.465506, "tags": {"addr:city": "Grafenstein", "addr:housenumber": "1", "addr:postcode": "9131", "addr:street": "ÖR-Valentin-Deutschmann-Platz", "amenity": "police", "name": "Polizeiinspektion Grafenstein", "phone": "+43 59133 2106-100"}, "content": "Polizeiinspektion Grafenstein\nKategorie: amenity:police\nAdresse: ÖR-Valentin-Deutschmann-Platz 1, 9131 Grafenstein\nOrt: Grafenstein\nPLZ: 9131\nKoordinaten: 46.617238, 14.465506\nTags: amenity=police, phone=+43 59133 2106-100", "doc_type": "pois"}
