{"source": "OSM", "region": "Kärnten", "osm_type": "node", "osm_id": 270327016, "name": "9201 Krumpendorf", "category": "amenity:post_office", "address": "Hauptstraße 143, 9201 Krumpendorf am Wörthersee", "street": "Hauptstraße", "housenumber": "143", "postcode": "9201", "place": "Krumpendorf am Wörthersee", "lat": 46.6252733, "lon": 14.2043812, "tags": {"addr:city": "Krumpendorf am Wörthersee", "addr:housenumber": "143", "addr:postcode": "9201", "addr:street": "Hauptstraße", "amenity": "post_office", "name": "9201 Krumpendorf"}, "content": "9201 Krumpendorf\nKategorie: amenity:post_office\nAdresse: Hauptstraße 143, 9201 Krumpendorf am Wörthersee\nOrt: Krumpendorf am Wörthersee\nPLZ: 9201\nKoordinaten: 46.625273, 14.204381\nTags: amenity=post_office", "doc_type": "addresses"}
{"source": "OSM", "region": "Kärnten", "osm_type": "node", "osm_id": 529653751, "name": "Pizzeria Nautik", "category": "amenity:restaurant", "address": "Hauptstraße 168, 9201 Krumpendorf am Wörthersee", "street": "Hauptstraße", "housenumber": "168", "postcode": "9201", "place": "Krumpendorf am Wörthersee", "lat": 46.627124, "lon": 14.2098426, "tags": {"addr:city": "Krumpendorf am Wörthersee", "addr:housenumber": "168", "addr:postcode": "9201", "addr:street": "Hauptstraße", "amenity": "restaurant", "name": "Pizzeria Nautik"}, "content": "Pizzeria Nautik\nKategorie: amenity:restaurant\nAdresse: Hauptstraße 168, 9201 Krumpendorf am Wörthersee\nOrt: Krumpendorf am Wörthersee\nPLZ: 9201\nKoordinaten: 46.627124, 14.209843\nTags: amenity=restaurant", "doc_type": "addresses"}
{"source": "OSM", "region": "Kärnten", "osm_type": "node", "osm_id": 529657483, "name": "PENNY", "category": "shop:supermarket", "address": "Hauptstraße 147, 9201 Krumpendorf am Wörthersee", "street": "Hauptstraße", "housenumber": "147", "postcode": "9201", "place": "Krumpendorf am Wörthersee", "lat": 46.6261442, "lon": 14.2136519, "tags": {"addr:city": "Krumpendorf am Wörthersee", "addr:housenumber": "147", "addr:postcode": "9201", "addr:street": "Hauptstraße", "brand": "PENNY", "name": "PENNY", "shop": "supermarket"}, "content": "PENNY\nKategorie: shop:supermarket\nAdresse: Hauptstraße 147, 9201 Krumpendorf am Wörthersee\nOrt: Krumpendorf am Wörthersee\nPLZ: 9201\nKoordinaten: 46.626144, 14.213652\nTags: shop=supermarket, brand=PENNY", "doc_type": "addresses"}
{"source": "OSM", "region": "Kärnten", "osm_type": "node", "osm_id": 698565709, "name": "Gretl", "category": "tourism:hotel", "address": "Hauptstraße 169, 9201 Krumpendorf am Wörthersee", "street": "Hauptstraße", "housenumber": "169", "postcode": "9201", "place": "Krumpendorf am Wörthersee", "lat": 46.6267621, "lon": 14.2100087, "tags": {"addr:city": "Krumpendorf am Wörthersee", "addr:housenumber": "169", "addr:postcode": "9201", "addr:street": "Hauptstraße", "name": "Gretl", "phone": "+4342292096", "tourism": "hotel", "website": "www.hotelgretl.at"}, "content": "Gretl\nKategorie: tourism:hotel\nAdresse: Hauptstraße 169, 9201 Krumpendorf am Wörthersee\nOrt: Krumpendorf am Wörthersee\nPLZ: 9201\nKoordinaten: 46.626762, 14.210009\nTags: phone=+4342292096, website=www.hotelgretl.at", "doc_type": "addresses"}
{"source": "OSM", "region": "Kärnten", "osm_type": "node", "osm_id": 1077357121, "name": "Camoni Natur & Reform", "category": "shop:supermarket", "address": "Hauptstraße 173, 9201 Krumpendorf am Wörthersee", "street": "Hauptstraße", "housenumber": "173", "postcode": "9201", "place": "Krumpendorf am Wörthersee", "lat": 46.6266446, "lon": 14.2093289, "tags": {"addr:city": "Krumpendorf am Wörthersee", "addr:housenumber": "173", "addr:postcode": "9201", "addr:street": "Hauptstraße", "name": "Camoni Natur & Reform", "phone": "+43 4229 20800", "shop": "supermarket"}, "content": "Camoni Natur & Reform\nKategorie: shop:supermarket\nAdresse: Hauptstraße 173, 9201 Krumpendorf am Wörthersee\nOrt: Krumpendorf am Wörthersee\nPLZ: 9201\nKoordinaten: 46.626645, 14.209329\nTags: shop=supermarket, phone=+43 4229 20800", "doc_type": "addresses"}
{"source": "OSM", "region": "Kärnten", "osm_type": "node", "osm_id": 1382181868, "name": "Hotel Kärnten", "category": "tourism:hotel", "address": "Wieningerallee 12a, 9201 Krumpendorf am Wörthersee", "street": "Wieningerallee", "housenumber": "12a", "postcode": "9201", "place": "Krumpendorf am Wörthersee", "lat": 46.6246187, "lon": 14.2175394, "tags": {"addr:city": "Krumpendorf am Wörthersee", "addr:housenumber": "12a", "addr:postcode": "9201", "addr:street": "Wieningerallee", "name": "Hotel Kärnten", "tourism": "hotel", "website": "https://www.hotelkaernten.at/"}, "content": "Hotel Kärnten\nKategorie: tourism:hotel\nAdresse: Wieningerallee 12a, 9201 Krumpendorf am Wörthersee\nOrt: Krumpendorf am Wörthersee\nPLZ: 9201\nKoordinaten: 46.624619, 14.217539\nTags: website=https://www.hotelkaernten.at/", "doc_type": "addresses"}
{"source": "OSM", "region": "Kärnten", "osm_type": "node", "osm_id": 1382181869, "name": "Hotel Hudelist", "category": "amenity:restaurant", "address": "Wieningerallee 12, 9201 Krumpendorf am Wörthersee", "street": "Wieningerallee", "housenumber": "12", "postcode": "9201", "place": "Krumpendorf am Wörthersee", "lat": 46.6248372, "lon": 14.2183294, "tags": {"addr:city": "Krumpendorf am Wörthersee", "addr:housenumber": "12", "addr:postcode": "9201", "addr:street": "Wieningerallee", "amenity": "restaurant", "name": "Hotel Hudelist", "tourism": "hotel", "website": "https://www.hotel-hudelist.at/"}, "content": "Hotel Hudelist\nKategorie: amenity:restaurant\nAdresse: Wieningerallee 12, 9201 Krumpendorf am Wörthersee\nOrt: Krumpendorf am Wörthersee\nPLZ: 9201\nKoordinaten: 46.624837, 14.218329\nTags: amenity=restaurant, website=https://www.hotel-hudelist.at/", "doc_type": "addresses"}
{"source": "OSM", "region": "Kärnten", "osm_type": "node", "osm_id": 2389108747, "name": "Hotel *** Rosenheim", "category": "amenity:restaurant", "address": "Schloßallee 33, 9201 Krumpendorf am Wörthersee", "street": "Schloßallee", "housenumber": "33", "postcode": "9201", "place": "Krumpendorf am Wörthersee", "lat": 46.6226514, "lon": 14.2141657, "tags": {"addr:city": "Krumpendorf am Wörthersee", "addr:housenumber": "33", "addr:postcode": "9201", "addr:street": "Schloßallee", "amenity": "restaurant", "name": "Hotel *** Rosenheim", "tourism": "hotel", "website": "https://www.hotelrosenheim.net/"}, "content": "Hotel *** Rosenheim\nKategorie: amenity:restaurant\nAdresse: Schloßallee 33, 9201 Krumpendorf am Wörthersee\nOrt: Krumpendorf am Wörthersee\nPLZ: 9201\nKoordinaten: 46.622651, 14.214166\nTags: amenity=restaurant, website=https://www.hotelrosenheim.net/", "doc_type": "addresses"}
{"source": "OSM", "region": "Kärnten", "osm_type": "node", "osm_id": 2413370669, "name": "Krumpendorferhof", "category": "amenity:restaurant", "address": "Hauptstraße 164, 9201 Krumpendorf am Wörthersee", "street": "Hauptstraße", "housenumber": "164", "postcode": "9201", "place": "Krumpendorf am Wörthersee", "lat": 46.6271636, "lon": 14.2105957, "tags": {"addr:city": "Krumpendorf am Wörthersee", "addr:housenumber": "164", "addr:postcode": "9201", "addr:street": "Hauptstraße", "amenity": "restaurant", "name": "Krumpendorferhof", "tourism": "hotel", "website": "www.krumpendorferhof.co.at"}, "content": "Krumpendorferhof\nKategorie: amenity:restaurant\nAdresse: Hauptstraße 164, 9201 Krumpendorf am Wörthersee\nOrt: Krumpendorf am Wörthersee\nPLZ: 9201\nKoordinaten: 46.627164, 14.210596\nTags: amenity=restaurant, website=www.krumpendorferhof.co.at", "doc_type": "addresses"}
{"source": "OSM", "region": "Kärnten", "osm_type": "node", "osm_id": 2419616227, "name": "Appartementhaus Habich", "category": "tourism:chalet", "address": "Kochstraße 44, 9201 Krumpendorf am Wörthersee", "street": "Kochstraße", "housenumber": "44", "postcode": "9201", "place": "Krumpendorf am Wörthersee", "lat": 46.6216848, "lon": 14.2115392, "tags": {"addr:city": "Krumpendorf am Wörthersee", "addr:housenumber": "44", "addr:postcode": "9201", "addr:street": "Kochstraße", "name": "Appartementhaus Habich", "tourism": "chalet"}, "content": "Appartementhaus Habich\nKategorie: tourism:chalet\nAdresse: Kochstraße 44, 9201 Krumpendorf am Wörthersee\nOrt: Krumpendorf am Wörthersee\nPLZ: 9201\nKoordinaten: 46.621685, 14.211539", "doc_type": "addresses"}
{"source": "OSM", "region": "Kärnten", "osm_type": "node", "osm_id": 2419616229, "name": "Pension Carinthia", "category": "tourism:guest_house", "address": "Bad-Stich-Straße 35, 9201 Krumpendorf am Wörthersee", "street": "Bad-Stich-Straße", "housenumber": "35", "postcode": "9201", "place": "Krumpendorf am Wörthersee", "lat": 46.621876, "lon": 14.206885, "tags": {"addr:city": "Krumpendorf am Wörthersee", "addr:housenumber": "35", "addr:postcode": "9201", "addr:street": "Bad-Stich-Straße", "name": "Pension Carinthia", "operator": "Fam. Warncke", "tourism": "guest_house"}, "content": "Pension Carinthia\nKategorie: tourism:guest_house\nAdresse: Bad-Stich-Straße 35, 9201 Krumpendorf am Wörthersee\nOrt: Krumpendorf am Wörthersee\nPLZ: 9201\nKoordinaten: 46.621876, 14.206885\nTags: operator=Fam. Warncke", "doc_type": "addresses"}
{"source": "OSM", "region": "Kärnten", "osm_type": "node", "osm_id": 2419654444, "name": "Haus Gaggl", "category": "tourism:chalet", "address": "Karawankenweg 6, 9201 Krumpendorf am Wörthersee", "street": "Karawankenweg", "housenumber": "6", "postcode": "9201", "place": "Krumpendorf am Wörthersee", "lat": 46.6253323, "lon": 14.2065777, "tags": {"addr:city": "Krumpendorf am Wörthersee", "addr:housenumber": "6", "addr:postcode": "9201", "addr:street": "Karawankenweg", "name": "Haus Gaggl", "tourism": "chalet"}, "content": "Haus Gaggl\nKategorie: tourism:chalet\nAdresse: Karawankenweg 6, 9201 Krumpendorf am Wörthersee\nOrt: Krumpendorf am Wörthersee\nPLZ: 9201\nKoordinaten: 46.625332, 14.206578", "doc_type": "addresses"}
{"source": "OSM", "region": "Kärnten", "osm_type": "node", "osm_id": 2419654448, "name": "Haus Habich", "category": "tourism:chalet", "address": "Bad-Stich-Straße 12, 9201 Krumpendorf am Wörthersee", "street": "Bad-Stich-Straße", "housenumber": "12", "postcode": "9201", "place": "Krumpendorf am Wörthersee", "lat": 46.6246753, "lon": 14.2048841, "tags": {"addr:city": "Krumpendorf am Wörthersee", "addr:housenumber": "12", "addr:postcode": "9201", "addr:street": "Bad-Stich-Straße", "name": "Haus Habich", "tourism": "chalet"}, "content": "Haus Habich\nKategorie: tourism:chalet\nAdresse: Bad-Stich-Straße 12, 9201 Krumpendorf am Wörthersee\nOrt: Krumpendorf am Wörthersee\nPLZ: 9201\nKoordinaten: 46.624675, 14.204884", "doc_type": "addresses"}
{"source": "OSM", "region": "Kärnten", "osm_type": "node", "osm_id": 2419654451, "name": "Strandhotel Habich", "category": "tourism:hotel", "address": "Walterskirchenweg 10, 9201 Krumpendorf am Wörthersee", "street": "Walterskirchenweg", "housenumber": "10", "postcode": "9201", "place": "Krumpendorf am Wörthersee", "lat": 46.6198673, "lon": 14.1996738, "tags": {"addr:city": "Krumpendorf am Wörthersee", "addr:housenumber": "10", "addr:postcode": "9201", "addr:street": "Walterskirchenweg", "name": "Strandhotel Habich", "tourism": "hotel"}, "content": "Strandhotel Habich\nKategorie: tourism:hotel\nAdresse: Walterskirchenweg 10, 9201 Krumpendorf am Wörthersee\nOrt: Krumpendorf am Wörthersee\nPLZ: 9201\nKoordinaten: 46.619867, 14.199674", "doc_type": "addresses"}
{"source": "OSM", "region": "Kärnten", "osm_type": "node", "osm_id": 2419654454, "name": "Pension Regina", "category": "tourism:guest_house", "address": "Karawankenweg 7, 9201 Krumpendorf am Wörthersee", "street": "Karawankenweg", "housenumber": "7", "postcode": "9201", "place": "Krumpendorf am Wörthersee", "lat": 46.6256144, "lon": 14.2069301, "tags": {"addr:city": "Krumpendorf am Wörthersee", "addr:housenumber": "7", "addr:postcode": "9201", "addr:street": "Karawankenweg", "name": "Pension Regina", "tourism": "guest_house"}, "content": "Pension Regina\nKategorie: tourism:guest_house\nAdresse: Karawankenweg 7, 9201 Krumpendorf am Wörthersee\nOrt: Krumpendorf am Wörthersee\nPLZ: 9201\nKoordinaten: 46.625614, 14.206930", "doc_type": "addresses"}
{"source": "OSM", "region": "Kärnten", "osm_type": "node", "osm_id": 2419654690, "name": "Zechnerhof", "category": "tourism:guest_house", "address": "Leinsdorferstraße 8, 9201 Krumpendorf am Wörthersee", "street": "Leinsdorferstraße", "housenumber": "8", "postcode": "9201", "place": "Krumpendorf am Wörthersee", "lat": 46.6254337, "lon": 14.2030889, "tags": {"addr:city": "Krumpendorf am Wörthersee", "addr:housenumber": "8", "addr:postcode": "9201", "addr:street": "Leinsdorferstraße", "name": "Zechnerhof", "operator": "Fam. Habich", "tourism": "guest_house", "website": "www.zechnerhof.com"}, "content": "Zechnerhof\nKategorie: tourism:guest_house\nAdresse: Leinsdorferstraße 8, 9201 Krumpendorf am Wörthersee\nOrt: Krumpendorf am Wörthersee\nPLZ: 9201\nKoordinaten: 46.625434, 14.203089\nTags: operator=Fam. Habich, website=www.zechnerhof.com", "doc_type": "addresses"}
{"source": "OSM", "region": "Kärnten", "osm_type": "node", "osm_id": 2419880676, "name": "Ferienanlage Seehof", "category": "tourism:chalet", "address": "Kochstraße 19, 9201 Krumpendorf am Wörthersee", "street": "Kochstraße", "housenumber": "19", "postcode": "9201", "place": "Krumpendorf am Wörthersee", "lat": 46.6242605, "lon": 14.2101466, "tags": {"addr:city": "Krumpendorf am Wörthersee", "addr:housenumber": "19", "addr:postcode": "9201", "addr:street": "Kochstraße", "name": "Ferienanlage Seehof", "tourism": "chalet", "website": "https://www.pension-seehof.at/"}, "content": "Ferienanlage Seehof\nKategorie: tourism:chalet\nAdresse: Kochstraße 19, 9201 Krumpendorf am Wörthersee\nOrt: Krumpendorf am Wörthersee\nPLZ: 9201\nKoordinaten: 46.624260, 14.210147\nTags: website=https://www.pension-seehof.at/", "doc_type": "addresses"}
{"source": "OSM", "region": "Kärnten", "osm_type": "node", "osm_id": 2419908415, "name": "Soleo", "category": "amenity:restaurant", "address": "Am Föhrenwald 17, 9201 Krumpendorf am Wörthersee", "street": "Am Föhrenwald", "housenumber": "17", "postcode": "9201", "place": "Krumpendorf am Wörthersee", "lat": 46.6212534, "lon": 14.190632, "tags": {"addr:city": "Krumpendorf am Wörthersee", "addr:housenumber": "17", "addr:postcode": "9201", "addr:street": "Am Föhrenwald", "amenity": "restaurant", "name": "Soleo", "tourism": "hotel", "website": "www.soleo.at"}, "content": "Soleo\nKategorie: amenity:restaurant\nAdresse: Am Föhrenwald 17, 9201 Krumpendorf am Wörthersee\nOrt: Krumpendorf am Wörthersee\nPLZ: 9201\nKoordinaten: 46.621253, 14.190632\nTags: amenity=restaurant, website=www.soleo.at", "doc_type": "addresses"}
{"source": "OSM", "region": "Kärnten", "osm_type": "node", "osm_id": 2420235052, "name": "Polizeiinspektion Krumpendorf", "category": "amenity:police", "address": "Hauptstraße 143, 9201 Krumpendorf am Wörthersee", "street": "Hauptstraße", "housenumber": "143", "postcode": "9201", "place": "Krumpendorf am Wörthersee", "lat": 46.6263115, "lon": 14.2145087, "tags": {"addr:city": "Krumpendorf am Wörthersee", "addr:housenumber": "143", "addr:postcode": "9201", "addr:street": "Hauptstraße", "amenity": "police", "name": "Polizeiinspektion Krumpendorf"}, "content": "Polizeiinspektion Krumpendorf\nKategorie: amenity:police\nAdresse: Hauptstraße 143, 9201 Krumpendorf am Wörthersee\nOrt: Krumpendorf am Wörthersee\nPLZ: 9201\nKoordinaten: 46.626311, 14.214509\nTags: amenity=police", "doc_type": "addresses"}
{"source": "OSM", "region": "Kärnten", "osm_type": "node", "osm_id": 2429355101, "name": null, "category": null, "address": "Hauptstraße 217, 9201 Krumpendorf am Wörthersee", "street": "Hauptstraße", "housenumber": "217", "postcode": "9201", "place": "Krumpendorf am Wörthersee", "lat": 46.6252846, "lon": 14.204268, "tags": {"addr:city": "Krumpendorf am Wörthersee", "addr:housenumber": "217", "addr:postcode": "9201", "addr:street": "Hauptstraße"}, "content": "Adresse: Hauptstraße 217, 9201 Krumpendorf am Wörthersee\nOrt: Krumpendorf am Wörthersee\nPLZ: 9201\nKoordinaten: 46.625285, 14.204268", "doc_type": "addresses"}
{"source": "OSM", "region": "Kärnten", "osm_type": "node", "osm_id": 2429355418, "name": null, "category": null, "address": "Hauptstraße 147, 9201 Krumpendorf am Wörthersee", "street": "Hauptstraße", "housenumber": "147", "postcode": "9201", "place": "Krumpendorf am Wörthersee", "lat": 46.6260311, "lon": 14.2135993, "tags": {"addr:city": "Krumpendorf am Wörthersee", "addr:housenumber": "147", "addr:postcode": "9201", "addr:street": "Hauptstraße"}, "content": "Adresse: Hauptstraße 147, 9201 Krumpendorf am Wörthersee\nOrt: Krumpendorf am Wörthersee\nPLZ: 9201\nKoordinaten: 46.626031, 14.213599", "doc_type": "addresses"}
{"source": "OSM", "region": "Kärnten", "osm_type": "node", "osm_id": 2435608641, "name": "Freier Seezugang", "category": "leisure:swimming_pool", "address": "Walterskirchenweg, 9201 Krumpendorf am Wörthersee", "street": "Walterskirchenweg", "housenumber": null, "postcode": "9201", "place": "Krumpendorf am Wörthersee", "lat": 46.6192468, "lon": 14.2004074, "tags": {"addr:city": "Krumpendorf am Wörthersee", "addr:postcode": "9201", "addr:street": "Walterskirchenweg", "leisure": "swimming_pool", "name": "Freier Seezugang"}, "content": "Freier Seezugang\nKategorie: leisure:swimming_pool\nAdresse: Walterskirchenweg, 9201 Krumpendorf am Wörthersee\nOrt: Krumpendorf am Wörthersee\nPLZ: 9201\nKoordinaten: 46.619247, 14.200407", "doc_type": "addresses"}
{"source": "OSM", "region": "Kärnten", "osm_type": "node", "osm_id": 2435733778, "name": null, "category": null, "address": "Pamperlallee 3, 9201 Krumpendorf am Wörthersee", "street": "Pamperlallee", "housenumber": "3", "postcode": "9201", "place": "Krumpendorf am Wörthersee", "lat": 46.622995, "lon": 14.2202195, "tags": {"addr:city": "Krumpendorf am Wörthersee", "addr:housenumber": "3", "addr:postcode": "9201", "addr:street": "Pamperlallee"}, "content": "Adresse: Pamperlallee 3, 9201 Krumpendorf am Wörthersee\nOrt: Krumpendorf am Wörthersee\nPLZ: 9201\nKoordinaten: 46.622995, 14.220220", "doc_type": "addresses"}
{"source": "OSM", "region": "Kärnten", "osm_type": "node", "osm_id": 3755987505, "name": "UNiQUARE GmbH", "category": "office:company", "address": "Lannerweg 9, 9201 Krumpendorf am Wörthersee", "street": "Lannerweg", "housenumber": "9", "postcode": "9201", "place": "Krumpendorf am Wörthersee", "lat": 46.6276559, "lon": 14.2162925, "tags": {"addr:city": "Krumpendorf am Wörthersee", "addr:housenumber": "9", "addr:postcode": "9201", "addr:street": "Lannerweg", "name": "UNiQUARE GmbH", "office": "company"}, "content": "UNiQUARE GmbH\nKategorie: office:company\nAdresse: Lannerweg 9, 9201 Krumpendorf am Wörthersee\nOrt: Krumpendorf am Wörthersee\nPLZ: 9201\nKoordinaten: 46.627656, 14.216292\nTags: office=company", "doc_type": "addresses"}
{"source": "OSM", "region": "Kärnten", "osm_type": "node", "osm_id": 4431479576, "name": "Bauernkistl", "category": "shop:greengrocer", "address": "Hauptstraße 173, 9201 Krumpendorf am Wörthersee", "street": "Hauptstraße", "housenumber": "173", "postcode": "9201", "place": "Krumpendorf am Wörthersee", "lat": 46.6267253, "lon": 14.2095695, "tags": {"addr:city": "Krumpendorf am Wörthersee", "addr:housenumber": "173", "addr:postcode": "9201", "addr:street": "Hauptstraße", "name": "Bauernkistl", "phone": "+43 4272 20257", "shop": "greengrocer", "website": "http://www.bauernkistl.com"}, "content": "Bauernkistl\nKategorie: shop:greengrocer\nAdresse: Hauptstraße 173, 9201 Krumpendorf am Wörthersee\nOrt: Krumpendorf am Wörthersee\nPLZ: 9201\nKoordinaten: 46.626725, 14.209570\nTags: shop=greengrocer, phone=+43 4272 20257, website=http://www.bauernkistl.com", "doc_type": "addresses"}
{"source": "OSM", "region": "Kärnten", "osm_type": "node", "osm_id": 4574118386, "name": null, "category": null, "address": "Bachsteg 2, 9201 Krumpendorf am Wörthersee", "street": "Bachsteg", "housenumber": "2", "postcode": "9201", "place": "Krumpendorf am Wörthersee", "lat": 46.6266428, "lon": 14.2104733, "tags": {"addr:city": "Krumpendorf am Wörthersee", "addr:housenumber": "2", "addr:postcode": "9201", "addr:street": "Bachsteg"}, "content": "Adresse: Bachsteg 2, 9201 Krumpendorf am Wörthersee\nOrt: Krumpendorf am Wörthersee\nPLZ: 9201\nKoordinaten: 46.626643, 14.210473", "doc_type": "addresses"}
{"source": "OSM", "region": "Kärnten", "osm_type": "node", "osm_id": 4574144407, "name": null, "category": null, "address": "Komauerweg 1, 9201 Krumpendorf am Wörthersee", "street": "Komauerweg", "housenumber": "1", "postcode": "9201", "place": "Krumpendorf am Wörthersee", "lat": 46.6274089, "lon": 14.2100423, "tags": {"addr:city": "Krumpendorf am Wörthersee", "addr:housenumber": "1", "addr:postcode": "9201", "addr:street": "Komauerweg"}, "content": "Adresse: Komauerweg 1, 9201 Krumpendorf am Wörthersee\nOrt: Krumpendorf am Wörthersee\nPLZ: 9201\nKoordinaten: 46.627409, 14.210042", "doc_type": "addresses"}
{"source": "OSM", "region": "Kärnten", "osm_type": "node", "osm_id": 4580333489, "name": null, "category": null, "address": "Gustav-Mahler-Straße 5, 9201 Krumpendorf am Wörthersee", "street": "Gustav-Mahler-Straße", "housenumber": "5", "postcode": "9201", "place": "Krumpendorf am Wörthersee", "lat": 46.6222988, "lon": 14.2046866, "tags": {"addr:city": "Krumpendorf am Wörthersee", "addr:housenumber": "5", "addr:postcode": "9201", "addr:street": "Gustav-Mahler-Straße"}, "content": "Adresse: Gustav-Mahler-Straße 5, 9201 Krumpendorf am Wörthersee\nOrt: Krumpendorf am Wörthersee\nPLZ: 9201\nKoordinaten: 46.622299, 14.204687", "doc_type": "addresses"}
{"source": "OSM", "region": "Kärnten", "osm_type": "node", "osm_id": 4703272087, "name": null, "category": null, "address": "Südbahnweg 85, 9201 Krumpendorf am Wörthersee", "street": "Südbahnweg", "housenumber": "85", "postcode": "9201", "place": "Krumpendorf am Wörthersee", "lat": 46.6226972, "lon": 14.208323, "tags": {"addr:city": "Krumpendorf am Wörthersee", "addr:housenumber": "85", "addr:postcode": "9201", "addr:street": "Südbahnweg"}, "content": "Adresse: Südbahnweg 85, 9201 Krumpendorf am Wörthersee\nOrt: Krumpendorf am Wörthersee\nPLZ: 9201\nKoordinaten: 46.622697, 14.208323", "doc_type": "addresses"}
{"source": "OSM", "region": "Kärnten", "osm_type": "node", "osm_id": 4714159431, "name": null, "category": null, "address": "10.-Oktober-Straße 6, 9201 Krumpendorf am Wörthersee", "street": "10.-Oktober-Straße", "housenumber": "6", "postcode": "9201", "place": "Krumpendorf am Wörthersee", "lat": 46.6228908, "lon": 14.2130979, "tags": {"addr:city": "Krumpendorf am Wörthersee", "addr:housenumber": "6", "addr:postcode": "9201", "addr:street": "10.-Oktober-Straße"}, "content": "Adresse: 10.-Oktober-Straße 6, 9201 Krumpendorf am Wörthersee\nOrt: Krumpendorf am Wörthersee\nPLZ: 9201\nKoordinaten: 46.622891, 14.213098", "doc_type": "addresses"}
{"source": "OSM", "region": "Kärnten", "osm_type": "node", "osm_id": 4714159432, "name": null, "category": null, "address": "10.-Oktober-Straße 8, 9201 Krumpendorf am Wörthersee", "street": "10.-Oktober-Straße", "housenumber": "8", "postcode": "9201", "place": "Krumpendorf am Wörthersee", "lat": 46.6230635, "lon": 14.2130886, "tags": {"addr:city": "Krumpendorf am Wörthersee", "addr:housenumber": "8", "addr:postcode": "9201", "addr:street": "10.-Oktober-Straße"}, "content": "Adresse: 10.-Oktober-Straße 8, 9201 Krumpendorf am Wörthersee\nOrt: Krumpendorf am Wörthersee\nPLZ: 9201\nKoordinaten: 46.623064, 14.213089", "doc_type": "addresses"}
{"source": "OSM", "region": "Kärnten", "osm_type": "node", "osm_id": 4714159433, "name": null, "category": null, "address": "10.-Oktober-Straße 10, 9201 Krumpendorf am Wörthersee", "street": "10.-Oktober-Straße", "housenumber": "10", "postcode": "9201", "place": "Krumpendorf am Wörthersee", "lat": 46.6231971, "lon": 14.2127114, "tags": {"addr:city": "Krumpendorf am Wörthersee", "addr:housenumber": "10", "addr:postcode": "9201", "addr:street": "10.-Oktober-Straße"}, "content": "Adresse: 10.-Oktober-Straße 10, 9201 Krumpendorf am Wörthersee\nOrt: Krumpendorf am Wörthersee\nPLZ: 9201\nKoordinaten: 46.623197, 14.212711", "doc_type": "addresses"}
{"source": "OSM", "region": "Kärnten", "osm_type": "node", "osm_id": 4714159434, "name": null, "category": null, "address": "10.-Oktober-Straße 12, 9201 Krumpendorf am Wörthersee", "street": "10.-Oktober-Straße", "housenumber": "12", "postcode": "9201", "place": "Krumpendorf am Wörthersee", "lat": 46.6231951, "lon": 14.2125211, "tags": {"addr:city": "Krumpendorf am Wörthersee", "addr:housenumber": "12", "addr:postcode": "9201", "addr:street": "10.-Oktober-Straße"}, "content": "Adresse: 10.-Oktober-Straße 12, 9201 Krumpendorf am Wörthersee\nOrt: Krumpendorf am Wörthersee\nPLZ: 9201\nKoordinaten: 46.623195, 14.212521", "doc_type": "addresses"}
{"source": "OSM", "region": "Kärnten", "osm_type": "node", "osm_id": 4714159435, "name": null, "category": null, "address": "10.-Oktober-Straße 14, 9201 Krumpendorf am Wörthersee", "street": "10.-Oktober-Straße", "housenumber": "14", "postcode": "9201", "place": "Krumpendorf am Wörthersee", "lat": 46.6227828, "lon": 14.2123083, "tags": {"addr:city": "Krumpendorf am Wörthersee", "addr:housenumber": "14", "addr:postcode": "9201", "addr:street": "10.-Oktober-Straße"}, "content": "Adresse: 10.-Oktober-Straße 14, 9201 Krumpendorf am Wörthersee\nOrt: Krumpendorf am Wörthersee\nPLZ: 9201\nKoordinaten: 46.622783, 14.212308", "doc_type": "addresses"}
{"source": "OSM", "region": "Kärnten", "osm_type": "node", "osm_id": 4714159436, "name": null, "category": null, "address": "10.-Oktober-Straße 16, 9201 Krumpendorf am Wörthersee", "street": "10.-Oktober-Straße", "housenumber": "16", "postcode": "9201", "place": "Krumpendorf am Wörthersee", "lat": 46.6229199, "lon": 14.2122899, "tags": {"addr:city": "Krumpendorf am Wörthersee", "addr:housenumber": "16", "addr:postcode": "9201", "addr:street": "10.-Oktober-Straße"}, "content": "Adresse: 10.-Oktober-Straße 16, 9201 Krumpendorf am Wörthersee\nOrt: Krumpendorf am Wörthersee\nPLZ: 9201\nKoordinaten: 46.622920, 14.212290", "doc_type": "addresses"}
{"source": "OSM", "region": "Kärnten", "osm_type": "node", "osm_id": 4714159437, "name": null, "category": null, "address": "10.-Oktober-Straße 18, 9201 Krumpendorf am Wörthersee", "street": "10.-Oktober-Straße", "housenumber": "18", "postcode": "9201", "place": "Krumpendorf am Wörthersee", "lat": 46.6231621, "lon": 14.2120466, "tags": {"addr:city": "Krumpendorf am Wörthersee", "addr:housenumber": "18", "addr:postcode": "9201", "addr:street": "10.-Oktober-Straße"}, "content": "Adresse: 10.-Oktober-Straße 18, 9201 Krumpendorf am Wörthersee\nOrt: Krumpendorf am Wörthersee\nPLZ: 9201\nKoordinaten: 46.623162, 14.212047", "doc_type": "addresses"}
{"source": "OSM", "region": "Kärnten", "osm_type": "node", "osm_id": 4714159438, "name": null, "category": null, "address": "10.-Oktober-Straße 20, 9201 Krumpendorf am Wörthersee", "street": "10.-Oktober-Straße", "housenumber": "20", "postcode": "9201", "place": "Krumpendorf am Wörthersee", "lat": 46.6231418, "lon": 14.2118535, "tags": {"addr:city": "Krumpendorf am Wörthersee", "addr:housenumber": "20", "addr:postcode": "9201", "addr:street": "10.-Oktober-Straße"}, "content": "Adresse: 10.-Oktober-Straße 20, 9201 Krumpendorf am Wörthersee\nOrt: Krumpendorf am Wörthersee\nPLZ: 9201\nKoordinaten: 46.623142, 14.211854", "doc_type": "addresses"}
{"source": "OSM", "region": "Kärnten", "osm_type": "node", "osm_id": 4714159439, "name": null, "category": null, "address": "10.-Oktober-Straße 22, 9201 Krumpendorf am Wörthersee", "street": "10.-Oktober-Straße", "housenumber": "22", "postcode": "9201", "place": "Krumpendorf am Wörthersee", "lat": 46.6227156, "lon": 14.211797, "tags": {"addr:city": "Krumpendorf am Wörthersee", "addr:housenumber": "22", "addr:postcode": "9201", "addr:street": "10.-Oktober-Straße"}, "content": "Adresse: 10.-Oktober-Straße 22, 9201 Krumpendorf am Wörthersee\nOrt: Krumpendorf am Wörthersee\nPLZ: 9201\nKoordinaten: 46.622716, 14.211797", "doc_type": "addresses"}
{"source": "OSM", "region": "Kärnten", "osm_type": "node", "osm_id": 4714159440, "name": null, "category": null, "address": "10.-Oktober-Straße 24, 9201 Krumpendorf am Wörthersee", "street": "10.-Oktober-Straße", "housenumber": "24", "postcode": "9201", "place": "Krumpendorf am Wörthersee", "lat": 46.6228902, "lon": 14.2117589, "tags": {"addr:city": "Krumpendorf am Wörthersee", "addr:housenumber": "24", "addr:postcode": "9201", "addr:street": "10.-Oktober-Straße"}, "content": "Adresse: 10.-Oktober-Straße 24, 9201 Krumpendorf am Wörthersee\nOrt: Krumpendorf am Wörthersee\nPLZ: 9201\nKoordinaten: 46.622890, 14.211759", "doc_type": "addresses"}
{"source": "OSM", "region": "Kärnten", "osm_type": "node", "osm_id": 4714159443, "name": null, "category": null, "address": "Südbahnweg 69, 9201 Krumpendorf am Wörthersee", "street": "Südbahnweg", "housenumber": "69", "postcode": "9201", "place": "Krumpendorf am Wörthersee", "lat": 46.6232951, "lon": 14.2109605, "tags": {"addr:city": "Krumpendorf am Wörthersee", "addr:housenumber": "69", "addr:postcode": "9201", "addr:street": "Südbahnweg"}, "content": "Adresse: Südbahnweg 69, 9201 Krumpendorf am Wörthersee\nOrt: Krumpendorf am Wörthersee\nPLZ: 9201\nKoordinaten: 46.623295, 14.210961", "doc_type": "addresses"}
{"source": "OSM", "region": "Kärnten", "osm_type": "node", "osm_id": 4714159444, "name": null, "category": null, "address": "Südbahnweg 67, 9201 Krumpendorf am Wörthersee", "street": "Südbahnweg", "housenumber": "67", "postcode": "9201", "place": "Krumpendorf am Wörthersee", "lat": 46.6231126, "lon": 14.2109613, "tags": {"addr:city": "Krumpendorf am Wörthersee", "addr:housenumber": "67", "addr:postcode": "9201", "addr:street": "Südbahnweg"}, "content": "Adresse: Südbahnweg 67, 9201 Krumpendorf am Wörthersee\nOrt: Krumpendorf am Wörthersee\nPLZ: 9201\nKoordinaten: 46.623113, 14.210961", "doc_type": "addresses"}
{"source": "OSM", "region": "Kärnten", "osm_type": "node", "osm_id": 4714159459, "name": null, "category": null, "address": "Kochstraße 54, 9201 Krumpendorf am Wörthersee", "street": "Kochstraße", "housenumber": "54", "postcode": "9201", "place": "Krumpendorf am Wörthersee", "lat": 46.6211542, "lon": 14.2113951, "tags": {"addr:city": "Krumpendorf am Wörthersee", "addr:housenumber": "54", "addr:postcode": "9201", "addr:street": "Kochstraße"}, "content": "Adresse: Kochstraße 54, 9201 Krumpendorf am Wörthersee\nOrt: Krumpendorf am Wörthersee\nPLZ: 9201\nKoordinaten: 46.621154, 14.211395", "doc_type": "addresses"}
{"source": "OSM", "region": "Kärnten", "osm_type": "node", "osm_id": 4714159460, "name": null, "category": null, "address": "Kochstraße 56, 9201 Krumpendorf am Wörthersee", "street": "Kochstraße", "housenumber": "56", "postcode": "9201", "place": "Krumpendorf am Wörthersee", "lat": 46.6209689, "lon": 14.2118292, "tags": {"addr:city": "Krumpendorf am Wörthersee", "addr:housenumber": "56", "addr:postcode": "9201", "addr:street": "Kochstraße"}, "content": "Adresse: Kochstraße 56, 9201 Krumpendorf am Wörthersee\nOrt: Krumpendorf am Wörthersee\nPLZ: 9201\nKoordinaten: 46.620969, 14.211829", "doc_type": "addresses"}
{"source": "OSM", "region": "Kärnten", "osm_type": "node", "osm_id": 4714172404, "name": null, "category": null, "address": "Schloßallee 1, 9201 Krumpendorf am Wörthersee", "street": "Schloßallee", "housenumber": "1", "postcode": "9201", "place": "Krumpendorf am Wörthersee", "lat": 46.6260336, "lon": 14.2141554, "tags": {"addr:city": "Krumpendorf am Wörthersee", "addr:housenumber": "1", "addr:postcode": "9201", "addr:street": "Schloßallee"}, "content": "Adresse: Schloßallee 1, 9201 Krumpendorf am Wörthersee\nOrt: Krumpendorf am Wörthersee\nPLZ: 9201\nKoordinaten: 46.626034, 14.214155", "doc_type": "addresses"}
{"source": "OSM", "region": "Kärnten", "osm_type": "node", "osm_id": 4714172405, "name": null, "category": null, "address": "Schloßallee 18, 9201 Krumpendorf am Wörthersee", "street": "Schloßallee", "housenumber": "18", "postcode": "9201", "place": "Krumpendorf am Wörthersee", "lat": 46.6248096, "lon": 14.2138631, "tags": {"addr:city": "Krumpendorf am Wörthersee", "addr:housenumber": "18", "addr:postcode": "9201", "addr:street": "Schloßallee"}, "content": "Adresse: Schloßallee 18, 9201 Krumpendorf am Wörthersee\nOrt: Krumpendorf am Wörthersee\nPLZ: 9201\nKoordinaten: 46.624810, 14.213863", "doc_type": "addresses"}
{"source": "OSM", "region": "Kärnten", "osm_type": "node", "osm_id": 4714212295, "name": null, "category": null, "address": "Südbahnweg 17, 9201 Krumpendorf am Wörthersee", "street": "Südbahnweg", "housenumber": "17", "postcode": "9201", "place": "Krumpendorf am Wörthersee", "lat": 46.6253464, "lon": 14.2189921, "tags": {"addr:city": "Krumpendorf am Wörthersee", "addr:housenumber": "17", "addr:postcode": "9201", "addr:street": "Südbahnweg"}, "content": "Adresse: Südbahnweg 17, 9201 Krumpendorf am Wörthersee\nOrt: Krumpendorf am Wörthersee\nPLZ: 9201\nKoordinaten: 46.625346, 14.218992", "doc_type": "addresses"}
{"source": "OSM", "region": "Kärnten", "osm_type": "node", "osm_id": 4739383494, "name": null, "category": null, "address": "Strandweg 25a, 9201 Krumpendorf am Wörthersee", "street": "Strandweg", "housenumber": "25a", "postcode": "9201", "place": "Krumpendorf am Wörthersee", "lat": 46.6271999, "lon": 14.2389454, "tags": {"addr:city": "Krumpendorf am Wörthersee", "addr:housenumber": "25a", "addr:postcode": "9201", "addr:street": "Strandweg"}, "content": "Adresse: Strandweg 25a, 9201 Krumpendorf am Wörthersee\nOrt: Krumpendorf am Wörthersee\nPLZ: 9201\nKoordinaten: 46.627200, 14.238945", "doc_type": "addresses"}
{"source": "OSM", "region": "Kärnten", "osm_type": "node", "osm_id": 4739719215, "name": null, "category": null, "address": "Strandweg 125a, 9201 Krumpendorf am Wörthersee", "street": "Strandweg", "housenumber": "125a", "postcode": "9201", "place": "Krumpendorf am Wörthersee", "lat": 46.6271574, "lon": 14.2256047, "tags": {"addr:city": "Krumpendorf am Wörthersee", "addr:housenumber": "125a", "addr:postcode": "9201", "addr:street": "Strandweg"}, "content": "Adresse: Strandweg 125a, 9201 Krumpendorf am Wörthersee\nOrt: Krumpendorf am Wörthersee\nPLZ: 9201\nKoordinaten: 46.627157, 14.225605", "doc_type": "addresses"}
{"source": "OSM", "region": "Kärnten", "osm_type": "node", "osm_id": 4739719216, "name": null, "category": null, "address": "Strandweg 133, 9201 Krumpendorf am Wörthersee", "street": "Strandweg", "housenumber": "133", "postcode": "9201", "place": "Krumpendorf am Wörthersee", "lat": 46.6270158, "lon": 14.2252172, "tags": {"addr:city": "Krumpendorf am Wörthersee", "addr:housenumber": "133", "addr:postcode": "9201", "addr:street": "Strandweg"}, "content": "Adresse: Strandweg 133, 9201 Krumpendorf am Wörthersee\nOrt: Krumpendorf am Wörthersee\nPLZ: 9201\nKoordinaten: 46.627016, 14.225217", "doc_type": "addresses"}
{"source": "OSM", "region": "Kärnten", "osm_type": "node", "osm_id": 4751503680, "name": null, "category": null, "address": "Pamperlallee 1, 9201 Krumpendorf am Wörthersee", "street": "Pamperlallee", "housenumber": "1", "postcode": "9201", "place": "Krumpendorf am Wörthersee", "lat": 46.6232278, "lon": 14.2203851, "tags": {"addr:city": "Krumpendorf am Wörthersee", "addr:housenumber": "1", "addr:postcode": "9201", "addr:street": "Pamperlallee"}, "content": "Adresse: Pamperlallee 1, 9201 Krumpendorf am Wörthersee\nOrt: Krumpendorf am Wörthersee\nPLZ: 9201\nKoordinaten: 46.623228, 14.220385", "doc_type": "addresses"}
{"source": "OSM", "region": "Kärnten", "osm_type": "node", "osm_id": 4751503718, "name": null, "category": null, "address": "Berthastraße 24, 9201 Krumpendorf am Wörthersee", "street": "Berthastraße", "housenumber": "24", "postcode": "9201", "place": "Krumpendorf am Wörthersee", "lat": 46.6244152, "lon": 14.2208853, "tags": {"addr:city": "Krumpendorf am Wörthersee", "addr:housenumber": "24", "addr:postcode": "9201", "addr:street": "Berthastraße"}, "content": "Adresse: Berthastraße 24, 9201 Krumpendorf am Wörthersee\nOrt: Krumpendorf am Wörthersee\nPLZ: 9201\nKoordinaten: 46.624415, 14.220885", "doc_type": "addresses"}
{"source": "OSM", "region": "Kärnten", "osm_type": "node", "osm_id": 4751503756, "name": null, "category": null, "address": "Strandweg 185, 9201 Krumpendorf am Wörthersee", "street": "Strandweg", "housenumber": "185", "postcode": "9201", "place": "Krumpendorf am Wörthersee", "lat": 46.6235966, "lon": 14.2232384, "tags": {"addr:city": "Krumpendorf am Wörthersee", "addr:housenumber": "185", "addr:postcode": "9201", "addr:street": "Strandweg"}, "content": "Adresse: Strandweg 185, 9201 Krumpendorf am Wörthersee\nOrt: Krumpendorf am Wörthersee\nPLZ: 9201\nKoordinaten: 46.623597, 14.223238", "doc_type": "addresses"}
{"source": "OSM", "region": "Kärnten", "osm_type": "node", "osm_id": 4755468235, "name": null, "category": null, "address": "Hauptstraße 167a, 9201 Krumpendorf am Wörthersee", "street": "Hauptstraße", "housenumber": "167a", "postcode": "9201", "place": "Krumpendorf am Wörthersee", "lat": 46.6268552, "lon": 14.2104544, "tags": {"addr:city": "Krumpendorf am Wörthersee", "addr:housenumber": "167a", "addr:postcode": "9201", "addr:street": "Hauptstraße"}, "content": "Adresse: Hauptstraße 167a, 9201 Krumpendorf am Wörthersee\nOrt: Krumpendorf am Wörthersee\nPLZ: 9201\nKoordinaten: 46.626855, 14.210454", "doc_type": "addresses"}
{"source": "OSM", "region": "Kärnten", "osm_type": "node", "osm_id": 4757009277, "name": null, "category": null, "address": "Pamperlallee 75, 9201 Krumpendorf am Wörthersee", "street": "Pamperlallee", "housenumber": "75", "postcode": "9201", "place": "Krumpendorf am Wörthersee", "lat": 46.6210851, "lon": 14.2124724, "tags": {"addr:city": "Krumpendorf am Wörthersee", "addr:housenumber": "75", "addr:postcode": "9201", "addr:street": "Pamperlallee"}, "content": "Adresse: Pamperlallee 75, 9201 Krumpendorf am Wörthersee\nOrt: Krumpendorf am Wörthersee\nPLZ: 9201\nKoordinaten: 46.621085, 14.212472", "doc_type": "addresses"}
{"source": "OSM", "region": "Kärnten", "osm_type": "node", "osm_id": 4757009278, "name": null, "category": null, "address": "Pamperlallee 77, 9201 Krumpendorf am Wörthersee", "street": "Pamperlallee", "housenumber": "77", "postcode": "9201", "place": "Krumpendorf am Wörthersee", "lat": 46.6211213, "lon": 14.2124049, "tags": {"addr:city": "Krumpendorf am Wörthersee", "addr:housenumber": "77", "addr:postcode": "9201", "addr:street": "Pamperlallee"}, "content": "Adresse: Pamperlallee 77, 9201 Krumpendorf am Wörthersee\nOrt: Krumpendorf am Wörthersee\nPLZ: 9201\nKoordinaten: 46.621121, 14.212405", "doc_type": "addresses"}
{"source": "OSM", "region": "Kärnten", "osm_type": "node", "osm_id": 4757009279, "name": null, "category": null, "address": "Pamperlallee 79, 9201 Krumpendorf am Wörthersee", "street": "Pamperlallee", "housenumber": "79", "postcode": "9201", "place": "Krumpendorf am Wörthersee", "lat": 46.6211906, "lon": 14.2123789, "tags": {"addr:city": "Krumpendorf am Wörthersee", "addr:housenumber": "79", "addr:postcode": "9201", "addr:street": "Pamperlallee"}, "content": "Adresse: Pamperlallee 79, 9201 Krumpendorf am Wörthersee\nOrt: Krumpendorf am Wörthersee\nPLZ: 9201\nKoordinaten: 46.621191, 14.212379", "doc_type": "addresses"}
{"source": "OSM", "region": "Kärnten", "osm_type": "node", "osm_id": 4757009280, "name": null, "category": null, "address": "Pamperlallee 81, 9201 Krumpendorf am Wörthersee", "street": "Pamperlallee", "housenumber": "81", "postcode": "9201", "place": "Krumpendorf am Wörthersee", "lat": 46.6212614, "lon": 14.2124019, "tags": {"addr:city": "Krumpendorf am Wörthersee", "addr:housenumber": "81", "addr:postcode": "9201", "addr:street": "Pamperlallee"}, "content": "Adresse: Pamperlallee 81, 9201 Krumpendorf am Wörthersee\nOrt: Krumpendorf am Wörthersee\nPLZ: 9201\nKoordinaten: 46.621261, 14.212402", "doc_type": "addresses"}
{"source": "OSM", "region": "Kärnten", "osm_type": "node", "osm_id": 4757009281, "name": null, "category": null, "address": "Pamperlallee 83, 9201 Krumpendorf am Wörthersee", "street": "Pamperlallee", "housenumber": "83", "postcode": "9201", "place": "Krumpendorf am Wörthersee", "lat": 46.6213021, "lon": 14.2125073, "tags": {"addr:city": "Krumpendorf am Wörthersee", "addr:housenumber": "83", "addr:postcode": "9201", "addr:street": "Pamperlallee"}, "content": "Adresse: Pamperlallee 83, 9201 Krumpendorf am Wörthersee\nOrt: Krumpendorf am Wörthersee\nPLZ: 9201\nKoordinaten: 46.621302, 14.212507", "doc_type": "addresses"}
{"source": "OSM", "region": "Kärnten", "osm_type": "node", "osm_id": 4757009282, "name": null, "category": null, "address": "Pamperlallee 73, 9201 Krumpendorf am Wörthersee", "street": "Pamperlallee", "housenumber": "73", "postcode": "9201", "place": "Krumpendorf am Wörthersee", "lat": 46.6210657, "lon": 14.2125518, "tags": {"addr:city": "Krumpendorf am Wörthersee", "addr:housenumber": "73", "addr:postcode": "9201", "addr:street": "Pamperlallee"}, "content": "Adresse: Pamperlallee 73, 9201 Krumpendorf am Wörthersee\nOrt: Krumpendorf am Wörthersee\nPLZ: 9201\nKoordinaten: 46.621066, 14.212552", "doc_type": "addresses"}
{"source": "OSM", "region": "Kärnten", "osm_type": "node", "osm_id": 4757009283, "name": null, "category": null, "address": "Pamperlallee 71, 9201 Krumpendorf am Wörthersee", "street": "Pamperlallee", "housenumber": "71", "postcode": "9201", "place": "Krumpendorf am Wörthersee", "lat": 46.6210907, "lon": 14.2126697, "tags": {"addr:city": "Krumpendorf am Wörthersee", "addr:housenumber": "71", "addr:postcode": "9201", "addr:street": "Pamperlallee"}, "content": "Adresse: Pamperlallee 71, 9201 Krumpendorf am Wörthersee\nOrt: Krumpendorf am Wörthersee\nPLZ: 9201\nKoordinaten: 46.621091, 14.212670", "doc_type": "addresses"}
{"source": "OSM", "region": "Kärnten", "osm_type": "node", "osm_id": 4757009284, "name": null, "category": null, "address": "Pamperlallee 69, 9201 Krumpendorf am Wörthersee", "street": "Pamperlallee", "housenumber": "69", "postcode": "9201", "place": "Krumpendorf am Wörthersee", "lat": 46.6211116, "lon": 14.2127732, "tags": {"addr:city": "Krumpendorf am Wörthersee", "addr:housenumber": "69", "addr:postcode": "9201", "addr:street": "Pamperlallee"}, "content": "Adresse: Pamperlallee 69, 9201 Krumpendorf am Wörthersee\nOrt: Krumpendorf am Wörthersee\nPLZ: 9201\nKoordinaten: 46.621112, 14.212773", "doc_type": "addresses"}
{"source": "OSM", "region": "Kärnten", "osm_type": "node", "osm_id": 4757047967, "name": "Erholungs- und Bildungszentrum Krumpendorf am Wörthersee", "category": "tourism:apartment", "address": "Heinzelweg 16-20, 9201 Krumpendorf am Wörthersee", "street": "Heinzelweg", "housenumber": "16-20", "postcode": "9201", "place": "Krumpendorf am Wörthersee", "lat": 46.6219024, "lon": 14.208369, "tags": {"addr:city": "Krumpendorf am Wörthersee", "addr:housenumber": "16-20", "addr:postcode": "9201", "addr:street": "Heinzelweg", "name": "Erholungs- und Bildungszentrum Krumpendorf am Wörthersee", "operator": "PRO-GE Urlaub & Seminar GmbH", "phone": "+43 42293568", "tourism": "apartment", "website": "http://www.proge-urlaub.at/krumpendorf/"}, "content": "Erholungs- und Bildungszentrum Krumpendorf am Wörthersee\nKategorie: tourism:apartment\nAdresse: Heinzelweg 16-20, 9201 Krumpendorf am Wörthersee\nOrt: Krumpendorf am Wörthersee\nPLZ: 9201\nKoordinaten: 46.621902, 14.208369\nTags: operator=PRO-GE Urlaub & Seminar GmbH, phone=+43 42293568, website=http://www.proge-urlaub.at/krumpendorf/", "doc_type": "addresses"}
{"source": "OSM", "region": "Kärnten", "osm_type": "node", "osm_id": 4757051829, "name": null, "category": null, "address": "Am Sennewald 28, 9201 Krumpendorf am Wörthersee", "street": "Am Sennewald", "housenumber": "28", "postcode": "9201", "place": "Krumpendorf am Wörthersee", "lat": 46.6215528, "lon": 14.2099531, "tags": {"addr:city": "Krumpendorf am Wörthersee", "addr:housenumber": "28", "addr:postcode": "9201", "addr:street": "Am Sennewald"}, "content": "Adresse: Am Sennewald 28, 9201 Krumpendorf am Wörthersee\nOrt: Krumpendorf am Wörthersee\nPLZ: 9201\nKoordinaten: 46.621553, 14.209953", "doc_type": "addresses"}
{"source": "OSM", "region": "Kärnten", "osm_type": "node", "osm_id": 4757051830, "name": null, "category": null, "address": "Am Sennewald 26, 9201 Krumpendorf am Wörthersee", "street": "Am Sennewald", "housenumber": "26", "postcode": "9201", "place": "Krumpendorf am Wörthersee", "lat": 46.6215754, "lon": 14.2100364, "tags": {"addr:city": "Krumpendorf am Wörthersee", "addr:housenumber": "26", "addr:postcode": "9201", "addr:street": "Am Sennewald"}, "content": "Adresse: Am Sennewald 26, 9201 Krumpendorf am Wörthersee\nOrt: Krumpendorf am Wörthersee\nPLZ: 9201\nKoordinaten: 46.621575, 14.210036", "doc_type": "addresses"}
{"source": "OSM", "region": "Kärnten", "osm_type": "node", "osm_id": 4817819295, "name": null, "category": null, "address": "Hauptstraße 98, 9201 Krumpendorf am Wörthersee", "street": "Hauptstraße", "housenumber": "98", "postcode": "9201", "place": "Krumpendorf am Wörthersee", "lat": 46.627376, "lon": 14.2229366, "tags": {"addr:city": "Krumpendorf am Wörthersee", "addr:housenumber": "98", "addr:postcode": "9201", "addr:street": "Hauptstraße"}, "content": "Adresse: Hauptstraße 98, 9201 Krumpendorf am Wörthersee\nOrt: Krumpendorf am Wörthersee\nPLZ: 9201\nKoordinaten: 46.627376, 14.222937", "doc_type": "addresses"}
{"source": "OSM", "region": "Kärnten", "osm_type": "node", "osm_id": 4817819296, "name": null, "category": null, "address": "Hauptstraße 104, 9201 Krumpendorf am Wörthersee", "street": "Hauptstraße", "housenumber": "104", "postcode": "9201", "place": "Krumpendorf am Wörthersee", "lat": 46.6269778, "lon": 14.221618, "tags": {"addr:city": "Krumpendorf am Wörthersee", "addr:housenumber": "104", "addr:postcode": "9201", "addr:street": "Hauptstraße"}, "content": "Adresse: Hauptstraße 104, 9201 Krumpendorf am Wörthersee\nOrt: Krumpendorf am Wörthersee\nPLZ: 9201\nKoordinaten: 46.626978, 14.221618", "doc_type": "addresses"}
{"source": "OSM", "region": "Kärnten", "osm_type": "node", "osm_id": 4817819297, "name": null, "category": null, "address": "Hauptstraße 108, 9201 Krumpendorf am Wörthersee", "street": "Hauptstraße", "housenumber": "108", "postcode": "9201", "place": "Krumpendorf am Wörthersee", "lat": 46.6268865, "lon": 14.2213112, "tags": {"addr:city": "Krumpendorf am Wörthersee", "addr:housenumber": "108", "addr:postcode": "9201", "addr:street": "Hauptstraße"}, "content": "Adresse: Hauptstraße 108, 9201 Krumpendorf am Wörthersee\nOrt: Krumpendorf am Wörthersee\nPLZ: 9201\nKoordinaten: 46.626886, 14.221311", "doc_type": "addresses"}
{"source": "OSM", "region": "Kärnten", "osm_type": "node", "osm_id": 4817819298, "name": null, "category": null, "address": "Hauptstraße 117, 9201 Krumpendorf am Wörthersee", "street": "Hauptstraße", "housenumber": "117", "postcode": "9201", "place": "Krumpendorf am Wörthersee", "lat": 46.6260349, "lon": 14.2189161, "tags": {"addr:city": "Krumpendorf am Wörthersee", "addr:housenumber": "117", "addr:postcode": "9201", "addr:street": "Hauptstraße"}, "content": "Adresse: Hauptstraße 117, 9201 Krumpendorf am Wörthersee\nOrt: Krumpendorf am Wörthersee\nPLZ: 9201\nKoordinaten: 46.626035, 14.218916", "doc_type": "addresses"}
{"source": "OSM", "region": "Kärnten", "osm_type": "node", "osm_id": 4818023481, "name": "feel good Boutique Hotel Egger", "category": "amenity:restaurant", "address": "Berthastraße 13, 9201 Krumpendorf am Wörthersee", "street": "Berthastraße", "housenumber": "13", "postcode": "9201", "place": "Krumpendorf am Wörthersee", "lat": 46.6262886, "lon": 14.223103, "tags": {"addr:city": "Krumpendorf am Wörthersee", "addr:housenumber": "13", "addr:postcode": "9201", "addr:street": "Berthastraße", "amenity": "restaurant", "name": "feel good Boutique Hotel Egger", "phone": "+43 4229-40102", "tourism": "hotel", "website": "https://www.feel-good-hotel.at/"}, "content": "feel good Boutique Hotel Egger\nKategorie: amenity:restaurant\nAdresse: Berthastraße 13, 9201 Krumpendorf am Wörthersee\nOrt: Krumpendorf am Wörthersee\nPLZ: 9201\nKoordinaten: 46.626289, 14.223103\nTags: amenity=restaurant, phone=+43 4229-40102, website=https://www.feel-good-hotel.at/", "doc_type": "addresses"}
{"source": "OSM", "region": "Kärnten", "osm_type": "node", "osm_id": 4818023482, "name": null, "category": null, "address": "Berthastraße 43, 9201 Krumpendorf am Wörthersee", "street": "Berthastraße", "housenumber": "43", "postcode": "9201", "place": "Krumpendorf am Wörthersee", "lat": 46.6242804, "lon": 14.2213416, "tags": {"addr:city": "Krumpendorf am Wörthersee", "addr:housenumber": "43", "addr:postcode": "9201", "addr:street": "Berthastraße"}, "content": "Adresse: Berthastraße 43, 9201 Krumpendorf am Wörthersee\nOrt: Krumpendorf am Wörthersee\nPLZ: 9201\nKoordinaten: 46.624280, 14.221342", "doc_type": "addresses"}
{"source": "OSM", "region": "Kärnten", "osm_type": "node", "osm_id": 4818023485, "name": null, "category": null, "address": "Südbahnweg 55, 9201 Krumpendorf am Wörthersee", "street": "Südbahnweg", "housenumber": "55", "postcode": "9201", "place": "Krumpendorf am Wörthersee", "lat": 46.6239661, "lon": 14.2130901, "tags": {"addr:city": "Krumpendorf am Wörthersee", "addr:housenumber": "55", "addr:postcode": "9201", "addr:street": "Südbahnweg"}, "content": "Adresse: Südbahnweg 55, 9201 Krumpendorf am Wörthersee\nOrt: Krumpendorf am Wörthersee\nPLZ: 9201\nKoordinaten: 46.623966, 14.213090", "doc_type": "addresses"}
{"source": "OSM", "region": "Kärnten", "osm_type": "node", "osm_id": 4818023513, "name": null, "category": null, "address": "Moosburgerstraße 24, 9201 Krumpendorf am Wörthersee", "street": "Moosburgerstraße", "housenumber": "24", "postcode": "9201", "place": "Krumpendorf am Wörthersee", "lat": 46.6289329, "lon": 14.2082078, "tags": {"addr:city": "Krumpendorf am Wörthersee", "addr:housenumber": "24", "addr:postcode": "9201", "addr:street": "Moosburgerstraße"}, "content": "Adresse: Moosburgerstraße 24, 9201 Krumpendorf am Wörthersee\nOrt: Krumpendorf am Wörthersee\nPLZ: 9201\nKoordinaten: 46.628933, 14.208208", "doc_type": "addresses"}
{"source": "OSM", "region": "Kärnten", "osm_type": "node", "osm_id": 4818023515, "name": null, "category": null, "address": "Moosburgerstraße 4c, 9201 Krumpendorf am Wörthersee", "street": "Moosburgerstraße", "housenumber": "4c", "postcode": "9201", "place": "Krumpendorf am Wörthersee", "lat": 46.6275992, "lon": 14.2097022, "tags": {"addr:city": "Krumpendorf am Wörthersee", "addr:housenumber": "4c", "addr:postcode": "9201", "addr:street": "Moosburgerstraße"}, "content": "Adresse: Moosburgerstraße 4c, 9201 Krumpendorf am Wörthersee\nOrt: Krumpendorf am Wörthersee\nPLZ: 9201\nKoordinaten: 46.627599, 14.209702", "doc_type": "addresses"}
{"source": "OSM", "region": "Kärnten", "osm_type": "node", "osm_id": 4818023516, "name": null, "category": null, "address": "Moosburgerstraße 4b, 9201 Krumpendorf am Wörthersee", "street": "Moosburgerstraße", "housenumber": "4b", "postcode": "9201", "place": "Krumpendorf am Wörthersee", "lat": 46.6273946, "lon": 14.2094632, "tags": {"addr:city": "Krumpendorf am Wörthersee", "addr:housenumber": "4b", "addr:postcode": "9201", "addr:street": "Moosburgerstraße"}, "content": "Adresse: Moosburgerstraße 4b, 9201 Krumpendorf am Wörthersee\nOrt: Krumpendorf am Wörthersee\nPLZ: 9201\nKoordinaten: 46.627395, 14.209463", "doc_type": "addresses"}
{"source": "OSM", "region": "Kärnten", "osm_type": "node", "osm_id": 4818023517, "name": null, "category": null, "address": "Moosburgerstraße 4a, 9201 Krumpendorf am Wörthersee", "street": "Moosburgerstraße", "housenumber": "4a", "postcode": "9201", "place": "Krumpendorf am Wörthersee", "lat": 46.6276096, "lon": 14.2091018, "tags": {"addr:city": "Krumpendorf am Wörthersee", "addr:housenumber": "4a", "addr:postcode": "9201", "addr:street": "Moosburgerstraße"}, "content": "Adresse: Moosburgerstraße 4a, 9201 Krumpendorf am Wörthersee\nOrt: Krumpendorf am Wörthersee\nPLZ: 9201\nKoordinaten: 46.627610, 14.209102", "doc_type": "addresses"}
{"source": "OSM", "region": "Kärnten", "osm_type": "node", "osm_id": 4820324247, "name": null, "category": null, "address": "20, 9201 Krumpendorf am Wörthersee", "street": null, "housenumber": "20", "postcode": "9201", "place": "Krumpendorf am Wörthersee", "lat": 46.6519114, "lon": 14.2365535, "tags": {"addr:city": "Krumpendorf am Wörthersee", "addr:housenumber": "20", "addr:place": "Nußberg", "addr:postcode": "9201"}, "content": "Adresse: 20, 9201 Krumpendorf am Wörthersee\nOrt: Krumpendorf am Wörthersee\nPLZ: 9201\nKoordinaten: 46.651911, 14.236553", "doc_type": "addresses"}
{"source": "OSM", "region": "Kärnten", "osm_type": "node", "osm_id": 270327016, "name": "9201 Krumpendorf", "category": "amenity:post_office", "address": "Hauptstraße 143, 9201 Krumpendorf am Wörthersee", "street": "Hauptstraße", "housenumber": "143", "postcode": "9201", "place": "Krumpendorf am Wörthersee", "lat": 46.6252733, "lon": 14.2043812, "tags": {"addr:city": "Krumpendorf am Wörthersee", "addr:housenumber": "143", "addr:postcode": "9201", "addr:street": "Hauptstraße", "amenity": "post_office", "name": "9201 Krumpendorf"}, "content": "9201 Krumpendorf\nKategorie: amenity:post_office\nAdresse: Hauptstraße 143, 9201 Krumpendorf am Wörthersee\nOrt: Krumpendorf am Wörthersee\nPLZ: 9201\nKoordinaten: 46.625273, 14.204381\nTags: amenity=post_office", "doc_type": "pois"}
{"source": "OSM", "region": "Kärnten", "osm_type": "node", "osm_id": 529653751, "name": "Pizzeria Nautik", "category": "amenity:restaurant", "address": "Hauptstraße 168, 9201 Krumpendorf am Wörthersee", "street": "Hauptstraße", "housenumber": "168", "postcode": "9201", "place": "Krumpendorf am Wörthersee", "lat": 46.627124, "lon": 14.2098426, "tags": {"addr:city": "Krumpendorf am Wörthersee", "addr:housenumber": "168", "addr:postcode": "9201", "addr:street": "Hauptstraße", "amenity": "restaurant", "name": "Pizzeria Nautik"}, "content": "Pizzeria Nautik\nKategorie: amenity:restaurant\nAdresse: Hauptstraße 168, 9201 Krumpendorf am Wörthersee\nOrt: Krumpendorf am Wörthersee\nPLZ: 9201\nKoordinaten: 46.627124, 14.209843\nTags: amenity=restaurant", "doc_type": "pois"}
{"source": "OSM", "region": "Kärnten", "osm_type": "node", "osm_id": 529657483, "name": "PENNY", "category": "shop:supermarket", "address": "Hauptstraße 147, 9201 Krumpendorf am Wörthersee", "street": "Hauptstraße", "housenumber": "147", "postcode": "9201", "place": "Krumpendorf am Wörthersee", "lat": 46.6261442, "lon": 14.2136519, "tags": {"addr:city": "Krumpendorf am Wörthersee", "addr:housenumber": "147", "addr:postcode": "9201", "addr:street": "Hauptstraße", "brand": "PENNY", "name": "PENNY", "shop": "supermarket"}, "content": "PENNY\nKategorie: shop:supermarket\nAdresse: Hauptstraße 147, 9201 Krumpendorf am Wörthersee\nOrt: Krumpendorf am Wörthersee\nPLZ: 9201\nKoordinaten: 46.626144, 14.213652\nTags: shop=supermarket, brand=PENNY", "doc_type": "pois"}
{"source": "OSM", "region": "Kärnten", "osm_type": "node", "osm_id": 698565709, "name": "Gretl", "category": "tourism:hotel", "address": "Hauptstraße 169, 9201 Krumpendorf am Wörthersee", "street": "Hauptstraße", "housenumber": "169", "postcode": "9201", "place": "Krumpendorf am Wörthersee", "lat": 46.6267621, "lon": 14.2100087, "tags": {"addr:city": "Krumpendorf am Wörthersee", "addr:housenumber": "169", "addr:postcode": "9201", "addr:street": "Hauptstraße", "name": "Gretl", "phone": "+4342292096", "tourism": "hotel", "website": "www.hotelgretl.at"}, "content": "Gretl\nKategorie: tourism:hotel\nAdresse: Hauptstraße 169, 9201 Krumpendorf am Wörthersee\nOrt: Krumpendorf am Wörthersee\nPLZ: 9201\nKoordinaten: 46.626762, 14.210009\nTags: phone=+4342292096, website=www.hotelgretl.at", "doc_type": "pois"}
{"source": "OSM", "region": "Kärnten", "osm_type": "node", "osm_id": 1077357121, "name": "Camoni Natur & Reform", "category": "shop:supermarket", "address": "Hauptstraße 173, 9201 Krumpendorf am Wörthersee", "street": "Hauptstraße", "housenumber": "173", "postcode": "9201", "place": "Krumpendorf am Wörthersee", "lat": 46.6266446, "lon": 14.2093289, "tags": {"addr:city": "Krumpendorf am Wörthersee", "addr:housenumber": "173", "addr:postcode": "9201", "addr:street": "Hauptstraße", "name": "Camoni Natur & Reform", "phone": "+43 4229 20800", "shop": "supermarket"}, "content": "Camoni Natur & Reform\nKategorie: shop:supermarket\nAdresse: Hauptstraße 173, 9201 Krumpendorf am Wörthersee\nOrt: Krumpendorf am Wörthersee\nPLZ: 9201\nKoordinaten: 46.626645, 14.209329\nTags: shop=supermarket, phone=+43 4229 20800", "doc_type": "pois"}
{"source": "OSM", "region": "Kärnten", "osm_type": "node", "osm_id": 1382181868, "name": "Hotel Kärnten", "category": "tourism:hotel", "address": "Wieningerallee 12a, 9201 Krumpendorf am Wörthersee", "street": "Wieningerallee", "housenumber": "12a", "postcode": "9201", "place": "Krumpendorf am Wörthersee", "lat": 46.6246187, "lon": 14.2175394, "tags": {"addr:city": "Krumpendorf am Wörthersee", "addr:housenumber": "12a", "addr:postcode": "9201", "addr:street": "Wieningerallee", "name": "Hotel Kärnten", "tourism": "hotel", "website": "https://www.hotelkaernten.at/"}, "content": "Hotel Kärnten\nKategorie: tourism:hotel\nAdresse: Wieningerallee 12a, 9201 Krumpendorf am Wörthersee\nOrt: Krumpendorf am Wörthersee\nPLZ: 9201\nKoordinaten: 46.624619, 14.217539\nTags: website=https://www.hotelkaernten.at/", "doc_type": "pois"}
{"source": "OSM", "region": "Kärnten", "osm_type": "node", "osm_id": 1382181869, "name": "Hotel Hudelist", "category": "amenity:restaurant", "address": "Wieningerallee 12, 9201 Krumpendorf am Wörthersee", "street": "Wieningerallee", "housenumber": "12", "postcode": "9201", "place": "Krumpendorf am Wörthersee", "lat": 46.6248372, "lon": 14.2183294, "tags": {"addr:city": "Krumpendorf am Wörthersee", "addr:housenumber": "12", "addr:postcode": "9201", "addr:street": "Wieningerallee", "amenity": "restaurant", "name": "Hotel Hudelist", "tourism": "hotel", "website": "https://www.hotel-hudelist.at/"}, "content": "Hotel Hudelist\nKategorie: amenity:restaurant\nAdresse: Wieningerallee 12, 9201 Krumpendorf am Wörthersee\nOrt: Krumpendorf am Wörthersee\nPLZ: 9201\nKoordinaten: 46.624837, 14.218329\nTags: amenity=restaurant, website=https://www.hotel-hudelist.at/", "doc_type": "pois"}
{"source": "OSM", "region": "Kärnten", "osm_type": "node", "osm_id": 2389108747, "name": "Hotel *** Rosenheim", "category": "amenity:restaurant", "address": "Schloßallee 33, 9201 Krumpendorf am Wörthersee", "street": "Schloßallee", "housenumber": "33", "postcode": "9201", "place": "Krumpendorf am Wörthersee", "lat": 46.6226514, "lon": 14.2141657, "tags": {"addr:city": "Krumpendorf am Wörthersee", "addr:housenumber": "33", "addr:postcode": "9201", "addr:street": "Schloßallee", "amenity": "restaurant", "name": "Hotel *** Rosenheim", "tourism": "hotel", "website": "https://www.hotelrosenheim.net/"}, "content": "Hotel *** Rosenheim\nKategorie: amenity:restaurant\nAdresse: Schloßallee 33, 9201 Krumpendorf am Wörthersee\nOrt: Krumpendorf am Wörthersee\nPLZ: 9201\nKoordinaten: 46.622651, 14.214166\nTags: amenity=restaurant, website=https://www.hotelrosenheim.net/", "doc_type": "pois"}
{"source": "OSM", "region": "Kärnten", "osm_type": "node", "osm_id": 2413370669, "name": "Krumpendorferhof", "category": "amenity:restaurant", "address": "Hauptstraße 164, 9201 Krumpendorf am Wörthersee", "street": "Hauptstraße", "housenumber": "164", "postcode": "9201", "place": "Krumpendorf am Wörthersee", "lat": 46.6271636, "lon": 14.2105957, "tags": {"addr:city": "Krumpendorf am Wörthersee", "addr:housenumber": "164", "addr:postcode": "9201", "addr:street": "Hauptstraße", "amenity": "restaurant", "name": "Krumpendorferhof", "tourism": "hotel", "website": "www.krumpendorferhof.co.at"}, "content": "Krumpendorferhof\nKategorie: amenity:restaurant\nAdresse: Hauptstraße 164, 9201 Krumpendorf am Wörthersee\nOrt: Krumpendorf am Wörthersee\nPLZ: 9201\nKoordinaten: 46.627164, 14.210596\nTags: amenity=restaurant, website=www.krumpendorferhof.co.at", "doc_type": "pois"}
{"source": "OSM", "region": "Kärnten", "osm_type": "node", "osm_id": 2419616227, "name": "Appartementhaus Habich", "category": "tourism:chalet", "address": "Kochstraße 44, 9201 Krumpendorf am Wörthersee", "street": "Kochstraße", "housenumber": "44", "postcode": "9201", "place": "Krumpendorf am Wörthersee", "lat": 46.6216848, "lon": 14.2115392, "tags": {"addr:city": "Krumpendorf am Wörthersee", "addr:housenumber": "44", "addr:postcode": "9201", "addr:street": "Kochstraße", "name": "Appartementhaus Habich", "tourism": "chalet"}, "content": "Appartementhaus Habich\nKategorie: tourism:chalet\nAdresse: Kochstraße 44, 9201 Krumpendorf am Wörthersee\nOrt: Krumpendorf am Wörthersee\nPLZ: 9201\nKoordinaten: 46.621685, 14.211539", "doc_type": "pois"}
{"source": "OSM", "region": "Kärnten", "osm_type": "node", "osm_id": 2419616229, "name": "Pension Carinthia", "category": "tourism:guest_house", "address": "Bad-Stich-Straße 35, 9201 Krumpendorf am Wörthersee", "street": "Bad-Stich-Straße", "housenumber": "35", "postcode": "9201", "place": "Krumpendorf am Wörthersee", "lat": 46.621876, "lon": 14.206885, "tags": {"addr:city": "Krumpendorf am Wörthersee", "addr:housenumber": "35", "addr:postcode": "9201", "addr:street": "Bad-Stich-Straße", "name": "Pension Carinthia", "operator": "Fam. Warncke", "tourism": "guest_house"}, "content": "Pension Carinthia\nKategorie: tourism:guest_house\nAdresse: Bad-Stich-Straße 35, 9201 Krumpendorf am Wörthersee\nOrt: Krumpendorf am Wörthersee\nPLZ: 9201\nKoordinaten: 46.621876, 14.206885\nTags: operator=Fam. Warncke", "doc_type": "pois"}
{"source": "OSM", "region": "Kärnten", "osm_type": "node", "osm_id": 2419654444, "name": "Haus Gaggl", "category": "tourism:chalet", "address": "Karawankenweg 6, 9201 Krumpendorf am Wörthersee", "street": "Karawankenweg", "housenumber": "6", "postcode": "9201", "place": "Krumpendorf am Wörthersee", "lat": 46.6253323, "lon": 14.2065777, "tags": {"addr:city": "Krumpendorf am Wörthersee", "addr:housenumber": "6", "addr:postcode": "9201", "addr:street": "Karawankenweg", "name": "Haus Gaggl", "tourism": "chalet"}, "content": "Haus Gaggl\nKategorie: tourism:chalet\nAdresse: Karawankenweg 6, 9201 Krumpendorf am Wörthersee\nOrt: Krumpendorf am Wörthersee\nPLZ: 9201\nKoordinaten: 46.625332, 14.206578", "doc_type": "pois"}
{"source": "OSM", "region": "Kärnten", "osm_type": "node", "osm_id": 2419654448, "name": "Haus Habich", "category": "tourism:chalet", "address": "Bad-Stich-Straße 12, 9201 Krumpendorf am Wörthersee", "street": "Bad-Stich-Straße", "housenumber": "12", "postcode": "9201", "place": "Krumpendorf am Wörthersee", "lat": 46.6246753, "lon": 14.2048841, "tags": {"addr:city": "Krumpendorf am Wörthersee", "addr:housenumber": "12", "addr:postcode": "9201", "addr:street": "Bad-Stich-Straße", "name": "Haus Habich", "tourism": "chalet"}, "content": "Haus Habich\nKategorie: tourism:chalet\nAdresse: Bad-Stich-Straße 12, 9201 Krumpendorf am Wörthersee\nOrt: Krumpendorf am Wörthersee\nPLZ: 9201\nKoordinaten: 46.624675, 14.204884", "doc_type": "pois"}
{"source": "OSM", "region": "Kärnten", "osm_type": "node", "osm_id": 2419654451, "name": "Strandhotel Habich", "category": "tourism:hotel", "address": "Walterskirchenweg 10, 9201 Krumpendorf am Wörthersee", "street": "Walterskirchenweg", "housenumber": "10", "postcode": "9201", "place": "Krumpendorf am Wörthersee", "lat": 46.6198673, "lon": 14.1996738, "tags": {"addr:city": "Krumpendorf am Wörthersee", "addr:housenumber": "10", "addr:postcode": "9201", "addr:street": "Walterskirchenweg", "name": "Strandhotel Habich", "tourism": "hotel"}, "content": "Strandhotel Habich\nKategorie: tourism:hotel\nAdresse: Walterskirchenweg 10, 9201 Krumpendorf am Wörthersee\nOrt: Krumpendorf am Wörthersee\nPLZ: 9201\nKoordinaten: 46.619867, 14.199674", "doc_type": "pois"}
{"source": "OSM", "region": "Kärnten", "osm_type": "node", "osm_id": 2419654454, "name": "Pension Regina", "category": "tourism:guest_house", "address": "Karawankenweg 7, 9201 Krumpendorf am Wörthersee", "street": "Karawankenweg", "housenumber": "7", "postcode": "9201", "place": "Krumpendorf am Wörthersee", "lat": 46.6256144, "lon": 14.2069301, "tags": {"addr:city": "Krumpendorf am Wörthersee", "addr:housenumber": "7", "addr:postcode": "9201", "addr:street": "Karawankenweg", "name": "Pension Regina", "tourism": "guest_house"}, "content": "Pension Regina\nKategorie: tourism:guest_house\nAdresse: Karawankenweg 7, 9201 Krumpendorf am Wörthersee\nOrt: Krumpendorf am Wörthersee\nPLZ: 9201\nKoordinaten: 46.625614, 14.206930", "doc_type": "pois"}
{"source": "OSM", "region": "Kärnten", "osm_type": "node", "osm_id": 2419654690, "name": "Zechnerhof", "category": "tourism:guest_house", "address": "Leinsdorferstraße 8, 9201 Krumpendorf am Wörthersee", "street": "Leinsdorferstraße", "housenumber": "8", "postcode": "9201", "place": "Krumpendorf am Wörthersee", "lat": 46.6254337, "lon": 14.2030889, "tags": {"addr:city": "Krumpendorf am Wörthersee", "addr:housenumber": "8", "addr:postcode": "9201", "addr:street": "Leinsdorferstraße", "name": "Zechnerhof", "operator": "Fam. Habich", "tourism": "guest_house", "website": "www.zechnerhof.com"}, "content": "Zechnerhof\nKategorie: tourism:guest_house\nAdresse: Leinsdorferstraße 8, 9201 Krumpendorf am Wörthersee\nOrt: Krumpendorf am Wörthersee\nPLZ: 9201\nKoordinaten: 46.625434, 14.203089\nTags: operator=Fam. Habich, website=www.zechnerhof.com", "doc_type": "pois"}
{"source": "OSM", "region": "Kärnten", "osm_type": "node", "osm_id": 2419880676, "name": "Ferienanlage Seehof", "category": "tourism:chalet", "address": "Kochstraße 19, 9201 Krumpendorf am Wörthersee", "street": "Kochstraße", "housenumber": "19", "postcode": "9201", "place": "Krumpendorf am Wörthersee", "lat": 46.6242605, "lon": 14.2101466, "tags": {"addr:city": "Krumpendorf am Wörthersee", "addr:housenumber": "19", "addr:postcode": "9201", "addr:street": "Kochstraße", "name": "Ferienanlage Seehof", "tourism": "chalet", "website": "https://www.pension-seehof.at/"}, "content": "Ferienanlage Seehof\nKategorie: tourism:chalet\nAdresse: Kochstraße 19, 9201 Krumpendorf am Wörthersee\nOrt: Krumpendorf am Wörthersee\nPLZ: 9201\nKoordinaten: 46.624260, 14.210147\nTags: website=https://www.pension-seehof.at/", "doc_type": "pois"}
{"source": "OSM", "region": "Kärnten", "osm_type": "node", "osm_id": 2419908415, "name": "Soleo", "category": "amenity:restaurant", "address": "Am Föhrenwald 17, 9201 Krumpendorf am Wörthersee", "street": "Am Föhrenwald", "housenumber": "17", "postcode": "9201", "place": "Krumpendorf am Wörthersee", "lat": 46.6212534, "lon": 14.190632, "tags": {"addr:city": "Krumpendorf am Wörthersee", "addr:housenumber": "17", "addr:postcode": "9201", "addr:street": "Am Föhrenwald", "amenity": "restaurant", "name": "Soleo", "tourism": "hotel", "website": "www.soleo.at"}, "content": "Soleo\nKategorie: amenity:restaurant\nAdresse: Am Föhrenwald 17, 9201 Krumpendorf am Wörthersee\nOrt: Krumpendorf am Wörthersee\nPLZ: 9201\nKoordinaten: 46.621253, 14.190632\nTags: amenity=restaurant, website=www.soleo.at", "doc_type": "pois"}
{"source": "OSM", "region": "Kärnten", "osm_type": "node", "osm_id": 2420235052, "name": "Polizeiinspektion Krumpendorf", "category": "amenity:police", "address": "Hauptstraße 143, 9201 Krumpendorf am Wörthersee", "street": "Hauptstraße", "housenumber": "143", "postcode": "9201", "place": "Krumpendorf am Wörthersee", "lat": 46.6263115, "lon": 14.2145087, "tags": {"addr:city": "Krumpendorf am Wörthersee", "addr:housenumber": "143", "addr:postcode": "9201", "addr:street": "Hauptstraße", "amenity": "police", "name": "Polizeiinspektion Krumpendorf"}, "content": "Polizeiinspektion Krumpendorf\nKategorie: amenity:police\nAdresse: Hauptstraße 143, 9201 Krumpendorf am Wörthersee\nOrt: Krumpendorf am Wörthersee\nPLZ: 9201\nKoordinaten: 46.626311, 14.214509\nTags: amenity=police", "doc_type": "pois"}
{"source": "OSM", "region": "Kärnten", "osm_type": "node", "osm_id": 2435608641, "name": "Freier Seezugang", "category": "leisure:swimming_pool", "address": "Walterskirchenweg, 9201 Krumpendorf am Wörthersee", "street": "Walterskirchenweg", "housenumber": null, "postcode": "9201", "place": "Krumpendorf am Wörthersee", "lat": 46.6192468, "lon": 14.2004074, "tags": {"addr:city": "Krumpendorf am Wörthersee", "addr:postcode": "9201", "addr:street": "Walterskirchenweg", "leisure": "swimming_pool", "name": "Freier Seezugang"}, "content": "Freier Seezugang\nKategorie: leisure:swimming_pool\nAdresse: Walterskirchenweg, 9201 Krumpendorf am Wörthersee\nOrt: Krumpendorf am Wörthersee\nPLZ: 9201\nKoordinaten: 46.619247, 14.200407", "doc_type": "pois"}
{"source": "OSM", "region": "Kärnten", "osm_type": "node", "osm_id": 3755987505, "name": "UNiQUARE GmbH", "category": "office:company", "address": "Lannerweg 9, 9201 Krumpendorf am Wörthersee", "street": "Lannerweg", "housenumber": "9", "postcode": "9201", "place": "Krumpendorf am Wörthersee", "lat": 46.6276559, "lon": 14.2162925, "tags": {"addr:city": "Krumpendorf am Wörthersee", "addr:housenumber": "9", "addr:postcode": "9201", "addr:street": "Lannerweg", "name": "UNiQUARE GmbH", "office": "company"}, "content": "UNiQUARE GmbH\nKategorie: office:company\nAdresse: Lannerweg 9, 9201 Krumpendorf am Wörthersee\nOrt: Krumpendorf am Wörthersee\nPLZ: 9201\nKoordinaten: 46.627656, 14.216292\nTags: office=company", "doc_type": "pois"}
{"source": "OSM", "region": "Kärnten", "osm_type": "node", "osm_id": 4431479576, "name": "Bauernkistl", "category": "shop:greengrocer", "address": "Hauptstraße 173, 9201 Krumpendorf am Wörthersee", "street": "Hauptstraße", "housenumber": "173", "postcode": "9201", "place": "Krumpendorf am Wörthersee", "lat": 46.6267253, "lon": 14.2095695, "tags": {"addr:city": "Krumpendorf am Wörthersee", "addr:housenumber": "173", "addr:postcode": "9201", "addr:street": "Hauptstraße", "name": "Bauernkistl", "phone": "+43 4272 20257", "shop": "greengrocer", "website": "http://www.bauernkistl.com"}, "content": "Bauernkistl\nKategorie: shop:greengrocer\nAdresse: Hauptstraße 173, 9201 Krumpendorf am Wörthersee\nOrt: Krumpendorf am Wörthersee\nPLZ: 9201\nKoordinaten: 46.626725, 14.209570\nTags: shop=greengrocer, phone=+43 4272 20257, website=http://www.bauernkistl.com", "doc_type": "pois"}
{"source": "OSM", "region": "Kärnten", "osm_type": "node", "osm_id": 4487479891, "name": "meet boot", "category": "amenity:boat_rental", "address": "Krumpendorf am Wörthersee", "street": null, "housenumber": null, "postcode": null, "place": "Krumpendorf am Wörthersee", "lat": 46.6225308, "lon": 14.2222332, "tags": {"addr:city": "Krumpendorf am Wörthersee", "amenity": "boat_rental", "name": "meet boot", "phone": "+43 664 1398988", "website": "http://www.meet-boot.at"}, "content": "meet boot\nKategorie: amenity:boat_rental\nAdresse: Krumpendorf am Wörthersee\nOrt: Krumpendorf am Wörthersee\nKoordinaten: 46.622531, 14.222233\nTags: amenity=boat_rental, phone=+43 664 1398988, website=http://www.meet-boot.at", "doc_type": "pois"}
{"source": "OSM", "region": "Kärnten", "osm_type": "node", "osm_id": 4757047967, "name": "Erholungs- und Bildungszentrum Krumpendorf am Wörthersee", "category": "tourism:apartment", "address": "Heinzelweg 16-20, 9201 Krumpendorf am Wörthersee", "street": "Heinzelweg", "housenumber": "16-20", "postcode": "9201", "place": "Krumpendorf am Wörthersee", "lat": 46.6219024, "lon": 14.208369, "tags": {"addr:city": "Krumpendorf am Wörthersee", "addr:housenumber": "16-20", "addr:postcode": "9201", "addr:street": "Heinzelweg", "name": "Erholungs- und Bildungszentrum Krumpendorf am Wörthersee", "operator": "PRO-GE Urlaub & Seminar GmbH", "phone": "+43 42293568", "tourism": "apartment", "website": "http://www.proge-urlaub.at/krumpendorf/"}, "content": "Erholungs- und Bildungszentrum Krumpendorf am Wörthersee\nKategorie: tourism:apartment\nAdresse: Heinzelweg 16-20, 9201 Krumpendorf am Wörthersee\nOrt: Krumpendorf am Wörthersee\nPLZ: 9201\nKoordinaten: 46.621902, 14.208369\nTags: operator=PRO-GE Urlaub & Seminar GmbH, phone=+43 42293568, website=http://www.proge-urlaub.at/krumpendorf/", "doc_type": "pois"}
{"source": "OSM", "region": "Kärnten", "osm_type": "node", "osm_id": 4818023481, "name": "feel good Boutique Hotel Egger", "category": "amenity:restaurant", "address": "Berthastraße 13, 9201 Krumpendorf am Wörthersee", "street": "Berthastraße", "housenumber": "13", "postcode": "9201", "place": "Krumpendorf am Wörthersee", "lat": 46.6262886, "lon": 14.223103, "tags": {"addr:city": "Krumpendorf am Wörthersee", "addr:housenumber": "13", "addr:postcode": "9201", "addr:street": "Berthastraße", "amenity": "restaurant", "name": "feel good Boutique Hotel Egger", "phone": "+43 4229-40102", "tourism": "hotel", "website": "https://www.feel-good-hotel.at/"}, "content": "feel good Boutique Hotel Egger\nKategorie: amenity:restaurant\nAdresse: Berthastraße 13, 9201 Krumpendorf am Wörthersee\nOrt: Krumpendorf am Wörthersee\nPLZ: 9201\nKoordinaten: 46.626289, 14.223103\nTags: amenity=restaurant, phone=+43 4229-40102, website=https://www.feel-good-hotel.at/", "doc_type": "pois"}
