{"source": "OSM", "region": "Kärnten", "osm_type": "node", "osm_id": 340519653, "name": "9583 Faak am See", "category": "amenity:post_office", "address": "Dietrichsteinerstraße 2, 9583 Faak am See", "street": "Dietrichsteinerstraße", "housenumber": "2", "postcode": "9583", "place": "Faak am See", "lat": 46.5660053, "lon": 13.9080971, "tags": {"addr:city": "Faak am See", "addr:housenumber": "2", "addr:postcode": "9583", "addr:street": "Dietrichsteinerstraße", "amenity": "post_office", "name": "9583 Faak am See"}, "content": "9583 Faak am See\nKategorie: amenity:post_office\nAdresse: Dietrichsteinerstraße 2, 9583 Faak am See\nOrt: Faak am See\nPLZ: 9583\nKoordinaten: 46.566005, 13.908097\nTags: amenity=post_office", "doc_type": "addresses"}
{"source": "OSM", "region": "Kärnten", "osm_type": "node", "osm_id": 696728201, "name": "Strandhotel Faak", "category": "tourism:hotel", "address": "Seestraße 2, Faak am See", "street": "Seestraße", "housenumber": "2", "postcode": null, "place": "Faak am See", "lat": 46.5664592, "lon": 13.9215604, "tags": {"addr:city": "Faak am See", "addr:housenumber": "2", "addr:street": "Seestraße", "name": "Strandhotel Faak", "phone": "+4342542180", "tourism": "hotel", "website": "https://www.strandhotelfaak.at/"}, "content": "Strandhotel Faak\nKategorie: tourism:hotel\nAdresse: Seestraße 2, Faak am See\nOrt: Faak am See\nKoordinaten: 46.566459, 13.921560\nTags: phone=+4342542180, website=https://www.strandhotelfaak.at/", "doc_type": "addresses"}
{"source": "OSM", "region": "Kärnten", "osm_type": "node", "osm_id": 1261957898, "name": "Dr. Michael Hoi", "category": "amenity:doctors", "address": "Dietrichsteinerstraße 1, 9583 Faak am See", "street": "Dietrichsteinerstraße", "housenumber": "1", "postcode": "9583", "place": "Faak am See", "lat": 46.5662551, "lon": 13.9072701, "tags": {"addr:city": "Faak am See", "addr:housenumber": "1", "addr:postcode": "9583", "addr:street": "Dietrichsteinerstraße", "amenity": "doctors", "healthcare": "doctor", "name": "Dr. Michael Hoi"}, "content": "Dr. Michael Hoi\nKategorie: amenity:doctors\nAdresse: Dietrichsteinerstraße 1, 9583 Faak am See\nOrt: Faak am See\nPLZ: 9583\nKoordinaten: 46.566255, 13.907270\nTags: amenity=doctors, healthcare=doctor", "doc_type": "addresses"}
{"source": "OSM", "region": "Kärnten", "osm_type": "node", "osm_id": 2318313680, "name": "Polizeiinspektion Faak am See", "category": "amenity:police", "address": "Dietrichsteinerstraße 2, 9583 Faak am See", "street": "Dietrichsteinerstraße", "housenumber": "2", "postcode": "9583", "place": "Faak am See", "lat": 46.5659548, "lon": 13.9080334, "tags": {"addr:city": "Faak am See", "addr:housenumber": "2", "addr:postcode": "9583", "addr:street": "Dietrichsteinerstraße", "amenity": "police", "name": "Polizeiinspektion Faak am See", "phone": "+43 59133 2254-100"}, "content": "Polizeiinspektion Faak am See\nKategorie: amenity:police\nAdresse: Dietrichsteinerstraße 2, 9583 Faak am See\nOrt: Faak am See\nPLZ: 9583\nKoordinaten: 46.565955, 13.908033\nTags: amenity=police, phone=+43 59133 2254-100", "doc_type": "addresses"}
{"source": "OSM", "region": "Kärnten", "osm_type": "node", "osm_id": 2318313733, "name": "Dr. Armin Schwarzenegger", "category": "amenity:dentist", "address": "Dietrichsteinerstraße 2, 9583 Faak am See", "street": "Dietrichsteinerstraße", "housenumber": "2", "postcode": "9583", "place": "Faak am See", "lat": 46.5659761, "lon": 13.9078582, "tags": {"addr:city": "Faak am See", "addr:housenumber": "2", "addr:postcode": "9583", "addr:street": "Dietrichsteinerstraße", "amenity": "dentist", "healthcare": "dentist", "name": "Dr. Armin Schwarzenegger", "phone": "+43 4254 20746"}, "content": "Dr. Armin Schwarzenegger\nKategorie: amenity:dentist\nAdresse: Dietrichsteinerstraße 2, 9583 Faak am See\nOrt: Faak am See\nPLZ: 9583\nKoordinaten: 46.565976, 13.907858\nTags: amenity=dentist, healthcare=dentist, phone=+43 4254 20746", "doc_type": "addresses"}
{"source": "OSM", "region": "Kärnten", "osm_type": "node", "osm_id": 3355513797, "name": null, "category": null, "address": "Badeweg 3d, 9583 Faak am See", "street": "Badeweg", "housenumber": "3d", "postcode": "9583", "place": "Faak am See", "lat": 46.568353, "lon": 13.9296424, "tags": {"addr:city": "Faak am See", "addr:housenumber": "3d", "addr:postcode": "9583", "addr:street": "Badeweg"}, "content": "Adresse: Badeweg 3d, 9583 Faak am See\nOrt: Faak am See\nPLZ: 9583\nKoordinaten: 46.568353, 13.929642", "doc_type": "addresses"}
{"source": "OSM", "region": "Kärnten", "osm_type": "node", "osm_id": 3355627513, "name": null, "category": null, "address": "Badeweg 3a, 9583 Faak am See", "street": "Badeweg", "housenumber": "3a", "postcode": "9583", "place": "Faak am See", "lat": 46.5678303, "lon": 13.9291582, "tags": {"addr:city": "Faak am See", "addr:housenumber": "3a", "addr:postcode": "9583", "addr:street": "Badeweg"}, "content": "Adresse: Badeweg 3a, 9583 Faak am See\nOrt: Faak am See\nPLZ: 9583\nKoordinaten: 46.567830, 13.929158", "doc_type": "addresses"}
{"source": "OSM", "region": "Kärnten", "osm_type": "node", "osm_id": 3355627514, "name": null, "category": null, "address": "Badeweg 3b, 9583 Faak am See", "street": "Badeweg", "housenumber": "3b", "postcode": "9583", "place": "Faak am See", "lat": 46.5680315, "lon": 13.9293322, "tags": {"addr:city": "Faak am See", "addr:housenumber": "3b", "addr:postcode": "9583", "addr:street": "Badeweg"}, "content": "Adresse: Badeweg 3b, 9583 Faak am See\nOrt: Faak am See\nPLZ: 9583\nKoordinaten: 46.568031, 13.929332", "doc_type": "addresses"}
{"source": "OSM", "region": "Kärnten", "osm_type": "node", "osm_id": 3355627515, "name": null, "category": null, "address": "Badeweg 3c, 9583 Faak am See", "street": "Badeweg", "housenumber": "3c", "postcode": "9583", "place": "Faak am See", "lat": 46.5682299, "lon": 13.9295101, "tags": {"addr:city": "Faak am See", "addr:housenumber": "3c", "addr:postcode": "9583", "addr:street": "Badeweg"}, "content": "Adresse: Badeweg 3c, 9583 Faak am See\nOrt: Faak am See\nPLZ: 9583\nKoordinaten: 46.568230, 13.929510", "doc_type": "addresses"}
{"source": "OSM", "region": "Kärnten", "osm_type": "node", "osm_id": 3355627516, "name": null, "category": null, "address": "Badeweg 3e, 9583 Faak am See", "street": "Badeweg", "housenumber": "3e", "postcode": "9583", "place": "Faak am See", "lat": 46.5685344, "lon": 13.9297948, "tags": {"addr:city": "Faak am See", "addr:housenumber": "3e", "addr:postcode": "9583", "addr:street": "Badeweg"}, "content": "Adresse: Badeweg 3e, 9583 Faak am See\nOrt: Faak am See\nPLZ: 9583\nKoordinaten: 46.568534, 13.929795", "doc_type": "addresses"}
{"source": "OSM", "region": "Kärnten", "osm_type": "node", "osm_id": 3904761795, "name": "Brandner Catering", "category": "craft:caterer", "address": "Am Feld 12, 9583 Faak am See", "street": "Am Feld", "housenumber": "12", "postcode": "9583", "place": "Faak am See", "lat": 46.5618719, "lon": 13.9095093, "tags": {"addr:city": "Faak am See", "addr:housenumber": "12", "addr:postcode": "9583", "addr:street": "Am Feld", "craft": "caterer", "name": "Brandner Catering", "operator": "Brandner Jürgen Josef"}, "content": "Brandner Catering\nKategorie: craft:caterer\nAdresse: Am Feld 12, 9583 Faak am See\nOrt: Faak am See\nPLZ: 9583\nKoordinaten: 46.561872, 13.909509\nTags: operator=Brandner Jürgen Josef", "doc_type": "addresses"}
{"source": "OSM", "region": "Kärnten", "osm_type": "node", "osm_id": 3904761816, "name": "Dr. Robert Erich Neumann", "category": "office:company", "address": "Blumenweg 8, 9583 Faak am See", "street": "Blumenweg", "housenumber": "8", "postcode": "9583", "place": "Faak am See", "lat": 46.5632391, "lon": 13.9091753, "tags": {"addr:city": "Faak am See", "addr:housenumber": "8", "addr:postcode": "9583", "addr:street": "Blumenweg", "name": "Dr. Robert Erich Neumann", "office": "company", "phone": "+43 4254 4307"}, "content": "Dr. Robert Erich Neumann\nKategorie: office:company\nAdresse: Blumenweg 8, 9583 Faak am See\nOrt: Faak am See\nPLZ: 9583\nKoordinaten: 46.563239, 13.909175\nTags: office=company, phone=+43 4254 4307", "doc_type": "addresses"}
{"source": "OSM", "region": "Kärnten", "osm_type": "node", "osm_id": 3904770051, "name": "Bernhard Hudelist", "category": "office:insurance", "address": "Faakerseestraße 16, 9583 Faak am See", "street": "Faakerseestraße", "housenumber": "16", "postcode": "9583", "place": "Faak am See", "lat": 46.5621212, "lon": 13.9115435, "tags": {"addr:city": "Faak am See", "addr:housenumber": "16", "addr:postcode": "9583", "addr:street": "Faakerseestraße", "name": "Bernhard Hudelist", "office": "insurance"}, "content": "Bernhard Hudelist\nKategorie: office:insurance\nAdresse: Faakerseestraße 16, 9583 Faak am See\nOrt: Faak am See\nPLZ: 9583\nKoordinaten: 46.562121, 13.911544\nTags: office=insurance", "doc_type": "addresses"}
{"source": "OSM", "region": "Kärnten", "osm_type": "node", "osm_id": 3904804113, "name": "Isolde Moser", "category": "office:company", "address": "Parkweg 22, 9583 Faak am See", "street": "Parkweg", "housenumber": "22", "postcode": "9583", "place": "Faak am See", "lat": 46.5621675, "lon": 13.914005, "tags": {"addr:city": "Faak am See", "addr:housenumber": "22", "addr:postcode": "9583", "addr:street": "Parkweg", "name": "Isolde Moser", "office": "company"}, "content": "Isolde Moser\nKategorie: office:company\nAdresse: Parkweg 22, 9583 Faak am See\nOrt: Faak am See\nPLZ: 9583\nKoordinaten: 46.562168, 13.914005\nTags: office=company", "doc_type": "addresses"}
{"source": "OSM", "region": "Kärnten", "osm_type": "node", "osm_id": 3904810653, "name": "Ing. Herbert Smoliner", "category": "office:company", "address": "Parkweg 19, 9583 Faak am See", "street": "Parkweg", "housenumber": "19", "postcode": "9583", "place": "Faak am See", "lat": 46.5628176, "lon": 13.9142914, "tags": {"addr:city": "Faak am See", "addr:housenumber": "19", "addr:postcode": "9583", "addr:street": "Parkweg", "name": "Ing. Herbert Smoliner", "office": "company", "phone": "+43 664 2059810", "website": "http://www.smoliner.com/"}, "content": "Ing. Herbert Smoliner\nKategorie: office:company\nAdresse: Parkweg 19, 9583 Faak am See\nOrt: Faak am See\nPLZ: 9583\nKoordinaten: 46.562818, 13.914291\nTags: office=company, phone=+43 664 2059810, website=http://www.smoliner.com/", "doc_type": "addresses"}
{"source": "OSM", "region": "Kärnten", "osm_type": "node", "osm_id": 5117779133, "name": "Bankstelle Faak am See", "category": "amenity:bank", "address": "Dietrichsteinerstraße 2, 9583 Faak am See", "street": "Dietrichsteinerstraße", "housenumber": "2", "postcode": "9583", "place": "Faak am See", "lat": 46.5659982, "lon": 13.9076689, "tags": {"addr:city": "Faak am See", "addr:housenumber": "2", "addr:postcode": "9583", "addr:street": "Dietrichsteinerstraße", "amenity": "bank", "brand": "Raiffeisenbank Finkenstein - Faaker See", "name": "Bankstelle Faak am See", "operator": "Raiffeisen", "phone": "+43 4254 27110"}, "content": "Bankstelle Faak am See\nKategorie: amenity:bank\nAdresse: Dietrichsteinerstraße 2, 9583 Faak am See\nOrt: Faak am See\nPLZ: 9583\nKoordinaten: 46.565998, 13.907669\nTags: amenity=bank, operator=Raiffeisen, brand=Raiffeisenbank Finkenstein - Faaker See, phone=+43 4254 27110", "doc_type": "addresses"}
{"source": "OSM", "region": "Kärnten", "osm_type": "node", "osm_id": 5117779134, "name": "Tourismusinformationsbüro Faak am See", "category": "tourism:information", "address": "Dietrichsteinerstraße 1, 9583 Faak am See", "street": "Dietrichsteinerstraße", "housenumber": "1", "postcode": "9583", "place": "Faak am See", "lat": 46.5660194, "lon": 13.9073731, "tags": {"addr:city": "Faak am See", "addr:housenumber": "1", "addr:postcode": "9583", "addr:street": "Dietrichsteinerstraße", "building": "yes", "name": "Tourismusinformationsbüro Faak am See", "phone": "+43 4254 2110", "tourism": "information", "website": "https://www.region-villach.at/de/tourismusinformationen/tourismusinformation-faak-am-see-2074796.html"}, "content": "Tourismusinformationsbüro Faak am See\nKategorie: tourism:information\nAdresse: Dietrichsteinerstraße 1, 9583 Faak am See\nOrt: Faak am See\nPLZ: 9583\nKoordinaten: 46.566019, 13.907373\nTags: building=yes, phone=+43 4254 2110, website=https://www.region-villach.at/de/tourismusinformationen/tourismusinformation-faak-am-see-2074796.html", "doc_type": "addresses"}
{"source": "OSM", "region": "Kärnten", "osm_type": "node", "osm_id": 340519653, "name": "9583 Faak am See", "category": "amenity:post_office", "address": "Dietrichsteinerstraße 2, 9583 Faak am See", "street": "Dietrichsteinerstraße", "housenumber": "2", "postcode": "9583", "place": "Faak am See", "lat": 46.5660053, "lon": 13.9080971, "tags": {"addr:city": "Faak am See", "addr:housenumber": "2", "addr:postcode": "9583", "addr:street": "Dietrichsteinerstraße", "amenity": "post_office", "name": "9583 Faak am See"}, "content": "9583 Faak am See\nKategorie: amenity:post_office\nAdresse: Dietrichsteinerstraße 2, 9583 Faak am See\nOrt: Faak am See\nPLZ: 9583\nKoordinaten: 46.566005, 13.908097\nTags: amenity=post_office", "doc_type": "pois"}
{"source": "OSM", "region": "Kärnten", "osm_type": "node", "osm_id": 696728201, "name": "Strandhotel Faak", "category": "tourism:hotel", "address": "Seestraße 2, Faak am See", "street": "Seestraße", "housenumber": "2", "postcode": null, "place": "Faak am See", "lat": 46.5664592, "lon": 13.9215604, "tags": {"addr:city": "Faak am See", "addr:housenumber": "2", "addr:street": "Seestraße", "name": "Strandhotel Faak", "phone": "+4342542180", "tourism": "hotel", "website": "https://www.strandhotelfaak.at/"}, "content": "Strandhotel Faak\nKategorie: tourism:hotel\nAdresse: Seestraße 2, Faak am See\nOrt: Faak am See\nKoordinaten: 46.566459, 13.921560\nTags: phone=+4342542180, website=https://www.strandhotelfaak.at/", "doc_type": "pois"}
{"source": "OSM", "region": "Kärnten", "osm_type": "node", "osm_id": 1261957898, "name": "Dr. Michael Hoi", "category": "amenity:doctors", "address": "Dietrichsteinerstraße 1, 9583 Faak am See", "street": "Dietrichsteinerstraße", "housenumber": "1", "postcode": "9583", "place": "Faak am See", "lat": 46.5662551, "lon": 13.9072701, "tags": {"addr:city": "Faak am See", "addr:housenumber": "1", "addr:postcode": "9583", "addr:street": "Dietrichsteinerstraße", "amenity": "doctors", "healthcare": "doctor", "name": "Dr. Michael Hoi"}, "content": "Dr. Michael Hoi\nKategorie: amenity:doctors\nAdresse: Dietrichsteinerstraße 1, 9583 Faak am See\nOrt: Faak am See\nPLZ: 9583\nKoordinaten: 46.566255, 13.907270\nTags: amenity=doctors, healthcare=doctor", "doc_type": "pois"}
{"source": "OSM", "region": "Kärnten", "osm_type": "node", "osm_id": 2318313680, "name": "Polizeiinspektion Faak am See", "category": "amenity:police", "address": "Dietrichsteinerstraße 2, 9583 Faak am See", "street": "Dietrichsteinerstraße", "housenumber": "2", "postcode": "9583", "place": "Faak am See", "lat": 46.5659548, "lon": 13.9080334, "tags": {"addr:city": "Faak am See", "addr:housenumber": "2", "addr:postcode": "9583", "addr:street": "Dietrichsteinerstraße", "amenity": "police", "name": "Polizeiinspektion Faak am See", "phone": "+43 59133 2254-100"}, "content": "Polizeiinspektion Faak am See\nKategorie: amenity:police\nAdresse: Dietrichsteinerstraße 2, 9583 Faak am See\nOrt: Faak am See\nPLZ: 9583\nKoordinaten: 46.565955, 13.908033\nTags: amenity=police, phone=+43 59133 2254-100", "doc_type": "pois"}
{"source": "OSM", "region": "Kärnten", "osm_type": "node", "osm_id": 2318313733, "name": "Dr. Armin Schwarzenegger", "category": "amenity:dentist", "address": "Dietrichsteinerstraße 2, 9583 Faak am See", "street": "Dietrichsteinerstraße", "housenumber": "2", "postcode": "9583", "place": "Faak am See", "lat": 46.5659761, "lon": 13.9078582, "tags": {"addr:city": "Faak am See", "addr:housenumber": "2", "addr:postcode": "9583", "addr:street": "Dietrichsteinerstraße", "amenity": "dentist", "healthcare": "dentist", "name": "Dr. Armin Schwarzenegger", "phone": "+43 4254 20746"}, "content": "Dr. Armin Schwarzenegger\nKategorie: amenity:dentist\nAdresse: Dietrichsteinerstraße 2, 9583 Faak am See\nOrt: Faak am See\nPLZ: 9583\nKoordinaten: 46.565976, 13.907858\nTags: amenity=dentist, healthcare=dentist, phone=+43 4254 20746", "doc_type": "pois"}
{"source": "OSM", "region": "Kärnten", "osm_type": "node", "osm_id": 3904761795, "name": "Brandner Catering", "category": "craft:caterer", "address": "Am Feld 12, 9583 Faak am See", "street": "Am Feld", "housenumber": "12", "postcode": "9583", "place": "Faak am See", "lat": 46.5618719, "lon": 13.9095093, "tags": {"addr:city": "Faak am See", "addr:housenumber": "12", "addr:postcode": "9583", "addr:street": "Am Feld", "craft": "caterer", "name": "Brandner Catering", "operator": "Brandner Jürgen Josef"}, "content": "Brandner Catering\nKategorie: craft:caterer\nAdresse: Am Feld 12, 9583 Faak am See\nOrt: Faak am See\nPLZ: 9583\nKoordinaten: 46.561872, 13.909509\nTags: operator=Brandner Jürgen Josef", "doc_type": "pois"}
{"source": "OSM", "region": "Kärnten", "osm_type": "node", "osm_id": 3904761816, "name": "Dr. Robert Erich Neumann", "category": "office:company", "address": "Blumenweg 8, 9583 Faak am See", "street": "Blumenweg", "housenumber": "8", "postcode": "9583", "place": "Faak am See", "lat": 46.5632391, "lon": 13.9091753, "tags": {"addr:city": "Faak am See", "addr:housenumber": "8", "addr:postcode": "9583", "addr:street": "Blumenweg", "name": "Dr. Robert Erich Neumann", "office": "company", "phone": "+43 4254 4307"}, "content": "Dr. Robert Erich Neumann\nKategorie: office:company\nAdresse: Blumenweg 8, 9583 Faak am See\nOrt: Faak am See\nPLZ: 9583\nKoordinaten: 46.563239, 13.909175\nTags: office=company, phone=+43 4254 4307", "doc_type": "pois"}
{"source": "OSM", "region": "Kärnten", "osm_type": "node", "osm_id": 3904770051, "name": "Bernhard Hudelist", "category": "office:insurance", "address": "Faakerseestraße 16, 9583 Faak am See", "street": "Faakerseestraße", "housenumber": "16", "postcode": "9583", "place": "Faak am See", "lat": 46.5621212, "lon": 13.9115435, "tags": {"addr:city": "Faak am See", "addr:housenumber": "16", "addr:postcode": "9583", "addr:street": "Faakerseestraße", "name": "Bernhard Hudelist", "office": "insurance"}, "content": "Bernhard Hudelist\nKategorie: office:insurance\nAdresse: Faakerseestraße 16, 9583 Faak am See\nOrt: Faak am See\nPLZ: 9583\nKoordinaten: 46.562121, 13.911544\nTags: office=insurance", "doc_type": "pois"}
{"source": "OSM", "region": "Kärnten", "osm_type": "node", "osm_id": 3904804113, "name": "Isolde Moser", "category": "office:company", "address": "Parkweg 22, 9583 Faak am See", "street": "Parkweg", "housenumber": "22", "postcode": "9583", "place": "Faak am See", "lat": 46.5621675, "lon": 13.914005, "tags": {"addr:city": "Faak am See", "addr:housenumber": "22", "addr:postcode": "9583", "addr:street": "Parkweg", "name": "Isolde Moser", "office": "company"}, "content": "Isolde Moser\nKategorie: office:company\nAdresse: Parkweg 22, 9583 Faak am See\nOrt: Faak am See\nPLZ: 9583\nKoordinaten: 46.562168, 13.914005\nTags: office=company", "doc_type": "pois"}
{"source": "OSM", "region": "Kärnten", "osm_type": "node", "osm_id": 3904810653, "name": "Ing. Herbert Smoliner", "category": "office:company", "address": "Parkweg 19, 9583 Faak am See", "street": "Parkweg", "housenumber": "19", "postcode": "9583", "place": "Faak am See", "lat": 46.5628176, "lon": 13.9142914, "tags": {"addr:city": "Faak am See", "addr:housenumber": "19", "addr:postcode": "9583", "addr:street": "Parkweg", "name": "Ing. Herbert Smoliner", "office": "company", "phone": "+43 664 2059810", "website": "http://www.smoliner.com/"}, "content": "Ing. Herbert Smoliner\nKategorie: office:company\nAdresse: Parkweg 19, 9583 Faak am See\nOrt: Faak am See\nPLZ: 9583\nKoordinaten: 46.562818, 13.914291\nTags: office=company, phone=+43 664 2059810, website=http://www.smoliner.com/", "doc_type": "pois"}
{"source": "OSM", "region": "Kärnten", "osm_type": "node", "osm_id": 5117779133, "name": "Bankstelle Faak am See", "category": "amenity:bank", "address": "Dietrichsteinerstraße 2, 9583 Faak am See", "street": "Dietrichsteinerstraße", "housenumber": "2", "postcode": "9583", "place": "Faak am See", "lat": 46.5659982, "lon": 13.9076689, "tags": {"addr:city": "Faak am See", "addr:housenumber": "2", "addr:postcode": "9583", "addr:street": "Dietrichsteinerstraße", "amenity": "bank", "brand": "Raiffeisenbank Finkenstein - Faaker See", "name": "Bankstelle Faak am See", "operator": "Raiffeisen", "phone": "+43 4254 27110"}, "content": "Bankstelle Faak am See\nKategorie: amenity:bank\nAdresse: Dietrichsteinerstraße 2, 9583 Faak am See\nOrt: Faak am See\nPLZ: 9583\nKoordinaten: 46.565998, 13.907669\nTags: amenity=bank, operator=Raiffeisen, brand=Raiffeisenbank Finkenstein - Faaker See, phone=+43 4254 27110", "doc_type": "pois"}
{"source": "OSM", "region": "Kärnten", "osm_type": "node", "osm_id": 5117779134, "name": "Tourismusinformationsbüro Faak am See", "category": "tourism:information", "address": "Dietrichsteinerstraße 1, 9583 Faak am See", "street": "Dietrichsteinerstraße", "housenumber": "1", "postcode": "9583", "place": "Faak am See", "lat": 46.5660194, "lon": 13.9073731, "tags": {"addr:city": "Faak am See", "addr:housenumber": "1", "addr:postcode": "9583", "addr:street": "Dietrichsteinerstraße", "building": "yes", "name": "Tourismusinformationsbüro Faak am See", "phone": "+43 4254 2110", "tourism": "information", "website": "https://www.region-villach.at/de/tourismusinformationen/tourismusinformation-faak-am-see-2074796.html"}, "content": "Tourismusinformationsbüro Faak am See\nKategorie: tourism:information\nAdresse: Dietrichsteinerstraße 1, 9583 Faak am See\nOrt: Faak am See\nPLZ: 9583\nKoordinaten: 46.566019, 13.907373\nTags: building=yes, phone=+43 4254 2110, website=https://www.region-villach.at/de/tourismusinformationen/tourismusinformation-faak-am-see-2074796.html", "doc_type": "pois"}
