{"source": "OSM", "region": "Kärnten", "osm_type": "node", "osm_id": 240034374, "name": "Timberra(R) Holzsysteme, Naturpools", "category": "craft:sawmill", "address": "140, 9833 Rangersdorf", "street": null, "housenumber": "140", "postcode": "9833", "place": "Rangersdorf", "lat": 46.8522984, "lon": 12.9289148, "tags": {"addr:city": "Rangersdorf", "addr:housenumber": "140", "addr:place": "Lainach", "addr:postcode": "9833", "craft": "sawmill", "name": "Timberra(R) Holzsysteme, Naturpools", "operator": "Timberra", "phone": "+43 482237937", "website": "https://www.timberra-naturpool.com/"}, "content": "Timberra(R) Holzsysteme, Naturpools\nKategorie: craft:sawmill\nAdresse: 140, 9833 Rangersdorf\nOrt: Rangersdorf\nPLZ: 9833\nKoordinaten: 46.852298, 12.928915\nTags: operator=Timberra, phone=+43 482237937, website=https://www.timberra-naturpool.com/", "doc_type": "addresses"}
{"source": "OSM", "region": "Kärnten", "osm_type": "node", "osm_id": 297244984, "name": "Pension Rosenkranz", "category": "tourism:guest_house", "address": "Witschdorf 3, 9833 Rangersdorf", "street": "Witschdorf", "housenumber": "3", "postcode": "9833", "place": "Rangersdorf", "lat": 46.8600213, "lon": 12.94892, "tags": {"addr:city": "Rangersdorf", "addr:housenumber": "3", "addr:postcode": "9833", "addr:street": "Witschdorf", "name": "Pension Rosenkranz", "tourism": "guest_house"}, "content": "Pension Rosenkranz\nKategorie: tourism:guest_house\nAdresse: Witschdorf 3, 9833 Rangersdorf\nOrt: Rangersdorf\nPLZ: 9833\nKoordinaten: 46.860021, 12.948920", "doc_type": "addresses"}
{"source": "OSM", "region": "Kärnten", "osm_type": "node", "osm_id": 340519135, "name": "Postpartner 9833, Maschinen Steiner", "category": "amenity:post_office", "address": "Maschinen Steiner Platz 1, 9833 Rangersdorf", "street": "Maschinen Steiner Platz", "housenumber": "1", "postcode": "9833", "place": "Rangersdorf", "lat": 46.8649468, "lon": 12.9697916, "tags": {"addr:city": "Rangersdorf", "addr:housenumber": "1", "addr:postcode": "9833", "addr:street": "Maschinen Steiner Platz", "amenity": "post_office", "name": "Postpartner 9833, Maschinen Steiner"}, "content": "Postpartner 9833, Maschinen Steiner\nKategorie: amenity:post_office\nAdresse: Maschinen Steiner Platz 1, 9833 Rangersdorf\nOrt: Rangersdorf\nPLZ: 9833\nKoordinaten: 46.864947, 12.969792\nTags: amenity=post_office", "doc_type": "addresses"}
{"source": "OSM", "region": "Kärnten", "osm_type": "node", "osm_id": 411504808, "name": "Hotel Margarethenbad", "category": "tourism:hotel", "address": "26, 9833 Rangersdorf", "street": null, "housenumber": "26", "postcode": "9833", "place": "Rangersdorf", "lat": 46.8510132, "lon": 12.9288834, "tags": {"addr:city": "Rangersdorf", "addr:housenumber": "26", "addr:place": "Lainach", "addr:postcode": "9833", "name": "Hotel Margarethenbad", "tourism": "hotel"}, "content": "Hotel Margarethenbad\nKategorie: tourism:hotel\nAdresse: 26, 9833 Rangersdorf\nOrt: Rangersdorf\nPLZ: 9833\nKoordinaten: 46.851013, 12.928883", "doc_type": "addresses"}
{"source": "OSM", "region": "Kärnten", "osm_type": "node", "osm_id": 3754841470, "name": "Alpengasthaus Marterle", "category": "amenity:restaurant", "address": "Wenneberg 18, 9833 Rangersdorf", "street": "Wenneberg", "housenumber": "18", "postcode": "9833", "place": "Rangersdorf", "lat": 46.8788703, "lon": 12.939737, "tags": {"addr:city": "Rangersdorf", "addr:housenumber": "18", "addr:postcode": "9833", "addr:street": "Wenneberg", "amenity": "restaurant", "name": "Alpengasthaus Marterle"}, "content": "Alpengasthaus Marterle\nKategorie: amenity:restaurant\nAdresse: Wenneberg 18, 9833 Rangersdorf\nOrt: Rangersdorf\nPLZ: 9833\nKoordinaten: 46.878870, 12.939737\nTags: amenity=restaurant", "doc_type": "addresses"}
{"source": "OSM", "region": "Kärnten", "osm_type": "node", "osm_id": 240034374, "name": "Timberra(R) Holzsysteme, Naturpools", "category": "craft:sawmill", "address": "140, 9833 Rangersdorf", "street": null, "housenumber": "140", "postcode": "9833", "place": "Rangersdorf", "lat": 46.8522984, "lon": 12.9289148, "tags": {"addr:city": "Rangersdorf", "addr:housenumber": "140", "addr:place": "Lainach", "addr:postcode": "9833", "craft": "sawmill", "name": "Timberra(R) Holzsysteme, Naturpools", "operator": "Timberra", "phone": "+43 482237937", "website": "https://www.timberra-naturpool.com/"}, "content": "Timberra(R) Holzsysteme, Naturpools\nKategorie: craft:sawmill\nAdresse: 140, 9833 Rangersdorf\nOrt: Rangersdorf\nPLZ: 9833\nKoordinaten: 46.852298, 12.928915\nTags: operator=Timberra, phone=+43 482237937, website=https://www.timberra-naturpool.com/", "doc_type": "pois"}
{"source": "OSM", "region": "Kärnten", "osm_type": "node", "osm_id": 297244984, "name": "Pension Rosenkranz", "category": "tourism:guest_house", "address": "Witschdorf 3, 9833 Rangersdorf", "street": "Witschdorf", "housenumber": "3", "postcode": "9833", "place": "Rangersdorf", "lat": 46.8600213, "lon": 12.94892, "tags": {"addr:city": "Rangersdorf", "addr:housenumber": "3", "addr:postcode": "9833", "addr:street": "Witschdorf", "name": "Pension Rosenkranz", "tourism": "guest_house"}, "content": "Pension Rosenkranz\nKategorie: tourism:guest_house\nAdresse: Witschdorf 3, 9833 Rangersdorf\nOrt: Rangersdorf\nPLZ: 9833\nKoordinaten: 46.860021, 12.948920", "doc_type": "pois"}
{"source": "OSM", "region": "Kärnten", "osm_type": "node", "osm_id": 340519135, "name": "Postpartner 9833, Maschinen Steiner", "category": "amenity:post_office", "address": "Maschinen Steiner Platz 1, 9833 Rangersdorf", "street": "Maschinen Steiner Platz", "housenumber": "1", "postcode": "9833", "place": "Rangersdorf", "lat": 46.8649468, "lon": 12.9697916, "tags": {"addr:city": "Rangersdorf", "addr:housenumber": "1", "addr:postcode": "9833", "addr:street": "Maschinen Steiner Platz", "amenity": "post_office", "name": "Postpartner 9833, Maschinen Steiner"}, "content": "Postpartner 9833, Maschinen Steiner\nKategorie: amenity:post_office\nAdresse: Maschinen Steiner Platz 1, 9833 Rangersdorf\nOrt: Rangersdorf\nPLZ: 9833\nKoordinaten: 46.864947, 12.969792\nTags: amenity=post_office", "doc_type": "pois"}
{"source": "OSM", "region": "Kärnten", "osm_type": "node", "osm_id": 411504808, "name": "Hotel Margarethenbad", "category": "tourism:hotel", "address": "26, 9833 Rangersdorf", "street": null, "housenumber": "26", "postcode": "9833", "place": "Rangersdorf", "lat": 46.8510132, "lon": 12.9288834, "tags": {"addr:city": "Rangersdorf", "addr:housenumber": "26", "addr:place": "Lainach", "addr:postcode": "9833", "name": "Hotel Margarethenbad", "tourism": "hotel"}, "content": "Hotel Margarethenbad\nKategorie: tourism:hotel\nAdresse: 26, 9833 Rangersdorf\nOrt: Rangersdorf\nPLZ: 9833\nKoordinaten: 46.851013, 12.928883", "doc_type": "pois"}
{"source": "OSM", "region": "Kärnten", "osm_type": "node", "osm_id": 3754841470, "name": "Alpengasthaus Marterle", "category": "amenity:restaurant", "address": "Wenneberg 18, 9833 Rangersdorf", "street": "Wenneberg", "housenumber": "18", "postcode": "9833", "place": "Rangersdorf", "lat": 46.8788703, "lon": 12.939737, "tags": {"addr:city": "Rangersdorf", "addr:housenumber": "18", "addr:postcode": "9833", "addr:street": "Wenneberg", "amenity": "restaurant", "name": "Alpengasthaus Marterle"}, "content": "Alpengasthaus Marterle\nKategorie: amenity:restaurant\nAdresse: Wenneberg 18, 9833 Rangersdorf\nOrt: Rangersdorf\nPLZ: 9833\nKoordinaten: 46.878870, 12.939737\nTags: amenity=restaurant", "doc_type": "pois"}
