{"source": "OSM", "region": "Kärnten", "osm_type": "node", "osm_id": 5136310482, "name": "Sto & enjoy", "category": "amenity:bar", "address": "3a, 9640 Kötschach", "street": null, "housenumber": "3a", "postcode": "9640", "place": "Kötschach", "lat": 46.6775292, "lon": 13.0038933, "tags": {"addr:city": "Kötschach", "addr:housenumber": "3a", "addr:postcode": "9640", "amenity": "bar", "name": "Sto & enjoy", "operator": "Stefan Wögerer"}, "content": "Sto & enjoy\nKategorie: amenity:bar\nAdresse: 3a, 9640 Kötschach\nOrt: Kötschach\nPLZ: 9640\nKoordinaten: 46.677529, 13.003893\nTags: amenity=bar, operator=Stefan Wögerer", "doc_type": "addresses"}
{"source": "OSM", "region": "Kärnten", "osm_type": "node", "osm_id": 5153644111, "name": "Café-Zentral", "category": "amenity:cafe", "address": "2, 9640 Kötschach", "street": null, "housenumber": "2", "postcode": "9640", "place": "Kötschach", "lat": 46.6779531, "lon": 13.0040755, "tags": {"addr:city": "Kötschach", "addr:housenumber": "2", "addr:postcode": "9640", "amenity": "cafe", "name": "Café-Zentral", "phone": "0650 2768888"}, "content": "Café-Zentral\nKategorie: amenity:cafe\nAdresse: 2, 9640 Kötschach\nOrt: Kötschach\nPLZ: 9640\nKoordinaten: 46.677953, 13.004076\nTags: amenity=cafe, phone=0650 2768888", "doc_type": "addresses"}
{"source": "OSM", "region": "Kärnten", "osm_type": "node", "osm_id": 473519889, "name": "Karnische Raiffeisen Bank", "category": "amenity:bank", "address": "Kötschach", "street": null, "housenumber": null, "postcode": null, "place": "Kötschach", "lat": 46.6768242, "lon": 13.0034941, "tags": {"addr:city": "Kötschach", "amenity": "bank", "brand": "Raiffeisen", "name": "Karnische Raiffeisen Bank", "operator": "Raiffeisen Bank"}, "content": "Karnische Raiffeisen Bank\nKategorie: amenity:bank\nAdresse: Kötschach\nOrt: Kötschach\nKoordinaten: 46.676824, 13.003494\nTags: amenity=bank, operator=Raiffeisen Bank, brand=Raiffeisen", "doc_type": "pois"}
{"source": "OSM", "region": "Kärnten", "osm_type": "node", "osm_id": 1736238440, "name": "Gailberghöhe", "category": "amenity:restaurant", "address": "Kötschach", "street": null, "housenumber": null, "postcode": null, "place": "Kötschach", "lat": 46.7149112, "lon": 12.9674346, "tags": {"addr:city": "Kötschach", "amenity": "restaurant", "name": "Gailberghöhe", "tourism": "hotel"}, "content": "Gailberghöhe\nKategorie: amenity:restaurant\nAdresse: Kötschach\nOrt: Kötschach\nKoordinaten: 46.714911, 12.967435\nTags: amenity=restaurant", "doc_type": "pois"}
{"source": "OSM", "region": "Kärnten", "osm_type": "node", "osm_id": 5136310482, "name": "Sto & enjoy", "category": "amenity:bar", "address": "3a, 9640 Kötschach", "street": null, "housenumber": "3a", "postcode": "9640", "place": "Kötschach", "lat": 46.6775292, "lon": 13.0038933, "tags": {"addr:city": "Kötschach", "addr:housenumber": "3a", "addr:postcode": "9640", "amenity": "bar", "name": "Sto & enjoy", "operator": "Stefan Wögerer"}, "content": "Sto & enjoy\nKategorie: amenity:bar\nAdresse: 3a, 9640 Kötschach\nOrt: Kötschach\nPLZ: 9640\nKoordinaten: 46.677529, 13.003893\nTags: amenity=bar, operator=Stefan Wögerer", "doc_type": "pois"}
{"source": "OSM", "region": "Kärnten", "osm_type": "node", "osm_id": 5153644111, "name": "Café-Zentral", "category": "amenity:cafe", "address": "2, 9640 Kötschach", "street": null, "housenumber": "2", "postcode": "9640", "place": "Kötschach", "lat": 46.6779531, "lon": 13.0040755, "tags": {"addr:city": "Kötschach", "addr:housenumber": "2", "addr:postcode": "9640", "amenity": "cafe", "name": "Café-Zentral", "phone": "0650 2768888"}, "content": "Café-Zentral\nKategorie: amenity:cafe\nAdresse: 2, 9640 Kötschach\nOrt: Kötschach\nPLZ: 9640\nKoordinaten: 46.677953, 13.004076\nTags: amenity=cafe, phone=0650 2768888", "doc_type": "pois"}
