{"source": "OSM", "region": "Kärnten", "osm_type": "node", "osm_id": 340518079, "name": "Postpartner 9302, handyshop.cc", "category": "amenity:post_office", "address": "Völkermarkter Straße 38, 9302 St. Veit an der Glan", "street": "Völkermarkter Straße", "housenumber": "38", "postcode": "9302", "place": "St. Veit an der Glan", "lat": 46.7649873, "lon": 14.3710194, "tags": {"addr:city": "St. Veit an der Glan", "addr:housenumber": "38", "addr:postcode": "9302", "addr:street": "Völkermarkter Straße", "amenity": "post_office", "name": "Postpartner 9302, handyshop.cc"}, "content": "Postpartner 9302, handyshop.cc\nKategorie: amenity:post_office\nAdresse: Völkermarkter Straße 38, 9302 St. Veit an der Glan\nOrt: St. Veit an der Glan\nPLZ: 9302\nKoordinaten: 46.764987, 14.371019\nTags: amenity=post_office", "doc_type": "addresses"}
{"source": "OSM", "region": "Kärnten", "osm_type": "node", "osm_id": 445341505, "name": "Apotheke Wayerfeld", "category": "amenity:pharmacy", "address": "Völkermarkter Straße 40, 9300 St. Veit an der Glan", "street": "Völkermarkter Straße", "housenumber": "40", "postcode": "9300", "place": "St. Veit an der Glan", "lat": 46.7658213, "lon": 14.3728945, "tags": {"addr:city": "St. Veit an der Glan", "addr:housenumber": "40", "addr:postcode": "9300", "addr:street": "Völkermarkter Straße", "amenity": "pharmacy", "healthcare": "pharmacy", "name": "Apotheke Wayerfeld"}, "content": "Apotheke Wayerfeld\nKategorie: amenity:pharmacy\nAdresse: Völkermarkter Straße 40, 9300 St. Veit an der Glan\nOrt: St. Veit an der Glan\nPLZ: 9300\nKoordinaten: 46.765821, 14.372894\nTags: amenity=pharmacy, healthcare=pharmacy", "doc_type": "addresses"}
{"source": "OSM", "region": "Kärnten", "osm_type": "node", "osm_id": 2110727783, "name": "Kunsthotel Fuchspalast", "category": "tourism:hotel", "address": "Prof.-Ernst-Fuchs-Platz 1, 9300 St Veit an der Glan", "street": "Prof.-Ernst-Fuchs-Platz", "housenumber": "1", "postcode": "9300", "place": "St Veit an der Glan", "lat": 46.7690395, "lon": 14.3608167, "tags": {"addr:city": "St Veit an der Glan", "addr:housenumber": "1", "addr:postcode": "9300", "addr:street": "Prof.-Ernst-Fuchs-Platz", "name": "Kunsthotel Fuchspalast", "phone": "+43 (0)4212 4660-0", "tourism": "hotel", "website": "https://hotel-fuchspalast.at/"}, "content": "Kunsthotel Fuchspalast\nKategorie: tourism:hotel\nAdresse: Prof.-Ernst-Fuchs-Platz 1, 9300 St Veit an der Glan\nOrt: St Veit an der Glan\nPLZ: 9300\nKoordinaten: 46.769039, 14.360817\nTags: phone=+43 (0)4212 4660-0, website=https://hotel-fuchspalast.at/", "doc_type": "addresses"}
{"source": "OSM", "region": "Kärnten", "osm_type": "node", "osm_id": 3363593478, "name": null, "category": null, "address": "Hauptplatz 9, 9300 St. Veit an der Glan", "street": "Hauptplatz", "housenumber": "9", "postcode": "9300", "place": "St. Veit an der Glan", "lat": 46.7677556, "lon": 14.3580932, "tags": {"addr:city": "St. Veit an der Glan", "addr:housenumber": "9", "addr:postcode": "9300", "addr:street": "Hauptplatz"}, "content": "Adresse: Hauptplatz 9, 9300 St. Veit an der Glan\nOrt: St. Veit an der Glan\nPLZ: 9300\nKoordinaten: 46.767756, 14.358093", "doc_type": "addresses"}
{"source": "OSM", "region": "Kärnten", "osm_type": "node", "osm_id": 3366244804, "name": null, "category": null, "address": "Hauptplatz 10, 9300 St. Veit an der Glan", "street": "Hauptplatz", "housenumber": "10", "postcode": "9300", "place": "St. Veit an der Glan", "lat": 46.7676631, "lon": 14.3582137, "tags": {"addr:city": "St. Veit an der Glan", "addr:housenumber": "10", "addr:postcode": "9300", "addr:street": "Hauptplatz"}, "content": "Adresse: Hauptplatz 10, 9300 St. Veit an der Glan\nOrt: St. Veit an der Glan\nPLZ: 9300\nKoordinaten: 46.767663, 14.358214", "doc_type": "addresses"}
{"source": "OSM", "region": "Kärnten", "osm_type": "node", "osm_id": 4032511504, "name": "Osteria San Vito", "category": "amenity:restaurant", "address": "Oktoberplatz 5, 9300 St. Veit an der Glan", "street": "Oktoberplatz", "housenumber": "5", "postcode": "9300", "place": "St. Veit an der Glan", "lat": 46.765065, "lon": 14.3543696, "tags": {"addr:city": "St. Veit an der Glan", "addr:housenumber": "5", "addr:postcode": "9300", "addr:street": "Oktoberplatz", "amenity": "restaurant", "name": "Osteria San Vito", "website": "https://osteria-sanvito.at/"}, "content": "Osteria San Vito\nKategorie: amenity:restaurant\nAdresse: Oktoberplatz 5, 9300 St. Veit an der Glan\nOrt: St. Veit an der Glan\nPLZ: 9300\nKoordinaten: 46.765065, 14.354370\nTags: amenity=restaurant, website=https://osteria-sanvito.at/", "doc_type": "addresses"}
{"source": "OSM", "region": "Kärnten", "osm_type": "node", "osm_id": 4280804676, "name": "Volksbank", "category": "amenity:bank", "address": "Bahnhofstraße 10, 9300 St. Veit an der Glan", "street": "Bahnhofstraße", "housenumber": "10", "postcode": "9300", "place": "St. Veit an der Glan", "lat": 46.7674033, "lon": 14.3614902, "tags": {"addr:city": "St. Veit an der Glan", "addr:housenumber": "10", "addr:postcode": "9300", "addr:street": "Bahnhofstraße", "amenity": "bank", "brand": "Volksbank", "name": "Volksbank", "operator": "Volksbank Kärnten eG", "website": "https://www.volksbank-kaernten.at/"}, "content": "Volksbank\nKategorie: amenity:bank\nAdresse: Bahnhofstraße 10, 9300 St. Veit an der Glan\nOrt: St. Veit an der Glan\nPLZ: 9300\nKoordinaten: 46.767403, 14.361490\nTags: amenity=bank, operator=Volksbank Kärnten eG, brand=Volksbank, website=https://www.volksbank-kaernten.at/", "doc_type": "addresses"}
{"source": "OSM", "region": "Kärnten", "osm_type": "node", "osm_id": 4319747378, "name": "S&K Brunnenbohr GmbH", "category": "office:company", "address": "Industrieparkstraße 13, 9300 St. Veit an der Glan", "street": "Industrieparkstraße", "housenumber": "13", "postcode": "9300", "place": "St. Veit an der Glan", "lat": 46.7333137, "lon": 14.37287, "tags": {"addr:city": "St. Veit an der Glan", "addr:housenumber": "13", "addr:postcode": "9300", "addr:street": "Industrieparkstraße", "name": "S&K Brunnenbohr GmbH", "office": "company", "phone": "+43 4212 71887", "website": "https://www.brunnenbohr.at/"}, "content": "S&K Brunnenbohr GmbH\nKategorie: office:company\nAdresse: Industrieparkstraße 13, 9300 St. Veit an der Glan\nOrt: St. Veit an der Glan\nPLZ: 9300\nKoordinaten: 46.733314, 14.372870\nTags: office=company, phone=+43 4212 71887, website=https://www.brunnenbohr.at/", "doc_type": "addresses"}
{"source": "OSM", "region": "Kärnten", "osm_type": "node", "osm_id": 4546228889, "name": "Billa", "category": "shop:supermarket", "address": "Hauptplatz 19, 9300 St. Veit an der Glan", "street": "Hauptplatz", "housenumber": "19", "postcode": "9300", "place": "St. Veit an der Glan", "lat": 46.7667938, "lon": 14.3574625, "tags": {"addr:city": "St. Veit an der Glan", "addr:housenumber": "19", "addr:postcode": "9300", "addr:street": "Hauptplatz", "brand": "Billa", "name": "Billa", "shop": "supermarket"}, "content": "Billa\nKategorie: shop:supermarket\nAdresse: Hauptplatz 19, 9300 St. Veit an der Glan\nOrt: St. Veit an der Glan\nPLZ: 9300\nKoordinaten: 46.766794, 14.357463\nTags: shop=supermarket, brand=Billa", "doc_type": "addresses"}
{"source": "OSM", "region": "Kärnten", "osm_type": "node", "osm_id": 4942054043, "name": null, "category": null, "address": "Glangasse 72b, 9300 St. Veit an der Glan", "street": "Glangasse", "housenumber": "72b", "postcode": "9300", "place": "St. Veit an der Glan", "lat": 46.7620578, "lon": 14.3675936, "tags": {"addr:city": "St. Veit an der Glan", "addr:housenumber": "72b", "addr:postcode": "9300", "addr:street": "Glangasse"}, "content": "Adresse: Glangasse 72b, 9300 St. Veit an der Glan\nOrt: St. Veit an der Glan\nPLZ: 9300\nKoordinaten: 46.762058, 14.367594", "doc_type": "addresses"}
{"source": "OSM", "region": "Kärnten", "osm_type": "node", "osm_id": 4942054044, "name": null, "category": null, "address": "Glangasse 72a, 9300 St. Veit an der Glan", "street": "Glangasse", "housenumber": "72a", "postcode": "9300", "place": "St. Veit an der Glan", "lat": 46.7618696, "lon": 14.3671576, "tags": {"addr:city": "St. Veit an der Glan", "addr:housenumber": "72a", "addr:postcode": "9300", "addr:street": "Glangasse"}, "content": "Adresse: Glangasse 72a, 9300 St. Veit an der Glan\nOrt: St. Veit an der Glan\nPLZ: 9300\nKoordinaten: 46.761870, 14.367158", "doc_type": "addresses"}
{"source": "OSM", "region": "Kärnten", "osm_type": "node", "osm_id": 4959865336, "name": "TanzCenter Schellander", "category": "leisure:dance", "address": "Hauptplatz 24, 9300 St Veit an der Glan", "street": "Hauptplatz", "housenumber": "24", "postcode": "9300", "place": "St Veit an der Glan", "lat": 46.7664963, "lon": 14.3569329, "tags": {"addr:city": "St Veit an der Glan", "addr:housenumber": "24", "addr:postcode": "9300", "addr:street": "Hauptplatz", "leisure": "dance", "name": "TanzCenter Schellander", "phone": "+43664 2114115", "website": "http://tanzcenter-schellander.at/"}, "content": "TanzCenter Schellander\nKategorie: leisure:dance\nAdresse: Hauptplatz 24, 9300 St Veit an der Glan\nOrt: St Veit an der Glan\nPLZ: 9300\nKoordinaten: 46.766496, 14.356933\nTags: phone=+43664 2114115, website=http://tanzcenter-schellander.at/", "doc_type": "addresses"}
{"source": "OSM", "region": "Kärnten", "osm_type": "node", "osm_id": 5143746659, "name": "ARBÖ Prüfzentrum St. Veit/Glan", "category": "shop:car_repair", "address": "Villacher Straße 59, 9300 St. Veit an der Glan", "street": "Villacher Straße", "housenumber": "59", "postcode": "9300", "place": "St. Veit an der Glan", "lat": 46.7580433, "lon": 14.3439643, "tags": {"addr:city": "St. Veit an der Glan", "addr:housenumber": "59", "addr:postcode": "9300", "addr:street": "Villacher Straße", "name": "ARBÖ Prüfzentrum St. Veit/Glan", "operator": "ARBÖ", "shop": "car_repair"}, "content": "ARBÖ Prüfzentrum St. Veit/Glan\nKategorie: shop:car_repair\nAdresse: Villacher Straße 59, 9300 St. Veit an der Glan\nOrt: St. Veit an der Glan\nPLZ: 9300\nKoordinaten: 46.758043, 14.343964\nTags: shop=car_repair, operator=ARBÖ", "doc_type": "addresses"}
{"source": "OSM", "region": "Kärnten", "osm_type": "node", "osm_id": 5230213121, "name": "Das Futterhaus", "category": "shop:pet", "address": "Völkermarkter Straße 1, 9300 St. Veit an der Glan", "street": "Völkermarkter Straße", "housenumber": "1", "postcode": "9300", "place": "St. Veit an der Glan", "lat": 46.767552, "lon": 14.3621717, "tags": {"addr:city": "St. Veit an der Glan", "addr:housenumber": "1", "addr:postcode": "9300", "addr:street": "Völkermarkter Straße", "brand": "Das Futterhaus", "name": "Das Futterhaus", "operator": "Tierbedarf Zappi e.U.", "phone": "+43421230535", "shop": "pet", "website": "https://www.dasfutterhaus.at/stveit/"}, "content": "Das Futterhaus\nKategorie: shop:pet\nAdresse: Völkermarkter Straße 1, 9300 St. Veit an der Glan\nOrt: St. Veit an der Glan\nPLZ: 9300\nKoordinaten: 46.767552, 14.362172\nTags: shop=pet, operator=Tierbedarf Zappi e.U., brand=Das Futterhaus, phone=+43421230535, website=https://www.dasfutterhaus.at/stveit/", "doc_type": "addresses"}
{"source": "OSM", "region": "Kärnten", "osm_type": "node", "osm_id": 340518079, "name": "Postpartner 9302, handyshop.cc", "category": "amenity:post_office", "address": "Völkermarkter Straße 38, 9302 St. Veit an der Glan", "street": "Völkermarkter Straße", "housenumber": "38", "postcode": "9302", "place": "St. Veit an der Glan", "lat": 46.7649873, "lon": 14.3710194, "tags": {"addr:city": "St. Veit an der Glan", "addr:housenumber": "38", "addr:postcode": "9302", "addr:street": "Völkermarkter Straße", "amenity": "post_office", "name": "Postpartner 9302, handyshop.cc"}, "content": "Postpartner 9302, handyshop.cc\nKategorie: amenity:post_office\nAdresse: Völkermarkter Straße 38, 9302 St. Veit an der Glan\nOrt: St. Veit an der Glan\nPLZ: 9302\nKoordinaten: 46.764987, 14.371019\nTags: amenity=post_office", "doc_type": "pois"}
{"source": "OSM", "region": "Kärnten", "osm_type": "node", "osm_id": 445341505, "name": "Apotheke Wayerfeld", "category": "amenity:pharmacy", "address": "Völkermarkter Straße 40, 9300 St. Veit an der Glan", "street": "Völkermarkter Straße", "housenumber": "40", "postcode": "9300", "place": "St. Veit an der Glan", "lat": 46.7658213, "lon": 14.3728945, "tags": {"addr:city": "St. Veit an der Glan", "addr:housenumber": "40", "addr:postcode": "9300", "addr:street": "Völkermarkter Straße", "amenity": "pharmacy", "healthcare": "pharmacy", "name": "Apotheke Wayerfeld"}, "content": "Apotheke Wayerfeld\nKategorie: amenity:pharmacy\nAdresse: Völkermarkter Straße 40, 9300 St. Veit an der Glan\nOrt: St. Veit an der Glan\nPLZ: 9300\nKoordinaten: 46.765821, 14.372894\nTags: amenity=pharmacy, healthcare=pharmacy", "doc_type": "pois"}
{"source": "OSM", "region": "Kärnten", "osm_type": "node", "osm_id": 2110727783, "name": "Kunsthotel Fuchspalast", "category": "tourism:hotel", "address": "Prof.-Ernst-Fuchs-Platz 1, 9300 St Veit an der Glan", "street": "Prof.-Ernst-Fuchs-Platz", "housenumber": "1", "postcode": "9300", "place": "St Veit an der Glan", "lat": 46.7690395, "lon": 14.3608167, "tags": {"addr:city": "St Veit an der Glan", "addr:housenumber": "1", "addr:postcode": "9300", "addr:street": "Prof.-Ernst-Fuchs-Platz", "name": "Kunsthotel Fuchspalast", "phone": "+43 (0)4212 4660-0", "tourism": "hotel", "website": "https://hotel-fuchspalast.at/"}, "content": "Kunsthotel Fuchspalast\nKategorie: tourism:hotel\nAdresse: Prof.-Ernst-Fuchs-Platz 1, 9300 St Veit an der Glan\nOrt: St Veit an der Glan\nPLZ: 9300\nKoordinaten: 46.769039, 14.360817\nTags: phone=+43 (0)4212 4660-0, website=https://hotel-fuchspalast.at/", "doc_type": "pois"}
{"source": "OSM", "region": "Kärnten", "osm_type": "node", "osm_id": 4032511504, "name": "Osteria San Vito", "category": "amenity:restaurant", "address": "Oktoberplatz 5, 9300 St. Veit an der Glan", "street": "Oktoberplatz", "housenumber": "5", "postcode": "9300", "place": "St. Veit an der Glan", "lat": 46.765065, "lon": 14.3543696, "tags": {"addr:city": "St. Veit an der Glan", "addr:housenumber": "5", "addr:postcode": "9300", "addr:street": "Oktoberplatz", "amenity": "restaurant", "name": "Osteria San Vito", "website": "https://osteria-sanvito.at/"}, "content": "Osteria San Vito\nKategorie: amenity:restaurant\nAdresse: Oktoberplatz 5, 9300 St. Veit an der Glan\nOrt: St. Veit an der Glan\nPLZ: 9300\nKoordinaten: 46.765065, 14.354370\nTags: amenity=restaurant, website=https://osteria-sanvito.at/", "doc_type": "pois"}
{"source": "OSM", "region": "Kärnten", "osm_type": "node", "osm_id": 4280804676, "name": "Volksbank", "category": "amenity:bank", "address": "Bahnhofstraße 10, 9300 St. Veit an der Glan", "street": "Bahnhofstraße", "housenumber": "10", "postcode": "9300", "place": "St. Veit an der Glan", "lat": 46.7674033, "lon": 14.3614902, "tags": {"addr:city": "St. Veit an der Glan", "addr:housenumber": "10", "addr:postcode": "9300", "addr:street": "Bahnhofstraße", "amenity": "bank", "brand": "Volksbank", "name": "Volksbank", "operator": "Volksbank Kärnten eG", "website": "https://www.volksbank-kaernten.at/"}, "content": "Volksbank\nKategorie: amenity:bank\nAdresse: Bahnhofstraße 10, 9300 St. Veit an der Glan\nOrt: St. Veit an der Glan\nPLZ: 9300\nKoordinaten: 46.767403, 14.361490\nTags: amenity=bank, operator=Volksbank Kärnten eG, brand=Volksbank, website=https://www.volksbank-kaernten.at/", "doc_type": "pois"}
{"source": "OSM", "region": "Kärnten", "osm_type": "node", "osm_id": 4319747378, "name": "S&K Brunnenbohr GmbH", "category": "office:company", "address": "Industrieparkstraße 13, 9300 St. Veit an der Glan", "street": "Industrieparkstraße", "housenumber": "13", "postcode": "9300", "place": "St. Veit an der Glan", "lat": 46.7333137, "lon": 14.37287, "tags": {"addr:city": "St. Veit an der Glan", "addr:housenumber": "13", "addr:postcode": "9300", "addr:street": "Industrieparkstraße", "name": "S&K Brunnenbohr GmbH", "office": "company", "phone": "+43 4212 71887", "website": "https://www.brunnenbohr.at/"}, "content": "S&K Brunnenbohr GmbH\nKategorie: office:company\nAdresse: Industrieparkstraße 13, 9300 St. Veit an der Glan\nOrt: St. Veit an der Glan\nPLZ: 9300\nKoordinaten: 46.733314, 14.372870\nTags: office=company, phone=+43 4212 71887, website=https://www.brunnenbohr.at/", "doc_type": "pois"}
{"source": "OSM", "region": "Kärnten", "osm_type": "node", "osm_id": 4546228889, "name": "Billa", "category": "shop:supermarket", "address": "Hauptplatz 19, 9300 St. Veit an der Glan", "street": "Hauptplatz", "housenumber": "19", "postcode": "9300", "place": "St. Veit an der Glan", "lat": 46.7667938, "lon": 14.3574625, "tags": {"addr:city": "St. Veit an der Glan", "addr:housenumber": "19", "addr:postcode": "9300", "addr:street": "Hauptplatz", "brand": "Billa", "name": "Billa", "shop": "supermarket"}, "content": "Billa\nKategorie: shop:supermarket\nAdresse: Hauptplatz 19, 9300 St. Veit an der Glan\nOrt: St. Veit an der Glan\nPLZ: 9300\nKoordinaten: 46.766794, 14.357463\nTags: shop=supermarket, brand=Billa", "doc_type": "pois"}
{"source": "OSM", "region": "Kärnten", "osm_type": "node", "osm_id": 4959865336, "name": "TanzCenter Schellander", "category": "leisure:dance", "address": "Hauptplatz 24, 9300 St Veit an der Glan", "street": "Hauptplatz", "housenumber": "24", "postcode": "9300", "place": "St Veit an der Glan", "lat": 46.7664963, "lon": 14.3569329, "tags": {"addr:city": "St Veit an der Glan", "addr:housenumber": "24", "addr:postcode": "9300", "addr:street": "Hauptplatz", "leisure": "dance", "name": "TanzCenter Schellander", "phone": "+43664 2114115", "website": "http://tanzcenter-schellander.at/"}, "content": "TanzCenter Schellander\nKategorie: leisure:dance\nAdresse: Hauptplatz 24, 9300 St Veit an der Glan\nOrt: St Veit an der Glan\nPLZ: 9300\nKoordinaten: 46.766496, 14.356933\nTags: phone=+43664 2114115, website=http://tanzcenter-schellander.at/", "doc_type": "pois"}
{"source": "OSM", "region": "Kärnten", "osm_type": "node", "osm_id": 5143746659, "name": "ARBÖ Prüfzentrum St. Veit/Glan", "category": "shop:car_repair", "address": "Villacher Straße 59, 9300 St. Veit an der Glan", "street": "Villacher Straße", "housenumber": "59", "postcode": "9300", "place": "St. Veit an der Glan", "lat": 46.7580433, "lon": 14.3439643, "tags": {"addr:city": "St. Veit an der Glan", "addr:housenumber": "59", "addr:postcode": "9300", "addr:street": "Villacher Straße", "name": "ARBÖ Prüfzentrum St. Veit/Glan", "operator": "ARBÖ", "shop": "car_repair"}, "content": "ARBÖ Prüfzentrum St. Veit/Glan\nKategorie: shop:car_repair\nAdresse: Villacher Straße 59, 9300 St. Veit an der Glan\nOrt: St. Veit an der Glan\nPLZ: 9300\nKoordinaten: 46.758043, 14.343964\nTags: shop=car_repair, operator=ARBÖ", "doc_type": "pois"}
{"source": "OSM", "region": "Kärnten", "osm_type": "node", "osm_id": 5230213121, "name": "Das Futterhaus", "category": "shop:pet", "address": "Völkermarkter Straße 1, 9300 St. Veit an der Glan", "street": "Völkermarkter Straße", "housenumber": "1", "postcode": "9300", "place": "St. Veit an der Glan", "lat": 46.767552, "lon": 14.3621717, "tags": {"addr:city": "St. Veit an der Glan", "addr:housenumber": "1", "addr:postcode": "9300", "addr:street": "Völkermarkter Straße", "brand": "Das Futterhaus", "name": "Das Futterhaus", "operator": "Tierbedarf Zappi e.U.", "phone": "+43421230535", "shop": "pet", "website": "https://www.dasfutterhaus.at/stveit/"}, "content": "Das Futterhaus\nKategorie: shop:pet\nAdresse: Völkermarkter Straße 1, 9300 St. Veit an der Glan\nOrt: St. Veit an der Glan\nPLZ: 9300\nKoordinaten: 46.767552, 14.362172\nTags: shop=pet, operator=Tierbedarf Zappi e.U., brand=Das Futterhaus, phone=+43421230535, website=https://www.dasfutterhaus.at/stveit/", "doc_type": "pois"}
