{"source": "OSM", "region": "Kärnten", "osm_type": "node", "osm_id": 356062751, "name": "Schneeflockerl", "category": "amenity:restaurant", "address": "84, Sankt Michael im Lungau", "street": null, "housenumber": "84", "postcode": null, "place": "Sankt Michael im Lungau", "lat": 47.0609559, "lon": 13.6050159, "tags": {"addr:city": "Sankt Michael im Lungau", "addr:housenumber": "84", "addr:place": "Katschberghöhe", "amenity": "restaurant", "name": "Schneeflockerl"}, "content": "Schneeflockerl\nKategorie: amenity:restaurant\nAdresse: 84, Sankt Michael im Lungau\nOrt: Sankt Michael im Lungau\nKoordinaten: 47.060956, 13.605016\nTags: amenity=restaurant", "doc_type": "addresses"}
{"source": "OSM", "region": "Kärnten", "osm_type": "node", "osm_id": 1107650109, "name": "Alpina", "category": "tourism:hotel", "address": "330, 5582 Sankt Michael im Lungau", "street": null, "housenumber": "330", "postcode": "5582", "place": "Sankt Michael im Lungau", "lat": 47.0587817, "lon": 13.6146757, "tags": {"addr:city": "Sankt Michael im Lungau", "addr:housenumber": "330", "addr:place": "Katschberghöhe", "addr:postcode": "5582", "name": "Alpina", "tourism": "hotel"}, "content": "Alpina\nKategorie: tourism:hotel\nAdresse: 330, 5582 Sankt Michael im Lungau\nOrt: Sankt Michael im Lungau\nPLZ: 5582\nKoordinaten: 47.058782, 13.614676", "doc_type": "addresses"}
{"source": "OSM", "region": "Kärnten", "osm_type": "node", "osm_id": 1107650991, "name": "Alpina", "category": "amenity:restaurant", "address": "330, 5582 Sankt Michael im Lungau", "street": null, "housenumber": "330", "postcode": "5582", "place": "Sankt Michael im Lungau", "lat": 47.0586695, "lon": 13.6147146, "tags": {"addr:city": "Sankt Michael im Lungau", "addr:housenumber": "330", "addr:place": "Katschberghöhe", "addr:postcode": "5582", "amenity": "restaurant", "name": "Alpina"}, "content": "Alpina\nKategorie: amenity:restaurant\nAdresse: 330, 5582 Sankt Michael im Lungau\nOrt: Sankt Michael im Lungau\nPLZ: 5582\nKoordinaten: 47.058670, 13.614715\nTags: amenity=restaurant", "doc_type": "addresses"}
{"source": "OSM", "region": "Kärnten", "osm_type": "node", "osm_id": 3069701430, "name": "Aparthotel Hutter", "category": "tourism:hotel", "address": "423, Sankt Michael im Lungau", "street": null, "housenumber": "423", "postcode": null, "place": "Sankt Michael im Lungau", "lat": 47.0597522, "lon": 13.6167096, "tags": {"addr:city": "Sankt Michael im Lungau", "addr:housenumber": "423", "addr:place": "Katschberghöhe", "name": "Aparthotel Hutter", "phone": "+43 4734 83016", "tourism": "hotel"}, "content": "Aparthotel Hutter\nKategorie: tourism:hotel\nAdresse: 423, Sankt Michael im Lungau\nOrt: Sankt Michael im Lungau\nKoordinaten: 47.059752, 13.616710\nTags: phone=+43 4734 83016", "doc_type": "addresses"}
{"source": "OSM", "region": "Kärnten", "osm_type": "node", "osm_id": 3069701432, "name": "Aparthotel Das Alpenhaus Katschberg", "category": "tourism:hotel", "address": "Katschberghöhe 333, 5582 Sankt Michael im Lungau", "street": "Katschberghöhe", "housenumber": "333", "postcode": "5582", "place": "Sankt Michael im Lungau", "lat": 47.0596977, "lon": 13.6144247, "tags": {"addr:city": "Sankt Michael im Lungau", "addr:housenumber": "333", "addr:postcode": "5582", "addr:street": "Katschberghöhe", "name": "Aparthotel Das Alpenhaus Katschberg", "phone": "+43 4734 4910", "tourism": "hotel"}, "content": "Aparthotel Das Alpenhaus Katschberg\nKategorie: tourism:hotel\nAdresse: Katschberghöhe 333, 5582 Sankt Michael im Lungau\nOrt: Sankt Michael im Lungau\nPLZ: 5582\nKoordinaten: 47.059698, 13.614425\nTags: phone=+43 4734 4910", "doc_type": "addresses"}
{"source": "OSM", "region": "Kärnten", "osm_type": "node", "osm_id": 3069726356, "name": "Speckalm", "category": "tourism:apartment", "address": "425, 5582 Sankt Michael im Lungau", "street": null, "housenumber": "425", "postcode": "5582", "place": "Sankt Michael im Lungau", "lat": 47.0582912, "lon": 13.6136257, "tags": {"addr:city": "Sankt Michael im Lungau", "addr:housenumber": "425", "addr:place": "Katschberg", "addr:postcode": "5582", "name": "Speckalm", "tourism": "apartment"}, "content": "Speckalm\nKategorie: tourism:apartment\nAdresse: 425, 5582 Sankt Michael im Lungau\nOrt: Sankt Michael im Lungau\nPLZ: 5582\nKoordinaten: 47.058291, 13.613626", "doc_type": "addresses"}
{"source": "OSM", "region": "Kärnten", "osm_type": "node", "osm_id": 3069749955, "name": "Alpengasthof Bacher", "category": "amenity:restaurant", "address": "42, Sankt Michael im Lungau", "street": null, "housenumber": "42", "postcode": null, "place": "Sankt Michael im Lungau", "lat": 47.0610549, "lon": 13.6058269, "tags": {"addr:city": "Sankt Michael im Lungau", "addr:housenumber": "42", "addr:place": "Katschberghöhe", "amenity": "restaurant", "name": "Alpengasthof Bacher", "operator": "Josef Kerschhaggl GmbH", "phone": "+43 4734 318", "tourism": "hotel"}, "content": "Alpengasthof Bacher\nKategorie: amenity:restaurant\nAdresse: 42, Sankt Michael im Lungau\nOrt: Sankt Michael im Lungau\nKoordinaten: 47.061055, 13.605827\nTags: amenity=restaurant, operator=Josef Kerschhaggl GmbH, phone=+43 4734 318", "doc_type": "addresses"}
{"source": "OSM", "region": "Kärnten", "osm_type": "node", "osm_id": 3766825906, "name": "Sportalm Friedrich", "category": "shop:sports", "address": "332, 5582 Sankt Michael im Lungau", "street": null, "housenumber": "332", "postcode": "5582", "place": "Sankt Michael im Lungau", "lat": 47.0589801, "lon": 13.6145489, "tags": {"addr:city": "Sankt Michael im Lungau", "addr:housenumber": "332", "addr:place": "Katschberg", "addr:postcode": "5582", "name": "Sportalm Friedrich", "shop": "sports"}, "content": "Sportalm Friedrich\nKategorie: shop:sports\nAdresse: 332, 5582 Sankt Michael im Lungau\nOrt: Sankt Michael im Lungau\nPLZ: 5582\nKoordinaten: 47.058980, 13.614549\nTags: shop=sports", "doc_type": "addresses"}
{"source": "OSM", "region": "Kärnten", "osm_type": "node", "osm_id": 356062751, "name": "Schneeflockerl", "category": "amenity:restaurant", "address": "84, Sankt Michael im Lungau", "street": null, "housenumber": "84", "postcode": null, "place": "Sankt Michael im Lungau", "lat": 47.0609559, "lon": 13.6050159, "tags": {"addr:city": "Sankt Michael im Lungau", "addr:housenumber": "84", "addr:place": "Katschberghöhe", "amenity": "restaurant", "name": "Schneeflockerl"}, "content": "Schneeflockerl\nKategorie: amenity:restaurant\nAdresse: 84, Sankt Michael im Lungau\nOrt: Sankt Michael im Lungau\nKoordinaten: 47.060956, 13.605016\nTags: amenity=restaurant", "doc_type": "pois"}
{"source": "OSM", "region": "Kärnten", "osm_type": "node", "osm_id": 1107650109, "name": "Alpina", "category": "tourism:hotel", "address": "330, 5582 Sankt Michael im Lungau", "street": null, "housenumber": "330", "postcode": "5582", "place": "Sankt Michael im Lungau", "lat": 47.0587817, "lon": 13.6146757, "tags": {"addr:city": "Sankt Michael im Lungau", "addr:housenumber": "330", "addr:place": "Katschberghöhe", "addr:postcode": "5582", "name": "Alpina", "tourism": "hotel"}, "content": "Alpina\nKategorie: tourism:hotel\nAdresse: 330, 5582 Sankt Michael im Lungau\nOrt: Sankt Michael im Lungau\nPLZ: 5582\nKoordinaten: 47.058782, 13.614676", "doc_type": "pois"}
{"source": "OSM", "region": "Kärnten", "osm_type": "node", "osm_id": 1107650991, "name": "Alpina", "category": "amenity:restaurant", "address": "330, 5582 Sankt Michael im Lungau", "street": null, "housenumber": "330", "postcode": "5582", "place": "Sankt Michael im Lungau", "lat": 47.0586695, "lon": 13.6147146, "tags": {"addr:city": "Sankt Michael im Lungau", "addr:housenumber": "330", "addr:place": "Katschberghöhe", "addr:postcode": "5582", "amenity": "restaurant", "name": "Alpina"}, "content": "Alpina\nKategorie: amenity:restaurant\nAdresse: 330, 5582 Sankt Michael im Lungau\nOrt: Sankt Michael im Lungau\nPLZ: 5582\nKoordinaten: 47.058670, 13.614715\nTags: amenity=restaurant", "doc_type": "pois"}
{"source": "OSM", "region": "Kärnten", "osm_type": "node", "osm_id": 3069701430, "name": "Aparthotel Hutter", "category": "tourism:hotel", "address": "423, Sankt Michael im Lungau", "street": null, "housenumber": "423", "postcode": null, "place": "Sankt Michael im Lungau", "lat": 47.0597522, "lon": 13.6167096, "tags": {"addr:city": "Sankt Michael im Lungau", "addr:housenumber": "423", "addr:place": "Katschberghöhe", "name": "Aparthotel Hutter", "phone": "+43 4734 83016", "tourism": "hotel"}, "content": "Aparthotel Hutter\nKategorie: tourism:hotel\nAdresse: 423, Sankt Michael im Lungau\nOrt: Sankt Michael im Lungau\nKoordinaten: 47.059752, 13.616710\nTags: phone=+43 4734 83016", "doc_type": "pois"}
{"source": "OSM", "region": "Kärnten", "osm_type": "node", "osm_id": 3069701432, "name": "Aparthotel Das Alpenhaus Katschberg", "category": "tourism:hotel", "address": "Katschberghöhe 333, 5582 Sankt Michael im Lungau", "street": "Katschberghöhe", "housenumber": "333", "postcode": "5582", "place": "Sankt Michael im Lungau", "lat": 47.0596977, "lon": 13.6144247, "tags": {"addr:city": "Sankt Michael im Lungau", "addr:housenumber": "333", "addr:postcode": "5582", "addr:street": "Katschberghöhe", "name": "Aparthotel Das Alpenhaus Katschberg", "phone": "+43 4734 4910", "tourism": "hotel"}, "content": "Aparthotel Das Alpenhaus Katschberg\nKategorie: tourism:hotel\nAdresse: Katschberghöhe 333, 5582 Sankt Michael im Lungau\nOrt: Sankt Michael im Lungau\nPLZ: 5582\nKoordinaten: 47.059698, 13.614425\nTags: phone=+43 4734 4910", "doc_type": "pois"}
{"source": "OSM", "region": "Kärnten", "osm_type": "node", "osm_id": 3069726356, "name": "Speckalm", "category": "tourism:apartment", "address": "425, 5582 Sankt Michael im Lungau", "street": null, "housenumber": "425", "postcode": "5582", "place": "Sankt Michael im Lungau", "lat": 47.0582912, "lon": 13.6136257, "tags": {"addr:city": "Sankt Michael im Lungau", "addr:housenumber": "425", "addr:place": "Katschberg", "addr:postcode": "5582", "name": "Speckalm", "tourism": "apartment"}, "content": "Speckalm\nKategorie: tourism:apartment\nAdresse: 425, 5582 Sankt Michael im Lungau\nOrt: Sankt Michael im Lungau\nPLZ: 5582\nKoordinaten: 47.058291, 13.613626", "doc_type": "pois"}
{"source": "OSM", "region": "Kärnten", "osm_type": "node", "osm_id": 3069749955, "name": "Alpengasthof Bacher", "category": "amenity:restaurant", "address": "42, Sankt Michael im Lungau", "street": null, "housenumber": "42", "postcode": null, "place": "Sankt Michael im Lungau", "lat": 47.0610549, "lon": 13.6058269, "tags": {"addr:city": "Sankt Michael im Lungau", "addr:housenumber": "42", "addr:place": "Katschberghöhe", "amenity": "restaurant", "name": "Alpengasthof Bacher", "operator": "Josef Kerschhaggl GmbH", "phone": "+43 4734 318", "tourism": "hotel"}, "content": "Alpengasthof Bacher\nKategorie: amenity:restaurant\nAdresse: 42, Sankt Michael im Lungau\nOrt: Sankt Michael im Lungau\nKoordinaten: 47.061055, 13.605827\nTags: amenity=restaurant, operator=Josef Kerschhaggl GmbH, phone=+43 4734 318", "doc_type": "pois"}
{"source": "OSM", "region": "Kärnten", "osm_type": "node", "osm_id": 3766825906, "name": "Sportalm Friedrich", "category": "shop:sports", "address": "332, 5582 Sankt Michael im Lungau", "street": null, "housenumber": "332", "postcode": "5582", "place": "Sankt Michael im Lungau", "lat": 47.0589801, "lon": 13.6145489, "tags": {"addr:city": "Sankt Michael im Lungau", "addr:housenumber": "332", "addr:place": "Katschberg", "addr:postcode": "5582", "name": "Sportalm Friedrich", "shop": "sports"}, "content": "Sportalm Friedrich\nKategorie: shop:sports\nAdresse: 332, 5582 Sankt Michael im Lungau\nOrt: Sankt Michael im Lungau\nPLZ: 5582\nKoordinaten: 47.058980, 13.614549\nTags: shop=sports", "doc_type": "pois"}
