{"source": "OSM", "region": "Kärnten", "osm_type": "node", "osm_id": 444624630, "name": "Hofer", "category": "shop:supermarket", "address": "Hauptstraße 70, 9210 Pörtschach am Wörther See", "street": "Hauptstraße", "housenumber": "70", "postcode": "9210", "place": "Pörtschach am Wörther See", "lat": 46.6341498, "lon": 14.1575752, "tags": {"addr:city": "Pörtschach am Wörther See", "addr:housenumber": "70", "addr:postcode": "9210", "addr:street": "Hauptstraße", "brand": "Hofer", "name": "Hofer", "shop": "supermarket"}, "content": "Hofer\nKategorie: shop:supermarket\nAdresse: Hauptstraße 70, 9210 Pörtschach am Wörther See\nOrt: Pörtschach am Wörther See\nPLZ: 9210\nKoordinaten: 46.634150, 14.157575\nTags: shop=supermarket, brand=Hofer", "doc_type": "addresses"}
{"source": "OSM", "region": "Kärnten", "osm_type": "node", "osm_id": 445304526, "name": "Hotel Schloss Leonstain", "category": "tourism:hotel", "address": "Hauptstraße 228, 9210 Pörtschach am Wörther See", "street": "Hauptstraße", "housenumber": "228", "postcode": "9210", "place": "Pörtschach am Wörther See", "lat": 46.6366689, "lon": 14.1384409, "tags": {"addr:city": "Pörtschach am Wörther See", "addr:housenumber": "228", "addr:postcode": "9210", "addr:street": "Hauptstraße", "name": "Hotel Schloss Leonstain", "tourism": "hotel", "website": "https://www.leonstain.at/"}, "content": "Hotel Schloss Leonstain\nKategorie: tourism:hotel\nAdresse: Hauptstraße 228, 9210 Pörtschach am Wörther See\nOrt: Pörtschach am Wörther See\nPLZ: 9210\nKoordinaten: 46.636669, 14.138441\nTags: website=https://www.leonstain.at/", "doc_type": "addresses"}
{"source": "OSM", "region": "Kärnten", "osm_type": "node", "osm_id": 1388793554, "name": "barcafe mec's", "category": "amenity:bar", "address": "Hauptstraße 204, 9210 Pörtschach am Wörther See", "street": "Hauptstraße", "housenumber": "204", "postcode": "9210", "place": "Pörtschach am Wörther See", "lat": 46.6363644, "lon": 14.1406508, "tags": {"addr:city": "Pörtschach am Wörther See", "addr:housenumber": "204", "addr:postcode": "9210", "addr:street": "Hauptstraße", "amenity": "bar", "name": "barcafe mec's"}, "content": "barcafe mec's\nKategorie: amenity:bar\nAdresse: Hauptstraße 204, 9210 Pörtschach am Wörther See\nOrt: Pörtschach am Wörther See\nPLZ: 9210\nKoordinaten: 46.636364, 14.140651\nTags: amenity=bar", "doc_type": "addresses"}
{"source": "OSM", "region": "Kärnten", "osm_type": "node", "osm_id": 2419685511, "name": "Polizeiinspektion Pörtschach am Wörtersee", "category": "amenity:police", "address": "Postgasse 2, 9210 Pörtschach am Wörther See", "street": "Postgasse", "housenumber": "2", "postcode": "9210", "place": "Pörtschach am Wörther See", "lat": 46.6348369, "lon": 14.1467243, "tags": {"addr:city": "Pörtschach am Wörther See", "addr:housenumber": "2", "addr:postcode": "9210", "addr:street": "Postgasse", "amenity": "police", "name": "Polizeiinspektion Pörtschach am Wörtersee", "phone": "+43 59133 2114-100"}, "content": "Polizeiinspektion Pörtschach am Wörtersee\nKategorie: amenity:police\nAdresse: Postgasse 2, 9210 Pörtschach am Wörther See\nOrt: Pörtschach am Wörther See\nPLZ: 9210\nKoordinaten: 46.634837, 14.146724\nTags: amenity=police, phone=+43 59133 2114-100", "doc_type": "addresses"}
{"source": "OSM", "region": "Kärnten", "osm_type": "node", "osm_id": 2422739925, "name": "Das JO", "category": "tourism:hotel", "address": "Kochwirtplatz 4, 9210 Pörtschach am Wörther See", "street": "Kochwirtplatz", "housenumber": "4", "postcode": "9210", "place": "Pörtschach am Wörther See", "lat": 46.6291969, "lon": 14.1639015, "tags": {"addr:city": "Pörtschach am Wörther See", "addr:housenumber": "4", "addr:postcode": "9210", "addr:street": "Kochwirtplatz", "brand": "Seehotel - Das JO", "name": "Das JO", "phone": "+43 (0) 4272 2319", "tourism": "hotel", "website": "https://www.das-jo.at/"}, "content": "Das JO\nKategorie: tourism:hotel\nAdresse: Kochwirtplatz 4, 9210 Pörtschach am Wörther See\nOrt: Pörtschach am Wörther See\nPLZ: 9210\nKoordinaten: 46.629197, 14.163901\nTags: brand=Seehotel - Das JO, phone=+43 (0) 4272 2319, website=https://www.das-jo.at/", "doc_type": "addresses"}
{"source": "OSM", "region": "Kärnten", "osm_type": "node", "osm_id": 2435742801, "name": "Hotel Kärntnerhof", "category": "tourism:hotel", "address": "Hauptstraße 217, 9210 Pörtschach am Wörther See", "street": "Hauptstraße", "housenumber": "217", "postcode": "9210", "place": "Pörtschach am Wörther See", "lat": 46.6364847, "lon": 14.1375959, "tags": {"addr:city": "Pörtschach am Wörther See", "addr:housenumber": "217", "addr:postcode": "9210", "addr:street": "Hauptstraße", "name": "Hotel Kärntnerhof", "tourism": "hotel", "website": "https://www.strandhotel-kaerntnerhof.at/"}, "content": "Hotel Kärntnerhof\nKategorie: tourism:hotel\nAdresse: Hauptstraße 217, 9210 Pörtschach am Wörther See\nOrt: Pörtschach am Wörther See\nPLZ: 9210\nKoordinaten: 46.636485, 14.137596\nTags: website=https://www.strandhotel-kaerntnerhof.at/", "doc_type": "addresses"}
{"source": "OSM", "region": "Kärnten", "osm_type": "node", "osm_id": 3398939334, "name": "Tabak Trafik", "category": "shop:tobacco", "address": "Hauptstraße 200, 9210 Pörtschach am Wörther See", "street": "Hauptstraße", "housenumber": "200", "postcode": "9210", "place": "Pörtschach am Wörther See", "lat": 46.6361345, "lon": 14.1417527, "tags": {"addr:city": "Pörtschach am Wörther See", "addr:housenumber": "200", "addr:postcode": "9210", "addr:street": "Hauptstraße", "name": "Tabak Trafik", "shop": "tobacco"}, "content": "Tabak Trafik\nKategorie: shop:tobacco\nAdresse: Hauptstraße 200, 9210 Pörtschach am Wörther See\nOrt: Pörtschach am Wörther See\nPLZ: 9210\nKoordinaten: 46.636134, 14.141753\nTags: shop=tobacco", "doc_type": "addresses"}
{"source": "OSM", "region": "Kärnten", "osm_type": "node", "osm_id": 3398939335, "name": "Tabak Trafik", "category": "shop:tobacco", "address": "Hauptstraße 161, 9210 Pörtschach am Wörther See", "street": "Hauptstraße", "housenumber": "161", "postcode": "9210", "place": "Pörtschach am Wörther See", "lat": 46.6353395, "lon": 14.1453482, "tags": {"addr:city": "Pörtschach am Wörther See", "addr:housenumber": "161", "addr:postcode": "9210", "addr:street": "Hauptstraße", "name": "Tabak Trafik", "shop": "tobacco"}, "content": "Tabak Trafik\nKategorie: shop:tobacco\nAdresse: Hauptstraße 161, 9210 Pörtschach am Wörther See\nOrt: Pörtschach am Wörther See\nPLZ: 9210\nKoordinaten: 46.635340, 14.145348\nTags: shop=tobacco", "doc_type": "addresses"}
{"source": "OSM", "region": "Kärnten", "osm_type": "node", "osm_id": 3398939343, "name": "Schiessl Kälteges.m.b.H", "category": "craft:hvac", "address": "Gaisrückenstraße 1, 9210 Pörtschach am Wörther See", "street": "Gaisrückenstraße", "housenumber": "1", "postcode": "9210", "place": "Pörtschach am Wörther See", "lat": 46.634295, "lon": 14.1562738, "tags": {"addr:city": "Pörtschach am Wörther See", "addr:housenumber": "1", "addr:postcode": "9210", "addr:street": "Gaisrückenstraße", "craft": "hvac", "name": "Schiessl Kälteges.m.b.H"}, "content": "Schiessl Kälteges.m.b.H\nKategorie: craft:hvac\nAdresse: Gaisrückenstraße 1, 9210 Pörtschach am Wörther See\nOrt: Pörtschach am Wörther See\nPLZ: 9210\nKoordinaten: 46.634295, 14.156274", "doc_type": "addresses"}
{"source": "OSM", "region": "Kärnten", "osm_type": "node", "osm_id": 3398941093, "name": null, "category": "tourism:information", "address": "Hauptstraße 153, 9210 Pörtschach am Wörther See", "street": "Hauptstraße", "housenumber": "153", "postcode": "9210", "place": "Pörtschach am Wörther See", "lat": 46.635107, "lon": 14.1462495, "tags": {"addr:city": "Pörtschach am Wörther See", "addr:housenumber": "153", "addr:postcode": "9210", "addr:street": "Hauptstraße", "tourism": "information"}, "content": "Kategorie: tourism:information\nAdresse: Hauptstraße 153, 9210 Pörtschach am Wörther See\nOrt: Pörtschach am Wörther See\nPLZ: 9210\nKoordinaten: 46.635107, 14.146249", "doc_type": "addresses"}
{"source": "OSM", "region": "Kärnten", "osm_type": "node", "osm_id": 3400285961, "name": "Dr. Kimeswenger-Jobst", "category": "amenity:doctors", "address": "Karlstraße 5, 9210 Pörtschach am Wörther See", "street": "Karlstraße", "housenumber": "5", "postcode": "9210", "place": "Pörtschach am Wörther See", "lat": 46.6350657, "lon": 14.1433781, "tags": {"addr:city": "Pörtschach am Wörther See", "addr:housenumber": "5", "addr:postcode": "9210", "addr:street": "Karlstraße", "amenity": "doctors", "healthcare": "doctor", "name": "Dr. Kimeswenger-Jobst", "office": "physician", "phone": "04272 3600"}, "content": "Dr. Kimeswenger-Jobst\nKategorie: amenity:doctors\nAdresse: Karlstraße 5, 9210 Pörtschach am Wörther See\nOrt: Pörtschach am Wörther See\nPLZ: 9210\nKoordinaten: 46.635066, 14.143378\nTags: amenity=doctors, healthcare=doctor, office=physician, phone=04272 3600", "doc_type": "addresses"}
{"source": "OSM", "region": "Kärnten", "osm_type": "node", "osm_id": 3400291686, "name": "BKS Bank", "category": "amenity:bank", "address": "Hauptstraße 204, 9210 Pörtschach am Wörther See", "street": "Hauptstraße", "housenumber": "204", "postcode": "9210", "place": "Pörtschach am Wörther See", "lat": 46.6362797, "lon": 14.1408987, "tags": {"addr:city": "Pörtschach am Wörther See", "addr:housenumber": "204", "addr:postcode": "9210", "addr:street": "Hauptstraße", "amenity": "bank", "name": "BKS Bank"}, "content": "BKS Bank\nKategorie: amenity:bank\nAdresse: Hauptstraße 204, 9210 Pörtschach am Wörther See\nOrt: Pörtschach am Wörther See\nPLZ: 9210\nKoordinaten: 46.636280, 14.140899\nTags: amenity=bank", "doc_type": "addresses"}
{"source": "OSM", "region": "Kärnten", "osm_type": "node", "osm_id": 3410784836, "name": "Elektro Gulle", "category": "shop:electronics", "address": "Hauptstraße 198, 9210 Pörtschach am Wörther See", "street": "Hauptstraße", "housenumber": "198", "postcode": "9210", "place": "Pörtschach am Wörther See", "lat": 46.6360669, "lon": 14.1420305, "tags": {"addr:city": "Pörtschach am Wörther See", "addr:housenumber": "198", "addr:postcode": "9210", "addr:street": "Hauptstraße", "name": "Elektro Gulle", "shop": "electronics"}, "content": "Elektro Gulle\nKategorie: shop:electronics\nAdresse: Hauptstraße 198, 9210 Pörtschach am Wörther See\nOrt: Pörtschach am Wörther See\nPLZ: 9210\nKoordinaten: 46.636067, 14.142031\nTags: shop=electronics", "doc_type": "addresses"}
{"source": "OSM", "region": "Kärnten", "osm_type": "node", "osm_id": 3411581807, "name": "Sione Bikes & Framesets", "category": "shop:bicycle", "address": "Hauptstraße 187, 9210 Pörtschach am Wörther See", "street": "Hauptstraße", "housenumber": "187", "postcode": "9210", "place": "Pörtschach am Wörther See", "lat": 46.6358258, "lon": 14.1422907, "tags": {"addr:city": "Pörtschach am Wörther See", "addr:housenumber": "187", "addr:postcode": "9210", "addr:street": "Hauptstraße", "name": "Sione Bikes & Framesets", "shop": "bicycle", "website": "https://www.sione-bikes.com/index.html"}, "content": "Sione Bikes & Framesets\nKategorie: shop:bicycle\nAdresse: Hauptstraße 187, 9210 Pörtschach am Wörther See\nOrt: Pörtschach am Wörther See\nPLZ: 9210\nKoordinaten: 46.635826, 14.142291\nTags: shop=bicycle, website=https://www.sione-bikes.com/index.html", "doc_type": "addresses"}
{"source": "OSM", "region": "Kärnten", "osm_type": "node", "osm_id": 3411599399, "name": "Büro Baumeister DIEXER", "category": "office:yes", "address": "Hauptstraße 220, 9210 Pörtschach am Wörther See", "street": "Hauptstraße", "housenumber": "220", "postcode": "9210", "place": "Pörtschach am Wörther See", "lat": 46.636506, "lon": 14.1392771, "tags": {"addr:city": "Pörtschach am Wörther See", "addr:housenumber": "220", "addr:postcode": "9210", "addr:street": "Hauptstraße", "name": "Büro Baumeister DIEXER", "office": "yes"}, "content": "Büro Baumeister DIEXER\nKategorie: office:yes\nAdresse: Hauptstraße 220, 9210 Pörtschach am Wörther See\nOrt: Pörtschach am Wörther See\nPLZ: 9210\nKoordinaten: 46.636506, 14.139277\nTags: office=yes", "doc_type": "addresses"}
{"source": "OSM", "region": "Kärnten", "osm_type": "node", "osm_id": 3411624056, "name": "Blumenatelier Zepitz", "category": "shop:florist", "address": "Hauptstraße 216, 9210 Pörtschach am Wörther See", "street": "Hauptstraße", "housenumber": "216", "postcode": "9210", "place": "Pörtschach am Wörther See", "lat": 46.6364069, "lon": 14.1399583, "tags": {"addr:city": "Pörtschach am Wörther See", "addr:housenumber": "216", "addr:postcode": "9210", "addr:street": "Hauptstraße", "name": "Blumenatelier Zepitz", "shop": "florist"}, "content": "Blumenatelier Zepitz\nKategorie: shop:florist\nAdresse: Hauptstraße 216, 9210 Pörtschach am Wörther See\nOrt: Pörtschach am Wörther See\nPLZ: 9210\nKoordinaten: 46.636407, 14.139958\nTags: shop=florist", "doc_type": "addresses"}
{"source": "OSM", "region": "Kärnten", "osm_type": "node", "osm_id": 3411648700, "name": "Cocuni Mode", "category": "shop:clothes", "address": "Hauptstraße 161, 9210 Pörtschach am Wörther See", "street": "Hauptstraße", "housenumber": "161", "postcode": "9210", "place": "Pörtschach am Wörther See", "lat": 46.6353518, "lon": 14.1451805, "tags": {"addr:city": "Pörtschach am Wörther See", "addr:housenumber": "161", "addr:postcode": "9210", "addr:street": "Hauptstraße", "name": "Cocuni Mode", "shop": "clothes", "website": "https://cocuni.at/"}, "content": "Cocuni Mode\nKategorie: shop:clothes\nAdresse: Hauptstraße 161, 9210 Pörtschach am Wörther See\nOrt: Pörtschach am Wörther See\nPLZ: 9210\nKoordinaten: 46.635352, 14.145181\nTags: shop=clothes, website=https://cocuni.at/", "doc_type": "addresses"}
{"source": "OSM", "region": "Kärnten", "osm_type": "node", "osm_id": 4320097266, "name": null, "category": null, "address": "Angererweg 5a, 9210 Pörtschach am Wörther See", "street": "Angererweg", "housenumber": "5a", "postcode": "9210", "place": "Pörtschach am Wörther See", "lat": 46.6248999, "lon": 14.178308, "tags": {"addr:city": "Pörtschach am Wörther See", "addr:housenumber": "5a", "addr:postcode": "9210", "addr:street": "Angererweg"}, "content": "Adresse: Angererweg 5a, 9210 Pörtschach am Wörther See\nOrt: Pörtschach am Wörther See\nPLZ: 9210\nKoordinaten: 46.624900, 14.178308", "doc_type": "addresses"}
{"source": "OSM", "region": "Kärnten", "osm_type": "node", "osm_id": 4320097267, "name": null, "category": null, "address": "Angererweg 5b, 9210 Pörtschach am Wörther See", "street": "Angererweg", "housenumber": "5b", "postcode": "9210", "place": "Pörtschach am Wörther See", "lat": 46.6248326, "lon": 14.1783896, "tags": {"addr:city": "Pörtschach am Wörther See", "addr:housenumber": "5b", "addr:postcode": "9210", "addr:street": "Angererweg"}, "content": "Adresse: Angererweg 5b, 9210 Pörtschach am Wörther See\nOrt: Pörtschach am Wörther See\nPLZ: 9210\nKoordinaten: 46.624833, 14.178390", "doc_type": "addresses"}
{"source": "OSM", "region": "Kärnten", "osm_type": "node", "osm_id": 4320097268, "name": null, "category": null, "address": "Angererweg 5c, 9210 Pörtschach am Wörther See", "street": "Angererweg", "housenumber": "5c", "postcode": "9210", "place": "Pörtschach am Wörther See", "lat": 46.6247618, "lon": 14.1784754, "tags": {"addr:city": "Pörtschach am Wörther See", "addr:housenumber": "5c", "addr:postcode": "9210", "addr:street": "Angererweg"}, "content": "Adresse: Angererweg 5c, 9210 Pörtschach am Wörther See\nOrt: Pörtschach am Wörther See\nPLZ: 9210\nKoordinaten: 46.624762, 14.178475", "doc_type": "addresses"}
{"source": "OSM", "region": "Kärnten", "osm_type": "node", "osm_id": 4320097269, "name": null, "category": null, "address": "Angererweg 5d, 9210 Pörtschach am Wörther See", "street": "Angererweg", "housenumber": "5d", "postcode": "9210", "place": "Pörtschach am Wörther See", "lat": 46.6246749, "lon": 14.1785808, "tags": {"addr:city": "Pörtschach am Wörther See", "addr:housenumber": "5d", "addr:postcode": "9210", "addr:street": "Angererweg"}, "content": "Adresse: Angererweg 5d, 9210 Pörtschach am Wörther See\nOrt: Pörtschach am Wörther See\nPLZ: 9210\nKoordinaten: 46.624675, 14.178581", "doc_type": "addresses"}
{"source": "OSM", "region": "Kärnten", "osm_type": "node", "osm_id": 4320097270, "name": null, "category": null, "address": "Angererweg 5e, 9210 Pörtschach am Wörther See", "street": "Angererweg", "housenumber": "5e", "postcode": "9210", "place": "Pörtschach am Wörther See", "lat": 46.6245909, "lon": 14.1786827, "tags": {"addr:city": "Pörtschach am Wörther See", "addr:housenumber": "5e", "addr:postcode": "9210", "addr:street": "Angererweg"}, "content": "Adresse: Angererweg 5e, 9210 Pörtschach am Wörther See\nOrt: Pörtschach am Wörther See\nPLZ: 9210\nKoordinaten: 46.624591, 14.178683", "doc_type": "addresses"}
{"source": "OSM", "region": "Kärnten", "osm_type": "node", "osm_id": 4320097271, "name": null, "category": null, "address": "Angererweg 5f, 9210 Pörtschach am Wörther See", "street": "Angererweg", "housenumber": "5f", "postcode": "9210", "place": "Pörtschach am Wörther See", "lat": 46.6245157, "lon": 14.1787739, "tags": {"addr:city": "Pörtschach am Wörther See", "addr:housenumber": "5f", "addr:postcode": "9210", "addr:street": "Angererweg"}, "content": "Adresse: Angererweg 5f, 9210 Pörtschach am Wörther See\nOrt: Pörtschach am Wörther See\nPLZ: 9210\nKoordinaten: 46.624516, 14.178774", "doc_type": "addresses"}
{"source": "OSM", "region": "Kärnten", "osm_type": "node", "osm_id": 4320097272, "name": null, "category": null, "address": "Angererweg 5g, 9210 Pörtschach am Wörther See", "street": "Angererweg", "housenumber": "5g", "postcode": "9210", "place": "Pörtschach am Wörther See", "lat": 46.6244441, "lon": 14.1788607, "tags": {"addr:city": "Pörtschach am Wörther See", "addr:housenumber": "5g", "addr:postcode": "9210", "addr:street": "Angererweg"}, "content": "Adresse: Angererweg 5g, 9210 Pörtschach am Wörther See\nOrt: Pörtschach am Wörther See\nPLZ: 9210\nKoordinaten: 46.624444, 14.178861", "doc_type": "addresses"}
{"source": "OSM", "region": "Kärnten", "osm_type": "node", "osm_id": 4839796694, "name": null, "category": null, "address": "Hauptstraße 109, 9210 Pörtschach am Wörther See", "street": "Hauptstraße", "housenumber": "109", "postcode": "9210", "place": "Pörtschach am Wörther See", "lat": 46.6343902, "lon": 14.152912, "tags": {"addr:city": "Pörtschach am Wörther See", "addr:housenumber": "109", "addr:postcode": "9210", "addr:street": "Hauptstraße"}, "content": "Adresse: Hauptstraße 109, 9210 Pörtschach am Wörther See\nOrt: Pörtschach am Wörther See\nPLZ: 9210\nKoordinaten: 46.634390, 14.152912", "doc_type": "addresses"}
{"source": "OSM", "region": "Kärnten", "osm_type": "node", "osm_id": 4839796695, "name": null, "category": null, "address": "Hauptstraße 95, 9210 Pörtschach am Wörther See", "street": "Hauptstraße", "housenumber": "95", "postcode": "9210", "place": "Pörtschach am Wörther See", "lat": 46.6340651, "lon": 14.1546947, "tags": {"addr:city": "Pörtschach am Wörther See", "addr:housenumber": "95", "addr:postcode": "9210", "addr:street": "Hauptstraße"}, "content": "Adresse: Hauptstraße 95, 9210 Pörtschach am Wörther See\nOrt: Pörtschach am Wörther See\nPLZ: 9210\nKoordinaten: 46.634065, 14.154695", "doc_type": "addresses"}
{"source": "OSM", "region": "Kärnten", "osm_type": "node", "osm_id": 4840069997, "name": null, "category": null, "address": "Karawankenblickstraße 54, 9210 Pörtschach am Wörther See", "street": "Karawankenblickstraße", "housenumber": "54", "postcode": "9210", "place": "Pörtschach am Wörther See", "lat": 46.6384311, "lon": 14.1492219, "tags": {"addr:city": "Pörtschach am Wörther See", "addr:housenumber": "54", "addr:postcode": "9210", "addr:street": "Karawankenblickstraße"}, "content": "Adresse: Karawankenblickstraße 54, 9210 Pörtschach am Wörther See\nOrt: Pörtschach am Wörther See\nPLZ: 9210\nKoordinaten: 46.638431, 14.149222", "doc_type": "addresses"}
{"source": "OSM", "region": "Kärnten", "osm_type": "node", "osm_id": 4840106077, "name": null, "category": null, "address": "Winklernerstraße 18, 9210 Pörtschach am Wörther See", "street": "Winklernerstraße", "housenumber": "18", "postcode": "9210", "place": "Pörtschach am Wörther See", "lat": 46.6366194, "lon": 14.1503285, "tags": {"addr:city": "Pörtschach am Wörther See", "addr:housenumber": "18", "addr:postcode": "9210", "addr:street": "Winklernerstraße"}, "content": "Adresse: Winklernerstraße 18, 9210 Pörtschach am Wörther See\nOrt: Pörtschach am Wörther See\nPLZ: 9210\nKoordinaten: 46.636619, 14.150329", "doc_type": "addresses"}
{"source": "OSM", "region": "Kärnten", "osm_type": "node", "osm_id": 4840110504, "name": null, "category": null, "address": "Bannwaldstraße 19, 9210 Pörtschach am Wörther See", "street": "Bannwaldstraße", "housenumber": "19", "postcode": "9210", "place": "Pörtschach am Wörther See", "lat": 46.6393243, "lon": 14.1417953, "tags": {"addr:city": "Pörtschach am Wörther See", "addr:housenumber": "19", "addr:postcode": "9210", "addr:street": "Bannwaldstraße"}, "content": "Adresse: Bannwaldstraße 19, 9210 Pörtschach am Wörther See\nOrt: Pörtschach am Wörther See\nPLZ: 9210\nKoordinaten: 46.639324, 14.141795", "doc_type": "addresses"}
{"source": "OSM", "region": "Kärnten", "osm_type": "node", "osm_id": 4842531851, "name": "Sonnenhügel", "category": "amenity:restaurant", "address": "Bärndorferweg 33, 9210 Pörtschach am Wörther See", "street": "Bärndorferweg", "housenumber": "33", "postcode": "9210", "place": "Pörtschach am Wörther See", "lat": 46.6465248, "lon": 14.1324043, "tags": {"addr:city": "Pörtschach am Wörther See", "addr:housenumber": "33", "addr:postcode": "9210", "addr:street": "Bärndorferweg", "amenity": "restaurant", "name": "Sonnenhügel", "operator": "Familie Buchreiter", "phone": "+43 4272 2919", "tourism": "apartment", "website": "https://www.buchreiter.com/"}, "content": "Sonnenhügel\nKategorie: amenity:restaurant\nAdresse: Bärndorferweg 33, 9210 Pörtschach am Wörther See\nOrt: Pörtschach am Wörther See\nPLZ: 9210\nKoordinaten: 46.646525, 14.132404\nTags: amenity=restaurant, operator=Familie Buchreiter, phone=+43 4272 2919, website=https://www.buchreiter.com/", "doc_type": "addresses"}
{"source": "OSM", "region": "Kärnten", "osm_type": "node", "osm_id": 4843552322, "name": "Kärntner Yachtclub Pörtschach", "category": null, "address": "Hauptstraße 269, 9210 Pörtschach am Wörther See", "street": "Hauptstraße", "housenumber": "269", "postcode": "9210", "place": "Pörtschach am Wörther See", "lat": 46.6368013, "lon": 14.1298867, "tags": {"addr:city": "Pörtschach am Wörther See", "addr:housenumber": "269", "addr:postcode": "9210", "addr:street": "Hauptstraße", "name": "Kärntner Yachtclub Pörtschach"}, "content": "Kärntner Yachtclub Pörtschach\nAdresse: Hauptstraße 269, 9210 Pörtschach am Wörther See\nOrt: Pörtschach am Wörther See\nPLZ: 9210\nKoordinaten: 46.636801, 14.129887", "doc_type": "addresses"}
{"source": "OSM", "region": "Kärnten", "osm_type": "node", "osm_id": 4843552323, "name": null, "category": null, "address": "10.-Oktober-Straße 127a, 9210 Pörtschach am Wörther See", "street": "10.-Oktober-Straße", "housenumber": "127a", "postcode": "9210", "place": "Pörtschach am Wörther See", "lat": 46.6358148, "lon": 14.1566357, "tags": {"addr:city": "Pörtschach am Wörther See", "addr:housenumber": "127a", "addr:postcode": "9210", "addr:street": "10.-Oktober-Straße"}, "content": "Adresse: 10.-Oktober-Straße 127a, 9210 Pörtschach am Wörther See\nOrt: Pörtschach am Wörther See\nPLZ: 9210\nKoordinaten: 46.635815, 14.156636", "doc_type": "addresses"}
{"source": "OSM", "region": "Kärnten", "osm_type": "node", "osm_id": 4843552324, "name": null, "category": null, "address": "Moosburgerstraße 175a, 9210 Pörtschach am Wörther See", "street": "Moosburgerstraße", "housenumber": "175a", "postcode": "9210", "place": "Pörtschach am Wörther See", "lat": 46.6485323, "lon": 14.1372127, "tags": {"addr:city": "Pörtschach am Wörther See", "addr:housenumber": "175a", "addr:postcode": "9210", "addr:street": "Moosburgerstraße"}, "content": "Adresse: Moosburgerstraße 175a, 9210 Pörtschach am Wörther See\nOrt: Pörtschach am Wörther See\nPLZ: 9210\nKoordinaten: 46.648532, 14.137213", "doc_type": "addresses"}
{"source": "OSM", "region": "Kärnten", "osm_type": "node", "osm_id": 4846321452, "name": null, "category": null, "address": "Angererweg 5h, 9210 Pörtschach am Wörther See", "street": "Angererweg", "housenumber": "5h", "postcode": "9210", "place": "Pörtschach am Wörther See", "lat": 46.6243714, "lon": 14.1789488, "tags": {"addr:city": "Pörtschach am Wörther See", "addr:housenumber": "5h", "addr:postcode": "9210", "addr:street": "Angererweg"}, "content": "Adresse: Angererweg 5h, 9210 Pörtschach am Wörther See\nOrt: Pörtschach am Wörther See\nPLZ: 9210\nKoordinaten: 46.624371, 14.178949", "doc_type": "addresses"}
{"source": "OSM", "region": "Kärnten", "osm_type": "node", "osm_id": 4846321453, "name": null, "category": null, "address": "Angererweg 11, 9210 Pörtschach am Wörther See", "street": "Angererweg", "housenumber": "11", "postcode": "9210", "place": "Pörtschach am Wörther See", "lat": 46.6247449, "lon": 14.1782194, "tags": {"addr:city": "Pörtschach am Wörther See", "addr:housenumber": "11", "addr:postcode": "9210", "addr:street": "Angererweg"}, "content": "Adresse: Angererweg 11, 9210 Pörtschach am Wörther See\nOrt: Pörtschach am Wörther See\nPLZ: 9210\nKoordinaten: 46.624745, 14.178219", "doc_type": "addresses"}
{"source": "OSM", "region": "Kärnten", "osm_type": "node", "osm_id": 4846321454, "name": null, "category": null, "address": "Roseneckstraße 71, 9210 Pörtschach am Wörther See", "street": "Roseneckstraße", "housenumber": "71", "postcode": "9210", "place": "Pörtschach am Wörther See", "lat": 46.6298809, "lon": 14.1572717, "tags": {"addr:city": "Pörtschach am Wörther See", "addr:housenumber": "71", "addr:postcode": "9210", "addr:street": "Roseneckstraße"}, "content": "Adresse: Roseneckstraße 71, 9210 Pörtschach am Wörther See\nOrt: Pörtschach am Wörther See\nPLZ: 9210\nKoordinaten: 46.629881, 14.157272", "doc_type": "addresses"}
{"source": "OSM", "region": "Kärnten", "osm_type": "node", "osm_id": 4846321455, "name": null, "category": null, "address": "Roseneckstraße 69, 9210 Pörtschach am Wörther See", "street": "Roseneckstraße", "housenumber": "69", "postcode": "9210", "place": "Pörtschach am Wörther See", "lat": 46.6296168, "lon": 14.157186, "tags": {"addr:city": "Pörtschach am Wörther See", "addr:housenumber": "69", "addr:postcode": "9210", "addr:street": "Roseneckstraße"}, "content": "Adresse: Roseneckstraße 69, 9210 Pörtschach am Wörther See\nOrt: Pörtschach am Wörther See\nPLZ: 9210\nKoordinaten: 46.629617, 14.157186", "doc_type": "addresses"}
{"source": "OSM", "region": "Kärnten", "osm_type": "node", "osm_id": 4846321458, "name": null, "category": null, "address": "Sallacher Straße 39, 9210 Pörtschach am Wörther See", "street": "Sallacher Straße", "housenumber": "39", "postcode": "9210", "place": "Pörtschach am Wörther See", "lat": 46.6306264, "lon": 14.1733362, "tags": {"addr:city": "Pörtschach am Wörther See", "addr:housenumber": "39", "addr:postcode": "9210", "addr:street": "Sallacher Straße"}, "content": "Adresse: Sallacher Straße 39, 9210 Pörtschach am Wörther See\nOrt: Pörtschach am Wörther See\nPLZ: 9210\nKoordinaten: 46.630626, 14.173336", "doc_type": "addresses"}
{"source": "OSM", "region": "Kärnten", "osm_type": "node", "osm_id": 4846321459, "name": null, "category": null, "address": "Sallacher Straße 16, 9210 Pörtschach am Wörther See", "street": "Sallacher Straße", "housenumber": "16", "postcode": "9210", "place": "Pörtschach am Wörther See", "lat": 46.6295285, "lon": 14.1714305, "tags": {"addr:city": "Pörtschach am Wörther See", "addr:housenumber": "16", "addr:postcode": "9210", "addr:street": "Sallacher Straße"}, "content": "Adresse: Sallacher Straße 16, 9210 Pörtschach am Wörther See\nOrt: Pörtschach am Wörther See\nPLZ: 9210\nKoordinaten: 46.629528, 14.171430", "doc_type": "addresses"}
{"source": "OSM", "region": "Kärnten", "osm_type": "node", "osm_id": 4846321460, "name": null, "category": null, "address": "St. Oswalder Straße 49, 9210 Pörtschach am Wörther See", "street": "St. Oswalder Straße", "housenumber": "49", "postcode": "9210", "place": "Pörtschach am Wörther See", "lat": 46.6333511, "lon": 14.1629835, "tags": {"addr:city": "Pörtschach am Wörther See", "addr:housenumber": "49", "addr:postcode": "9210", "addr:street": "St. Oswalder Straße"}, "content": "Adresse: St. Oswalder Straße 49, 9210 Pörtschach am Wörther See\nOrt: Pörtschach am Wörther See\nPLZ: 9210\nKoordinaten: 46.633351, 14.162983", "doc_type": "addresses"}
{"source": "OSM", "region": "Kärnten", "osm_type": "node", "osm_id": 4846321461, "name": null, "category": null, "address": "Werftenstraße 57, 9210 Pörtschach am Wörther See", "street": "Werftenstraße", "housenumber": "57", "postcode": "9210", "place": "Pörtschach am Wörther See", "lat": 46.6192819, "lon": 14.1786529, "tags": {"addr:city": "Pörtschach am Wörther See", "addr:housenumber": "57", "addr:postcode": "9210", "addr:street": "Werftenstraße"}, "content": "Adresse: Werftenstraße 57, 9210 Pörtschach am Wörther See\nOrt: Pörtschach am Wörther See\nPLZ: 9210\nKoordinaten: 46.619282, 14.178653", "doc_type": "addresses"}
{"source": "OSM", "region": "Kärnten", "osm_type": "node", "osm_id": 4846321462, "name": null, "category": null, "address": "Goritschacherweg 42, 9210 Pörtschach am Wörther See", "street": "Goritschacherweg", "housenumber": "42", "postcode": "9210", "place": "Pörtschach am Wörther See", "lat": 46.6327036, "lon": 14.1639619, "tags": {"addr:city": "Pörtschach am Wörther See", "addr:housenumber": "42", "addr:postcode": "9210", "addr:street": "Goritschacherweg"}, "content": "Adresse: Goritschacherweg 42, 9210 Pörtschach am Wörther See\nOrt: Pörtschach am Wörther See\nPLZ: 9210\nKoordinaten: 46.632704, 14.163962", "doc_type": "addresses"}
{"source": "OSM", "region": "Kärnten", "osm_type": "node", "osm_id": 4846321463, "name": "Fernheizwerk Pörtschach", "category": null, "address": "Rumpeleweg 9, 9210 Pörtschach am Wörther See", "street": "Rumpeleweg", "housenumber": "9", "postcode": "9210", "place": "Pörtschach am Wörther See", "lat": 46.6412138, "lon": 14.1382647, "tags": {"addr:city": "Pörtschach am Wörther See", "addr:housenumber": "9", "addr:postcode": "9210", "addr:street": "Rumpeleweg", "name": "Fernheizwerk Pörtschach"}, "content": "Fernheizwerk Pörtschach\nAdresse: Rumpeleweg 9, 9210 Pörtschach am Wörther See\nOrt: Pörtschach am Wörther See\nPLZ: 9210\nKoordinaten: 46.641214, 14.138265", "doc_type": "addresses"}
{"source": "OSM", "region": "Kärnten", "osm_type": "node", "osm_id": 4846321465, "name": null, "category": null, "address": "Gartenweg 18, 9210 Pörtschach am Wörther See", "street": "Gartenweg", "housenumber": "18", "postcode": "9210", "place": "Pörtschach am Wörther See", "lat": 46.6292168, "lon": 14.1729987, "tags": {"addr:city": "Pörtschach am Wörther See", "addr:housenumber": "18", "addr:postcode": "9210", "addr:street": "Gartenweg"}, "content": "Adresse: Gartenweg 18, 9210 Pörtschach am Wörther See\nOrt: Pörtschach am Wörther See\nPLZ: 9210\nKoordinaten: 46.629217, 14.172999", "doc_type": "addresses"}
{"source": "OSM", "region": "Kärnten", "osm_type": "node", "osm_id": 4848566967, "name": null, "category": null, "address": "10.-Oktober-Straße 5, 9210 Pörtschach am Wörther See", "street": "10.-Oktober-Straße", "housenumber": "5", "postcode": "9210", "place": "Pörtschach am Wörther See", "lat": 46.6371088, "lon": 14.1430135, "tags": {"addr:city": "Pörtschach am Wörther See", "addr:housenumber": "5", "addr:postcode": "9210", "addr:street": "10.-Oktober-Straße"}, "content": "Adresse: 10.-Oktober-Straße 5, 9210 Pörtschach am Wörther See\nOrt: Pörtschach am Wörther See\nPLZ: 9210\nKoordinaten: 46.637109, 14.143014", "doc_type": "addresses"}
{"source": "OSM", "region": "Kärnten", "osm_type": "node", "osm_id": 4848566980, "name": null, "category": null, "address": "Hauptstraße 184a, 9210 Pörtschach am Wörther See", "street": "Hauptstraße", "housenumber": "184a", "postcode": "9210", "place": "Pörtschach am Wörther See", "lat": 46.636359, "lon": 14.1428617, "tags": {"addr:city": "Pörtschach am Wörther See", "addr:housenumber": "184a", "addr:postcode": "9210", "addr:street": "Hauptstraße"}, "content": "Adresse: Hauptstraße 184a, 9210 Pörtschach am Wörther See\nOrt: Pörtschach am Wörther See\nPLZ: 9210\nKoordinaten: 46.636359, 14.142862", "doc_type": "addresses"}
{"source": "OSM", "region": "Kärnten", "osm_type": "node", "osm_id": 4848566981, "name": null, "category": null, "address": "Moosburgerstraße 109, 9210 Pörtschach am Wörther See", "street": "Moosburgerstraße", "housenumber": "109", "postcode": "9210", "place": "Pörtschach am Wörther See", "lat": 46.6432483, "lon": 14.130575, "tags": {"addr:city": "Pörtschach am Wörther See", "addr:housenumber": "109", "addr:postcode": "9210", "addr:street": "Moosburgerstraße"}, "content": "Adresse: Moosburgerstraße 109, 9210 Pörtschach am Wörther See\nOrt: Pörtschach am Wörther See\nPLZ: 9210\nKoordinaten: 46.643248, 14.130575", "doc_type": "addresses"}
{"source": "OSM", "region": "Kärnten", "osm_type": "node", "osm_id": 4848566982, "name": null, "category": null, "address": "Moosburgerstraße 107, 9210 Pörtschach am Wörther See", "street": "Moosburgerstraße", "housenumber": "107", "postcode": "9210", "place": "Pörtschach am Wörther See", "lat": 46.6433261, "lon": 14.1310978, "tags": {"addr:city": "Pörtschach am Wörther See", "addr:housenumber": "107", "addr:postcode": "9210", "addr:street": "Moosburgerstraße"}, "content": "Adresse: Moosburgerstraße 107, 9210 Pörtschach am Wörther See\nOrt: Pörtschach am Wörther See\nPLZ: 9210\nKoordinaten: 46.643326, 14.131098", "doc_type": "addresses"}
{"source": "OSM", "region": "Kärnten", "osm_type": "node", "osm_id": 444624630, "name": "Hofer", "category": "shop:supermarket", "address": "Hauptstraße 70, 9210 Pörtschach am Wörther See", "street": "Hauptstraße", "housenumber": "70", "postcode": "9210", "place": "Pörtschach am Wörther See", "lat": 46.6341498, "lon": 14.1575752, "tags": {"addr:city": "Pörtschach am Wörther See", "addr:housenumber": "70", "addr:postcode": "9210", "addr:street": "Hauptstraße", "brand": "Hofer", "name": "Hofer", "shop": "supermarket"}, "content": "Hofer\nKategorie: shop:supermarket\nAdresse: Hauptstraße 70, 9210 Pörtschach am Wörther See\nOrt: Pörtschach am Wörther See\nPLZ: 9210\nKoordinaten: 46.634150, 14.157575\nTags: shop=supermarket, brand=Hofer", "doc_type": "pois"}
{"source": "OSM", "region": "Kärnten", "osm_type": "node", "osm_id": 445304526, "name": "Hotel Schloss Leonstain", "category": "tourism:hotel", "address": "Hauptstraße 228, 9210 Pörtschach am Wörther See", "street": "Hauptstraße", "housenumber": "228", "postcode": "9210", "place": "Pörtschach am Wörther See", "lat": 46.6366689, "lon": 14.1384409, "tags": {"addr:city": "Pörtschach am Wörther See", "addr:housenumber": "228", "addr:postcode": "9210", "addr:street": "Hauptstraße", "name": "Hotel Schloss Leonstain", "tourism": "hotel", "website": "https://www.leonstain.at/"}, "content": "Hotel Schloss Leonstain\nKategorie: tourism:hotel\nAdresse: Hauptstraße 228, 9210 Pörtschach am Wörther See\nOrt: Pörtschach am Wörther See\nPLZ: 9210\nKoordinaten: 46.636669, 14.138441\nTags: website=https://www.leonstain.at/", "doc_type": "pois"}
{"source": "OSM", "region": "Kärnten", "osm_type": "node", "osm_id": 1388793554, "name": "barcafe mec's", "category": "amenity:bar", "address": "Hauptstraße 204, 9210 Pörtschach am Wörther See", "street": "Hauptstraße", "housenumber": "204", "postcode": "9210", "place": "Pörtschach am Wörther See", "lat": 46.6363644, "lon": 14.1406508, "tags": {"addr:city": "Pörtschach am Wörther See", "addr:housenumber": "204", "addr:postcode": "9210", "addr:street": "Hauptstraße", "amenity": "bar", "name": "barcafe mec's"}, "content": "barcafe mec's\nKategorie: amenity:bar\nAdresse: Hauptstraße 204, 9210 Pörtschach am Wörther See\nOrt: Pörtschach am Wörther See\nPLZ: 9210\nKoordinaten: 46.636364, 14.140651\nTags: amenity=bar", "doc_type": "pois"}
{"source": "OSM", "region": "Kärnten", "osm_type": "node", "osm_id": 2419685511, "name": "Polizeiinspektion Pörtschach am Wörtersee", "category": "amenity:police", "address": "Postgasse 2, 9210 Pörtschach am Wörther See", "street": "Postgasse", "housenumber": "2", "postcode": "9210", "place": "Pörtschach am Wörther See", "lat": 46.6348369, "lon": 14.1467243, "tags": {"addr:city": "Pörtschach am Wörther See", "addr:housenumber": "2", "addr:postcode": "9210", "addr:street": "Postgasse", "amenity": "police", "name": "Polizeiinspektion Pörtschach am Wörtersee", "phone": "+43 59133 2114-100"}, "content": "Polizeiinspektion Pörtschach am Wörtersee\nKategorie: amenity:police\nAdresse: Postgasse 2, 9210 Pörtschach am Wörther See\nOrt: Pörtschach am Wörther See\nPLZ: 9210\nKoordinaten: 46.634837, 14.146724\nTags: amenity=police, phone=+43 59133 2114-100", "doc_type": "pois"}
{"source": "OSM", "region": "Kärnten", "osm_type": "node", "osm_id": 2422739925, "name": "Das JO", "category": "tourism:hotel", "address": "Kochwirtplatz 4, 9210 Pörtschach am Wörther See", "street": "Kochwirtplatz", "housenumber": "4", "postcode": "9210", "place": "Pörtschach am Wörther See", "lat": 46.6291969, "lon": 14.1639015, "tags": {"addr:city": "Pörtschach am Wörther See", "addr:housenumber": "4", "addr:postcode": "9210", "addr:street": "Kochwirtplatz", "brand": "Seehotel - Das JO", "name": "Das JO", "phone": "+43 (0) 4272 2319", "tourism": "hotel", "website": "https://www.das-jo.at/"}, "content": "Das JO\nKategorie: tourism:hotel\nAdresse: Kochwirtplatz 4, 9210 Pörtschach am Wörther See\nOrt: Pörtschach am Wörther See\nPLZ: 9210\nKoordinaten: 46.629197, 14.163901\nTags: brand=Seehotel - Das JO, phone=+43 (0) 4272 2319, website=https://www.das-jo.at/", "doc_type": "pois"}
{"source": "OSM", "region": "Kärnten", "osm_type": "node", "osm_id": 2435742801, "name": "Hotel Kärntnerhof", "category": "tourism:hotel", "address": "Hauptstraße 217, 9210 Pörtschach am Wörther See", "street": "Hauptstraße", "housenumber": "217", "postcode": "9210", "place": "Pörtschach am Wörther See", "lat": 46.6364847, "lon": 14.1375959, "tags": {"addr:city": "Pörtschach am Wörther See", "addr:housenumber": "217", "addr:postcode": "9210", "addr:street": "Hauptstraße", "name": "Hotel Kärntnerhof", "tourism": "hotel", "website": "https://www.strandhotel-kaerntnerhof.at/"}, "content": "Hotel Kärntnerhof\nKategorie: tourism:hotel\nAdresse: Hauptstraße 217, 9210 Pörtschach am Wörther See\nOrt: Pörtschach am Wörther See\nPLZ: 9210\nKoordinaten: 46.636485, 14.137596\nTags: website=https://www.strandhotel-kaerntnerhof.at/", "doc_type": "pois"}
{"source": "OSM", "region": "Kärnten", "osm_type": "node", "osm_id": 3398939334, "name": "Tabak Trafik", "category": "shop:tobacco", "address": "Hauptstraße 200, 9210 Pörtschach am Wörther See", "street": "Hauptstraße", "housenumber": "200", "postcode": "9210", "place": "Pörtschach am Wörther See", "lat": 46.6361345, "lon": 14.1417527, "tags": {"addr:city": "Pörtschach am Wörther See", "addr:housenumber": "200", "addr:postcode": "9210", "addr:street": "Hauptstraße", "name": "Tabak Trafik", "shop": "tobacco"}, "content": "Tabak Trafik\nKategorie: shop:tobacco\nAdresse: Hauptstraße 200, 9210 Pörtschach am Wörther See\nOrt: Pörtschach am Wörther See\nPLZ: 9210\nKoordinaten: 46.636134, 14.141753\nTags: shop=tobacco", "doc_type": "pois"}
{"source": "OSM", "region": "Kärnten", "osm_type": "node", "osm_id": 3398939335, "name": "Tabak Trafik", "category": "shop:tobacco", "address": "Hauptstraße 161, 9210 Pörtschach am Wörther See", "street": "Hauptstraße", "housenumber": "161", "postcode": "9210", "place": "Pörtschach am Wörther See", "lat": 46.6353395, "lon": 14.1453482, "tags": {"addr:city": "Pörtschach am Wörther See", "addr:housenumber": "161", "addr:postcode": "9210", "addr:street": "Hauptstraße", "name": "Tabak Trafik", "shop": "tobacco"}, "content": "Tabak Trafik\nKategorie: shop:tobacco\nAdresse: Hauptstraße 161, 9210 Pörtschach am Wörther See\nOrt: Pörtschach am Wörther See\nPLZ: 9210\nKoordinaten: 46.635340, 14.145348\nTags: shop=tobacco", "doc_type": "pois"}
{"source": "OSM", "region": "Kärnten", "osm_type": "node", "osm_id": 3398939343, "name": "Schiessl Kälteges.m.b.H", "category": "craft:hvac", "address": "Gaisrückenstraße 1, 9210 Pörtschach am Wörther See", "street": "Gaisrückenstraße", "housenumber": "1", "postcode": "9210", "place": "Pörtschach am Wörther See", "lat": 46.634295, "lon": 14.1562738, "tags": {"addr:city": "Pörtschach am Wörther See", "addr:housenumber": "1", "addr:postcode": "9210", "addr:street": "Gaisrückenstraße", "craft": "hvac", "name": "Schiessl Kälteges.m.b.H"}, "content": "Schiessl Kälteges.m.b.H\nKategorie: craft:hvac\nAdresse: Gaisrückenstraße 1, 9210 Pörtschach am Wörther See\nOrt: Pörtschach am Wörther See\nPLZ: 9210\nKoordinaten: 46.634295, 14.156274", "doc_type": "pois"}
{"source": "OSM", "region": "Kärnten", "osm_type": "node", "osm_id": 3398941093, "name": null, "category": "tourism:information", "address": "Hauptstraße 153, 9210 Pörtschach am Wörther See", "street": "Hauptstraße", "housenumber": "153", "postcode": "9210", "place": "Pörtschach am Wörther See", "lat": 46.635107, "lon": 14.1462495, "tags": {"addr:city": "Pörtschach am Wörther See", "addr:housenumber": "153", "addr:postcode": "9210", "addr:street": "Hauptstraße", "tourism": "information"}, "content": "Kategorie: tourism:information\nAdresse: Hauptstraße 153, 9210 Pörtschach am Wörther See\nOrt: Pörtschach am Wörther See\nPLZ: 9210\nKoordinaten: 46.635107, 14.146249", "doc_type": "pois"}
{"source": "OSM", "region": "Kärnten", "osm_type": "node", "osm_id": 3400285961, "name": "Dr. Kimeswenger-Jobst", "category": "amenity:doctors", "address": "Karlstraße 5, 9210 Pörtschach am Wörther See", "street": "Karlstraße", "housenumber": "5", "postcode": "9210", "place": "Pörtschach am Wörther See", "lat": 46.6350657, "lon": 14.1433781, "tags": {"addr:city": "Pörtschach am Wörther See", "addr:housenumber": "5", "addr:postcode": "9210", "addr:street": "Karlstraße", "amenity": "doctors", "healthcare": "doctor", "name": "Dr. Kimeswenger-Jobst", "office": "physician", "phone": "04272 3600"}, "content": "Dr. Kimeswenger-Jobst\nKategorie: amenity:doctors\nAdresse: Karlstraße 5, 9210 Pörtschach am Wörther See\nOrt: Pörtschach am Wörther See\nPLZ: 9210\nKoordinaten: 46.635066, 14.143378\nTags: amenity=doctors, healthcare=doctor, office=physician, phone=04272 3600", "doc_type": "pois"}
{"source": "OSM", "region": "Kärnten", "osm_type": "node", "osm_id": 3400291686, "name": "BKS Bank", "category": "amenity:bank", "address": "Hauptstraße 204, 9210 Pörtschach am Wörther See", "street": "Hauptstraße", "housenumber": "204", "postcode": "9210", "place": "Pörtschach am Wörther See", "lat": 46.6362797, "lon": 14.1408987, "tags": {"addr:city": "Pörtschach am Wörther See", "addr:housenumber": "204", "addr:postcode": "9210", "addr:street": "Hauptstraße", "amenity": "bank", "name": "BKS Bank"}, "content": "BKS Bank\nKategorie: amenity:bank\nAdresse: Hauptstraße 204, 9210 Pörtschach am Wörther See\nOrt: Pörtschach am Wörther See\nPLZ: 9210\nKoordinaten: 46.636280, 14.140899\nTags: amenity=bank", "doc_type": "pois"}
{"source": "OSM", "region": "Kärnten", "osm_type": "node", "osm_id": 3410784836, "name": "Elektro Gulle", "category": "shop:electronics", "address": "Hauptstraße 198, 9210 Pörtschach am Wörther See", "street": "Hauptstraße", "housenumber": "198", "postcode": "9210", "place": "Pörtschach am Wörther See", "lat": 46.6360669, "lon": 14.1420305, "tags": {"addr:city": "Pörtschach am Wörther See", "addr:housenumber": "198", "addr:postcode": "9210", "addr:street": "Hauptstraße", "name": "Elektro Gulle", "shop": "electronics"}, "content": "Elektro Gulle\nKategorie: shop:electronics\nAdresse: Hauptstraße 198, 9210 Pörtschach am Wörther See\nOrt: Pörtschach am Wörther See\nPLZ: 9210\nKoordinaten: 46.636067, 14.142031\nTags: shop=electronics", "doc_type": "pois"}
{"source": "OSM", "region": "Kärnten", "osm_type": "node", "osm_id": 3411581807, "name": "Sione Bikes & Framesets", "category": "shop:bicycle", "address": "Hauptstraße 187, 9210 Pörtschach am Wörther See", "street": "Hauptstraße", "housenumber": "187", "postcode": "9210", "place": "Pörtschach am Wörther See", "lat": 46.6358258, "lon": 14.1422907, "tags": {"addr:city": "Pörtschach am Wörther See", "addr:housenumber": "187", "addr:postcode": "9210", "addr:street": "Hauptstraße", "name": "Sione Bikes & Framesets", "shop": "bicycle", "website": "https://www.sione-bikes.com/index.html"}, "content": "Sione Bikes & Framesets\nKategorie: shop:bicycle\nAdresse: Hauptstraße 187, 9210 Pörtschach am Wörther See\nOrt: Pörtschach am Wörther See\nPLZ: 9210\nKoordinaten: 46.635826, 14.142291\nTags: shop=bicycle, website=https://www.sione-bikes.com/index.html", "doc_type": "pois"}
{"source": "OSM", "region": "Kärnten", "osm_type": "node", "osm_id": 3411599399, "name": "Büro Baumeister DIEXER", "category": "office:yes", "address": "Hauptstraße 220, 9210 Pörtschach am Wörther See", "street": "Hauptstraße", "housenumber": "220", "postcode": "9210", "place": "Pörtschach am Wörther See", "lat": 46.636506, "lon": 14.1392771, "tags": {"addr:city": "Pörtschach am Wörther See", "addr:housenumber": "220", "addr:postcode": "9210", "addr:street": "Hauptstraße", "name": "Büro Baumeister DIEXER", "office": "yes"}, "content": "Büro Baumeister DIEXER\nKategorie: office:yes\nAdresse: Hauptstraße 220, 9210 Pörtschach am Wörther See\nOrt: Pörtschach am Wörther See\nPLZ: 9210\nKoordinaten: 46.636506, 14.139277\nTags: office=yes", "doc_type": "pois"}
{"source": "OSM", "region": "Kärnten", "osm_type": "node", "osm_id": 3411624056, "name": "Blumenatelier Zepitz", "category": "shop:florist", "address": "Hauptstraße 216, 9210 Pörtschach am Wörther See", "street": "Hauptstraße", "housenumber": "216", "postcode": "9210", "place": "Pörtschach am Wörther See", "lat": 46.6364069, "lon": 14.1399583, "tags": {"addr:city": "Pörtschach am Wörther See", "addr:housenumber": "216", "addr:postcode": "9210", "addr:street": "Hauptstraße", "name": "Blumenatelier Zepitz", "shop": "florist"}, "content": "Blumenatelier Zepitz\nKategorie: shop:florist\nAdresse: Hauptstraße 216, 9210 Pörtschach am Wörther See\nOrt: Pörtschach am Wörther See\nPLZ: 9210\nKoordinaten: 46.636407, 14.139958\nTags: shop=florist", "doc_type": "pois"}
{"source": "OSM", "region": "Kärnten", "osm_type": "node", "osm_id": 3411648700, "name": "Cocuni Mode", "category": "shop:clothes", "address": "Hauptstraße 161, 9210 Pörtschach am Wörther See", "street": "Hauptstraße", "housenumber": "161", "postcode": "9210", "place": "Pörtschach am Wörther See", "lat": 46.6353518, "lon": 14.1451805, "tags": {"addr:city": "Pörtschach am Wörther See", "addr:housenumber": "161", "addr:postcode": "9210", "addr:street": "Hauptstraße", "name": "Cocuni Mode", "shop": "clothes", "website": "https://cocuni.at/"}, "content": "Cocuni Mode\nKategorie: shop:clothes\nAdresse: Hauptstraße 161, 9210 Pörtschach am Wörther See\nOrt: Pörtschach am Wörther See\nPLZ: 9210\nKoordinaten: 46.635352, 14.145181\nTags: shop=clothes, website=https://cocuni.at/", "doc_type": "pois"}
{"source": "OSM", "region": "Kärnten", "osm_type": "node", "osm_id": 4842531851, "name": "Sonnenhügel", "category": "amenity:restaurant", "address": "Bärndorferweg 33, 9210 Pörtschach am Wörther See", "street": "Bärndorferweg", "housenumber": "33", "postcode": "9210", "place": "Pörtschach am Wörther See", "lat": 46.6465248, "lon": 14.1324043, "tags": {"addr:city": "Pörtschach am Wörther See", "addr:housenumber": "33", "addr:postcode": "9210", "addr:street": "Bärndorferweg", "amenity": "restaurant", "name": "Sonnenhügel", "operator": "Familie Buchreiter", "phone": "+43 4272 2919", "tourism": "apartment", "website": "https://www.buchreiter.com/"}, "content": "Sonnenhügel\nKategorie: amenity:restaurant\nAdresse: Bärndorferweg 33, 9210 Pörtschach am Wörther See\nOrt: Pörtschach am Wörther See\nPLZ: 9210\nKoordinaten: 46.646525, 14.132404\nTags: amenity=restaurant, operator=Familie Buchreiter, phone=+43 4272 2919, website=https://www.buchreiter.com/", "doc_type": "pois"}
