{"source": "OSM", "region": "Kärnten", "osm_type": "node", "osm_id": 355867029, "name": "Turmöl Quick", "category": "amenity:fuel", "address": "159, 9613 Feistritz an der Gail", "street": null, "housenumber": "159", "postcode": "9613", "place": "Feistritz an der Gail", "lat": 46.5800917, "lon": 13.60754, "tags": {"addr:city": "Feistritz an der Gail", "addr:housenumber": "159", "addr:place": "Feistritz an der Gail", "addr:postcode": "9613", "amenity": "fuel", "brand": "Turmöl", "name": "Turmöl Quick", "operator": "Doppler Mineralöle GmbH"}, "content": "Turmöl Quick\nKategorie: amenity:fuel\nAdresse: 159, 9613 Feistritz an der Gail\nOrt: Feistritz an der Gail\nPLZ: 9613\nKoordinaten: 46.580092, 13.607540\nTags: amenity=fuel, operator=Doppler Mineralöle GmbH, brand=Turmöl", "doc_type": "addresses"}
{"source": "OSM", "region": "Kärnten", "osm_type": "node", "osm_id": 5590158080, "name": null, "category": null, "address": "53, 9613 Feistritz an der Gail", "street": null, "housenumber": "53", "postcode": "9613", "place": "Feistritz an der Gail", "lat": 46.580121, "lon": 13.6030094, "tags": {"addr:city": "Feistritz an der Gail", "addr:housenumber": "53", "addr:place": "Feistritz an der Gail", "addr:postcode": "9613"}, "content": "Adresse: 53, 9613 Feistritz an der Gail\nOrt: Feistritz an der Gail\nPLZ: 9613\nKoordinaten: 46.580121, 13.603009", "doc_type": "addresses"}
{"source": "OSM", "region": "Kärnten", "osm_type": "node", "osm_id": 5590158081, "name": null, "category": null, "address": "52, 9613 Feistritz an der Gail", "street": null, "housenumber": "52", "postcode": "9613", "place": "Feistritz an der Gail", "lat": 46.5803036, "lon": 13.6030054, "tags": {"addr:city": "Feistritz an der Gail", "addr:housenumber": "52", "addr:place": "Feistritz an der Gail", "addr:postcode": "9613"}, "content": "Adresse: 52, 9613 Feistritz an der Gail\nOrt: Feistritz an der Gail\nPLZ: 9613\nKoordinaten: 46.580304, 13.603005", "doc_type": "addresses"}
{"source": "OSM", "region": "Kärnten", "osm_type": "node", "osm_id": 5590158082, "name": null, "category": null, "address": "51, 9613 Feistritz an der Gail", "street": null, "housenumber": "51", "postcode": "9613", "place": "Feistritz an der Gail", "lat": 46.5804953, "lon": 13.6030658, "tags": {"addr:city": "Feistritz an der Gail", "addr:housenumber": "51", "addr:place": "Feistritz an der Gail", "addr:postcode": "9613"}, "content": "Adresse: 51, 9613 Feistritz an der Gail\nOrt: Feistritz an der Gail\nPLZ: 9613\nKoordinaten: 46.580495, 13.603066", "doc_type": "addresses"}
{"source": "OSM", "region": "Kärnten", "osm_type": "node", "osm_id": 5590158129, "name": null, "category": null, "address": "44, 9613 Feistritz an der Gail", "street": null, "housenumber": "44", "postcode": "9613", "place": "Feistritz an der Gail", "lat": 46.5803054, "lon": 13.6024421, "tags": {"addr:city": "Feistritz an der Gail", "addr:housenumber": "44", "addr:place": "Feistritz an der Gail", "addr:postcode": "9613"}, "content": "Adresse: 44, 9613 Feistritz an der Gail\nOrt: Feistritz an der Gail\nPLZ: 9613\nKoordinaten: 46.580305, 13.602442", "doc_type": "addresses"}
{"source": "OSM", "region": "Kärnten", "osm_type": "node", "osm_id": 5590158130, "name": null, "category": null, "address": "45, 9613 Feistritz an der Gail", "street": null, "housenumber": "45", "postcode": "9613", "place": "Feistritz an der Gail", "lat": 46.5805912, "lon": 13.6022973, "tags": {"addr:city": "Feistritz an der Gail", "addr:housenumber": "45", "addr:place": "Feistritz an der Gail", "addr:postcode": "9613"}, "content": "Adresse: 45, 9613 Feistritz an der Gail\nOrt: Feistritz an der Gail\nPLZ: 9613\nKoordinaten: 46.580591, 13.602297", "doc_type": "addresses"}
{"source": "OSM", "region": "Kärnten", "osm_type": "node", "osm_id": 5590158394, "name": null, "category": null, "address": "10, 9613 Feistritz an der Gail", "street": null, "housenumber": "10", "postcode": "9613", "place": "Feistritz an der Gail", "lat": 46.5730228, "lon": 13.6021793, "tags": {"addr:city": "Feistritz an der Gail", "addr:housenumber": "10", "addr:place": "Feistritz an der Gail", "addr:postcode": "9613"}, "content": "Adresse: 10, 9613 Feistritz an der Gail\nOrt: Feistritz an der Gail\nPLZ: 9613\nKoordinaten: 46.573023, 13.602179", "doc_type": "addresses"}
{"source": "OSM", "region": "Kärnten", "osm_type": "node", "osm_id": 5590158600, "name": null, "category": null, "address": "300, 9613 Feistritz an der Gail", "street": null, "housenumber": "300", "postcode": "9613", "place": "Feistritz an der Gail", "lat": 46.5827407, "lon": 13.6114034, "tags": {"addr:city": "Feistritz an der Gail", "addr:housenumber": "300", "addr:place": "Feistritz an der Gail", "addr:postcode": "9613"}, "content": "Adresse: 300, 9613 Feistritz an der Gail\nOrt: Feistritz an der Gail\nPLZ: 9613\nKoordinaten: 46.582741, 13.611403", "doc_type": "addresses"}
{"source": "OSM", "region": "Kärnten", "osm_type": "node", "osm_id": 5590158615, "name": null, "category": null, "address": "22, 9613 Feistritz an der Gail", "street": null, "housenumber": "22", "postcode": "9613", "place": "Feistritz an der Gail", "lat": 46.5752021, "lon": 13.6042875, "tags": {"addr:city": "Feistritz an der Gail", "addr:housenumber": "22", "addr:place": "Feistritz an der Gail", "addr:postcode": "9613"}, "content": "Adresse: 22, 9613 Feistritz an der Gail\nOrt: Feistritz an der Gail\nPLZ: 9613\nKoordinaten: 46.575202, 13.604287", "doc_type": "addresses"}
{"source": "OSM", "region": "Kärnten", "osm_type": "node", "osm_id": 5590158727, "name": null, "category": null, "address": "145, 9613 Feistritz an der Gail", "street": null, "housenumber": "145", "postcode": "9613", "place": "Feistritz an der Gail", "lat": 46.5765149, "lon": 13.6066371, "tags": {"addr:city": "Feistritz an der Gail", "addr:housenumber": "145", "addr:place": "Feistritz an der Gail", "addr:postcode": "9613"}, "content": "Adresse: 145, 9613 Feistritz an der Gail\nOrt: Feistritz an der Gail\nPLZ: 9613\nKoordinaten: 46.576515, 13.606637", "doc_type": "addresses"}
{"source": "OSM", "region": "Kärnten", "osm_type": "node", "osm_id": 5590158728, "name": null, "category": null, "address": "144, 9613 Feistritz an der Gail", "street": null, "housenumber": "144", "postcode": "9613", "place": "Feistritz an der Gail", "lat": 46.5766956, "lon": 13.606393, "tags": {"addr:city": "Feistritz an der Gail", "addr:housenumber": "144", "addr:place": "Feistritz an der Gail", "addr:postcode": "9613"}, "content": "Adresse: 144, 9613 Feistritz an der Gail\nOrt: Feistritz an der Gail\nPLZ: 9613\nKoordinaten: 46.576696, 13.606393", "doc_type": "addresses"}
{"source": "OSM", "region": "Kärnten", "osm_type": "node", "osm_id": 355867029, "name": "Turmöl Quick", "category": "amenity:fuel", "address": "159, 9613 Feistritz an der Gail", "street": null, "housenumber": "159", "postcode": "9613", "place": "Feistritz an der Gail", "lat": 46.5800917, "lon": 13.60754, "tags": {"addr:city": "Feistritz an der Gail", "addr:housenumber": "159", "addr:place": "Feistritz an der Gail", "addr:postcode": "9613", "amenity": "fuel", "brand": "Turmöl", "name": "Turmöl Quick", "operator": "Doppler Mineralöle GmbH"}, "content": "Turmöl Quick\nKategorie: amenity:fuel\nAdresse: 159, 9613 Feistritz an der Gail\nOrt: Feistritz an der Gail\nPLZ: 9613\nKoordinaten: 46.580092, 13.607540\nTags: amenity=fuel, operator=Doppler Mineralöle GmbH, brand=Turmöl", "doc_type": "pois"}
