{"source": "OSM", "region": "Kärnten", "osm_type": "node", "osm_id": 3834042225, "name": null, "category": null, "address": "Via Pal Grande 1, 33026 Paluzza", "street": "Via Pal Grande", "housenumber": "1", "postcode": "33026", "place": "Paluzza", "lat": 46.5840741, "lon": 13.0011239, "tags": {"addr:city": "Paluzza", "addr:housenumber": "1", "addr:postcode": "33026", "addr:street": "Via Pal Grande"}, "content": "Adresse: Via Pal Grande 1, 33026 Paluzza\nOrt: Paluzza\nPLZ: 33026\nKoordinaten: 46.584074, 13.001124", "doc_type": "addresses"}
{"source": "OSM", "region": "Kärnten", "osm_type": "node", "osm_id": 3834042509, "name": null, "category": null, "address": "Via della Bella Cappella 1, 33026 Paluzza", "street": "Via della Bella Cappella", "housenumber": "1", "postcode": "33026", "place": "Paluzza", "lat": 46.5834454, "lon": 13.0045976, "tags": {"addr:city": "Paluzza", "addr:housenumber": "1", "addr:postcode": "33026", "addr:street": "Via della Bella Cappella"}, "content": "Adresse: Via della Bella Cappella 1, 33026 Paluzza\nOrt: Paluzza\nPLZ: 33026\nKoordinaten: 46.583445, 13.004598", "doc_type": "addresses"}
{"source": "OSM", "region": "Kärnten", "osm_type": "node", "osm_id": 3834042512, "name": null, "category": null, "address": "Via don Titta Bulfon 1, 33026 Paluzza", "street": "Via don Titta Bulfon", "housenumber": "1", "postcode": "33026", "place": "Paluzza", "lat": 46.5845782, "lon": 12.9959993, "tags": {"addr:city": "Paluzza", "addr:housenumber": "1", "addr:postcode": "33026", "addr:street": "Via don Titta Bulfon"}, "content": "Adresse: Via don Titta Bulfon 1, 33026 Paluzza\nOrt: Paluzza\nPLZ: 33026\nKoordinaten: 46.584578, 12.995999", "doc_type": "addresses"}
{"source": "OSM", "region": "Kärnten", "osm_type": "node", "osm_id": 3834043674, "name": null, "category": null, "address": "Via Maria Plozner Mentil 104, 33026 Paluzza", "street": "Via Maria Plozner Mentil", "housenumber": "104", "postcode": "33026", "place": "Paluzza", "lat": 46.5844405, "lon": 13.0034261, "tags": {"addr:city": "Paluzza", "addr:housenumber": "104", "addr:postcode": "33026", "addr:street": "Via Maria Plozner Mentil"}, "content": "Adresse: Via Maria Plozner Mentil 104, 33026 Paluzza\nOrt: Paluzza\nPLZ: 33026\nKoordinaten: 46.584440, 13.003426", "doc_type": "addresses"}
{"source": "OSM", "region": "Kärnten", "osm_type": "node", "osm_id": 3834043675, "name": null, "category": null, "address": "Via Nazionale 104, 33026 Paluzza", "street": "Via Nazionale", "housenumber": "104", "postcode": "33026", "place": "Paluzza", "lat": 46.5838513, "lon": 13.0026997, "tags": {"addr:city": "Paluzza", "addr:housenumber": "104", "addr:postcode": "33026", "addr:street": "Via Nazionale"}, "content": "Adresse: Via Nazionale 104, 33026 Paluzza\nOrt: Paluzza\nPLZ: 33026\nKoordinaten: 46.583851, 13.002700", "doc_type": "addresses"}
{"source": "OSM", "region": "Kärnten", "osm_type": "node", "osm_id": 3834043677, "name": null, "category": null, "address": "Via Maria Plozner Mentil 105, 33026 Paluzza", "street": "Via Maria Plozner Mentil", "housenumber": "105", "postcode": "33026", "place": "Paluzza", "lat": 46.5845889, "lon": 13.0025082, "tags": {"addr:city": "Paluzza", "addr:housenumber": "105", "addr:postcode": "33026", "addr:street": "Via Maria Plozner Mentil"}, "content": "Adresse: Via Maria Plozner Mentil 105, 33026 Paluzza\nOrt: Paluzza\nPLZ: 33026\nKoordinaten: 46.584589, 13.002508", "doc_type": "addresses"}
{"source": "OSM", "region": "Kärnten", "osm_type": "node", "osm_id": 3834043678, "name": null, "category": null, "address": "Via Nazionale 105, 33026 Paluzza", "street": "Via Nazionale", "housenumber": "105", "postcode": "33026", "place": "Paluzza", "lat": 46.5832104, "lon": 13.0020284, "tags": {"addr:city": "Paluzza", "addr:housenumber": "105", "addr:postcode": "33026", "addr:street": "Via Nazionale"}, "content": "Adresse: Via Nazionale 105, 33026 Paluzza\nOrt: Paluzza\nPLZ: 33026\nKoordinaten: 46.583210, 13.002028", "doc_type": "addresses"}
{"source": "OSM", "region": "Kärnten", "osm_type": "node", "osm_id": 3834043680, "name": null, "category": null, "address": "Via Maria Plozner Mentil 106, 33026 Paluzza", "street": "Via Maria Plozner Mentil", "housenumber": "106", "postcode": "33026", "place": "Paluzza", "lat": 46.58447, "lon": 13.0036497, "tags": {"addr:city": "Paluzza", "addr:housenumber": "106", "addr:postcode": "33026", "addr:street": "Via Maria Plozner Mentil"}, "content": "Adresse: Via Maria Plozner Mentil 106, 33026 Paluzza\nOrt: Paluzza\nPLZ: 33026\nKoordinaten: 46.584470, 13.003650", "doc_type": "addresses"}
{"source": "OSM", "region": "Kärnten", "osm_type": "node", "osm_id": 3834043683, "name": null, "category": null, "address": "Via Maria Plozner Mentil 107, 33026 Paluzza", "street": "Via Maria Plozner Mentil", "housenumber": "107", "postcode": "33026", "place": "Paluzza", "lat": 46.5845444, "lon": 13.0024287, "tags": {"addr:city": "Paluzza", "addr:housenumber": "107", "addr:postcode": "33026", "addr:street": "Via Maria Plozner Mentil"}, "content": "Adresse: Via Maria Plozner Mentil 107, 33026 Paluzza\nOrt: Paluzza\nPLZ: 33026\nKoordinaten: 46.584544, 13.002429", "doc_type": "addresses"}
{"source": "OSM", "region": "Kärnten", "osm_type": "node", "osm_id": 3834043684, "name": null, "category": null, "address": "Via Nazionale 107, 33026 Paluzza", "street": "Via Nazionale", "housenumber": "107", "postcode": "33026", "place": "Paluzza", "lat": 46.5833164, "lon": 13.0020616, "tags": {"addr:city": "Paluzza", "addr:housenumber": "107", "addr:postcode": "33026", "addr:street": "Via Nazionale"}, "content": "Adresse: Via Nazionale 107, 33026 Paluzza\nOrt: Paluzza\nPLZ: 33026\nKoordinaten: 46.583316, 13.002062", "doc_type": "addresses"}
{"source": "OSM", "region": "Kärnten", "osm_type": "node", "osm_id": 3834043686, "name": null, "category": null, "address": "Via Nazionale 108, 33026 Paluzza", "street": "Via Nazionale", "housenumber": "108", "postcode": "33026", "place": "Paluzza", "lat": 46.5838098, "lon": 13.0023307, "tags": {"addr:city": "Paluzza", "addr:housenumber": "108", "addr:postcode": "33026", "addr:street": "Via Nazionale"}, "content": "Adresse: Via Nazionale 108, 33026 Paluzza\nOrt: Paluzza\nPLZ: 33026\nKoordinaten: 46.583810, 13.002331", "doc_type": "addresses"}
{"source": "OSM", "region": "Kärnten", "osm_type": "node", "osm_id": 3834044236, "name": null, "category": null, "address": "Via Velt 1, 33026 Paluzza", "street": "Via Velt", "housenumber": "1", "postcode": "33026", "place": "Paluzza", "lat": 46.5826675, "lon": 13.0055966, "tags": {"addr:city": "Paluzza", "addr:housenumber": "1", "addr:postcode": "33026", "addr:street": "Via Velt"}, "content": "Adresse: Via Velt 1, 33026 Paluzza\nOrt: Paluzza\nPLZ: 33026\nKoordinaten: 46.582667, 13.005597", "doc_type": "addresses"}
{"source": "OSM", "region": "Kärnten", "osm_type": "node", "osm_id": 3834044237, "name": null, "category": null, "address": "Via Ventiquattro Maggio 1, 33026 Paluzza", "street": "Via Ventiquattro Maggio", "housenumber": "1", "postcode": "33026", "place": "Paluzza", "lat": 46.5813533, "lon": 13.0062242, "tags": {"addr:city": "Paluzza", "addr:housenumber": "1", "addr:postcode": "33026", "addr:street": "Via Ventiquattro Maggio"}, "content": "Adresse: Via Ventiquattro Maggio 1, 33026 Paluzza\nOrt: Paluzza\nPLZ: 33026\nKoordinaten: 46.581353, 13.006224", "doc_type": "addresses"}
{"source": "OSM", "region": "Kärnten", "osm_type": "node", "osm_id": 3834044601, "name": null, "category": null, "address": "Piazza San Pio Decimo 1, 33026 Paluzza", "street": "Piazza San Pio Decimo", "housenumber": "1", "postcode": "33026", "place": "Paluzza", "lat": 46.5827649, "lon": 13.0041362, "tags": {"addr:city": "Paluzza", "addr:housenumber": "1", "addr:postcode": "33026", "addr:street": "Piazza San Pio Decimo"}, "content": "Adresse: Piazza San Pio Decimo 1, 33026 Paluzza\nOrt: Paluzza\nPLZ: 33026\nKoordinaten: 46.582765, 13.004136", "doc_type": "addresses"}
{"source": "OSM", "region": "Kärnten", "osm_type": "node", "osm_id": 3834044607, "name": null, "category": null, "address": "Via Giovanni Ventitreesimo 1, 33026 Paluzza", "street": "Via Giovanni Ventitreesimo", "housenumber": "1", "postcode": "33026", "place": "Paluzza", "lat": 46.582098, "lon": 13.0063439, "tags": {"addr:city": "Paluzza", "addr:housenumber": "1", "addr:postcode": "33026", "addr:street": "Via Giovanni Ventitreesimo"}, "content": "Adresse: Via Giovanni Ventitreesimo 1, 33026 Paluzza\nOrt: Paluzza\nPLZ: 33026\nKoordinaten: 46.582098, 13.006344", "doc_type": "addresses"}
{"source": "OSM", "region": "Kärnten", "osm_type": "node", "osm_id": 3834044612, "name": null, "category": null, "address": "Via Santa Geltrude 1, 33026 Paluzza", "street": "Via Santa Geltrude", "housenumber": "1", "postcode": "33026", "place": "Paluzza", "lat": 46.5819376, "lon": 13.0062062, "tags": {"addr:city": "Paluzza", "addr:housenumber": "1", "addr:postcode": "33026", "addr:street": "Via Santa Geltrude"}, "content": "Adresse: Via Santa Geltrude 1, 33026 Paluzza\nOrt: Paluzza\nPLZ: 33026\nKoordinaten: 46.581938, 13.006206", "doc_type": "addresses"}
{"source": "OSM", "region": "Kärnten", "osm_type": "node", "osm_id": 3834044615, "name": null, "category": null, "address": "Via Angelo Matiz 10, 33026 Paluzza", "street": "Via Angelo Matiz", "housenumber": "10", "postcode": "33026", "place": "Paluzza", "lat": 46.5825424, "lon": 13.0052932, "tags": {"addr:city": "Paluzza", "addr:housenumber": "10", "addr:postcode": "33026", "addr:street": "Via Angelo Matiz"}, "content": "Adresse: Via Angelo Matiz 10, 33026 Paluzza\nOrt: Paluzza\nPLZ: 33026\nKoordinaten: 46.582542, 13.005293", "doc_type": "addresses"}
{"source": "OSM", "region": "Kärnten", "osm_type": "node", "osm_id": 3834044625, "name": null, "category": null, "address": "Via Giovanni Ventitreesimo 10, 33026 Paluzza", "street": "Via Giovanni Ventitreesimo", "housenumber": "10", "postcode": "33026", "place": "Paluzza", "lat": 46.5824369, "lon": 13.0064512, "tags": {"addr:city": "Paluzza", "addr:housenumber": "10", "addr:postcode": "33026", "addr:street": "Via Giovanni Ventitreesimo"}, "content": "Adresse: Via Giovanni Ventitreesimo 10, 33026 Paluzza\nOrt: Paluzza\nPLZ: 33026\nKoordinaten: 46.582437, 13.006451", "doc_type": "addresses"}
{"source": "OSM", "region": "Kärnten", "osm_type": "node", "osm_id": 3834044629, "name": null, "category": null, "address": "Via Maria Plozner Mentil 10, 33026 Paluzza", "street": "Via Maria Plozner Mentil", "housenumber": "10", "postcode": "33026", "place": "Paluzza", "lat": 46.5815911, "lon": 13.006141, "tags": {"addr:city": "Paluzza", "addr:housenumber": "10", "addr:postcode": "33026", "addr:street": "Via Maria Plozner Mentil"}, "content": "Adresse: Via Maria Plozner Mentil 10, 33026 Paluzza\nOrt: Paluzza\nPLZ: 33026\nKoordinaten: 46.581591, 13.006141", "doc_type": "addresses"}
{"source": "OSM", "region": "Kärnten", "osm_type": "node", "osm_id": 3834044687, "name": null, "category": null, "address": "Via Maria Plozner Mentil 101, 33026 Paluzza", "street": "Via Maria Plozner Mentil", "housenumber": "101", "postcode": "33026", "place": "Paluzza", "lat": 46.5845633, "lon": 13.0025925, "tags": {"addr:city": "Paluzza", "addr:housenumber": "101", "addr:postcode": "33026", "addr:street": "Via Maria Plozner Mentil"}, "content": "Adresse: Via Maria Plozner Mentil 101, 33026 Paluzza\nOrt: Paluzza\nPLZ: 33026\nKoordinaten: 46.584563, 13.002593", "doc_type": "addresses"}
{"source": "OSM", "region": "Kärnten", "osm_type": "node", "osm_id": 3834044688, "name": null, "category": null, "address": "Via Nazionale 101, 33026 Paluzza", "street": "Via Nazionale", "housenumber": "101", "postcode": "33026", "place": "Paluzza", "lat": 46.583175, "lon": 13.0023725, "tags": {"addr:city": "Paluzza", "addr:housenumber": "101", "addr:postcode": "33026", "addr:street": "Via Nazionale"}, "content": "Adresse: Via Nazionale 101, 33026 Paluzza\nOrt: Paluzza\nPLZ: 33026\nKoordinaten: 46.583175, 13.002372", "doc_type": "addresses"}
{"source": "OSM", "region": "Kärnten", "osm_type": "node", "osm_id": 3834044690, "name": null, "category": null, "address": "Via Nazionale 101a, 33026 Paluzza", "street": "Via Nazionale", "housenumber": "101a", "postcode": "33026", "place": "Paluzza", "lat": 46.5830156, "lon": 13.0024803, "tags": {"addr:city": "Paluzza", "addr:housenumber": "101a", "addr:postcode": "33026", "addr:street": "Via Nazionale"}, "content": "Adresse: Via Nazionale 101a, 33026 Paluzza\nOrt: Paluzza\nPLZ: 33026\nKoordinaten: 46.583016, 13.002480", "doc_type": "addresses"}
{"source": "OSM", "region": "Kärnten", "osm_type": "node", "osm_id": 3834044692, "name": null, "category": null, "address": "Via Nazionale 102, 33026 Paluzza", "street": "Via Nazionale", "housenumber": "102", "postcode": "33026", "place": "Paluzza", "lat": 46.5837624, "lon": 13.0028164, "tags": {"addr:city": "Paluzza", "addr:housenumber": "102", "addr:postcode": "33026", "addr:street": "Via Nazionale"}, "content": "Adresse: Via Nazionale 102, 33026 Paluzza\nOrt: Paluzza\nPLZ: 33026\nKoordinaten: 46.583762, 13.002816", "doc_type": "addresses"}
{"source": "OSM", "region": "Kärnten", "osm_type": "node", "osm_id": 3834044695, "name": null, "category": null, "address": "Via Ventiquattro Maggio 11, 33026 Paluzza", "street": "Via Ventiquattro Maggio", "housenumber": "11", "postcode": "33026", "place": "Paluzza", "lat": 46.5817663, "lon": 13.0063868, "tags": {"addr:city": "Paluzza", "addr:housenumber": "11", "addr:postcode": "33026", "addr:street": "Via Ventiquattro Maggio"}, "content": "Adresse: Via Ventiquattro Maggio 11, 33026 Paluzza\nOrt: Paluzza\nPLZ: 33026\nKoordinaten: 46.581766, 13.006387", "doc_type": "addresses"}
{"source": "OSM", "region": "Kärnten", "osm_type": "node", "osm_id": 3834044700, "name": null, "category": null, "address": "Via della Bella Cappella 11, 33026 Paluzza", "street": "Via della Bella Cappella", "housenumber": "11", "postcode": "33026", "place": "Paluzza", "lat": 46.5833913, "lon": 13.0053453, "tags": {"addr:city": "Paluzza", "addr:housenumber": "11", "addr:postcode": "33026", "addr:street": "Via della Bella Cappella"}, "content": "Adresse: Via della Bella Cappella 11, 33026 Paluzza\nOrt: Paluzza\nPLZ: 33026\nKoordinaten: 46.583391, 13.005345", "doc_type": "addresses"}
{"source": "OSM", "region": "Kärnten", "osm_type": "node", "osm_id": 3834044702, "name": null, "category": null, "address": "Via don Titta Bulfon 11, 33026 Paluzza", "street": "Via don Titta Bulfon", "housenumber": "11", "postcode": "33026", "place": "Paluzza", "lat": 46.5848764, "lon": 12.9950322, "tags": {"addr:city": "Paluzza", "addr:housenumber": "11", "addr:postcode": "33026", "addr:street": "Via don Titta Bulfon"}, "content": "Adresse: Via don Titta Bulfon 11, 33026 Paluzza\nOrt: Paluzza\nPLZ: 33026\nKoordinaten: 46.584876, 12.995032", "doc_type": "addresses"}
{"source": "OSM", "region": "Kärnten", "osm_type": "node", "osm_id": 3834044708, "name": null, "category": null, "address": "Via Nazionale 110, 33026 Paluzza", "street": "Via Nazionale", "housenumber": "110", "postcode": "33026", "place": "Paluzza", "lat": 46.5835535, "lon": 13.0021038, "tags": {"addr:city": "Paluzza", "addr:housenumber": "110", "addr:postcode": "33026", "addr:street": "Via Nazionale"}, "content": "Adresse: Via Nazionale 110, 33026 Paluzza\nOrt: Paluzza\nPLZ: 33026\nKoordinaten: 46.583554, 13.002104", "doc_type": "addresses"}
{"source": "OSM", "region": "Kärnten", "osm_type": "node", "osm_id": 3834044709, "name": null, "category": null, "address": "Via Maria Plozner Mentil 111, 33026 Paluzza", "street": "Via Maria Plozner Mentil", "housenumber": "111", "postcode": "33026", "place": "Paluzza", "lat": 46.5845763, "lon": 13.002057, "tags": {"addr:city": "Paluzza", "addr:housenumber": "111", "addr:postcode": "33026", "addr:street": "Via Maria Plozner Mentil"}, "content": "Adresse: Via Maria Plozner Mentil 111, 33026 Paluzza\nOrt: Paluzza\nPLZ: 33026\nKoordinaten: 46.584576, 13.002057", "doc_type": "addresses"}
{"source": "OSM", "region": "Kärnten", "osm_type": "node", "osm_id": 3834044712, "name": null, "category": null, "address": "Via Nazionale 112, 33026 Paluzza", "street": "Via Nazionale", "housenumber": "112", "postcode": "33026", "place": "Paluzza", "lat": 46.5836984, "lon": 13.0019017, "tags": {"addr:city": "Paluzza", "addr:housenumber": "112", "addr:postcode": "33026", "addr:street": "Via Nazionale"}, "content": "Adresse: Via Nazionale 112, 33026 Paluzza\nOrt: Paluzza\nPLZ: 33026\nKoordinaten: 46.583698, 13.001902", "doc_type": "addresses"}
{"source": "OSM", "region": "Kärnten", "osm_type": "node", "osm_id": 3834044713, "name": null, "category": null, "address": "Via Maria Plozner Mentil 113, 33026 Paluzza", "street": "Via Maria Plozner Mentil", "housenumber": "113", "postcode": "33026", "place": "Paluzza", "lat": 46.5845584, "lon": 13.0019488, "tags": {"addr:city": "Paluzza", "addr:housenumber": "113", "addr:postcode": "33026", "addr:street": "Via Maria Plozner Mentil"}, "content": "Adresse: Via Maria Plozner Mentil 113, 33026 Paluzza\nOrt: Paluzza\nPLZ: 33026\nKoordinaten: 46.584558, 13.001949", "doc_type": "addresses"}
{"source": "OSM", "region": "Kärnten", "osm_type": "node", "osm_id": 3834044717, "name": null, "category": null, "address": "Via Maria Plozner Mentil 115, 33026 Paluzza", "street": "Via Maria Plozner Mentil", "housenumber": "115", "postcode": "33026", "place": "Paluzza", "lat": 46.5845298, "lon": 13.0018618, "tags": {"addr:city": "Paluzza", "addr:housenumber": "115", "addr:postcode": "33026", "addr:street": "Via Maria Plozner Mentil"}, "content": "Adresse: Via Maria Plozner Mentil 115, 33026 Paluzza\nOrt: Paluzza\nPLZ: 33026\nKoordinaten: 46.584530, 13.001862", "doc_type": "addresses"}
{"source": "OSM", "region": "Kärnten", "osm_type": "node", "osm_id": 3834044720, "name": null, "category": null, "address": "Via Maria Plozner Mentil 116, 33026 Paluzza", "street": "Via Maria Plozner Mentil", "housenumber": "116", "postcode": "33026", "place": "Paluzza", "lat": 46.5846706, "lon": 13.0024264, "tags": {"addr:city": "Paluzza", "addr:housenumber": "116", "addr:postcode": "33026", "addr:street": "Via Maria Plozner Mentil"}, "content": "Adresse: Via Maria Plozner Mentil 116, 33026 Paluzza\nOrt: Paluzza\nPLZ: 33026\nKoordinaten: 46.584671, 13.002426", "doc_type": "addresses"}
{"source": "OSM", "region": "Kärnten", "osm_type": "node", "osm_id": 3834044721, "name": null, "category": null, "address": "Via Nazionale 116, 33026 Paluzza", "street": "Via Nazionale", "housenumber": "116", "postcode": "33026", "place": "Paluzza", "lat": 46.5839578, "lon": 13.0012991, "tags": {"addr:city": "Paluzza", "addr:housenumber": "116", "addr:postcode": "33026", "addr:street": "Via Nazionale"}, "content": "Adresse: Via Nazionale 116, 33026 Paluzza\nOrt: Paluzza\nPLZ: 33026\nKoordinaten: 46.583958, 13.001299", "doc_type": "addresses"}
{"source": "OSM", "region": "Kärnten", "osm_type": "node", "osm_id": 3834044724, "name": null, "category": null, "address": "Via Maria Plozner Mentil 118, 33026 Paluzza", "street": "Via Maria Plozner Mentil", "housenumber": "118", "postcode": "33026", "place": "Paluzza", "lat": 46.5847365, "lon": 13.0023661, "tags": {"addr:city": "Paluzza", "addr:housenumber": "118", "addr:postcode": "33026", "addr:street": "Via Maria Plozner Mentil"}, "content": "Adresse: Via Maria Plozner Mentil 118, 33026 Paluzza\nOrt: Paluzza\nPLZ: 33026\nKoordinaten: 46.584736, 13.002366", "doc_type": "addresses"}
{"source": "OSM", "region": "Kärnten", "osm_type": "node", "osm_id": 3834044738, "name": null, "category": null, "address": "Via Maria Plozner Mentil 128, 33026 Paluzza", "street": "Via Maria Plozner Mentil", "housenumber": "128", "postcode": "33026", "place": "Paluzza", "lat": 46.5846683, "lon": 13.0020234, "tags": {"addr:city": "Paluzza", "addr:housenumber": "128", "addr:postcode": "33026", "addr:street": "Via Maria Plozner Mentil"}, "content": "Adresse: Via Maria Plozner Mentil 128, 33026 Paluzza\nOrt: Paluzza\nPLZ: 33026\nKoordinaten: 46.584668, 13.002023", "doc_type": "addresses"}
{"source": "OSM", "region": "Kärnten", "osm_type": "node", "osm_id": 3834044739, "name": null, "category": null, "address": "Via Maria Plozner Mentil 129, 33026 Paluzza", "street": "Via Maria Plozner Mentil", "housenumber": "129", "postcode": "33026", "place": "Paluzza", "lat": 46.5843, "lon": 13.0013334, "tags": {"addr:city": "Paluzza", "addr:housenumber": "129", "addr:postcode": "33026", "addr:street": "Via Maria Plozner Mentil"}, "content": "Adresse: Via Maria Plozner Mentil 129, 33026 Paluzza\nOrt: Paluzza\nPLZ: 33026\nKoordinaten: 46.584300, 13.001333", "doc_type": "addresses"}
{"source": "OSM", "region": "Kärnten", "osm_type": "node", "osm_id": 3834044745, "name": null, "category": null, "address": "Via Giovanni Ventitreesimo 13, 33026 Paluzza", "street": "Via Giovanni Ventitreesimo", "housenumber": "13", "postcode": "33026", "place": "Paluzza", "lat": 46.5822387, "lon": 13.0064345, "tags": {"addr:city": "Paluzza", "addr:housenumber": "13", "addr:postcode": "33026", "addr:street": "Via Giovanni Ventitreesimo"}, "content": "Adresse: Via Giovanni Ventitreesimo 13, 33026 Paluzza\nOrt: Paluzza\nPLZ: 33026\nKoordinaten: 46.582239, 13.006434", "doc_type": "addresses"}
{"source": "OSM", "region": "Kärnten", "osm_type": "node", "osm_id": 3834044755, "name": null, "category": null, "address": "Via Ventiquattro Maggio 13, 33026 Paluzza", "street": "Via Ventiquattro Maggio", "housenumber": "13", "postcode": "33026", "place": "Paluzza", "lat": 46.5817552, "lon": 13.0065582, "tags": {"addr:city": "Paluzza", "addr:housenumber": "13", "addr:postcode": "33026", "addr:street": "Via Ventiquattro Maggio"}, "content": "Adresse: Via Ventiquattro Maggio 13, 33026 Paluzza\nOrt: Paluzza\nPLZ: 33026\nKoordinaten: 46.581755, 13.006558", "doc_type": "addresses"}
{"source": "OSM", "region": "Kärnten", "osm_type": "node", "osm_id": 3834044760, "name": null, "category": null, "address": "Via Maria Plozner Mentil 1, 33026 Paluzza", "street": "Via Maria Plozner Mentil", "housenumber": "1", "postcode": "33026", "place": "Paluzza", "lat": 46.5814736, "lon": 13.005997, "tags": {"addr:city": "Paluzza", "addr:housenumber": "1", "addr:postcode": "33026", "addr:street": "Via Maria Plozner Mentil"}, "content": "Adresse: Via Maria Plozner Mentil 1, 33026 Paluzza\nOrt: Paluzza\nPLZ: 33026\nKoordinaten: 46.581474, 13.005997", "doc_type": "addresses"}
{"source": "OSM", "region": "Kärnten", "osm_type": "node", "osm_id": 3834044763, "name": null, "category": null, "address": "Via Monte Croce 1, 33026 Paluzza", "street": "Via Monte Croce", "housenumber": "1", "postcode": "33026", "place": "Paluzza", "lat": 46.5923731, "lon": 12.9566794, "tags": {"addr:city": "Paluzza", "addr:housenumber": "1", "addr:postcode": "33026", "addr:street": "Via Monte Croce"}, "content": "Adresse: Via Monte Croce 1, 33026 Paluzza\nOrt: Paluzza\nPLZ: 33026\nKoordinaten: 46.592373, 12.956679", "doc_type": "addresses"}
{"source": "OSM", "region": "Kärnten", "osm_type": "node", "osm_id": 3834045263, "name": null, "category": null, "address": "Via Velt 10, 33026 Paluzza", "street": "Via Velt", "housenumber": "10", "postcode": "33026", "place": "Paluzza", "lat": 46.5830003, "lon": 13.0059063, "tags": {"addr:city": "Paluzza", "addr:housenumber": "10", "addr:postcode": "33026", "addr:street": "Via Velt"}, "content": "Adresse: Via Velt 10, 33026 Paluzza\nOrt: Paluzza\nPLZ: 33026\nKoordinaten: 46.583000, 13.005906", "doc_type": "addresses"}
{"source": "OSM", "region": "Kärnten", "osm_type": "node", "osm_id": 3834045272, "name": null, "category": null, "address": "Via Maria Plozner Mentil 100, 33026 Paluzza", "street": "Via Maria Plozner Mentil", "housenumber": "100", "postcode": "33026", "place": "Paluzza", "lat": 46.5843022, "lon": 13.0037369, "tags": {"addr:city": "Paluzza", "addr:housenumber": "100", "addr:postcode": "33026", "addr:street": "Via Maria Plozner Mentil"}, "content": "Adresse: Via Maria Plozner Mentil 100, 33026 Paluzza\nOrt: Paluzza\nPLZ: 33026\nKoordinaten: 46.584302, 13.003737", "doc_type": "addresses"}
{"source": "OSM", "region": "Kärnten", "osm_type": "node", "osm_id": 3834045298, "name": null, "category": null, "address": "Via della Bella Cappella 13, 33026 Paluzza", "street": "Via della Bella Cappella", "housenumber": "13", "postcode": "33026", "place": "Paluzza", "lat": 46.5833608, "lon": 13.0054322, "tags": {"addr:city": "Paluzza", "addr:housenumber": "13", "addr:postcode": "33026", "addr:street": "Via della Bella Cappella"}, "content": "Adresse: Via della Bella Cappella 13, 33026 Paluzza\nOrt: Paluzza\nPLZ: 33026\nKoordinaten: 46.583361, 13.005432", "doc_type": "addresses"}
{"source": "OSM", "region": "Kärnten", "osm_type": "node", "osm_id": 3834045300, "name": null, "category": null, "address": "Via don Titta Bulfon 13, 33026 Paluzza", "street": "Via don Titta Bulfon", "housenumber": "13", "postcode": "33026", "place": "Paluzza", "lat": 46.5850053, "lon": 12.9946573, "tags": {"addr:city": "Paluzza", "addr:housenumber": "13", "addr:postcode": "33026", "addr:street": "Via don Titta Bulfon"}, "content": "Adresse: Via don Titta Bulfon 13, 33026 Paluzza\nOrt: Paluzza\nPLZ: 33026\nKoordinaten: 46.585005, 12.994657", "doc_type": "addresses"}
{"source": "OSM", "region": "Kärnten", "osm_type": "node", "osm_id": 3834045306, "name": null, "category": null, "address": "Via Maria Plozner Mentil 130, 33026 Paluzza", "street": "Via Maria Plozner Mentil", "housenumber": "130", "postcode": "33026", "place": "Paluzza", "lat": 46.5846681, "lon": 13.0019216, "tags": {"addr:city": "Paluzza", "addr:housenumber": "130", "addr:postcode": "33026", "addr:street": "Via Maria Plozner Mentil"}, "content": "Adresse: Via Maria Plozner Mentil 130, 33026 Paluzza\nOrt: Paluzza\nPLZ: 33026\nKoordinaten: 46.584668, 13.001922", "doc_type": "addresses"}
{"source": "OSM", "region": "Kärnten", "osm_type": "node", "osm_id": 3834045385, "name": null, "category": null, "address": "Via Maria Plozner Mentil 11, 33026 Paluzza", "street": "Via Maria Plozner Mentil", "housenumber": "11", "postcode": "33026", "place": "Paluzza", "lat": 46.5818659, "lon": 13.0058761, "tags": {"addr:city": "Paluzza", "addr:housenumber": "11", "addr:postcode": "33026", "addr:street": "Via Maria Plozner Mentil"}, "content": "Adresse: Via Maria Plozner Mentil 11, 33026 Paluzza\nOrt: Paluzza\nPLZ: 33026\nKoordinaten: 46.581866, 13.005876", "doc_type": "addresses"}
{"source": "OSM", "region": "Kärnten", "osm_type": "node", "osm_id": 3834045388, "name": null, "category": null, "address": "Via Pal Piccolo 11, 33026 Paluzza", "street": "Via Pal Piccolo", "housenumber": "11", "postcode": "33026", "place": "Paluzza", "lat": 46.5847055, "lon": 13.001684, "tags": {"addr:city": "Paluzza", "addr:housenumber": "11", "addr:postcode": "33026", "addr:street": "Via Pal Piccolo"}, "content": "Adresse: Via Pal Piccolo 11, 33026 Paluzza\nOrt: Paluzza\nPLZ: 33026\nKoordinaten: 46.584705, 13.001684", "doc_type": "addresses"}
{"source": "OSM", "region": "Kärnten", "osm_type": "node", "osm_id": 3834045514, "name": null, "category": null, "address": "Via Maria Plozner Mentil 12, 33026 Paluzza", "street": "Via Maria Plozner Mentil", "housenumber": "12", "postcode": "33026", "place": "Paluzza", "lat": 46.5816093, "lon": 13.0060893, "tags": {"addr:city": "Paluzza", "addr:housenumber": "12", "addr:postcode": "33026", "addr:street": "Via Maria Plozner Mentil"}, "content": "Adresse: Via Maria Plozner Mentil 12, 33026 Paluzza\nOrt: Paluzza\nPLZ: 33026\nKoordinaten: 46.581609, 13.006089", "doc_type": "addresses"}
{"source": "OSM", "region": "Kärnten", "osm_type": "node", "osm_id": 3834045515, "name": null, "category": null, "address": "Via Monte Coglians 12, 33026 Paluzza", "street": "Via Monte Coglians", "housenumber": "12", "postcode": "33026", "place": "Paluzza", "lat": 46.5842402, "lon": 13.0020161, "tags": {"addr:city": "Paluzza", "addr:housenumber": "12", "addr:postcode": "33026", "addr:street": "Via Monte Coglians"}, "content": "Adresse: Via Monte Coglians 12, 33026 Paluzza\nOrt: Paluzza\nPLZ: 33026\nKoordinaten: 46.584240, 13.002016", "doc_type": "addresses"}
{"source": "OSM", "region": "Kärnten", "osm_type": "node", "osm_id": 3834045532, "name": null, "category": null, "address": "Via Seleit 12, 33026 Paluzza", "street": "Via Seleit", "housenumber": "12", "postcode": "33026", "place": "Paluzza", "lat": 46.5816833, "lon": 13.0080521, "tags": {"addr:city": "Paluzza", "addr:housenumber": "12", "addr:postcode": "33026", "addr:street": "Via Seleit"}, "content": "Adresse: Via Seleit 12, 33026 Paluzza\nOrt: Paluzza\nPLZ: 33026\nKoordinaten: 46.581683, 13.008052", "doc_type": "addresses"}
{"source": "OSM", "region": "Kärnten", "osm_type": "node", "osm_id": 3834045533, "name": null, "category": null, "address": "Via Velt 12, 33026 Paluzza", "street": "Via Velt", "housenumber": "12", "postcode": "33026", "place": "Paluzza", "lat": 46.5830607, "lon": 13.0059851, "tags": {"addr:city": "Paluzza", "addr:housenumber": "12", "addr:postcode": "33026", "addr:street": "Via Velt"}, "content": "Adresse: Via Velt 12, 33026 Paluzza\nOrt: Paluzza\nPLZ: 33026\nKoordinaten: 46.583061, 13.005985", "doc_type": "addresses"}
{"source": "OSM", "region": "Kärnten", "osm_type": "node", "osm_id": 3834045540, "name": null, "category": null, "address": "Via Maria Plozner Mentil 120, 33026 Paluzza", "street": "Via Maria Plozner Mentil", "housenumber": "120", "postcode": "33026", "place": "Paluzza", "lat": 46.5847751, "lon": 13.0022836, "tags": {"addr:city": "Paluzza", "addr:housenumber": "120", "addr:postcode": "33026", "addr:street": "Via Maria Plozner Mentil"}, "content": "Adresse: Via Maria Plozner Mentil 120, 33026 Paluzza\nOrt: Paluzza\nPLZ: 33026\nKoordinaten: 46.584775, 13.002284", "doc_type": "addresses"}
{"source": "OSM", "region": "Kärnten", "osm_type": "node", "osm_id": 3834045544, "name": null, "category": null, "address": "Via Nazionale 122, 33026 Paluzza", "street": "Via Nazionale", "housenumber": "122", "postcode": "33026", "place": "Paluzza", "lat": 46.5842432, "lon": 13.0004672, "tags": {"addr:city": "Paluzza", "addr:housenumber": "122", "addr:postcode": "33026", "addr:street": "Via Nazionale"}, "content": "Adresse: Via Nazionale 122, 33026 Paluzza\nOrt: Paluzza\nPLZ: 33026\nKoordinaten: 46.584243, 13.000467", "doc_type": "addresses"}
{"source": "OSM", "region": "Kärnten", "osm_type": "node", "osm_id": 3834045556, "name": null, "category": null, "address": "Via Maria Plozner Mentil 123, 33026 Paluzza", "street": "Via Maria Plozner Mentil", "housenumber": "123", "postcode": "33026", "place": "Paluzza", "lat": 46.5843316, "lon": 13.0015065, "tags": {"addr:city": "Paluzza", "addr:housenumber": "123", "addr:postcode": "33026", "addr:street": "Via Maria Plozner Mentil"}, "content": "Adresse: Via Maria Plozner Mentil 123, 33026 Paluzza\nOrt: Paluzza\nPLZ: 33026\nKoordinaten: 46.584332, 13.001506", "doc_type": "addresses"}
{"source": "OSM", "region": "Kärnten", "osm_type": "node", "osm_id": 3834045788, "name": null, "category": null, "address": "Via Maria Plozner Mentil 131, 33026 Paluzza", "street": "Via Maria Plozner Mentil", "housenumber": "131", "postcode": "33026", "place": "Paluzza", "lat": 46.5843076, "lon": 13.0011769, "tags": {"addr:city": "Paluzza", "addr:housenumber": "131", "addr:postcode": "33026", "addr:street": "Via Maria Plozner Mentil"}, "content": "Adresse: Via Maria Plozner Mentil 131, 33026 Paluzza\nOrt: Paluzza\nPLZ: 33026\nKoordinaten: 46.584308, 13.001177", "doc_type": "addresses"}
{"source": "OSM", "region": "Kärnten", "osm_type": "node", "osm_id": 3834045790, "name": null, "category": null, "address": "Via Maria Plozner Mentil 132, 33026 Paluzza", "street": "Via Maria Plozner Mentil", "housenumber": "132", "postcode": "33026", "place": "Paluzza", "lat": 46.584567, "lon": 13.001798, "tags": {"addr:city": "Paluzza", "addr:housenumber": "132", "addr:postcode": "33026", "addr:street": "Via Maria Plozner Mentil"}, "content": "Adresse: Via Maria Plozner Mentil 132, 33026 Paluzza\nOrt: Paluzza\nPLZ: 33026\nKoordinaten: 46.584567, 13.001798", "doc_type": "addresses"}
{"source": "OSM", "region": "Kärnten", "osm_type": "node", "osm_id": 3834045791, "name": null, "category": null, "address": "Via Maria Plozner Mentil 133, 33026 Paluzza", "street": "Via Maria Plozner Mentil", "housenumber": "133", "postcode": "33026", "place": "Paluzza", "lat": 46.5843067, "lon": 13.0011286, "tags": {"addr:city": "Paluzza", "addr:housenumber": "133", "addr:postcode": "33026", "addr:street": "Via Maria Plozner Mentil"}, "content": "Adresse: Via Maria Plozner Mentil 133, 33026 Paluzza\nOrt: Paluzza\nPLZ: 33026\nKoordinaten: 46.584307, 13.001129", "doc_type": "addresses"}
{"source": "OSM", "region": "Kärnten", "osm_type": "node", "osm_id": 3834045793, "name": null, "category": null, "address": "Via Maria Plozner Mentil 135, 33026 Paluzza", "street": "Via Maria Plozner Mentil", "housenumber": "135", "postcode": "33026", "place": "Paluzza", "lat": 46.584381, "lon": 13.0006995, "tags": {"addr:city": "Paluzza", "addr:housenumber": "135", "addr:postcode": "33026", "addr:street": "Via Maria Plozner Mentil"}, "content": "Adresse: Via Maria Plozner Mentil 135, 33026 Paluzza\nOrt: Paluzza\nPLZ: 33026\nKoordinaten: 46.584381, 13.000699", "doc_type": "addresses"}
{"source": "OSM", "region": "Kärnten", "osm_type": "node", "osm_id": 3834045796, "name": null, "category": null, "address": "Via Maria Plozner Mentil 138, 33026 Paluzza", "street": "Via Maria Plozner Mentil", "housenumber": "138", "postcode": "33026", "place": "Paluzza", "lat": 46.5844843, "lon": 13.0016019, "tags": {"addr:city": "Paluzza", "addr:housenumber": "138", "addr:postcode": "33026", "addr:street": "Via Maria Plozner Mentil"}, "content": "Adresse: Via Maria Plozner Mentil 138, 33026 Paluzza\nOrt: Paluzza\nPLZ: 33026\nKoordinaten: 46.584484, 13.001602", "doc_type": "addresses"}
{"source": "OSM", "region": "Kärnten", "osm_type": "node", "osm_id": 3834045797, "name": null, "category": null, "address": "Via Maria Plozner Mentil 139, 33026 Paluzza", "street": "Via Maria Plozner Mentil", "housenumber": "139", "postcode": "33026", "place": "Paluzza", "lat": 46.5844668, "lon": 13.0001472, "tags": {"addr:city": "Paluzza", "addr:housenumber": "139", "addr:postcode": "33026", "addr:street": "Via Maria Plozner Mentil"}, "content": "Adresse: Via Maria Plozner Mentil 139, 33026 Paluzza\nOrt: Paluzza\nPLZ: 33026\nKoordinaten: 46.584467, 13.000147", "doc_type": "addresses"}
{"source": "OSM", "region": "Kärnten", "osm_type": "node", "osm_id": 3834045803, "name": null, "category": null, "address": "Via Maria Plozner Mentil 150, 33026 Paluzza", "street": "Via Maria Plozner Mentil", "housenumber": "150", "postcode": "33026", "place": "Paluzza", "lat": 46.5843791, "lon": 13.0013064, "tags": {"addr:city": "Paluzza", "addr:housenumber": "150", "addr:postcode": "33026", "addr:street": "Via Maria Plozner Mentil"}, "content": "Adresse: Via Maria Plozner Mentil 150, 33026 Paluzza\nOrt: Paluzza\nPLZ: 33026\nKoordinaten: 46.584379, 13.001306", "doc_type": "addresses"}
{"source": "OSM", "region": "Kärnten", "osm_type": "node", "osm_id": 3834045804, "name": null, "category": null, "address": "Via Maria Plozner Mentil 158, 33026 Paluzza", "street": "Via Maria Plozner Mentil", "housenumber": "158", "postcode": "33026", "place": "Paluzza", "lat": 46.5845107, "lon": 13.0008364, "tags": {"addr:city": "Paluzza", "addr:housenumber": "158", "addr:postcode": "33026", "addr:street": "Via Maria Plozner Mentil"}, "content": "Adresse: Via Maria Plozner Mentil 158, 33026 Paluzza\nOrt: Paluzza\nPLZ: 33026\nKoordinaten: 46.584511, 13.000836", "doc_type": "addresses"}
{"source": "OSM", "region": "Kärnten", "osm_type": "node", "osm_id": 3834045963, "name": null, "category": null, "address": "Via Seleit 10, 33026 Paluzza", "street": "Via Seleit", "housenumber": "10", "postcode": "33026", "place": "Paluzza", "lat": 46.5814102, "lon": 13.0076379, "tags": {"addr:city": "Paluzza", "addr:housenumber": "10", "addr:postcode": "33026", "addr:street": "Via Seleit"}, "content": "Adresse: Via Seleit 10, 33026 Paluzza\nOrt: Paluzza\nPLZ: 33026\nKoordinaten: 46.581410, 13.007638", "doc_type": "addresses"}
{"source": "OSM", "region": "Kärnten", "osm_type": "node", "osm_id": 3834045964, "name": null, "category": null, "address": "Via Seleit 10, 33026 Paluzza", "street": "Via Seleit", "housenumber": "10", "postcode": "33026", "place": "Paluzza", "lat": 46.5814284, "lon": 13.007614, "tags": {"addr:city": "Paluzza", "addr:housenumber": "10", "addr:postcode": "33026", "addr:street": "Via Seleit"}, "content": "Adresse: Via Seleit 10, 33026 Paluzza\nOrt: Paluzza\nPLZ: 33026\nKoordinaten: 46.581428, 13.007614", "doc_type": "addresses"}
{"source": "OSM", "region": "Kärnten", "osm_type": "node", "osm_id": 3834045995, "name": null, "category": null, "address": "Via Maria Plozner Mentil 14, 33026 Paluzza", "street": "Via Maria Plozner Mentil", "housenumber": "14", "postcode": "33026", "place": "Paluzza", "lat": 46.5816359, "lon": 13.0060512, "tags": {"addr:city": "Paluzza", "addr:housenumber": "14", "addr:postcode": "33026", "addr:street": "Via Maria Plozner Mentil"}, "content": "Adresse: Via Maria Plozner Mentil 14, 33026 Paluzza\nOrt: Paluzza\nPLZ: 33026\nKoordinaten: 46.581636, 13.006051", "doc_type": "addresses"}
{"source": "OSM", "region": "Kärnten", "osm_type": "node", "osm_id": 3834046003, "name": null, "category": null, "address": "Via Maria Plozner Mentil 142, 33026 Paluzza", "street": "Via Maria Plozner Mentil", "housenumber": "142", "postcode": "33026", "place": "Paluzza", "lat": 46.5844028, "lon": 13.0014859, "tags": {"addr:city": "Paluzza", "addr:housenumber": "142", "addr:postcode": "33026", "addr:street": "Via Maria Plozner Mentil"}, "content": "Adresse: Via Maria Plozner Mentil 142, 33026 Paluzza\nOrt: Paluzza\nPLZ: 33026\nKoordinaten: 46.584403, 13.001486", "doc_type": "addresses"}
{"source": "OSM", "region": "Kärnten", "osm_type": "node", "osm_id": 3834046004, "name": null, "category": null, "address": "Via Nazionale 142, 33026 Paluzza", "street": "Via Nazionale", "housenumber": "142", "postcode": "33026", "place": "Paluzza", "lat": 46.5853614, "lon": 12.9968688, "tags": {"addr:city": "Paluzza", "addr:housenumber": "142", "addr:postcode": "33026", "addr:street": "Via Nazionale"}, "content": "Adresse: Via Nazionale 142, 33026 Paluzza\nOrt: Paluzza\nPLZ: 33026\nKoordinaten: 46.585361, 12.996869", "doc_type": "addresses"}
{"source": "OSM", "region": "Kärnten", "osm_type": "node", "osm_id": 3834046006, "name": null, "category": null, "address": "Via Nazionale 144, 33026 Paluzza", "street": "Via Nazionale", "housenumber": "144", "postcode": "33026", "place": "Paluzza", "lat": 46.5853949, "lon": 12.9967517, "tags": {"addr:city": "Paluzza", "addr:housenumber": "144", "addr:postcode": "33026", "addr:street": "Via Nazionale"}, "content": "Adresse: Via Nazionale 144, 33026 Paluzza\nOrt: Paluzza\nPLZ: 33026\nKoordinaten: 46.585395, 12.996752", "doc_type": "addresses"}
{"source": "OSM", "region": "Kärnten", "osm_type": "node", "osm_id": 3834046008, "name": null, "category": null, "address": "Via Maria Plozner Mentil 146, 33026 Paluzza", "street": "Via Maria Plozner Mentil", "housenumber": "146", "postcode": "33026", "place": "Paluzza", "lat": 46.5844917, "lon": 13.001438, "tags": {"addr:city": "Paluzza", "addr:housenumber": "146", "addr:postcode": "33026", "addr:street": "Via Maria Plozner Mentil"}, "content": "Adresse: Via Maria Plozner Mentil 146, 33026 Paluzza\nOrt: Paluzza\nPLZ: 33026\nKoordinaten: 46.584492, 13.001438", "doc_type": "addresses"}
{"source": "OSM", "region": "Kärnten", "osm_type": "node", "osm_id": 3834046009, "name": null, "category": null, "address": "Via Nazionale 146, 33026 Paluzza", "street": "Via Nazionale", "housenumber": "146", "postcode": "33026", "place": "Paluzza", "lat": 46.5855138, "lon": 12.9966957, "tags": {"addr:city": "Paluzza", "addr:housenumber": "146", "addr:postcode": "33026", "addr:street": "Via Nazionale"}, "content": "Adresse: Via Nazionale 146, 33026 Paluzza\nOrt: Paluzza\nPLZ: 33026\nKoordinaten: 46.585514, 12.996696", "doc_type": "addresses"}
{"source": "OSM", "region": "Kärnten", "osm_type": "node", "osm_id": 3834046010, "name": null, "category": null, "address": "Via Maria Plozner Mentil 147, 33026 Paluzza", "street": "Via Maria Plozner Mentil", "housenumber": "147", "postcode": "33026", "place": "Paluzza", "lat": 46.5844936, "lon": 12.9997204, "tags": {"addr:city": "Paluzza", "addr:housenumber": "147", "addr:postcode": "33026", "addr:street": "Via Maria Plozner Mentil"}, "content": "Adresse: Via Maria Plozner Mentil 147, 33026 Paluzza\nOrt: Paluzza\nPLZ: 33026\nKoordinaten: 46.584494, 12.999720", "doc_type": "addresses"}
{"source": "OSM", "region": "Kärnten", "osm_type": "node", "osm_id": 3834046011, "name": null, "category": null, "address": "Via Maria Plozner Mentil 148, 33026 Paluzza", "street": "Via Maria Plozner Mentil", "housenumber": "148", "postcode": "33026", "place": "Paluzza", "lat": 46.5844479, "lon": 13.0013521, "tags": {"addr:city": "Paluzza", "addr:housenumber": "148", "addr:postcode": "33026", "addr:street": "Via Maria Plozner Mentil"}, "content": "Adresse: Via Maria Plozner Mentil 148, 33026 Paluzza\nOrt: Paluzza\nPLZ: 33026\nKoordinaten: 46.584448, 13.001352", "doc_type": "addresses"}
{"source": "OSM", "region": "Kärnten", "osm_type": "node", "osm_id": 3834046020, "name": null, "category": null, "address": "Via Giovanni Ventitreesimo 15, 33026 Paluzza", "street": "Via Giovanni Ventitreesimo", "housenumber": "15", "postcode": "33026", "place": "Paluzza", "lat": 46.5822633, "lon": 13.0064951, "tags": {"addr:city": "Paluzza", "addr:housenumber": "15", "addr:postcode": "33026", "addr:street": "Via Giovanni Ventitreesimo"}, "content": "Adresse: Via Giovanni Ventitreesimo 15, 33026 Paluzza\nOrt: Paluzza\nPLZ: 33026\nKoordinaten: 46.582263, 13.006495", "doc_type": "addresses"}
{"source": "OSM", "region": "Kärnten", "osm_type": "node", "osm_id": 3834046023, "name": null, "category": null, "address": "Via Maria Plozner Mentil 15, 33026 Paluzza", "street": "Via Maria Plozner Mentil", "housenumber": "15", "postcode": "33026", "place": "Paluzza", "lat": 46.5819407, "lon": 13.0058617, "tags": {"addr:city": "Paluzza", "addr:housenumber": "15", "addr:postcode": "33026", "addr:street": "Via Maria Plozner Mentil"}, "content": "Adresse: Via Maria Plozner Mentil 15, 33026 Paluzza\nOrt: Paluzza\nPLZ: 33026\nKoordinaten: 46.581941, 13.005862", "doc_type": "addresses"}
{"source": "OSM", "region": "Kärnten", "osm_type": "node", "osm_id": 3834046024, "name": null, "category": null, "address": "Via Monte Coglians 15, 33026 Paluzza", "street": "Via Monte Coglians", "housenumber": "15", "postcode": "33026", "place": "Paluzza", "lat": 46.5843733, "lon": 13.0017704, "tags": {"addr:city": "Paluzza", "addr:housenumber": "15", "addr:postcode": "33026", "addr:street": "Via Monte Coglians"}, "content": "Adresse: Via Monte Coglians 15, 33026 Paluzza\nOrt: Paluzza\nPLZ: 33026\nKoordinaten: 46.584373, 13.001770", "doc_type": "addresses"}
{"source": "OSM", "region": "Kärnten", "osm_type": "node", "osm_id": 3834046300, "name": null, "category": null, "address": "Via Maria Plozner Mentil 17, 33026 Paluzza", "street": "Via Maria Plozner Mentil", "housenumber": "17", "postcode": "33026", "place": "Paluzza", "lat": 46.5819822, "lon": 13.0058557, "tags": {"addr:city": "Paluzza", "addr:housenumber": "17", "addr:postcode": "33026", "addr:street": "Via Maria Plozner Mentil"}, "content": "Adresse: Via Maria Plozner Mentil 17, 33026 Paluzza\nOrt: Paluzza\nPLZ: 33026\nKoordinaten: 46.581982, 13.005856", "doc_type": "addresses"}
{"source": "OSM", "region": "Kärnten", "osm_type": "node", "osm_id": 3834046322, "name": null, "category": null, "address": "Via della Bella Cappella 2, 33026 Paluzza", "street": "Via della Bella Cappella", "housenumber": "2", "postcode": "33026", "place": "Paluzza", "lat": 46.5833364, "lon": 13.0047568, "tags": {"addr:city": "Paluzza", "addr:housenumber": "2", "addr:postcode": "33026", "addr:street": "Via della Bella Cappella"}, "content": "Adresse: Via della Bella Cappella 2, 33026 Paluzza\nOrt: Paluzza\nPLZ: 33026\nKoordinaten: 46.583336, 13.004757", "doc_type": "addresses"}
{"source": "OSM", "region": "Kärnten", "osm_type": "node", "osm_id": 3834046358, "name": null, "category": null, "address": "Via Nazionale 124, 33026 Paluzza", "street": "Via Nazionale", "housenumber": "124", "postcode": "33026", "place": "Paluzza", "lat": 46.5843869, "lon": 13.0002224, "tags": {"addr:city": "Paluzza", "addr:housenumber": "124", "addr:postcode": "33026", "addr:street": "Via Nazionale"}, "content": "Adresse: Via Nazionale 124, 33026 Paluzza\nOrt: Paluzza\nPLZ: 33026\nKoordinaten: 46.584387, 13.000222", "doc_type": "addresses"}
{"source": "OSM", "region": "Kärnten", "osm_type": "node", "osm_id": 3834046360, "name": null, "category": null, "address": "Via Maria Plozner Mentil 125, 33026 Paluzza", "street": "Via Maria Plozner Mentil", "housenumber": "125", "postcode": "33026", "place": "Paluzza", "lat": 46.5843024, "lon": 13.0014426, "tags": {"addr:city": "Paluzza", "addr:housenumber": "125", "addr:postcode": "33026", "addr:street": "Via Maria Plozner Mentil"}, "content": "Adresse: Via Maria Plozner Mentil 125, 33026 Paluzza\nOrt: Paluzza\nPLZ: 33026\nKoordinaten: 46.584302, 13.001443", "doc_type": "addresses"}
{"source": "OSM", "region": "Kärnten", "osm_type": "node", "osm_id": 3834046363, "name": null, "category": null, "address": "Via Maria Plozner Mentil 126, 33026 Paluzza", "street": "Via Maria Plozner Mentil", "housenumber": "126", "postcode": "33026", "place": "Paluzza", "lat": 46.5846622, "lon": 13.0022206, "tags": {"addr:city": "Paluzza", "addr:housenumber": "126", "addr:postcode": "33026", "addr:street": "Via Maria Plozner Mentil"}, "content": "Adresse: Via Maria Plozner Mentil 126, 33026 Paluzza\nOrt: Paluzza\nPLZ: 33026\nKoordinaten: 46.584662, 13.002221", "doc_type": "addresses"}
{"source": "OSM", "region": "Kärnten", "osm_type": "node", "osm_id": 3834046364, "name": null, "category": null, "address": "Via Nazionale 126, 33026 Paluzza", "street": "Via Nazionale", "housenumber": "126", "postcode": "33026", "place": "Paluzza", "lat": 46.5843326, "lon": 12.9998743, "tags": {"addr:city": "Paluzza", "addr:housenumber": "126", "addr:postcode": "33026", "addr:street": "Via Nazionale"}, "content": "Adresse: Via Nazionale 126, 33026 Paluzza\nOrt: Paluzza\nPLZ: 33026\nKoordinaten: 46.584333, 12.999874", "doc_type": "addresses"}
{"source": "OSM", "region": "Kärnten", "osm_type": "node", "osm_id": 3834046434, "name": null, "category": null, "address": "Via Ventiquattro Maggio 14, 33026 Paluzza", "street": "Via Ventiquattro Maggio", "housenumber": "14", "postcode": "33026", "place": "Paluzza", "lat": 46.581763, "lon": 13.0070058, "tags": {"addr:city": "Paluzza", "addr:housenumber": "14", "addr:postcode": "33026", "addr:street": "Via Ventiquattro Maggio"}, "content": "Adresse: Via Ventiquattro Maggio 14, 33026 Paluzza\nOrt: Paluzza\nPLZ: 33026\nKoordinaten: 46.581763, 13.007006", "doc_type": "addresses"}
{"source": "OSM", "region": "Kärnten", "osm_type": "node", "osm_id": 3834046440, "name": null, "category": null, "address": "Via Maria Plozner Mentil 140, 33026 Paluzza", "street": "Via Maria Plozner Mentil", "housenumber": "140", "postcode": "33026", "place": "Paluzza", "lat": 46.5844331, "lon": 13.0015332, "tags": {"addr:city": "Paluzza", "addr:housenumber": "140", "addr:postcode": "33026", "addr:street": "Via Maria Plozner Mentil"}, "content": "Adresse: Via Maria Plozner Mentil 140, 33026 Paluzza\nOrt: Paluzza\nPLZ: 33026\nKoordinaten: 46.584433, 13.001533", "doc_type": "addresses"}
{"source": "OSM", "region": "Kärnten", "osm_type": "node", "osm_id": 3834046441, "name": null, "category": null, "address": "Via Nazionale 140, 33026 Paluzza", "street": "Via Nazionale", "housenumber": "140", "postcode": "33026", "place": "Paluzza", "lat": 46.5853343, "lon": 12.9969664, "tags": {"addr:city": "Paluzza", "addr:housenumber": "140", "addr:postcode": "33026", "addr:street": "Via Nazionale"}, "content": "Adresse: Via Nazionale 140, 33026 Paluzza\nOrt: Paluzza\nPLZ: 33026\nKoordinaten: 46.585334, 12.996966", "doc_type": "addresses"}
{"source": "OSM", "region": "Kärnten", "osm_type": "node", "osm_id": 3834046442, "name": null, "category": null, "address": "Via Maria Plozner Mentil 141, 33026 Paluzza", "street": "Via Maria Plozner Mentil", "housenumber": "141", "postcode": "33026", "place": "Paluzza", "lat": 46.5844814, "lon": 13.0000451, "tags": {"addr:city": "Paluzza", "addr:housenumber": "141", "addr:postcode": "33026", "addr:street": "Via Maria Plozner Mentil"}, "content": "Adresse: Via Maria Plozner Mentil 141, 33026 Paluzza\nOrt: Paluzza\nPLZ: 33026\nKoordinaten: 46.584481, 13.000045", "doc_type": "addresses"}
{"source": "OSM", "region": "Kärnten", "osm_type": "node", "osm_id": 3834046448, "name": null, "category": null, "address": "Via Monte Croce 15, 33026 Paluzza", "street": "Via Monte Croce", "housenumber": "15", "postcode": "33026", "place": "Paluzza", "lat": 46.6034592, "lon": 12.9449129, "tags": {"addr:city": "Paluzza", "addr:housenumber": "15", "addr:postcode": "33026", "addr:street": "Via Monte Croce"}, "content": "Adresse: Via Monte Croce 15, 33026 Paluzza\nOrt: Paluzza\nPLZ: 33026\nKoordinaten: 46.603459, 12.944913", "doc_type": "addresses"}
{"source": "OSM", "region": "Kärnten", "osm_type": "node", "osm_id": 3834046550, "name": null, "category": null, "address": "Via Maria Plozner Mentil 13, 33026 Paluzza", "street": "Via Maria Plozner Mentil", "housenumber": "13", "postcode": "33026", "place": "Paluzza", "lat": 46.5818994, "lon": 13.0058725, "tags": {"addr:city": "Paluzza", "addr:housenumber": "13", "addr:postcode": "33026", "addr:street": "Via Maria Plozner Mentil"}, "content": "Adresse: Via Maria Plozner Mentil 13, 33026 Paluzza\nOrt: Paluzza\nPLZ: 33026\nKoordinaten: 46.581899, 13.005873", "doc_type": "addresses"}
{"source": "OSM", "region": "Kärnten", "osm_type": "node", "osm_id": 3834046553, "name": null, "category": null, "address": "Via Monte Coglians 13, 33026 Paluzza", "street": "Via Monte Coglians", "housenumber": "13", "postcode": "33026", "place": "Paluzza", "lat": 46.5843063, "lon": 13.0016871, "tags": {"addr:city": "Paluzza", "addr:housenumber": "13", "addr:postcode": "33026", "addr:street": "Via Monte Coglians"}, "content": "Adresse: Via Monte Coglians 13, 33026 Paluzza\nOrt: Paluzza\nPLZ: 33026\nKoordinaten: 46.584306, 13.001687", "doc_type": "addresses"}
{"source": "OSM", "region": "Kärnten", "osm_type": "node", "osm_id": 3834046558, "name": null, "category": null, "address": "Via Pal Piccolo 13, 33026 Paluzza", "street": "Via Pal Piccolo", "housenumber": "13", "postcode": "33026", "place": "Paluzza", "lat": 46.5849155, "lon": 13.0015465, "tags": {"addr:city": "Paluzza", "addr:housenumber": "13", "addr:postcode": "33026", "addr:street": "Via Pal Piccolo"}, "content": "Adresse: Via Pal Piccolo 13, 33026 Paluzza\nOrt: Paluzza\nPLZ: 33026\nKoordinaten: 46.584916, 13.001546", "doc_type": "addresses"}
{"source": "OSM", "region": "Kärnten", "osm_type": "node", "osm_id": 3834046865, "name": null, "category": null, "address": "Via Seleit 14, 33026 Paluzza", "street": "Via Seleit", "housenumber": "14", "postcode": "33026", "place": "Paluzza", "lat": 46.5814122, "lon": 13.008062, "tags": {"addr:city": "Paluzza", "addr:housenumber": "14", "addr:postcode": "33026", "addr:street": "Via Seleit"}, "content": "Adresse: Via Seleit 14, 33026 Paluzza\nOrt: Paluzza\nPLZ: 33026\nKoordinaten: 46.581412, 13.008062", "doc_type": "addresses"}
{"source": "OSM", "region": "Kärnten", "osm_type": "node", "osm_id": 3834046866, "name": null, "category": null, "address": "Via Velt 14, 33026 Paluzza", "street": "Via Velt", "housenumber": "14", "postcode": "33026", "place": "Paluzza", "lat": 46.5831422, "lon": 13.0059914, "tags": {"addr:city": "Paluzza", "addr:housenumber": "14", "addr:postcode": "33026", "addr:street": "Via Velt"}, "content": "Adresse: Via Velt 14, 33026 Paluzza\nOrt: Paluzza\nPLZ: 33026\nKoordinaten: 46.583142, 13.005991", "doc_type": "addresses"}
{"source": "OSM", "region": "Kärnten", "osm_type": "node", "osm_id": 3834046961, "name": null, "category": null, "address": "Via Velt 15, 33026 Paluzza", "street": "Via Velt", "housenumber": "15", "postcode": "33026", "place": "Paluzza", "lat": 46.5829431, "lon": 13.0057416, "tags": {"addr:city": "Paluzza", "addr:housenumber": "15", "addr:postcode": "33026", "addr:street": "Via Velt"}, "content": "Adresse: Via Velt 15, 33026 Paluzza\nOrt: Paluzza\nPLZ: 33026\nKoordinaten: 46.582943, 13.005742", "doc_type": "addresses"}
{"source": "OSM", "region": "Kärnten", "osm_type": "node", "osm_id": 3834046962, "name": null, "category": null, "address": "Via Ventiquattro Maggio 15, 33026 Paluzza", "street": "Via Ventiquattro Maggio", "housenumber": "15", "postcode": "33026", "place": "Paluzza", "lat": 46.5817702, "lon": 13.006609, "tags": {"addr:city": "Paluzza", "addr:housenumber": "15", "addr:postcode": "33026", "addr:street": "Via Ventiquattro Maggio"}, "content": "Adresse: Via Ventiquattro Maggio 15, 33026 Paluzza\nOrt: Paluzza\nPLZ: 33026\nKoordinaten: 46.581770, 13.006609", "doc_type": "addresses"}
{"source": "OSM", "region": "Kärnten", "osm_type": "node", "osm_id": 3834046965, "name": null, "category": null, "address": "Via della Bella Cappella 15, 33026 Paluzza", "street": "Via della Bella Cappella", "housenumber": "15", "postcode": "33026", "place": "Paluzza", "lat": 46.584089, "lon": 13.0046945, "tags": {"addr:city": "Paluzza", "addr:housenumber": "15", "addr:postcode": "33026", "addr:street": "Via della Bella Cappella"}, "content": "Adresse: Via della Bella Cappella 15, 33026 Paluzza\nOrt: Paluzza\nPLZ: 33026\nKoordinaten: 46.584089, 13.004694", "doc_type": "addresses"}
{"source": "OSM", "region": "Kärnten", "osm_type": "node", "osm_id": 3834046982, "name": null, "category": null, "address": "Via Maria Plozner Mentil 176, 33026 Paluzza", "street": "Via Maria Plozner Mentil", "housenumber": "176", "postcode": "33026", "place": "Paluzza", "lat": 46.5846501, "lon": 13.0004063, "tags": {"addr:city": "Paluzza", "addr:housenumber": "176", "addr:postcode": "33026", "addr:street": "Via Maria Plozner Mentil"}, "content": "Adresse: Via Maria Plozner Mentil 176, 33026 Paluzza\nOrt: Paluzza\nPLZ: 33026\nKoordinaten: 46.584650, 13.000406", "doc_type": "addresses"}
{"source": "OSM", "region": "Kärnten", "osm_type": "node", "osm_id": 3834046983, "name": null, "category": null, "address": "Via Maria Plozner Mentil 178, 33026 Paluzza", "street": "Via Maria Plozner Mentil", "housenumber": "178", "postcode": "33026", "place": "Paluzza", "lat": 46.5845249, "lon": 13.0003245, "tags": {"addr:city": "Paluzza", "addr:housenumber": "178", "addr:postcode": "33026", "addr:street": "Via Maria Plozner Mentil"}, "content": "Adresse: Via Maria Plozner Mentil 178, 33026 Paluzza\nOrt: Paluzza\nPLZ: 33026\nKoordinaten: 46.584525, 13.000324", "doc_type": "addresses"}
{"source": "OSM", "region": "Kärnten", "osm_type": "node", "osm_id": 3834046990, "name": null, "category": null, "address": "Via Maria Plozner Mentil 18, 33026 Paluzza", "street": "Via Maria Plozner Mentil", "housenumber": "18", "postcode": "33026", "place": "Paluzza", "lat": 46.5819354, "lon": 13.0060102, "tags": {"addr:city": "Paluzza", "addr:housenumber": "18", "addr:postcode": "33026", "addr:street": "Via Maria Plozner Mentil"}, "content": "Adresse: Via Maria Plozner Mentil 18, 33026 Paluzza\nOrt: Paluzza\nPLZ: 33026\nKoordinaten: 46.581935, 13.006010", "doc_type": "addresses"}
{"source": "OSM", "region": "Kärnten", "osm_type": "node", "osm_id": 3834046991, "name": null, "category": null, "address": "Via Monte Coglians 18, 33026 Paluzza", "street": "Via Monte Coglians", "housenumber": "18", "postcode": "33026", "place": "Paluzza", "lat": 46.5843589, "lon": 13.0018658, "tags": {"addr:city": "Paluzza", "addr:housenumber": "18", "addr:postcode": "33026", "addr:street": "Via Monte Coglians"}, "content": "Adresse: Via Monte Coglians 18, 33026 Paluzza\nOrt: Paluzza\nPLZ: 33026\nKoordinaten: 46.584359, 13.001866", "doc_type": "addresses"}
{"source": "OSM", "region": "Kärnten", "osm_type": "node", "osm_id": 3834047161, "name": null, "category": null, "address": "Via Maria Plozner Mentil 160, 33026 Paluzza", "street": "Via Maria Plozner Mentil", "housenumber": "160", "postcode": "33026", "place": "Paluzza", "lat": 46.5844194, "lon": 13.0008957, "tags": {"addr:city": "Paluzza", "addr:housenumber": "160", "addr:postcode": "33026", "addr:street": "Via Maria Plozner Mentil"}, "content": "Adresse: Via Maria Plozner Mentil 160, 33026 Paluzza\nOrt: Paluzza\nPLZ: 33026\nKoordinaten: 46.584419, 13.000896", "doc_type": "addresses"}
{"source": "OSM", "region": "Kärnten", "osm_type": "node", "osm_id": 3834047162, "name": null, "category": null, "address": "Via Maria Plozner Mentil 163, 33026 Paluzza", "street": "Via Maria Plozner Mentil", "housenumber": "163", "postcode": "33026", "place": "Paluzza", "lat": 46.5846816, "lon": 12.9983587, "tags": {"addr:city": "Paluzza", "addr:housenumber": "163", "addr:postcode": "33026", "addr:street": "Via Maria Plozner Mentil"}, "content": "Adresse: Via Maria Plozner Mentil 163, 33026 Paluzza\nOrt: Paluzza\nPLZ: 33026\nKoordinaten: 46.584682, 12.998359", "doc_type": "addresses"}
{"source": "OSM", "region": "Kärnten", "osm_type": "node", "osm_id": 3834047172, "name": null, "category": null, "address": "Via Velt 17, 33026 Paluzza", "street": "Via Velt", "housenumber": "17", "postcode": "33026", "place": "Paluzza", "lat": 46.5829009, "lon": 13.0057987, "tags": {"addr:city": "Paluzza", "addr:housenumber": "17", "addr:postcode": "33026", "addr:street": "Via Velt"}, "content": "Adresse: Via Velt 17, 33026 Paluzza\nOrt: Paluzza\nPLZ: 33026\nKoordinaten: 46.582901, 13.005799", "doc_type": "addresses"}
{"source": "OSM", "region": "Kärnten", "osm_type": "node", "osm_id": 3834047173, "name": null, "category": null, "address": "Via Ventiquattro Maggio 17, 33026 Paluzza", "street": "Via Ventiquattro Maggio", "housenumber": "17", "postcode": "33026", "place": "Paluzza", "lat": 46.5816834, "lon": 13.0067659, "tags": {"addr:city": "Paluzza", "addr:housenumber": "17", "addr:postcode": "33026", "addr:street": "Via Ventiquattro Maggio"}, "content": "Adresse: Via Ventiquattro Maggio 17, 33026 Paluzza\nOrt: Paluzza\nPLZ: 33026\nKoordinaten: 46.581683, 13.006766", "doc_type": "addresses"}
{"source": "OSM", "region": "Kärnten", "osm_type": "node", "osm_id": 3834047176, "name": null, "category": null, "address": "Via della Bella Cappella 17, 33026 Paluzza", "street": "Via della Bella Cappella", "housenumber": "17", "postcode": "33026", "place": "Paluzza", "lat": 46.5840722, "lon": 13.0046533, "tags": {"addr:city": "Paluzza", "addr:housenumber": "17", "addr:postcode": "33026", "addr:street": "Via della Bella Cappella"}, "content": "Adresse: Via della Bella Cappella 17, 33026 Paluzza\nOrt: Paluzza\nPLZ: 33026\nKoordinaten: 46.584072, 13.004653", "doc_type": "addresses"}
{"source": "OSM", "region": "Kärnten", "osm_type": "node", "osm_id": 3834047177, "name": null, "category": null, "address": "Via don Titta Bulfon 17, 33026 Paluzza", "street": "Via don Titta Bulfon", "housenumber": "17", "postcode": "33026", "place": "Paluzza", "lat": 46.5849518, "lon": 12.9943952, "tags": {"addr:city": "Paluzza", "addr:housenumber": "17", "addr:postcode": "33026", "addr:street": "Via don Titta Bulfon"}, "content": "Adresse: Via don Titta Bulfon 17, 33026 Paluzza\nOrt: Paluzza\nPLZ: 33026\nKoordinaten: 46.584952, 12.994395", "doc_type": "addresses"}
{"source": "OSM", "region": "Kärnten", "osm_type": "node", "osm_id": 3834047178, "name": null, "category": null, "address": "Via Maria Plozner Mentil 170, 33026 Paluzza", "street": "Via Maria Plozner Mentil", "housenumber": "170", "postcode": "33026", "place": "Paluzza", "lat": 46.5845924, "lon": 13.0006895, "tags": {"addr:city": "Paluzza", "addr:housenumber": "170", "addr:postcode": "33026", "addr:street": "Via Maria Plozner Mentil"}, "content": "Adresse: Via Maria Plozner Mentil 170, 33026 Paluzza\nOrt: Paluzza\nPLZ: 33026\nKoordinaten: 46.584592, 13.000690", "doc_type": "addresses"}
{"source": "OSM", "region": "Kärnten", "osm_type": "node", "osm_id": 3834047179, "name": null, "category": null, "address": "Via Maria Plozner Mentil 173, 33026 Paluzza", "street": "Via Maria Plozner Mentil", "housenumber": "173", "postcode": "33026", "place": "Paluzza", "lat": 46.5846558, "lon": 13.0006439, "tags": {"addr:city": "Paluzza", "addr:housenumber": "173", "addr:postcode": "33026", "addr:street": "Via Maria Plozner Mentil"}, "content": "Adresse: Via Maria Plozner Mentil 173, 33026 Paluzza\nOrt: Paluzza\nPLZ: 33026\nKoordinaten: 46.584656, 13.000644", "doc_type": "addresses"}
{"source": "OSM", "region": "Kärnten", "osm_type": "node", "osm_id": 3834047180, "name": null, "category": null, "address": "Via Maria Plozner Mentil 174, 33026 Paluzza", "street": "Via Maria Plozner Mentil", "housenumber": "174", "postcode": "33026", "place": "Paluzza", "lat": 46.5846527, "lon": 13.0004647, "tags": {"addr:city": "Paluzza", "addr:housenumber": "174", "addr:postcode": "33026", "addr:street": "Via Maria Plozner Mentil"}, "content": "Adresse: Via Maria Plozner Mentil 174, 33026 Paluzza\nOrt: Paluzza\nPLZ: 33026\nKoordinaten: 46.584653, 13.000465", "doc_type": "addresses"}
{"source": "OSM", "region": "Kärnten", "osm_type": "node", "osm_id": 3834047181, "name": null, "category": null, "address": "Via Maria Plozner Mentil 180, 33026 Paluzza", "street": "Via Maria Plozner Mentil", "housenumber": "180", "postcode": "33026", "place": "Paluzza", "lat": 46.5845343, "lon": 13.000175, "tags": {"addr:city": "Paluzza", "addr:housenumber": "180", "addr:postcode": "33026", "addr:street": "Via Maria Plozner Mentil"}, "content": "Adresse: Via Maria Plozner Mentil 180, 33026 Paluzza\nOrt: Paluzza\nPLZ: 33026\nKoordinaten: 46.584534, 13.000175", "doc_type": "addresses"}
{"source": "OSM", "region": "Kärnten", "osm_type": "node", "osm_id": 3834047182, "name": null, "category": null, "address": "Via Maria Plozner Mentil 182, 33026 Paluzza", "street": "Via Maria Plozner Mentil", "housenumber": "182", "postcode": "33026", "place": "Paluzza", "lat": 46.5845534, "lon": 12.9999884, "tags": {"addr:city": "Paluzza", "addr:housenumber": "182", "addr:postcode": "33026", "addr:street": "Via Maria Plozner Mentil"}, "content": "Adresse: Via Maria Plozner Mentil 182, 33026 Paluzza\nOrt: Paluzza\nPLZ: 33026\nKoordinaten: 46.584553, 12.999988", "doc_type": "addresses"}
{"source": "OSM", "region": "Kärnten", "osm_type": "node", "osm_id": 3834047183, "name": null, "category": null, "address": "Via Maria Plozner Mentil 184, 33026 Paluzza", "street": "Via Maria Plozner Mentil", "housenumber": "184", "postcode": "33026", "place": "Paluzza", "lat": 46.5846505, "lon": 13.0000447, "tags": {"addr:city": "Paluzza", "addr:housenumber": "184", "addr:postcode": "33026", "addr:street": "Via Maria Plozner Mentil"}, "content": "Adresse: Via Maria Plozner Mentil 184, 33026 Paluzza\nOrt: Paluzza\nPLZ: 33026\nKoordinaten: 46.584651, 13.000045", "doc_type": "addresses"}
{"source": "OSM", "region": "Kärnten", "osm_type": "node", "osm_id": 3834047184, "name": null, "category": null, "address": "Via Maria Plozner Mentil 188, 33026 Paluzza", "street": "Via Maria Plozner Mentil", "housenumber": "188", "postcode": "33026", "place": "Paluzza", "lat": 46.5846719, "lon": 12.9997787, "tags": {"addr:city": "Paluzza", "addr:housenumber": "188", "addr:postcode": "33026", "addr:street": "Via Maria Plozner Mentil"}, "content": "Adresse: Via Maria Plozner Mentil 188, 33026 Paluzza\nOrt: Paluzza\nPLZ: 33026\nKoordinaten: 46.584672, 12.999779", "doc_type": "addresses"}
{"source": "OSM", "region": "Kärnten", "osm_type": "node", "osm_id": 3834047192, "name": null, "category": null, "address": "Via Maria Plozner Mentil 19, 33026 Paluzza", "street": "Via Maria Plozner Mentil", "housenumber": "19", "postcode": "33026", "place": "Paluzza", "lat": 46.5820438, "lon": 13.0058187, "tags": {"addr:city": "Paluzza", "addr:housenumber": "19", "addr:postcode": "33026", "addr:street": "Via Maria Plozner Mentil"}, "content": "Adresse: Via Maria Plozner Mentil 19, 33026 Paluzza\nOrt: Paluzza\nPLZ: 33026\nKoordinaten: 46.582044, 13.005819", "doc_type": "addresses"}
{"source": "OSM", "region": "Kärnten", "osm_type": "node", "osm_id": 3834047201, "name": null, "category": null, "address": "Via Ventiquattro Maggio 19, 33026 Paluzza", "street": "Via Ventiquattro Maggio", "housenumber": "19", "postcode": "33026", "place": "Paluzza", "lat": 46.5817368, "lon": 13.0068564, "tags": {"addr:city": "Paluzza", "addr:housenumber": "19", "addr:postcode": "33026", "addr:street": "Via Ventiquattro Maggio"}, "content": "Adresse: Via Ventiquattro Maggio 19, 33026 Paluzza\nOrt: Paluzza\nPLZ: 33026\nKoordinaten: 46.581737, 13.006856", "doc_type": "addresses"}
{"source": "OSM", "region": "Kärnten", "osm_type": "node", "osm_id": 3834047205, "name": null, "category": null, "address": "Via Maria Plozner Mentil 190, 33026 Paluzza", "street": "Via Maria Plozner Mentil", "housenumber": "190", "postcode": "33026", "place": "Paluzza", "lat": 46.5845763, "lon": 12.9998514, "tags": {"addr:city": "Paluzza", "addr:housenumber": "190", "addr:postcode": "33026", "addr:street": "Via Maria Plozner Mentil"}, "content": "Adresse: Via Maria Plozner Mentil 190, 33026 Paluzza\nOrt: Paluzza\nPLZ: 33026\nKoordinaten: 46.584576, 12.999851", "doc_type": "addresses"}
{"source": "OSM", "region": "Kärnten", "osm_type": "node", "osm_id": 3834047206, "name": null, "category": null, "address": "Via Maria Plozner Mentil 194, 33026 Paluzza", "street": "Via Maria Plozner Mentil", "housenumber": "194", "postcode": "33026", "place": "Paluzza", "lat": 46.584578, "lon": 12.9996892, "tags": {"addr:city": "Paluzza", "addr:housenumber": "194", "addr:postcode": "33026", "addr:street": "Via Maria Plozner Mentil"}, "content": "Adresse: Via Maria Plozner Mentil 194, 33026 Paluzza\nOrt: Paluzza\nPLZ: 33026\nKoordinaten: 46.584578, 12.999689", "doc_type": "addresses"}
{"source": "OSM", "region": "Kärnten", "osm_type": "node", "osm_id": 3834047207, "name": null, "category": null, "address": "Via Maria Plozner Mentil 196, 33026 Paluzza", "street": "Via Maria Plozner Mentil", "housenumber": "196", "postcode": "33026", "place": "Paluzza", "lat": 46.5845868, "lon": 12.999598, "tags": {"addr:city": "Paluzza", "addr:housenumber": "196", "addr:postcode": "33026", "addr:street": "Via Maria Plozner Mentil"}, "content": "Adresse: Via Maria Plozner Mentil 196, 33026 Paluzza\nOrt: Paluzza\nPLZ: 33026\nKoordinaten: 46.584587, 12.999598", "doc_type": "addresses"}
{"source": "OSM", "region": "Kärnten", "osm_type": "node", "osm_id": 3834047208, "name": null, "category": null, "address": "Via Maria Plozner Mentil 198, 33026 Paluzza", "street": "Via Maria Plozner Mentil", "housenumber": "198", "postcode": "33026", "place": "Paluzza", "lat": 46.5845986, "lon": 12.9995026, "tags": {"addr:city": "Paluzza", "addr:housenumber": "198", "addr:postcode": "33026", "addr:street": "Via Maria Plozner Mentil"}, "content": "Adresse: Via Maria Plozner Mentil 198, 33026 Paluzza\nOrt: Paluzza\nPLZ: 33026\nKoordinaten: 46.584599, 12.999503", "doc_type": "addresses"}
{"source": "OSM", "region": "Kärnten", "osm_type": "node", "osm_id": 3834047211, "name": null, "category": null, "address": "Piazza San Pio Decimo 2, 33026 Paluzza", "street": "Piazza San Pio Decimo", "housenumber": "2", "postcode": "33026", "place": "Paluzza", "lat": 46.5827637, "lon": 13.0042474, "tags": {"addr:city": "Paluzza", "addr:housenumber": "2", "addr:postcode": "33026", "addr:street": "Piazza San Pio Decimo"}, "content": "Adresse: Piazza San Pio Decimo 2, 33026 Paluzza\nOrt: Paluzza\nPLZ: 33026\nKoordinaten: 46.582764, 13.004247", "doc_type": "addresses"}
{"source": "OSM", "region": "Kärnten", "osm_type": "node", "osm_id": 3834047219, "name": null, "category": null, "address": "Via Giovanni Ventitreesimo 2, 33026 Paluzza", "street": "Via Giovanni Ventitreesimo", "housenumber": "2", "postcode": "33026", "place": "Paluzza", "lat": 46.5822657, "lon": 13.0059548, "tags": {"addr:city": "Paluzza", "addr:housenumber": "2", "addr:postcode": "33026", "addr:street": "Via Giovanni Ventitreesimo"}, "content": "Adresse: Via Giovanni Ventitreesimo 2, 33026 Paluzza\nOrt: Paluzza\nPLZ: 33026\nKoordinaten: 46.582266, 13.005955", "doc_type": "addresses"}
{"source": "OSM", "region": "Kärnten", "osm_type": "node", "osm_id": 3834047234, "name": null, "category": null, "address": "Via Santa Geltrude 2, 33026 Paluzza", "street": "Via Santa Geltrude", "housenumber": "2", "postcode": "33026", "place": "Paluzza", "lat": 46.5817383, "lon": 13.006128, "tags": {"addr:city": "Paluzza", "addr:housenumber": "2", "addr:postcode": "33026", "addr:street": "Via Santa Geltrude"}, "content": "Adresse: Via Santa Geltrude 2, 33026 Paluzza\nOrt: Paluzza\nPLZ: 33026\nKoordinaten: 46.581738, 13.006128", "doc_type": "addresses"}
{"source": "OSM", "region": "Kärnten", "osm_type": "node", "osm_id": 3834047244, "name": null, "category": null, "address": "Via Maria Plozner Mentil 202, 33026 Paluzza", "street": "Via Maria Plozner Mentil", "housenumber": "202", "postcode": "33026", "place": "Paluzza", "lat": 46.5846423, "lon": 12.9992783, "tags": {"addr:city": "Paluzza", "addr:housenumber": "202", "addr:postcode": "33026", "addr:street": "Via Maria Plozner Mentil"}, "content": "Adresse: Via Maria Plozner Mentil 202, 33026 Paluzza\nOrt: Paluzza\nPLZ: 33026\nKoordinaten: 46.584642, 12.999278", "doc_type": "addresses"}
{"source": "OSM", "region": "Kärnten", "osm_type": "node", "osm_id": 3834047245, "name": null, "category": null, "address": "Via Maria Plozner Mentil 204, 33026 Paluzza", "street": "Via Maria Plozner Mentil", "housenumber": "204", "postcode": "33026", "place": "Paluzza", "lat": 46.5846484, "lon": 12.9992023, "tags": {"addr:city": "Paluzza", "addr:housenumber": "204", "addr:postcode": "33026", "addr:street": "Via Maria Plozner Mentil"}, "content": "Adresse: Via Maria Plozner Mentil 204, 33026 Paluzza\nOrt: Paluzza\nPLZ: 33026\nKoordinaten: 46.584648, 12.999202", "doc_type": "addresses"}
{"source": "OSM", "region": "Kärnten", "osm_type": "node", "osm_id": 3834047252, "name": null, "category": null, "address": "Via Maria Plozner Mentil 21, 33026 Paluzza", "street": "Via Maria Plozner Mentil", "housenumber": "21", "postcode": "33026", "place": "Paluzza", "lat": 46.5820772, "lon": 13.0058151, "tags": {"addr:city": "Paluzza", "addr:housenumber": "21", "addr:postcode": "33026", "addr:street": "Via Maria Plozner Mentil"}, "content": "Adresse: Via Maria Plozner Mentil 21, 33026 Paluzza\nOrt: Paluzza\nPLZ: 33026\nKoordinaten: 46.582077, 13.005815", "doc_type": "addresses"}
{"source": "OSM", "region": "Kärnten", "osm_type": "node", "osm_id": 3834047402, "name": null, "category": null, "address": "Via Maria Plozner Mentil 2, 33026 Paluzza", "street": "Via Maria Plozner Mentil", "housenumber": "2", "postcode": "33026", "place": "Paluzza", "lat": 46.5813656, "lon": 13.006126, "tags": {"addr:city": "Paluzza", "addr:housenumber": "2", "addr:postcode": "33026", "addr:street": "Via Maria Plozner Mentil"}, "content": "Adresse: Via Maria Plozner Mentil 2, 33026 Paluzza\nOrt: Paluzza\nPLZ: 33026\nKoordinaten: 46.581366, 13.006126", "doc_type": "addresses"}
{"source": "OSM", "region": "Kärnten", "osm_type": "node", "osm_id": 3834047405, "name": null, "category": null, "address": "Via Monte Coglians 2, 33026 Paluzza", "street": "Via Monte Coglians", "housenumber": "2", "postcode": "33026", "place": "Paluzza", "lat": 46.5837665, "lon": 13.0017741, "tags": {"addr:city": "Paluzza", "addr:housenumber": "2", "addr:postcode": "33026", "addr:street": "Via Monte Coglians"}, "content": "Adresse: Via Monte Coglians 2, 33026 Paluzza\nOrt: Paluzza\nPLZ: 33026\nKoordinaten: 46.583767, 13.001774", "doc_type": "addresses"}
{"source": "OSM", "region": "Kärnten", "osm_type": "node", "osm_id": 3834047522, "name": null, "category": null, "address": "Via Velt 2, 33026 Paluzza", "street": "Via Velt", "housenumber": "2", "postcode": "33026", "place": "Paluzza", "lat": 46.5826827, "lon": 13.005735, "tags": {"addr:city": "Paluzza", "addr:housenumber": "2", "addr:postcode": "33026", "addr:street": "Via Velt"}, "content": "Adresse: Via Velt 2, 33026 Paluzza\nOrt: Paluzza\nPLZ: 33026\nKoordinaten: 46.582683, 13.005735", "doc_type": "addresses"}
{"source": "OSM", "region": "Kärnten", "osm_type": "node", "osm_id": 3834047523, "name": null, "category": null, "address": "Via Ventiquattro Maggio 2, 33026 Paluzza", "street": "Via Ventiquattro Maggio", "housenumber": "2", "postcode": "33026", "place": "Paluzza", "lat": 46.5812852, "lon": 13.0063737, "tags": {"addr:city": "Paluzza", "addr:housenumber": "2", "addr:postcode": "33026", "addr:street": "Via Ventiquattro Maggio"}, "content": "Adresse: Via Ventiquattro Maggio 2, 33026 Paluzza\nOrt: Paluzza\nPLZ: 33026\nKoordinaten: 46.581285, 13.006374", "doc_type": "addresses"}
{"source": "OSM", "region": "Kärnten", "osm_type": "node", "osm_id": 3834048058, "name": null, "category": null, "address": "Via Pal Piccolo 2, 33026 Paluzza", "street": "Via Pal Piccolo", "housenumber": "2", "postcode": "33026", "place": "Paluzza", "lat": 46.5846146, "lon": 13.0016919, "tags": {"addr:city": "Paluzza", "addr:housenumber": "2", "addr:postcode": "33026", "addr:street": "Via Pal Piccolo"}, "content": "Adresse: Via Pal Piccolo 2, 33026 Paluzza\nOrt: Paluzza\nPLZ: 33026\nKoordinaten: 46.584615, 13.001692", "doc_type": "addresses"}
{"source": "OSM", "region": "Kärnten", "osm_type": "node", "osm_id": 3834048505, "name": null, "category": null, "address": "Via Maria Plozner Mentil 20, 33026 Paluzza", "street": "Via Maria Plozner Mentil", "housenumber": "20", "postcode": "33026", "place": "Paluzza", "lat": 46.5819891, "lon": 13.0059804, "tags": {"addr:city": "Paluzza", "addr:housenumber": "20", "addr:postcode": "33026", "addr:street": "Via Maria Plozner Mentil"}, "content": "Adresse: Via Maria Plozner Mentil 20, 33026 Paluzza\nOrt: Paluzza\nPLZ: 33026\nKoordinaten: 46.581989, 13.005980", "doc_type": "addresses"}
{"source": "OSM", "region": "Kärnten", "osm_type": "node", "osm_id": 3834048523, "name": null, "category": null, "address": "Via Maria Plozner Mentil 200, 33026 Paluzza", "street": "Via Maria Plozner Mentil", "housenumber": "200", "postcode": "33026", "place": "Paluzza", "lat": 46.5846147, "lon": 12.9993204, "tags": {"addr:city": "Paluzza", "addr:housenumber": "200", "addr:postcode": "33026", "addr:street": "Via Maria Plozner Mentil"}, "content": "Adresse: Via Maria Plozner Mentil 200, 33026 Paluzza\nOrt: Paluzza\nPLZ: 33026\nKoordinaten: 46.584615, 12.999320", "doc_type": "addresses"}
{"source": "OSM", "region": "Kärnten", "osm_type": "node", "osm_id": 3834048531, "name": null, "category": null, "address": "Via Maria Plozner Mentil 26, 33026 Paluzza", "street": "Via Maria Plozner Mentil", "housenumber": "26", "postcode": "33026", "place": "Paluzza", "lat": 46.5821292, "lon": 13.0058641, "tags": {"addr:city": "Paluzza", "addr:housenumber": "26", "addr:postcode": "33026", "addr:street": "Via Maria Plozner Mentil"}, "content": "Adresse: Via Maria Plozner Mentil 26, 33026 Paluzza\nOrt: Paluzza\nPLZ: 33026\nKoordinaten: 46.582129, 13.005864", "doc_type": "addresses"}
{"source": "OSM", "region": "Kärnten", "osm_type": "node", "osm_id": 3834048590, "name": null, "category": null, "address": "Via Ventiquattro Maggio 23, 33026 Paluzza", "street": "Via Ventiquattro Maggio", "housenumber": "23", "postcode": "33026", "place": "Paluzza", "lat": 46.5818771, "lon": 13.0070632, "tags": {"addr:city": "Paluzza", "addr:housenumber": "23", "addr:postcode": "33026", "addr:street": "Via Ventiquattro Maggio"}, "content": "Adresse: Via Ventiquattro Maggio 23, 33026 Paluzza\nOrt: Paluzza\nPLZ: 33026\nKoordinaten: 46.581877, 13.007063", "doc_type": "addresses"}
{"source": "OSM", "region": "Kärnten", "osm_type": "node", "osm_id": 3834048593, "name": null, "category": null, "address": "Via don Titta Bulfon 23, 33026 Paluzza", "street": "Via don Titta Bulfon", "housenumber": "23", "postcode": "33026", "place": "Paluzza", "lat": 46.5849531, "lon": 12.9937094, "tags": {"addr:city": "Paluzza", "addr:housenumber": "23", "addr:postcode": "33026", "addr:street": "Via don Titta Bulfon"}, "content": "Adresse: Via don Titta Bulfon 23, 33026 Paluzza\nOrt: Paluzza\nPLZ: 33026\nKoordinaten: 46.584953, 12.993709", "doc_type": "addresses"}
{"source": "OSM", "region": "Kärnten", "osm_type": "node", "osm_id": 3834048598, "name": null, "category": null, "address": "Via Maria Plozner Mentil 24, 33026 Paluzza", "street": "Via Maria Plozner Mentil", "housenumber": "24", "postcode": "33026", "place": "Paluzza", "lat": 46.5821007, "lon": 13.0058768, "tags": {"addr:city": "Paluzza", "addr:housenumber": "24", "addr:postcode": "33026", "addr:street": "Via Maria Plozner Mentil"}, "content": "Adresse: Via Maria Plozner Mentil 24, 33026 Paluzza\nOrt: Paluzza\nPLZ: 33026\nKoordinaten: 46.582101, 13.005877", "doc_type": "addresses"}
{"source": "OSM", "region": "Kärnten", "osm_type": "node", "osm_id": 3834048607, "name": null, "category": null, "address": "Via Ventiquattro Maggio 25, 33026 Paluzza", "street": "Via Ventiquattro Maggio", "housenumber": "25", "postcode": "33026", "place": "Paluzza", "lat": 46.5819063, "lon": 13.0071099, "tags": {"addr:city": "Paluzza", "addr:housenumber": "25", "addr:postcode": "33026", "addr:street": "Via Ventiquattro Maggio"}, "content": "Adresse: Via Ventiquattro Maggio 25, 33026 Paluzza\nOrt: Paluzza\nPLZ: 33026\nKoordinaten: 46.581906, 13.007110", "doc_type": "addresses"}
{"source": "OSM", "region": "Kärnten", "osm_type": "node", "osm_id": 3834048938, "name": null, "category": null, "address": "Via Maria Plozner Mentil 210, 33026 Paluzza", "street": "Via Maria Plozner Mentil", "housenumber": "210", "postcode": "33026", "place": "Paluzza", "lat": 46.5846487, "lon": 12.9989603, "tags": {"addr:city": "Paluzza", "addr:housenumber": "210", "addr:postcode": "33026", "addr:street": "Via Maria Plozner Mentil"}, "content": "Adresse: Via Maria Plozner Mentil 210, 33026 Paluzza\nOrt: Paluzza\nPLZ: 33026\nKoordinaten: 46.584649, 12.998960", "doc_type": "addresses"}
{"source": "OSM", "region": "Kärnten", "osm_type": "node", "osm_id": 3834048939, "name": null, "category": null, "address": "Via Maria Plozner Mentil 212, 33026 Paluzza", "street": "Via Maria Plozner Mentil", "housenumber": "212", "postcode": "33026", "place": "Paluzza", "lat": 46.5846566, "lon": 12.9989038, "tags": {"addr:city": "Paluzza", "addr:housenumber": "212", "addr:postcode": "33026", "addr:street": "Via Maria Plozner Mentil"}, "content": "Adresse: Via Maria Plozner Mentil 212, 33026 Paluzza\nOrt: Paluzza\nPLZ: 33026\nKoordinaten: 46.584657, 12.998904", "doc_type": "addresses"}
{"source": "OSM", "region": "Kärnten", "osm_type": "node", "osm_id": 3834048940, "name": null, "category": null, "address": "Via Maria Plozner Mentil 216, 33026 Paluzza", "street": "Via Maria Plozner Mentil", "housenumber": "216", "postcode": "33026", "place": "Paluzza", "lat": 46.5847624, "lon": 12.9988135, "tags": {"addr:city": "Paluzza", "addr:housenumber": "216", "addr:postcode": "33026", "addr:street": "Via Maria Plozner Mentil"}, "content": "Adresse: Via Maria Plozner Mentil 216, 33026 Paluzza\nOrt: Paluzza\nPLZ: 33026\nKoordinaten: 46.584762, 12.998814", "doc_type": "addresses"}
{"source": "OSM", "region": "Kärnten", "osm_type": "node", "osm_id": 3834048949, "name": null, "category": null, "address": "Via Maria Plozner Mentil 220, 33026 Paluzza", "street": "Via Maria Plozner Mentil", "housenumber": "220", "postcode": "33026", "place": "Paluzza", "lat": 46.5848379, "lon": 12.9986652, "tags": {"addr:city": "Paluzza", "addr:housenumber": "220", "addr:postcode": "33026", "addr:street": "Via Maria Plozner Mentil"}, "content": "Adresse: Via Maria Plozner Mentil 220, 33026 Paluzza\nOrt: Paluzza\nPLZ: 33026\nKoordinaten: 46.584838, 12.998665", "doc_type": "addresses"}
{"source": "OSM", "region": "Kärnten", "osm_type": "node", "osm_id": 3834048950, "name": null, "category": null, "address": "Via Maria Plozner Mentil 222, 33026 Paluzza", "street": "Via Maria Plozner Mentil", "housenumber": "222", "postcode": "33026", "place": "Paluzza", "lat": 46.5849072, "lon": 12.9986916, "tags": {"addr:city": "Paluzza", "addr:housenumber": "222", "addr:postcode": "33026", "addr:street": "Via Maria Plozner Mentil"}, "content": "Adresse: Via Maria Plozner Mentil 222, 33026 Paluzza\nOrt: Paluzza\nPLZ: 33026\nKoordinaten: 46.584907, 12.998692", "doc_type": "addresses"}
{"source": "OSM", "region": "Kärnten", "osm_type": "node", "osm_id": 3834049115, "name": null, "category": null, "address": "Via Maria Plozner Mentil 48, 33026 Paluzza", "street": "Via Maria Plozner Mentil", "housenumber": "48", "postcode": "33026", "place": "Paluzza", "lat": 46.5825978, "lon": 13.0056316, "tags": {"addr:city": "Paluzza", "addr:housenumber": "48", "addr:postcode": "33026", "addr:street": "Via Maria Plozner Mentil"}, "content": "Adresse: Via Maria Plozner Mentil 48, 33026 Paluzza\nOrt: Paluzza\nPLZ: 33026\nKoordinaten: 46.582598, 13.005632", "doc_type": "addresses"}
{"source": "OSM", "region": "Kärnten", "osm_type": "node", "osm_id": 3834049123, "name": null, "category": null, "address": "Via Maria Plozner Mentil 50, 33026 Paluzza", "street": "Via Maria Plozner Mentil", "housenumber": "50", "postcode": "33026", "place": "Paluzza", "lat": 46.5826843, "lon": 13.0055542, "tags": {"addr:city": "Paluzza", "addr:housenumber": "50", "addr:postcode": "33026", "addr:street": "Via Maria Plozner Mentil"}, "content": "Adresse: Via Maria Plozner Mentil 50, 33026 Paluzza\nOrt: Paluzza\nPLZ: 33026\nKoordinaten: 46.582684, 13.005554", "doc_type": "addresses"}
{"source": "OSM", "region": "Kärnten", "osm_type": "node", "osm_id": 3834049130, "name": null, "category": null, "address": "Via Maria Plozner Mentil 51, 33026 Paluzza", "street": "Via Maria Plozner Mentil", "housenumber": "51", "postcode": "33026", "place": "Paluzza", "lat": 46.5829325, "lon": 13.0050448, "tags": {"addr:city": "Paluzza", "addr:housenumber": "51", "addr:postcode": "33026", "addr:street": "Via Maria Plozner Mentil"}, "content": "Adresse: Via Maria Plozner Mentil 51, 33026 Paluzza\nOrt: Paluzza\nPLZ: 33026\nKoordinaten: 46.582932, 13.005045", "doc_type": "addresses"}
{"source": "OSM", "region": "Kärnten", "osm_type": "node", "osm_id": 3834049151, "name": null, "category": null, "address": "Via Ventiquattro Maggio 7, 33026 Paluzza", "street": "Via Ventiquattro Maggio", "housenumber": "7", "postcode": "33026", "place": "Paluzza", "lat": 46.5815153, "lon": 13.0064896, "tags": {"addr:city": "Paluzza", "addr:housenumber": "7", "addr:postcode": "33026", "addr:street": "Via Ventiquattro Maggio"}, "content": "Adresse: Via Ventiquattro Maggio 7, 33026 Paluzza\nOrt: Paluzza\nPLZ: 33026\nKoordinaten: 46.581515, 13.006490", "doc_type": "addresses"}
{"source": "OSM", "region": "Kärnten", "osm_type": "node", "osm_id": 3834049216, "name": null, "category": null, "address": "Via Ventiquattro Maggio 27, 33026 Paluzza", "street": "Via Ventiquattro Maggio", "housenumber": "27", "postcode": "33026", "place": "Paluzza", "lat": 46.5819123, "lon": 13.007185, "tags": {"addr:city": "Paluzza", "addr:housenumber": "27", "addr:postcode": "33026", "addr:street": "Via Ventiquattro Maggio"}, "content": "Adresse: Via Ventiquattro Maggio 27, 33026 Paluzza\nOrt: Paluzza\nPLZ: 33026\nKoordinaten: 46.581912, 13.007185", "doc_type": "addresses"}
{"source": "OSM", "region": "Kärnten", "osm_type": "node", "osm_id": 3834049248, "name": null, "category": null, "address": "Via Maria Plozner Mentil 28, 33026 Paluzza", "street": "Via Maria Plozner Mentil", "housenumber": "28", "postcode": "33026", "place": "Paluzza", "lat": 46.58218, "lon": 13.0058437, "tags": {"addr:city": "Paluzza", "addr:housenumber": "28", "addr:postcode": "33026", "addr:street": "Via Maria Plozner Mentil"}, "content": "Adresse: Via Maria Plozner Mentil 28, 33026 Paluzza\nOrt: Paluzza\nPLZ: 33026\nKoordinaten: 46.582180, 13.005844", "doc_type": "addresses"}
{"source": "OSM", "region": "Kärnten", "osm_type": "node", "osm_id": 3834049362, "name": null, "category": null, "address": "Via Ventiquattro Maggio 21, 33026 Paluzza", "street": "Via Ventiquattro Maggio", "housenumber": "21", "postcode": "33026", "place": "Paluzza", "lat": 46.5818241, "lon": 13.0069968, "tags": {"addr:city": "Paluzza", "addr:housenumber": "21", "addr:postcode": "33026", "addr:street": "Via Ventiquattro Maggio"}, "content": "Adresse: Via Ventiquattro Maggio 21, 33026 Paluzza\nOrt: Paluzza\nPLZ: 33026\nKoordinaten: 46.581824, 13.006997", "doc_type": "addresses"}
{"source": "OSM", "region": "Kärnten", "osm_type": "node", "osm_id": 3834049365, "name": null, "category": null, "address": "Via Maria Plozner Mentil 22, 33026 Paluzza", "street": "Via Maria Plozner Mentil", "housenumber": "22", "postcode": "33026", "place": "Paluzza", "lat": 46.5820595, "lon": 13.0058992, "tags": {"addr:city": "Paluzza", "addr:housenumber": "22", "addr:postcode": "33026", "addr:street": "Via Maria Plozner Mentil"}, "content": "Adresse: Via Maria Plozner Mentil 22, 33026 Paluzza\nOrt: Paluzza\nPLZ: 33026\nKoordinaten: 46.582059, 13.005899", "doc_type": "addresses"}
{"source": "OSM", "region": "Kärnten", "osm_type": "node", "osm_id": 3834049748, "name": null, "category": null, "address": "Via Maria Plozner Mentil 25, 33026 Paluzza", "street": "Via Maria Plozner Mentil", "housenumber": "25", "postcode": "33026", "place": "Paluzza", "lat": 46.5821608, "lon": 13.0057541, "tags": {"addr:city": "Paluzza", "addr:housenumber": "25", "addr:postcode": "33026", "addr:street": "Via Maria Plozner Mentil"}, "content": "Adresse: Via Maria Plozner Mentil 25, 33026 Paluzza\nOrt: Paluzza\nPLZ: 33026\nKoordinaten: 46.582161, 13.005754", "doc_type": "addresses"}
{"source": "OSM", "region": "Kärnten", "osm_type": "node", "osm_id": 3834050853, "name": null, "category": null, "address": "Via Maria Plozner Mentil 33, 33026 Paluzza", "street": "Via Maria Plozner Mentil", "housenumber": "33", "postcode": "33026", "place": "Paluzza", "lat": 46.5823634, "lon": 13.0056518, "tags": {"addr:city": "Paluzza", "addr:housenumber": "33", "addr:postcode": "33026", "addr:street": "Via Maria Plozner Mentil"}, "content": "Adresse: Via Maria Plozner Mentil 33, 33026 Paluzza\nOrt: Paluzza\nPLZ: 33026\nKoordinaten: 46.582363, 13.005652", "doc_type": "addresses"}
{"source": "OSM", "region": "Kärnten", "osm_type": "node", "osm_id": 3834051017, "name": null, "category": null, "address": "Via Maria Plozner Mentil 29, 33026 Paluzza", "street": "Via Maria Plozner Mentil", "housenumber": "29", "postcode": "33026", "place": "Paluzza", "lat": 46.5822544, "lon": 13.0057159, "tags": {"addr:city": "Paluzza", "addr:housenumber": "29", "addr:postcode": "33026", "addr:street": "Via Maria Plozner Mentil"}, "content": "Adresse: Via Maria Plozner Mentil 29, 33026 Paluzza\nOrt: Paluzza\nPLZ: 33026\nKoordinaten: 46.582254, 13.005716", "doc_type": "addresses"}
{"source": "OSM", "region": "Kärnten", "osm_type": "node", "osm_id": 3834051027, "name": null, "category": null, "address": "Via Giovanni Ventitreesimo 3, 33026 Paluzza", "street": "Via Giovanni Ventitreesimo", "housenumber": "3", "postcode": "33026", "place": "Paluzza", "lat": 46.5820564, "lon": 13.0062599, "tags": {"addr:city": "Paluzza", "addr:housenumber": "3", "addr:postcode": "33026", "addr:street": "Via Giovanni Ventitreesimo"}, "content": "Adresse: Via Giovanni Ventitreesimo 3, 33026 Paluzza\nOrt: Paluzza\nPLZ: 33026\nKoordinaten: 46.582056, 13.006260", "doc_type": "addresses"}
{"source": "OSM", "region": "Kärnten", "osm_type": "node", "osm_id": 3834051031, "name": null, "category": null, "address": "Via don Titta Bulfon 3, 33026 Paluzza", "street": "Via don Titta Bulfon", "housenumber": "3", "postcode": "33026", "place": "Paluzza", "lat": 46.584781, "lon": 12.9961754, "tags": {"addr:city": "Paluzza", "addr:housenumber": "3", "addr:postcode": "33026", "addr:street": "Via don Titta Bulfon"}, "content": "Adresse: Via don Titta Bulfon 3, 33026 Paluzza\nOrt: Paluzza\nPLZ: 33026\nKoordinaten: 46.584781, 12.996175", "doc_type": "addresses"}
{"source": "OSM", "region": "Kärnten", "osm_type": "node", "osm_id": 3834051034, "name": null, "category": null, "address": "Via Venticinque Aprile 3, 33026 Paluzza", "street": "Via Venticinque Aprile", "housenumber": "3", "postcode": "33026", "place": "Paluzza", "lat": 46.581215, "lon": 13.0068071, "tags": {"addr:city": "Paluzza", "addr:housenumber": "3", "addr:postcode": "33026", "addr:street": "Via Venticinque Aprile"}, "content": "Adresse: Via Venticinque Aprile 3, 33026 Paluzza\nOrt: Paluzza\nPLZ: 33026\nKoordinaten: 46.581215, 13.006807", "doc_type": "addresses"}
{"source": "OSM", "region": "Kärnten", "osm_type": "node", "osm_id": 3834051035, "name": null, "category": null, "address": "Vicolo Duzzi 3, 33026 Paluzza", "street": "Vicolo Duzzi", "housenumber": "3", "postcode": "33026", "place": "Paluzza", "lat": 46.5847471, "lon": 12.9994458, "tags": {"addr:city": "Paluzza", "addr:housenumber": "3", "addr:postcode": "33026", "addr:street": "Vicolo Duzzi"}, "content": "Adresse: Vicolo Duzzi 3, 33026 Paluzza\nOrt: Paluzza\nPLZ: 33026\nKoordinaten: 46.584747, 12.999446", "doc_type": "addresses"}
{"source": "OSM", "region": "Kärnten", "osm_type": "node", "osm_id": 3834051038, "name": null, "category": null, "address": "Via Santa Geltrude 3, 33026 Paluzza", "street": "Via Santa Geltrude", "housenumber": "3", "postcode": "33026", "place": "Paluzza", "lat": 46.5819318, "lon": 13.0062748, "tags": {"addr:city": "Paluzza", "addr:housenumber": "3", "addr:postcode": "33026", "addr:street": "Via Santa Geltrude"}, "content": "Adresse: Via Santa Geltrude 3, 33026 Paluzza\nOrt: Paluzza\nPLZ: 33026\nKoordinaten: 46.581932, 13.006275", "doc_type": "addresses"}
{"source": "OSM", "region": "Kärnten", "osm_type": "node", "osm_id": 3834051045, "name": null, "category": null, "address": "Via Maria Plozner Mentil 30, 33026 Paluzza", "street": "Via Maria Plozner Mentil", "housenumber": "30", "postcode": "33026", "place": "Paluzza", "lat": 46.5822147, "lon": 13.0058217, "tags": {"addr:city": "Paluzza", "addr:housenumber": "30", "addr:postcode": "33026", "addr:street": "Via Maria Plozner Mentil"}, "content": "Adresse: Via Maria Plozner Mentil 30, 33026 Paluzza\nOrt: Paluzza\nPLZ: 33026\nKoordinaten: 46.582215, 13.005822", "doc_type": "addresses"}
{"source": "OSM", "region": "Kärnten", "osm_type": "node", "osm_id": 3834051053, "name": null, "category": null, "address": "Via Maria Plozner Mentil 31, 33026 Paluzza", "street": "Via Maria Plozner Mentil", "housenumber": "31", "postcode": "33026", "place": "Paluzza", "lat": 46.5823208, "lon": 13.0056764, "tags": {"addr:city": "Paluzza", "addr:housenumber": "31", "addr:postcode": "33026", "addr:street": "Via Maria Plozner Mentil"}, "content": "Adresse: Via Maria Plozner Mentil 31, 33026 Paluzza\nOrt: Paluzza\nPLZ: 33026\nKoordinaten: 46.582321, 13.005676", "doc_type": "addresses"}
{"source": "OSM", "region": "Kärnten", "osm_type": "node", "osm_id": 3834051057, "name": null, "category": null, "address": "Via Maria Plozner Mentil 27, 33026 Paluzza", "street": "Via Maria Plozner Mentil", "housenumber": "27", "postcode": "33026", "place": "Paluzza", "lat": 46.582191, "lon": 13.0057461, "tags": {"addr:city": "Paluzza", "addr:housenumber": "27", "addr:postcode": "33026", "addr:street": "Via Maria Plozner Mentil"}, "content": "Adresse: Via Maria Plozner Mentil 27, 33026 Paluzza\nOrt: Paluzza\nPLZ: 33026\nKoordinaten: 46.582191, 13.005746", "doc_type": "addresses"}
{"source": "OSM", "region": "Kärnten", "osm_type": "node", "osm_id": 3834051164, "name": null, "category": null, "address": "Via don Titta Bulfon 29, 33026 Paluzza", "street": "Via don Titta Bulfon", "housenumber": "29", "postcode": "33026", "place": "Paluzza", "lat": 46.5848946, "lon": 12.9929035, "tags": {"addr:city": "Paluzza", "addr:housenumber": "29", "addr:postcode": "33026", "addr:street": "Via don Titta Bulfon"}, "content": "Adresse: Via don Titta Bulfon 29, 33026 Paluzza\nOrt: Paluzza\nPLZ: 33026\nKoordinaten: 46.584895, 12.992904", "doc_type": "addresses"}
{"source": "OSM", "region": "Kärnten", "osm_type": "node", "osm_id": 3834051167, "name": null, "category": null, "address": "Piazza San Pio Decimo 3, 33026 Paluzza", "street": "Piazza San Pio Decimo", "housenumber": "3", "postcode": "33026", "place": "Paluzza", "lat": 46.5827932, "lon": 13.0046586, "tags": {"addr:city": "Paluzza", "addr:housenumber": "3", "addr:postcode": "33026", "addr:street": "Piazza San Pio Decimo"}, "content": "Adresse: Piazza San Pio Decimo 3, 33026 Paluzza\nOrt: Paluzza\nPLZ: 33026\nKoordinaten: 46.582793, 13.004659", "doc_type": "addresses"}
{"source": "OSM", "region": "Kärnten", "osm_type": "node", "osm_id": 3834051169, "name": null, "category": null, "address": "Via Angelo Matiz 3, 33026 Paluzza", "street": "Via Angelo Matiz", "housenumber": "3", "postcode": "33026", "place": "Paluzza", "lat": 46.5822987, "lon": 13.0052372, "tags": {"addr:city": "Paluzza", "addr:housenumber": "3", "addr:postcode": "33026", "addr:street": "Via Angelo Matiz"}, "content": "Adresse: Via Angelo Matiz 3, 33026 Paluzza\nOrt: Paluzza\nPLZ: 33026\nKoordinaten: 46.582299, 13.005237", "doc_type": "addresses"}
{"source": "OSM", "region": "Kärnten", "osm_type": "node", "osm_id": 3834051361, "name": null, "category": null, "address": "Via Maria Plozner Mentil 3, 33026 Paluzza", "street": "Via Maria Plozner Mentil", "housenumber": "3", "postcode": "33026", "place": "Paluzza", "lat": 46.5815724, "lon": 13.0059818, "tags": {"addr:city": "Paluzza", "addr:housenumber": "3", "addr:postcode": "33026", "addr:street": "Via Maria Plozner Mentil"}, "content": "Adresse: Via Maria Plozner Mentil 3, 33026 Paluzza\nOrt: Paluzza\nPLZ: 33026\nKoordinaten: 46.581572, 13.005982", "doc_type": "addresses"}
{"source": "OSM", "region": "Kärnten", "osm_type": "node", "osm_id": 3834051366, "name": null, "category": null, "address": "Via Pal Grande 3, 33026 Paluzza", "street": "Via Pal Grande", "housenumber": "3", "postcode": "33026", "place": "Paluzza", "lat": 46.5842216, "lon": 13.0010123, "tags": {"addr:city": "Paluzza", "addr:housenumber": "3", "addr:postcode": "33026", "addr:street": "Via Pal Grande"}, "content": "Adresse: Via Pal Grande 3, 33026 Paluzza\nOrt: Paluzza\nPLZ: 33026\nKoordinaten: 46.584222, 13.001012", "doc_type": "addresses"}
{"source": "OSM", "region": "Kärnten", "osm_type": "node", "osm_id": 3834051463, "name": null, "category": null, "address": "Via Quattro Novembre 3, 33026 Paluzza", "street": "Via Quattro Novembre", "housenumber": "3", "postcode": "33026", "place": "Paluzza", "lat": 46.5816524, "lon": 13.0063397, "tags": {"addr:city": "Paluzza", "addr:housenumber": "3", "addr:postcode": "33026", "addr:street": "Via Quattro Novembre"}, "content": "Adresse: Via Quattro Novembre 3, 33026 Paluzza\nOrt: Paluzza\nPLZ: 33026\nKoordinaten: 46.581652, 13.006340", "doc_type": "addresses"}
{"source": "OSM", "region": "Kärnten", "osm_type": "node", "osm_id": 3834051759, "name": null, "category": null, "address": "Via Seleit 3, 33026 Paluzza", "street": "Via Seleit", "housenumber": "3", "postcode": "33026", "place": "Paluzza", "lat": 46.5815727, "lon": 13.0076511, "tags": {"addr:city": "Paluzza", "addr:housenumber": "3", "addr:postcode": "33026", "addr:street": "Via Seleit"}, "content": "Adresse: Via Seleit 3, 33026 Paluzza\nOrt: Paluzza\nPLZ: 33026\nKoordinaten: 46.581573, 13.007651", "doc_type": "addresses"}
{"source": "OSM", "region": "Kärnten", "osm_type": "node", "osm_id": 3834051760, "name": null, "category": null, "address": "Via Ventiquattro Maggio 3, 33026 Paluzza", "street": "Via Ventiquattro Maggio", "housenumber": "3", "postcode": "33026", "place": "Paluzza", "lat": 46.5815017, "lon": 13.0062188, "tags": {"addr:city": "Paluzza", "addr:housenumber": "3", "addr:postcode": "33026", "addr:street": "Via Ventiquattro Maggio"}, "content": "Adresse: Via Ventiquattro Maggio 3, 33026 Paluzza\nOrt: Paluzza\nPLZ: 33026\nKoordinaten: 46.581502, 13.006219", "doc_type": "addresses"}
{"source": "OSM", "region": "Kärnten", "osm_type": "node", "osm_id": 3834051765, "name": null, "category": null, "address": "Via della Bella Cappella 3, 33026 Paluzza", "street": "Via della Bella Cappella", "housenumber": "3", "postcode": "33026", "place": "Paluzza", "lat": 46.5835454, "lon": 13.0047537, "tags": {"addr:city": "Paluzza", "addr:housenumber": "3", "addr:postcode": "33026", "addr:street": "Via della Bella Cappella"}, "content": "Adresse: Via della Bella Cappella 3, 33026 Paluzza\nOrt: Paluzza\nPLZ: 33026\nKoordinaten: 46.583545, 13.004754", "doc_type": "addresses"}
{"source": "OSM", "region": "Kärnten", "osm_type": "node", "osm_id": 3834051878, "name": null, "category": null, "address": "Via Maria Plozner Mentil 41, 33026 Paluzza", "street": "Via Maria Plozner Mentil", "housenumber": "41", "postcode": "33026", "place": "Paluzza", "lat": 46.582827, "lon": 13.0053082, "tags": {"addr:city": "Paluzza", "addr:housenumber": "41", "addr:postcode": "33026", "addr:street": "Via Maria Plozner Mentil"}, "content": "Adresse: Via Maria Plozner Mentil 41, 33026 Paluzza\nOrt: Paluzza\nPLZ: 33026\nKoordinaten: 46.582827, 13.005308", "doc_type": "addresses"}
{"source": "OSM", "region": "Kärnten", "osm_type": "node", "osm_id": 3834052044, "name": null, "category": null, "address": "Via don Titta Bulfon 35, 33026 Paluzza", "street": "Via don Titta Bulfon", "housenumber": "35", "postcode": "33026", "place": "Paluzza", "lat": 46.5844467, "lon": 12.9917933, "tags": {"addr:city": "Paluzza", "addr:housenumber": "35", "addr:postcode": "33026", "addr:street": "Via don Titta Bulfon"}, "content": "Adresse: Via don Titta Bulfon 35, 33026 Paluzza\nOrt: Paluzza\nPLZ: 33026\nKoordinaten: 46.584447, 12.991793", "doc_type": "addresses"}
{"source": "OSM", "region": "Kärnten", "osm_type": "node", "osm_id": 3834052055, "name": null, "category": null, "address": "Piazza San Pio Decimo 4, 33026 Paluzza", "street": "Piazza San Pio Decimo", "housenumber": "4", "postcode": "33026", "place": "Paluzza", "lat": 46.5827506, "lon": 13.0047805, "tags": {"addr:city": "Paluzza", "addr:housenumber": "4", "addr:postcode": "33026", "addr:street": "Piazza San Pio Decimo"}, "content": "Adresse: Piazza San Pio Decimo 4, 33026 Paluzza\nOrt: Paluzza\nPLZ: 33026\nKoordinaten: 46.582751, 13.004781", "doc_type": "addresses"}
{"source": "OSM", "region": "Kärnten", "osm_type": "node", "osm_id": 3834052090, "name": null, "category": null, "address": "Via Maria Plozner Mentil 37, 33026 Paluzza", "street": "Via Maria Plozner Mentil", "housenumber": "37", "postcode": "33026", "place": "Paluzza", "lat": 46.5824803, "lon": 13.0055779, "tags": {"addr:city": "Paluzza", "addr:housenumber": "37", "addr:postcode": "33026", "addr:street": "Via Maria Plozner Mentil"}, "content": "Adresse: Via Maria Plozner Mentil 37, 33026 Paluzza\nOrt: Paluzza\nPLZ: 33026\nKoordinaten: 46.582480, 13.005578", "doc_type": "addresses"}
{"source": "OSM", "region": "Kärnten", "osm_type": "node", "osm_id": 3834052099, "name": null, "category": null, "address": "Via Maria Plozner Mentil 38, 33026 Paluzza", "street": "Via Maria Plozner Mentil", "housenumber": "38", "postcode": "33026", "place": "Paluzza", "lat": 46.5823679, "lon": 13.0058137, "tags": {"addr:city": "Paluzza", "addr:housenumber": "38", "addr:postcode": "33026", "addr:street": "Via Maria Plozner Mentil"}, "content": "Adresse: Via Maria Plozner Mentil 38, 33026 Paluzza\nOrt: Paluzza\nPLZ: 33026\nKoordinaten: 46.582368, 13.005814", "doc_type": "addresses"}
{"source": "OSM", "region": "Kärnten", "osm_type": "node", "osm_id": 3834052109, "name": null, "category": null, "address": "Via Maria Plozner Mentil 39, 33026 Paluzza", "street": "Via Maria Plozner Mentil", "housenumber": "39", "postcode": "33026", "place": "Paluzza", "lat": 46.5827656, "lon": 13.005359, "tags": {"addr:city": "Paluzza", "addr:housenumber": "39", "addr:postcode": "33026", "addr:street": "Via Maria Plozner Mentil"}, "content": "Adresse: Via Maria Plozner Mentil 39, 33026 Paluzza\nOrt: Paluzza\nPLZ: 33026\nKoordinaten: 46.582766, 13.005359", "doc_type": "addresses"}
{"source": "OSM", "region": "Kärnten", "osm_type": "node", "osm_id": 3834052582, "name": null, "category": null, "address": "Via Maria Plozner Mentil 53, 33026 Paluzza", "street": "Via Maria Plozner Mentil", "housenumber": "53", "postcode": "33026", "place": "Paluzza", "lat": 46.5830296, "lon": 13.0049348, "tags": {"addr:city": "Paluzza", "addr:housenumber": "53", "addr:postcode": "33026", "addr:street": "Via Maria Plozner Mentil"}, "content": "Adresse: Via Maria Plozner Mentil 53, 33026 Paluzza\nOrt: Paluzza\nPLZ: 33026\nKoordinaten: 46.583030, 13.004935", "doc_type": "addresses"}
{"source": "OSM", "region": "Kärnten", "osm_type": "node", "osm_id": 3834052588, "name": null, "category": null, "address": "Via Maria Plozner Mentil 54, 33026 Paluzza", "street": "Via Maria Plozner Mentil", "housenumber": "54", "postcode": "33026", "place": "Paluzza", "lat": 46.5828634, "lon": 13.0053879, "tags": {"addr:city": "Paluzza", "addr:housenumber": "54", "addr:postcode": "33026", "addr:street": "Via Maria Plozner Mentil"}, "content": "Adresse: Via Maria Plozner Mentil 54, 33026 Paluzza\nOrt: Paluzza\nPLZ: 33026\nKoordinaten: 46.582863, 13.005388", "doc_type": "addresses"}
{"source": "OSM", "region": "Kärnten", "osm_type": "node", "osm_id": 3834052592, "name": null, "category": null, "address": "Via Giovanni Ventitreesimo 6, 33026 Paluzza", "street": "Via Giovanni Ventitreesimo", "housenumber": "6", "postcode": "33026", "place": "Paluzza", "lat": 46.5822485, "lon": 13.006188, "tags": {"addr:city": "Paluzza", "addr:housenumber": "6", "addr:postcode": "33026", "addr:street": "Via Giovanni Ventitreesimo"}, "content": "Adresse: Via Giovanni Ventitreesimo 6, 33026 Paluzza\nOrt: Paluzza\nPLZ: 33026\nKoordinaten: 46.582248, 13.006188", "doc_type": "addresses"}
{"source": "OSM", "region": "Kärnten", "osm_type": "node", "osm_id": 3834052598, "name": null, "category": null, "address": "Via Monte Croce 6, 33026 Paluzza", "street": "Via Monte Croce", "housenumber": "6", "postcode": "33026", "place": "Paluzza", "lat": 46.603042, "lon": 12.9450794, "tags": {"addr:city": "Paluzza", "addr:housenumber": "6", "addr:postcode": "33026", "addr:street": "Via Monte Croce"}, "content": "Adresse: Via Monte Croce 6, 33026 Paluzza\nOrt: Paluzza\nPLZ: 33026\nKoordinaten: 46.603042, 12.945079", "doc_type": "addresses"}
{"source": "OSM", "region": "Kärnten", "osm_type": "node", "osm_id": 3834052602, "name": null, "category": null, "address": "Via Quattro Novembre 6, 33026 Paluzza", "street": "Via Quattro Novembre", "housenumber": "6", "postcode": "33026", "place": "Paluzza", "lat": 46.5815587, "lon": 13.0065072, "tags": {"addr:city": "Paluzza", "addr:housenumber": "6", "addr:postcode": "33026", "addr:street": "Via Quattro Novembre"}, "content": "Adresse: Via Quattro Novembre 6, 33026 Paluzza\nOrt: Paluzza\nPLZ: 33026\nKoordinaten: 46.581559, 13.006507", "doc_type": "addresses"}
{"source": "OSM", "region": "Kärnten", "osm_type": "node", "osm_id": 3834052609, "name": null, "category": null, "address": "Via Seleit 6, 33026 Paluzza", "street": "Via Seleit", "housenumber": "6", "postcode": "33026", "place": "Paluzza", "lat": 46.5812815, "lon": 13.0077352, "tags": {"addr:city": "Paluzza", "addr:housenumber": "6", "addr:postcode": "33026", "addr:street": "Via Seleit"}, "content": "Adresse: Via Seleit 6, 33026 Paluzza\nOrt: Paluzza\nPLZ: 33026\nKoordinaten: 46.581282, 13.007735", "doc_type": "addresses"}
{"source": "OSM", "region": "Kärnten", "osm_type": "node", "osm_id": 3834052611, "name": null, "category": null, "address": "Via Velt 6, 33026 Paluzza", "street": "Via Velt", "housenumber": "6", "postcode": "33026", "place": "Paluzza", "lat": 46.5828162, "lon": 13.0057904, "tags": {"addr:city": "Paluzza", "addr:housenumber": "6", "addr:postcode": "33026", "addr:street": "Via Velt"}, "content": "Adresse: Via Velt 6, 33026 Paluzza\nOrt: Paluzza\nPLZ: 33026\nKoordinaten: 46.582816, 13.005790", "doc_type": "addresses"}
{"source": "OSM", "region": "Kärnten", "osm_type": "node", "osm_id": 3834052612, "name": null, "category": null, "address": "Via Ventiquattro Maggio 6, 33026 Paluzza", "street": "Via Ventiquattro Maggio", "housenumber": "6", "postcode": "33026", "place": "Paluzza", "lat": 46.5814835, "lon": 13.0066605, "tags": {"addr:city": "Paluzza", "addr:housenumber": "6", "addr:postcode": "33026", "addr:street": "Via Ventiquattro Maggio"}, "content": "Adresse: Via Ventiquattro Maggio 6, 33026 Paluzza\nOrt: Paluzza\nPLZ: 33026\nKoordinaten: 46.581483, 13.006661", "doc_type": "addresses"}
{"source": "OSM", "region": "Kärnten", "osm_type": "node", "osm_id": 3834052622, "name": null, "category": null, "address": "Via Nazionale 68, 33026 Paluzza", "street": "Via Nazionale", "housenumber": "68", "postcode": "33026", "place": "Paluzza", "lat": 46.5811324, "lon": 13.0064843, "tags": {"addr:city": "Paluzza", "addr:housenumber": "68", "addr:postcode": "33026", "addr:street": "Via Nazionale"}, "content": "Adresse: Via Nazionale 68, 33026 Paluzza\nOrt: Paluzza\nPLZ: 33026\nKoordinaten: 46.581132, 13.006484", "doc_type": "addresses"}
{"source": "OSM", "region": "Kärnten", "osm_type": "node", "osm_id": 3834052625, "name": null, "category": null, "address": "Via Maria Plozner Mentil 69, 33026 Paluzza", "street": "Via Maria Plozner Mentil", "housenumber": "69", "postcode": "33026", "place": "Paluzza", "lat": 46.5836577, "lon": 13.0039529, "tags": {"addr:city": "Paluzza", "addr:housenumber": "69", "addr:postcode": "33026", "addr:street": "Via Maria Plozner Mentil"}, "content": "Adresse: Via Maria Plozner Mentil 69, 33026 Paluzza\nOrt: Paluzza\nPLZ: 33026\nKoordinaten: 46.583658, 13.003953", "doc_type": "addresses"}
{"source": "OSM", "region": "Kärnten", "osm_type": "node", "osm_id": 3834052627, "name": null, "category": null, "address": "Via Nazionale 69, 33026 Paluzza", "street": "Via Nazionale", "housenumber": "69", "postcode": "33026", "place": "Paluzza", "lat": 46.5821338, "lon": 13.0045716, "tags": {"addr:city": "Paluzza", "addr:housenumber": "69", "addr:postcode": "33026", "addr:street": "Via Nazionale"}, "content": "Adresse: Via Nazionale 69, 33026 Paluzza\nOrt: Paluzza\nPLZ: 33026\nKoordinaten: 46.582134, 13.004572", "doc_type": "addresses"}
{"source": "OSM", "region": "Kärnten", "osm_type": "node", "osm_id": 3834052631, "name": null, "category": null, "address": "Via della Bella Cappella 7, 33026 Paluzza", "street": "Via della Bella Cappella", "housenumber": "7", "postcode": "33026", "place": "Paluzza", "lat": 46.5834624, "lon": 13.0051228, "tags": {"addr:city": "Paluzza", "addr:housenumber": "7", "addr:postcode": "33026", "addr:street": "Via della Bella Cappella"}, "content": "Adresse: Via della Bella Cappella 7, 33026 Paluzza\nOrt: Paluzza\nPLZ: 33026\nKoordinaten: 46.583462, 13.005123", "doc_type": "addresses"}
{"source": "OSM", "region": "Kärnten", "osm_type": "node", "osm_id": 3834052636, "name": null, "category": null, "address": "Via Maria Plozner Mentil 70, 33026 Paluzza", "street": "Via Maria Plozner Mentil", "housenumber": "70", "postcode": "33026", "place": "Paluzza", "lat": 46.583349, "lon": 13.004571, "tags": {"addr:city": "Paluzza", "addr:housenumber": "70", "addr:postcode": "33026", "addr:street": "Via Maria Plozner Mentil"}, "content": "Adresse: Via Maria Plozner Mentil 70, 33026 Paluzza\nOrt: Paluzza\nPLZ: 33026\nKoordinaten: 46.583349, 13.004571", "doc_type": "addresses"}
{"source": "OSM", "region": "Kärnten", "osm_type": "node", "osm_id": 3834052638, "name": null, "category": null, "address": "Via Nazionale 70, 33026 Paluzza", "street": "Via Nazionale", "housenumber": "70", "postcode": "33026", "place": "Paluzza", "lat": 46.5812279, "lon": 13.0063314, "tags": {"addr:city": "Paluzza", "addr:housenumber": "70", "addr:postcode": "33026", "addr:street": "Via Nazionale"}, "content": "Adresse: Via Nazionale 70, 33026 Paluzza\nOrt: Paluzza\nPLZ: 33026\nKoordinaten: 46.581228, 13.006331", "doc_type": "addresses"}
{"source": "OSM", "region": "Kärnten", "osm_type": "node", "osm_id": 3834052640, "name": null, "category": null, "address": "Via Maria Plozner Mentil 71, 33026 Paluzza", "street": "Via Maria Plozner Mentil", "housenumber": "71", "postcode": "33026", "place": "Paluzza", "lat": 46.5837481, "lon": 13.0038292, "tags": {"addr:city": "Paluzza", "addr:housenumber": "71", "addr:postcode": "33026", "addr:street": "Via Maria Plozner Mentil"}, "content": "Adresse: Via Maria Plozner Mentil 71, 33026 Paluzza\nOrt: Paluzza\nPLZ: 33026\nKoordinaten: 46.583748, 13.003829", "doc_type": "addresses"}
{"source": "OSM", "region": "Kärnten", "osm_type": "node", "osm_id": 3834052642, "name": null, "category": null, "address": "Via Nazionale 71, 33026 Paluzza", "street": "Via Nazionale", "housenumber": "71", "postcode": "33026", "place": "Paluzza", "lat": 46.5822276, "lon": 13.0043621, "tags": {"addr:city": "Paluzza", "addr:housenumber": "71", "addr:postcode": "33026", "addr:street": "Via Nazionale"}, "content": "Adresse: Via Nazionale 71, 33026 Paluzza\nOrt: Paluzza\nPLZ: 33026\nKoordinaten: 46.582228, 13.004362", "doc_type": "addresses"}
{"source": "OSM", "region": "Kärnten", "osm_type": "node", "osm_id": 3834052644, "name": null, "category": null, "address": "Via Maria Plozner Mentil 72, 33026 Paluzza", "street": "Via Maria Plozner Mentil", "housenumber": "72", "postcode": "33026", "place": "Paluzza", "lat": 46.5834458, "lon": 13.0044401, "tags": {"addr:city": "Paluzza", "addr:housenumber": "72", "addr:postcode": "33026", "addr:street": "Via Maria Plozner Mentil"}, "content": "Adresse: Via Maria Plozner Mentil 72, 33026 Paluzza\nOrt: Paluzza\nPLZ: 33026\nKoordinaten: 46.583446, 13.004440", "doc_type": "addresses"}
{"source": "OSM", "region": "Kärnten", "osm_type": "node", "osm_id": 3834052648, "name": null, "category": null, "address": "Via Maria Plozner Mentil 73, 33026 Paluzza", "street": "Via Maria Plozner Mentil", "housenumber": "73", "postcode": "33026", "place": "Paluzza", "lat": 46.5837728, "lon": 13.0037772, "tags": {"addr:city": "Paluzza", "addr:housenumber": "73", "addr:postcode": "33026", "addr:street": "Via Maria Plozner Mentil"}, "content": "Adresse: Via Maria Plozner Mentil 73, 33026 Paluzza\nOrt: Paluzza\nPLZ: 33026\nKoordinaten: 46.583773, 13.003777", "doc_type": "addresses"}
{"source": "OSM", "region": "Kärnten", "osm_type": "node", "osm_id": 3834052652, "name": null, "category": null, "address": "Via Maria Plozner Mentil 74, 33026 Paluzza", "street": "Via Maria Plozner Mentil", "housenumber": "74", "postcode": "33026", "place": "Paluzza", "lat": 46.583508, "lon": 13.0043451, "tags": {"addr:city": "Paluzza", "addr:housenumber": "74", "addr:postcode": "33026", "addr:street": "Via Maria Plozner Mentil"}, "content": "Adresse: Via Maria Plozner Mentil 74, 33026 Paluzza\nOrt: Paluzza\nPLZ: 33026\nKoordinaten: 46.583508, 13.004345", "doc_type": "addresses"}
{"source": "OSM", "region": "Kärnten", "osm_type": "node", "osm_id": 3834052655, "name": null, "category": null, "address": "Via Nazionale 74, 33026 Paluzza", "street": "Via Nazionale", "housenumber": "74", "postcode": "33026", "place": "Paluzza", "lat": 46.5816353, "lon": 13.0057433, "tags": {"addr:city": "Paluzza", "addr:housenumber": "74", "addr:postcode": "33026", "addr:street": "Via Nazionale"}, "content": "Adresse: Via Nazionale 74, 33026 Paluzza\nOrt: Paluzza\nPLZ: 33026\nKoordinaten: 46.581635, 13.005743", "doc_type": "addresses"}
{"source": "OSM", "region": "Kärnten", "osm_type": "node", "osm_id": 3834052668, "name": null, "category": null, "address": "Via Seleit 4, 33026 Paluzza", "street": "Via Seleit", "housenumber": "4", "postcode": "33026", "place": "Paluzza", "lat": 46.5810035, "lon": 13.0076489, "tags": {"addr:city": "Paluzza", "addr:housenumber": "4", "addr:postcode": "33026", "addr:street": "Via Seleit"}, "content": "Adresse: Via Seleit 4, 33026 Paluzza\nOrt: Paluzza\nPLZ: 33026\nKoordinaten: 46.581004, 13.007649", "doc_type": "addresses"}
{"source": "OSM", "region": "Kärnten", "osm_type": "node", "osm_id": 3834052770, "name": null, "category": null, "address": "Via della Bella Cappella 4, 33026 Paluzza", "street": "Via della Bella Cappella", "housenumber": "4", "postcode": "33026", "place": "Paluzza", "lat": 46.5833153, "lon": 13.004929, "tags": {"addr:city": "Paluzza", "addr:housenumber": "4", "addr:postcode": "33026", "addr:street": "Via della Bella Cappella"}, "content": "Adresse: Via della Bella Cappella 4, 33026 Paluzza\nOrt: Paluzza\nPLZ: 33026\nKoordinaten: 46.583315, 13.004929", "doc_type": "addresses"}
{"source": "OSM", "region": "Kärnten", "osm_type": "node", "osm_id": 3834052774, "name": null, "category": null, "address": "Via Venticinque Aprile 4, 33026 Paluzza", "street": "Via Venticinque Aprile", "housenumber": "4", "postcode": "33026", "place": "Paluzza", "lat": 46.581307, "lon": 13.0069507, "tags": {"addr:city": "Paluzza", "addr:housenumber": "4", "addr:postcode": "33026", "addr:street": "Via Venticinque Aprile"}, "content": "Adresse: Via Venticinque Aprile 4, 33026 Paluzza\nOrt: Paluzza\nPLZ: 33026\nKoordinaten: 46.581307, 13.006951", "doc_type": "addresses"}
{"source": "OSM", "region": "Kärnten", "osm_type": "node", "osm_id": 3834052776, "name": null, "category": null, "address": "Vicolo Duzzi 4, 33026 Paluzza", "street": "Vicolo Duzzi", "housenumber": "4", "postcode": "33026", "place": "Paluzza", "lat": 46.5847614, "lon": 12.999556, "tags": {"addr:city": "Paluzza", "addr:housenumber": "4", "addr:postcode": "33026", "addr:street": "Vicolo Duzzi"}, "content": "Adresse: Vicolo Duzzi 4, 33026 Paluzza\nOrt: Paluzza\nPLZ: 33026\nKoordinaten: 46.584761, 12.999556", "doc_type": "addresses"}
{"source": "OSM", "region": "Kärnten", "osm_type": "node", "osm_id": 3834052920, "name": null, "category": null, "address": "Via Monte Coglians 5, 33026 Paluzza", "street": "Via Monte Coglians", "housenumber": "5", "postcode": "33026", "place": "Paluzza", "lat": 46.5839202, "lon": 13.0017961, "tags": {"addr:city": "Paluzza", "addr:housenumber": "5", "addr:postcode": "33026", "addr:street": "Via Monte Coglians"}, "content": "Adresse: Via Monte Coglians 5, 33026 Paluzza\nOrt: Paluzza\nPLZ: 33026\nKoordinaten: 46.583920, 13.001796", "doc_type": "addresses"}
{"source": "OSM", "region": "Kärnten", "osm_type": "node", "osm_id": 3834052925, "name": null, "category": null, "address": "Via Pal Grande 5, 33026 Paluzza", "street": "Via Pal Grande", "housenumber": "5", "postcode": "33026", "place": "Paluzza", "lat": 46.5842672, "lon": 13.0009473, "tags": {"addr:city": "Paluzza", "addr:housenumber": "5", "addr:postcode": "33026", "addr:street": "Via Pal Grande"}, "content": "Adresse: Via Pal Grande 5, 33026 Paluzza\nOrt: Paluzza\nPLZ: 33026\nKoordinaten: 46.584267, 13.000947", "doc_type": "addresses"}
{"source": "OSM", "region": "Kärnten", "osm_type": "node", "osm_id": 3834052927, "name": null, "category": null, "address": "Via don Titta Bulfon 5, 33026 Paluzza", "street": "Via don Titta Bulfon", "housenumber": "5", "postcode": "33026", "place": "Paluzza", "lat": 46.5846304, "lon": 12.995434, "tags": {"addr:city": "Paluzza", "addr:housenumber": "5", "addr:postcode": "33026", "addr:street": "Via don Titta Bulfon"}, "content": "Adresse: Via don Titta Bulfon 5, 33026 Paluzza\nOrt: Paluzza\nPLZ: 33026\nKoordinaten: 46.584630, 12.995434", "doc_type": "addresses"}
{"source": "OSM", "region": "Kärnten", "osm_type": "node", "osm_id": 3834052930, "name": null, "category": null, "address": "Via Venticinque Aprile 5, 33026 Paluzza", "street": "Via Venticinque Aprile", "housenumber": "5", "postcode": "33026", "place": "Paluzza", "lat": 46.5813149, "lon": 13.0068581, "tags": {"addr:city": "Paluzza", "addr:housenumber": "5", "addr:postcode": "33026", "addr:street": "Via Venticinque Aprile"}, "content": "Adresse: Via Venticinque Aprile 5, 33026 Paluzza\nOrt: Paluzza\nPLZ: 33026\nKoordinaten: 46.581315, 13.006858", "doc_type": "addresses"}
{"source": "OSM", "region": "Kärnten", "osm_type": "node", "osm_id": 3834052933, "name": null, "category": null, "address": "Via Santa Geltrude 5, 33026 Paluzza", "street": "Via Santa Geltrude", "housenumber": "5", "postcode": "33026", "place": "Paluzza", "lat": 46.581888, "lon": 13.0063311, "tags": {"addr:city": "Paluzza", "addr:housenumber": "5", "addr:postcode": "33026", "addr:street": "Via Santa Geltrude"}, "content": "Adresse: Via Santa Geltrude 5, 33026 Paluzza\nOrt: Paluzza\nPLZ: 33026\nKoordinaten: 46.581888, 13.006331", "doc_type": "addresses"}
{"source": "OSM", "region": "Kärnten", "osm_type": "node", "osm_id": 3834052955, "name": null, "category": null, "address": "Via Maria Plozner Mentil 52, 33026 Paluzza", "street": "Via Maria Plozner Mentil", "housenumber": "52", "postcode": "33026", "place": "Paluzza", "lat": 46.5827661, "lon": 13.0054841, "tags": {"addr:city": "Paluzza", "addr:housenumber": "52", "addr:postcode": "33026", "addr:street": "Via Maria Plozner Mentil"}, "content": "Adresse: Via Maria Plozner Mentil 52, 33026 Paluzza\nOrt: Paluzza\nPLZ: 33026\nKoordinaten: 46.582766, 13.005484", "doc_type": "addresses"}
{"source": "OSM", "region": "Kärnten", "osm_type": "node", "osm_id": 3834053003, "name": null, "category": null, "address": "Via Maria Plozner Mentil 42, 33026 Paluzza", "street": "Via Maria Plozner Mentil", "housenumber": "42", "postcode": "33026", "place": "Paluzza", "lat": 46.5825158, "lon": 13.0056902, "tags": {"addr:city": "Paluzza", "addr:housenumber": "42", "addr:postcode": "33026", "addr:street": "Via Maria Plozner Mentil"}, "content": "Adresse: Via Maria Plozner Mentil 42, 33026 Paluzza\nOrt: Paluzza\nPLZ: 33026\nKoordinaten: 46.582516, 13.005690", "doc_type": "addresses"}
{"source": "OSM", "region": "Kärnten", "osm_type": "node", "osm_id": 3834053008, "name": null, "category": null, "address": "Via Maria Plozner Mentil 43, 33026 Paluzza", "street": "Via Maria Plozner Mentil", "housenumber": "43", "postcode": "33026", "place": "Paluzza", "lat": 46.5828595, "lon": 13.0052537, "tags": {"addr:city": "Paluzza", "addr:housenumber": "43", "addr:postcode": "33026", "addr:street": "Via Maria Plozner Mentil"}, "content": "Adresse: Via Maria Plozner Mentil 43, 33026 Paluzza\nOrt: Paluzza\nPLZ: 33026\nKoordinaten: 46.582859, 13.005254", "doc_type": "addresses"}
{"source": "OSM", "region": "Kärnten", "osm_type": "node", "osm_id": 3834053062, "name": null, "category": null, "address": "Via Giovanni Ventitreesimo 4, 33026 Paluzza", "street": "Via Giovanni Ventitreesimo", "housenumber": "4", "postcode": "33026", "place": "Paluzza", "lat": 46.5823023, "lon": 13.0060252, "tags": {"addr:city": "Paluzza", "addr:housenumber": "4", "addr:postcode": "33026", "addr:street": "Via Giovanni Ventitreesimo"}, "content": "Adresse: Via Giovanni Ventitreesimo 4, 33026 Paluzza\nOrt: Paluzza\nPLZ: 33026\nKoordinaten: 46.582302, 13.006025", "doc_type": "addresses"}
{"source": "OSM", "region": "Kärnten", "osm_type": "node", "osm_id": 3834053066, "name": null, "category": null, "address": "Via Maria Plozner Mentil 4, 33026 Paluzza", "street": "Via Maria Plozner Mentil", "housenumber": "4", "postcode": "33026", "place": "Paluzza", "lat": 46.5814367, "lon": 13.0060771, "tags": {"addr:city": "Paluzza", "addr:housenumber": "4", "addr:postcode": "33026", "addr:street": "Via Maria Plozner Mentil"}, "content": "Adresse: Via Maria Plozner Mentil 4, 33026 Paluzza\nOrt: Paluzza\nPLZ: 33026\nKoordinaten: 46.581437, 13.006077", "doc_type": "addresses"}
{"source": "OSM", "region": "Kärnten", "osm_type": "node", "osm_id": 3834053069, "name": null, "category": null, "address": "Via Monte Coglians 4, 33026 Paluzza", "street": "Via Monte Coglians", "housenumber": "4", "postcode": "33026", "place": "Paluzza", "lat": 46.5839906, "lon": 13.0021366, "tags": {"addr:city": "Paluzza", "addr:housenumber": "4", "addr:postcode": "33026", "addr:street": "Via Monte Coglians"}, "content": "Adresse: Via Monte Coglians 4, 33026 Paluzza\nOrt: Paluzza\nPLZ: 33026\nKoordinaten: 46.583991, 13.002137", "doc_type": "addresses"}
{"source": "OSM", "region": "Kärnten", "osm_type": "node", "osm_id": 3834053078, "name": null, "category": null, "address": "Via Quattro Novembre 4, 33026 Paluzza", "street": "Via Quattro Novembre", "housenumber": "4", "postcode": "33026", "place": "Paluzza", "lat": 46.5815936, "lon": 13.0063395, "tags": {"addr:city": "Paluzza", "addr:housenumber": "4", "addr:postcode": "33026", "addr:street": "Via Quattro Novembre"}, "content": "Adresse: Via Quattro Novembre 4, 33026 Paluzza\nOrt: Paluzza\nPLZ: 33026\nKoordinaten: 46.581594, 13.006339", "doc_type": "addresses"}
{"source": "OSM", "region": "Kärnten", "osm_type": "node", "osm_id": 3834053126, "name": null, "category": null, "address": "Via Pal Piccolo 5, 33026 Paluzza", "street": "Via Pal Piccolo", "housenumber": "5", "postcode": "33026", "place": "Paluzza", "lat": 46.584719, "lon": 13.0014472, "tags": {"addr:city": "Paluzza", "addr:housenumber": "5", "addr:postcode": "33026", "addr:street": "Via Pal Piccolo"}, "content": "Adresse: Via Pal Piccolo 5, 33026 Paluzza\nOrt: Paluzza\nPLZ: 33026\nKoordinaten: 46.584719, 13.001447", "doc_type": "addresses"}
{"source": "OSM", "region": "Kärnten", "osm_type": "node", "osm_id": 3834053285, "name": null, "category": null, "address": "Via don Titta Bulfon 43, 33026 Paluzza", "street": "Via don Titta Bulfon", "housenumber": "43", "postcode": "33026", "place": "Paluzza", "lat": 46.5849323, "lon": 12.9896183, "tags": {"addr:city": "Paluzza", "addr:housenumber": "43", "addr:postcode": "33026", "addr:street": "Via don Titta Bulfon"}, "content": "Adresse: Via don Titta Bulfon 43, 33026 Paluzza\nOrt: Paluzza\nPLZ: 33026\nKoordinaten: 46.584932, 12.989618", "doc_type": "addresses"}
{"source": "OSM", "region": "Kärnten", "osm_type": "node", "osm_id": 3834053292, "name": null, "category": null, "address": "Via Maria Plozner Mentil 44, 33026 Paluzza", "street": "Via Maria Plozner Mentil", "housenumber": "44", "postcode": "33026", "place": "Paluzza", "lat": 46.5825425, "lon": 13.0056637, "tags": {"addr:city": "Paluzza", "addr:housenumber": "44", "addr:postcode": "33026", "addr:street": "Via Maria Plozner Mentil"}, "content": "Adresse: Via Maria Plozner Mentil 44, 33026 Paluzza\nOrt: Paluzza\nPLZ: 33026\nKoordinaten: 46.582543, 13.005664", "doc_type": "addresses"}
{"source": "OSM", "region": "Kärnten", "osm_type": "node", "osm_id": 3834053297, "name": null, "category": null, "address": "Via Maria Plozner Mentil 45, 33026 Paluzza", "street": "Via Maria Plozner Mentil", "housenumber": "45", "postcode": "33026", "place": "Paluzza", "lat": 46.5828793, "lon": 13.0051998, "tags": {"addr:city": "Paluzza", "addr:housenumber": "45", "addr:postcode": "33026", "addr:street": "Via Maria Plozner Mentil"}, "content": "Adresse: Via Maria Plozner Mentil 45, 33026 Paluzza\nOrt: Paluzza\nPLZ: 33026\nKoordinaten: 46.582879, 13.005200", "doc_type": "addresses"}
{"source": "OSM", "region": "Kärnten", "osm_type": "node", "osm_id": 3834053302, "name": null, "category": null, "address": "Via don Titta Bulfon 45, 33026 Paluzza", "street": "Via don Titta Bulfon", "housenumber": "45", "postcode": "33026", "place": "Paluzza", "lat": 46.585033, "lon": 12.9889063, "tags": {"addr:city": "Paluzza", "addr:housenumber": "45", "addr:postcode": "33026", "addr:street": "Via don Titta Bulfon"}, "content": "Adresse: Via don Titta Bulfon 45, 33026 Paluzza\nOrt: Paluzza\nPLZ: 33026\nKoordinaten: 46.585033, 12.988906", "doc_type": "addresses"}
{"source": "OSM", "region": "Kärnten", "osm_type": "node", "osm_id": 3834053306, "name": null, "category": null, "address": "Via Maria Plozner Mentil 46, 33026 Paluzza", "street": "Via Maria Plozner Mentil", "housenumber": "46", "postcode": "33026", "place": "Paluzza", "lat": 46.5825725, "lon": 13.0056487, "tags": {"addr:city": "Paluzza", "addr:housenumber": "46", "addr:postcode": "33026", "addr:street": "Via Maria Plozner Mentil"}, "content": "Adresse: Via Maria Plozner Mentil 46, 33026 Paluzza\nOrt: Paluzza\nPLZ: 33026\nKoordinaten: 46.582572, 13.005649", "doc_type": "addresses"}
{"source": "OSM", "region": "Kärnten", "osm_type": "node", "osm_id": 3834053313, "name": null, "category": null, "address": "Via Maria Plozner Mentil 47, 33026 Paluzza", "street": "Via Maria Plozner Mentil", "housenumber": "47", "postcode": "33026", "place": "Paluzza", "lat": 46.5829008, "lon": 13.0051526, "tags": {"addr:city": "Paluzza", "addr:housenumber": "47", "addr:postcode": "33026", "addr:street": "Via Maria Plozner Mentil"}, "content": "Adresse: Via Maria Plozner Mentil 47, 33026 Paluzza\nOrt: Paluzza\nPLZ: 33026\nKoordinaten: 46.582901, 13.005153", "doc_type": "addresses"}
{"source": "OSM", "region": "Kärnten", "osm_type": "node", "osm_id": 3834053317, "name": null, "category": null, "address": "Via Maria Plozner Mentil 49, 33026 Paluzza", "street": "Via Maria Plozner Mentil", "housenumber": "49", "postcode": "33026", "place": "Paluzza", "lat": 46.5829144, "lon": 13.0051034, "tags": {"addr:city": "Paluzza", "addr:housenumber": "49", "addr:postcode": "33026", "addr:street": "Via Maria Plozner Mentil"}, "content": "Adresse: Via Maria Plozner Mentil 49, 33026 Paluzza\nOrt: Paluzza\nPLZ: 33026\nKoordinaten: 46.582914, 13.005103", "doc_type": "addresses"}
{"source": "OSM", "region": "Kärnten", "osm_type": "node", "osm_id": 3834053324, "name": null, "category": null, "address": "Piazza San Pio Decimo 5, 33026 Paluzza", "street": "Piazza San Pio Decimo", "housenumber": "5", "postcode": "33026", "place": "Paluzza", "lat": 46.5826819, "lon": 13.0048665, "tags": {"addr:city": "Paluzza", "addr:housenumber": "5", "addr:postcode": "33026", "addr:street": "Piazza San Pio Decimo"}, "content": "Adresse: Piazza San Pio Decimo 5, 33026 Paluzza\nOrt: Paluzza\nPLZ: 33026\nKoordinaten: 46.582682, 13.004867", "doc_type": "addresses"}
{"source": "OSM", "region": "Kärnten", "osm_type": "node", "osm_id": 3834053333, "name": null, "category": null, "address": "Via Giovanni Ventitreesimo 5, 33026 Paluzza", "street": "Via Giovanni Ventitreesimo", "housenumber": "5", "postcode": "33026", "place": "Paluzza", "lat": 46.5820748, "lon": 13.0060952, "tags": {"addr:city": "Paluzza", "addr:housenumber": "5", "addr:postcode": "33026", "addr:street": "Via Giovanni Ventitreesimo"}, "content": "Adresse: Via Giovanni Ventitreesimo 5, 33026 Paluzza\nOrt: Paluzza\nPLZ: 33026\nKoordinaten: 46.582075, 13.006095", "doc_type": "addresses"}
{"source": "OSM", "region": "Kärnten", "osm_type": "node", "osm_id": 3834053335, "name": null, "category": null, "address": "Via Nazionale 56, 33026 Paluzza", "street": "Via Nazionale", "housenumber": "56", "postcode": "33026", "place": "Paluzza", "lat": 46.5805351, "lon": 13.0077817, "tags": {"addr:city": "Paluzza", "addr:housenumber": "56", "addr:postcode": "33026", "addr:street": "Via Nazionale"}, "content": "Adresse: Via Nazionale 56, 33026 Paluzza\nOrt: Paluzza\nPLZ: 33026\nKoordinaten: 46.580535, 13.007782", "doc_type": "addresses"}
{"source": "OSM", "region": "Kärnten", "osm_type": "node", "osm_id": 3834053338, "name": null, "category": null, "address": "Via Maria Plozner Mentil 57, 33026 Paluzza", "street": "Via Maria Plozner Mentil", "housenumber": "57", "postcode": "33026", "place": "Paluzza", "lat": 46.5833528, "lon": 13.0044227, "tags": {"addr:city": "Paluzza", "addr:housenumber": "57", "addr:postcode": "33026", "addr:street": "Via Maria Plozner Mentil"}, "content": "Adresse: Via Maria Plozner Mentil 57, 33026 Paluzza\nOrt: Paluzza\nPLZ: 33026\nKoordinaten: 46.583353, 13.004423", "doc_type": "addresses"}
{"source": "OSM", "region": "Kärnten", "osm_type": "node", "osm_id": 3834053341, "name": null, "category": null, "address": "Via Maria Plozner Mentil 58, 33026 Paluzza", "street": "Via Maria Plozner Mentil", "housenumber": "58", "postcode": "33026", "place": "Paluzza", "lat": 46.5829288, "lon": 13.0052883, "tags": {"addr:city": "Paluzza", "addr:housenumber": "58", "addr:postcode": "33026", "addr:street": "Via Maria Plozner Mentil"}, "content": "Adresse: Via Maria Plozner Mentil 58, 33026 Paluzza\nOrt: Paluzza\nPLZ: 33026\nKoordinaten: 46.582929, 13.005288", "doc_type": "addresses"}
{"source": "OSM", "region": "Kärnten", "osm_type": "node", "osm_id": 3834053343, "name": null, "category": null, "address": "Via Nazionale 58, 33026 Paluzza", "street": "Via Nazionale", "housenumber": "58", "postcode": "33026", "place": "Paluzza", "lat": 46.5805924, "lon": 13.0074055, "tags": {"addr:city": "Paluzza", "addr:housenumber": "58", "addr:postcode": "33026", "addr:street": "Via Nazionale"}, "content": "Adresse: Via Nazionale 58, 33026 Paluzza\nOrt: Paluzza\nPLZ: 33026\nKoordinaten: 46.580592, 13.007406", "doc_type": "addresses"}
{"source": "OSM", "region": "Kärnten", "osm_type": "node", "osm_id": 3834053534, "name": null, "category": null, "address": "Via Ventiquattro Maggio 5, 33026 Paluzza", "street": "Via Ventiquattro Maggio", "housenumber": "5", "postcode": "33026", "place": "Paluzza", "lat": 46.5814552, "lon": 13.0063913, "tags": {"addr:city": "Paluzza", "addr:housenumber": "5", "addr:postcode": "33026", "addr:street": "Via Ventiquattro Maggio"}, "content": "Adresse: Via Ventiquattro Maggio 5, 33026 Paluzza\nOrt: Paluzza\nPLZ: 33026\nKoordinaten: 46.581455, 13.006391", "doc_type": "addresses"}
{"source": "OSM", "region": "Kärnten", "osm_type": "node", "osm_id": 3834053539, "name": null, "category": null, "address": "Via della Bella Cappella 5, 33026 Paluzza", "street": "Via della Bella Cappella", "housenumber": "5", "postcode": "33026", "place": "Paluzza", "lat": 46.583609, "lon": 13.0048255, "tags": {"addr:city": "Paluzza", "addr:housenumber": "5", "addr:postcode": "33026", "addr:street": "Via della Bella Cappella"}, "content": "Adresse: Via della Bella Cappella 5, 33026 Paluzza\nOrt: Paluzza\nPLZ: 33026\nKoordinaten: 46.583609, 13.004826", "doc_type": "addresses"}
{"source": "OSM", "region": "Kärnten", "osm_type": "node", "osm_id": 3834053544, "name": null, "category": null, "address": "Via Maria Plozner Mentil 59, 33026 Paluzza", "street": "Via Maria Plozner Mentil", "housenumber": "59", "postcode": "33026", "place": "Paluzza", "lat": 46.5834134, "lon": 13.0043231, "tags": {"addr:city": "Paluzza", "addr:housenumber": "59", "addr:postcode": "33026", "addr:street": "Via Maria Plozner Mentil"}, "content": "Adresse: Via Maria Plozner Mentil 59, 33026 Paluzza\nOrt: Paluzza\nPLZ: 33026\nKoordinaten: 46.583413, 13.004323", "doc_type": "addresses"}
{"source": "OSM", "region": "Kärnten", "osm_type": "node", "osm_id": 3834053707, "name": null, "category": null, "address": "Via Angelo Matiz 7, 33026 Paluzza", "street": "Via Angelo Matiz", "housenumber": "7", "postcode": "33026", "place": "Paluzza", "lat": 46.5825355, "lon": 13.0050757, "tags": {"addr:city": "Paluzza", "addr:housenumber": "7", "addr:postcode": "33026", "addr:street": "Via Angelo Matiz"}, "content": "Adresse: Via Angelo Matiz 7, 33026 Paluzza\nOrt: Paluzza\nPLZ: 33026\nKoordinaten: 46.582535, 13.005076", "doc_type": "addresses"}
{"source": "OSM", "region": "Kärnten", "osm_type": "node", "osm_id": 3834053714, "name": null, "category": null, "address": "Via Giovanni Ventitreesimo 7, 33026 Paluzza", "street": "Via Giovanni Ventitreesimo", "housenumber": "7", "postcode": "33026", "place": "Paluzza", "lat": 46.5821141, "lon": 13.0060492, "tags": {"addr:city": "Paluzza", "addr:housenumber": "7", "addr:postcode": "33026", "addr:street": "Via Giovanni Ventitreesimo"}, "content": "Adresse: Via Giovanni Ventitreesimo 7, 33026 Paluzza\nOrt: Paluzza\nPLZ: 33026\nKoordinaten: 46.582114, 13.006049", "doc_type": "addresses"}
{"source": "OSM", "region": "Kärnten", "osm_type": "node", "osm_id": 3834053721, "name": null, "category": null, "address": "Via Monte Coglians 7, 33026 Paluzza", "street": "Via Monte Coglians", "housenumber": "7", "postcode": "33026", "place": "Paluzza", "lat": 46.584055, "lon": 13.0018375, "tags": {"addr:city": "Paluzza", "addr:housenumber": "7", "addr:postcode": "33026", "addr:street": "Via Monte Coglians"}, "content": "Adresse: Via Monte Coglians 7, 33026 Paluzza\nOrt: Paluzza\nPLZ: 33026\nKoordinaten: 46.584055, 13.001838", "doc_type": "addresses"}
{"source": "OSM", "region": "Kärnten", "osm_type": "node", "osm_id": 3834053731, "name": null, "category": null, "address": "Via Pal Piccolo 8, 33026 Paluzza", "street": "Via Pal Piccolo", "housenumber": "8", "postcode": "33026", "place": "Paluzza", "lat": 46.5848514, "lon": 13.0017179, "tags": {"addr:city": "Paluzza", "addr:housenumber": "8", "addr:postcode": "33026", "addr:street": "Via Pal Piccolo"}, "content": "Adresse: Via Pal Piccolo 8, 33026 Paluzza\nOrt: Paluzza\nPLZ: 33026\nKoordinaten: 46.584851, 13.001718", "doc_type": "addresses"}
{"source": "OSM", "region": "Kärnten", "osm_type": "node", "osm_id": 3834053745, "name": null, "category": null, "address": "Via Velt 8, 33026 Paluzza", "street": "Via Velt", "housenumber": "8", "postcode": "33026", "place": "Paluzza", "lat": 46.5829296, "lon": 13.0059761, "tags": {"addr:city": "Paluzza", "addr:housenumber": "8", "addr:postcode": "33026", "addr:street": "Via Velt"}, "content": "Adresse: Via Velt 8, 33026 Paluzza\nOrt: Paluzza\nPLZ: 33026\nKoordinaten: 46.582930, 13.005976", "doc_type": "addresses"}
{"source": "OSM", "region": "Kärnten", "osm_type": "node", "osm_id": 3834053746, "name": null, "category": null, "address": "Via Ventiquattro Maggio 8, 33026 Paluzza", "street": "Via Ventiquattro Maggio", "housenumber": "8", "postcode": "33026", "place": "Paluzza", "lat": 46.5816366, "lon": 13.0067847, "tags": {"addr:city": "Paluzza", "addr:housenumber": "8", "addr:postcode": "33026", "addr:street": "Via Ventiquattro Maggio"}, "content": "Adresse: Via Ventiquattro Maggio 8, 33026 Paluzza\nOrt: Paluzza\nPLZ: 33026\nKoordinaten: 46.581637, 13.006785", "doc_type": "addresses"}
{"source": "OSM", "region": "Kärnten", "osm_type": "node", "osm_id": 3834053756, "name": null, "category": null, "address": "Via Nazionale 80, 33026 Paluzza", "street": "Via Nazionale", "housenumber": "80", "postcode": "33026", "place": "Paluzza", "lat": 46.5820149, "lon": 13.0051712, "tags": {"addr:city": "Paluzza", "addr:housenumber": "80", "addr:postcode": "33026", "addr:street": "Via Nazionale"}, "content": "Adresse: Via Nazionale 80, 33026 Paluzza\nOrt: Paluzza\nPLZ: 33026\nKoordinaten: 46.582015, 13.005171", "doc_type": "addresses"}
{"source": "OSM", "region": "Kärnten", "osm_type": "node", "osm_id": 3834053775, "name": null, "category": null, "address": "Via Maria Plozner Mentil 55, 33026 Paluzza", "street": "Via Maria Plozner Mentil", "housenumber": "55", "postcode": "33026", "place": "Paluzza", "lat": 46.5832859, "lon": 13.0045201, "tags": {"addr:city": "Paluzza", "addr:housenumber": "55", "addr:postcode": "33026", "addr:street": "Via Maria Plozner Mentil"}, "content": "Adresse: Via Maria Plozner Mentil 55, 33026 Paluzza\nOrt: Paluzza\nPLZ: 33026\nKoordinaten: 46.583286, 13.004520", "doc_type": "addresses"}
{"source": "OSM", "region": "Kärnten", "osm_type": "node", "osm_id": 3834053822, "name": null, "category": null, "address": "Via Nazionale 82, 33026 Paluzza", "street": "Via Nazionale", "housenumber": "82", "postcode": "33026", "place": "Paluzza", "lat": 46.5820766, "lon": 13.0050462, "tags": {"addr:city": "Paluzza", "addr:housenumber": "82", "addr:postcode": "33026", "addr:street": "Via Nazionale"}, "content": "Adresse: Via Nazionale 82, 33026 Paluzza\nOrt: Paluzza\nPLZ: 33026\nKoordinaten: 46.582077, 13.005046", "doc_type": "addresses"}
{"source": "OSM", "region": "Kärnten", "osm_type": "node", "osm_id": 3834053825, "name": null, "category": null, "address": "Via Maria Plozner Mentil 83, 33026 Paluzza", "street": "Via Maria Plozner Mentil", "housenumber": "83", "postcode": "33026", "place": "Paluzza", "lat": 46.5842698, "lon": 13.0034393, "tags": {"addr:city": "Paluzza", "addr:housenumber": "83", "addr:postcode": "33026", "addr:street": "Via Maria Plozner Mentil"}, "content": "Adresse: Via Maria Plozner Mentil 83, 33026 Paluzza\nOrt: Paluzza\nPLZ: 33026\nKoordinaten: 46.584270, 13.003439", "doc_type": "addresses"}
{"source": "OSM", "region": "Kärnten", "osm_type": "node", "osm_id": 3834053826, "name": null, "category": null, "address": "Via Nazionale 83, 33026 Paluzza", "street": "Via Nazionale", "housenumber": "83", "postcode": "33026", "place": "Paluzza", "lat": 46.5825776, "lon": 13.0037401, "tags": {"addr:city": "Paluzza", "addr:housenumber": "83", "addr:postcode": "33026", "addr:street": "Via Nazionale"}, "content": "Adresse: Via Nazionale 83, 33026 Paluzza\nOrt: Paluzza\nPLZ: 33026\nKoordinaten: 46.582578, 13.003740", "doc_type": "addresses"}
{"source": "OSM", "region": "Kärnten", "osm_type": "node", "osm_id": 3834053830, "name": null, "category": null, "address": "Via Nazionale 84, 33026 Paluzza", "street": "Via Nazionale", "housenumber": "84", "postcode": "33026", "place": "Paluzza", "lat": 46.5821822, "lon": 13.0048732, "tags": {"addr:city": "Paluzza", "addr:housenumber": "84", "addr:postcode": "33026", "addr:street": "Via Nazionale"}, "content": "Adresse: Via Nazionale 84, 33026 Paluzza\nOrt: Paluzza\nPLZ: 33026\nKoordinaten: 46.582182, 13.004873", "doc_type": "addresses"}
{"source": "OSM", "region": "Kärnten", "osm_type": "node", "osm_id": 3834053835, "name": null, "category": null, "address": "Via Maria Plozner Mentil 88, 33026 Paluzza", "street": "Via Maria Plozner Mentil", "housenumber": "88", "postcode": "33026", "place": "Paluzza", "lat": 46.5839365, "lon": 13.0037389, "tags": {"addr:city": "Paluzza", "addr:housenumber": "88", "addr:postcode": "33026", "addr:street": "Via Maria Plozner Mentil"}, "content": "Adresse: Via Maria Plozner Mentil 88, 33026 Paluzza\nOrt: Paluzza\nPLZ: 33026\nKoordinaten: 46.583937, 13.003739", "doc_type": "addresses"}
{"source": "OSM", "region": "Kärnten", "osm_type": "node", "osm_id": 3834053837, "name": null, "category": null, "address": "Via Nazionale 88, 33026 Paluzza", "street": "Via Nazionale", "housenumber": "88", "postcode": "33026", "place": "Paluzza", "lat": 46.5824233, "lon": 13.0048714, "tags": {"addr:city": "Paluzza", "addr:housenumber": "88", "addr:postcode": "33026", "addr:street": "Via Nazionale"}, "content": "Adresse: Via Nazionale 88, 33026 Paluzza\nOrt: Paluzza\nPLZ: 33026\nKoordinaten: 46.582423, 13.004871", "doc_type": "addresses"}
{"source": "OSM", "region": "Kärnten", "osm_type": "node", "osm_id": 3834053841, "name": null, "category": null, "address": "Via Nazionale 89, 33026 Paluzza", "street": "Via Nazionale", "housenumber": "89", "postcode": "33026", "place": "Paluzza", "lat": 46.5826833, "lon": 13.0035179, "tags": {"addr:city": "Paluzza", "addr:housenumber": "89", "addr:postcode": "33026", "addr:street": "Via Nazionale"}, "content": "Adresse: Via Nazionale 89, 33026 Paluzza\nOrt: Paluzza\nPLZ: 33026\nKoordinaten: 46.582683, 13.003518", "doc_type": "addresses"}
{"source": "OSM", "region": "Kärnten", "osm_type": "node", "osm_id": 3834053849, "name": null, "category": null, "address": "Via Pal Piccolo 9, 33026 Paluzza", "street": "Via Pal Piccolo", "housenumber": "9", "postcode": "33026", "place": "Paluzza", "lat": 46.5846968, "lon": 13.0016426, "tags": {"addr:city": "Paluzza", "addr:housenumber": "9", "addr:postcode": "33026", "addr:street": "Via Pal Piccolo"}, "content": "Adresse: Via Pal Piccolo 9, 33026 Paluzza\nOrt: Paluzza\nPLZ: 33026\nKoordinaten: 46.584697, 13.001643", "doc_type": "addresses"}
{"source": "OSM", "region": "Kärnten", "osm_type": "node", "osm_id": 3834054063, "name": null, "category": null, "address": "Via Maria Plozner Mentil 60, 33026 Paluzza", "street": "Via Maria Plozner Mentil", "housenumber": "60", "postcode": "33026", "place": "Paluzza", "lat": 46.5829739, "lon": 13.005217, "tags": {"addr:city": "Paluzza", "addr:housenumber": "60", "addr:postcode": "33026", "addr:street": "Via Maria Plozner Mentil"}, "content": "Adresse: Via Maria Plozner Mentil 60, 33026 Paluzza\nOrt: Paluzza\nPLZ: 33026\nKoordinaten: 46.582974, 13.005217", "doc_type": "addresses"}
{"source": "OSM", "region": "Kärnten", "osm_type": "node", "osm_id": 3834054066, "name": null, "category": null, "address": "Via Nazionale 60, 33026 Paluzza", "street": "Via Nazionale", "housenumber": "60", "postcode": "33026", "place": "Paluzza", "lat": 46.5806545, "lon": 13.0073069, "tags": {"addr:city": "Paluzza", "addr:housenumber": "60", "addr:postcode": "33026", "addr:street": "Via Nazionale"}, "content": "Adresse: Via Nazionale 60, 33026 Paluzza\nOrt: Paluzza\nPLZ: 33026\nKoordinaten: 46.580655, 13.007307", "doc_type": "addresses"}
{"source": "OSM", "region": "Kärnten", "osm_type": "node", "osm_id": 3834054073, "name": null, "category": null, "address": "Via Nazionale 65, 33026 Paluzza", "street": "Via Nazionale", "housenumber": "65", "postcode": "33026", "place": "Paluzza", "lat": 46.5820366, "lon": 13.0047674, "tags": {"addr:city": "Paluzza", "addr:housenumber": "65", "addr:postcode": "33026", "addr:street": "Via Nazionale"}, "content": "Adresse: Via Nazionale 65, 33026 Paluzza\nOrt: Paluzza\nPLZ: 33026\nKoordinaten: 46.582037, 13.004767", "doc_type": "addresses"}
{"source": "OSM", "region": "Kärnten", "osm_type": "node", "osm_id": 3834054077, "name": null, "category": null, "address": "Via Nazionale 66, 33026 Paluzza", "street": "Via Nazionale", "housenumber": "66", "postcode": "33026", "place": "Paluzza", "lat": 46.5810608, "lon": 13.0065958, "tags": {"addr:city": "Paluzza", "addr:housenumber": "66", "addr:postcode": "33026", "addr:street": "Via Nazionale"}, "content": "Adresse: Via Nazionale 66, 33026 Paluzza\nOrt: Paluzza\nPLZ: 33026\nKoordinaten: 46.581061, 13.006596", "doc_type": "addresses"}
{"source": "OSM", "region": "Kärnten", "osm_type": "node", "osm_id": 3834054080, "name": null, "category": null, "address": "Via Nazionale 67, 33026 Paluzza", "street": "Via Nazionale", "housenumber": "67", "postcode": "33026", "place": "Paluzza", "lat": 46.5820937, "lon": 13.0046518, "tags": {"addr:city": "Paluzza", "addr:housenumber": "67", "addr:postcode": "33026", "addr:street": "Via Nazionale"}, "content": "Adresse: Via Nazionale 67, 33026 Paluzza\nOrt: Paluzza\nPLZ: 33026\nKoordinaten: 46.582094, 13.004652", "doc_type": "addresses"}
{"source": "OSM", "region": "Kärnten", "osm_type": "node", "osm_id": 3834054161, "name": null, "category": null, "address": "Via Pal Grande 6, 33026 Paluzza", "street": "Via Pal Grande", "housenumber": "6", "postcode": "33026", "place": "Paluzza", "lat": 46.5842716, "lon": 13.0011076, "tags": {"addr:city": "Paluzza", "addr:housenumber": "6", "addr:postcode": "33026", "addr:street": "Via Pal Grande"}, "content": "Adresse: Via Pal Grande 6, 33026 Paluzza\nOrt: Paluzza\nPLZ: 33026\nKoordinaten: 46.584272, 13.001108", "doc_type": "addresses"}
{"source": "OSM", "region": "Kärnten", "osm_type": "node", "osm_id": 3834054407, "name": null, "category": null, "address": "Via don Titta Bulfon 6, 33026 Paluzza", "street": "Via don Titta Bulfon", "housenumber": "6", "postcode": "33026", "place": "Paluzza", "lat": 46.584971, "lon": 12.9903025, "tags": {"addr:city": "Paluzza", "addr:housenumber": "6", "addr:postcode": "33026", "addr:street": "Via don Titta Bulfon"}, "content": "Adresse: Via don Titta Bulfon 6, 33026 Paluzza\nOrt: Paluzza\nPLZ: 33026\nKoordinaten: 46.584971, 12.990303", "doc_type": "addresses"}
{"source": "OSM", "region": "Kärnten", "osm_type": "node", "osm_id": 3834054577, "name": null, "category": null, "address": "Via Maria Plozner Mentil 62, 33026 Paluzza", "street": "Via Maria Plozner Mentil", "housenumber": "62", "postcode": "33026", "place": "Paluzza", "lat": 46.5829957, "lon": 13.0051908, "tags": {"addr:city": "Paluzza", "addr:housenumber": "62", "addr:postcode": "33026", "addr:street": "Via Maria Plozner Mentil"}, "content": "Adresse: Via Maria Plozner Mentil 62, 33026 Paluzza\nOrt: Paluzza\nPLZ: 33026\nKoordinaten: 46.582996, 13.005191", "doc_type": "addresses"}
{"source": "OSM", "region": "Kärnten", "osm_type": "node", "osm_id": 3834054580, "name": null, "category": null, "address": "Via Nazionale 62, 33026 Paluzza", "street": "Via Nazionale", "housenumber": "62", "postcode": "33026", "place": "Paluzza", "lat": 46.5806934, "lon": 13.0072475, "tags": {"addr:city": "Paluzza", "addr:housenumber": "62", "addr:postcode": "33026", "addr:street": "Via Nazionale"}, "content": "Adresse: Via Nazionale 62, 33026 Paluzza\nOrt: Paluzza\nPLZ: 33026\nKoordinaten: 46.580693, 13.007248", "doc_type": "addresses"}
{"source": "OSM", "region": "Kärnten", "osm_type": "node", "osm_id": 3834054582, "name": null, "category": null, "address": "Via Nazionale 63, 33026 Paluzza", "street": "Via Nazionale", "housenumber": "63", "postcode": "33026", "place": "Paluzza", "lat": 46.5819842, "lon": 13.0048735, "tags": {"addr:city": "Paluzza", "addr:housenumber": "63", "addr:postcode": "33026", "addr:street": "Via Nazionale"}, "content": "Adresse: Via Nazionale 63, 33026 Paluzza\nOrt: Paluzza\nPLZ: 33026\nKoordinaten: 46.581984, 13.004874", "doc_type": "addresses"}
{"source": "OSM", "region": "Kärnten", "osm_type": "node", "osm_id": 3834054585, "name": null, "category": null, "address": "Via Nazionale 64, 33026 Paluzza", "street": "Via Nazionale", "housenumber": "64", "postcode": "33026", "place": "Paluzza", "lat": 46.5809369, "lon": 13.0068157, "tags": {"addr:city": "Paluzza", "addr:housenumber": "64", "addr:postcode": "33026", "addr:street": "Via Nazionale"}, "content": "Adresse: Via Nazionale 64, 33026 Paluzza\nOrt: Paluzza\nPLZ: 33026\nKoordinaten: 46.580937, 13.006816", "doc_type": "addresses"}
{"source": "OSM", "region": "Kärnten", "osm_type": "node", "osm_id": 3834054688, "name": null, "category": null, "address": "Via Pal Piccolo 7, 33026 Paluzza", "street": "Via Pal Piccolo", "housenumber": "7", "postcode": "33026", "place": "Paluzza", "lat": 46.5847254, "lon": 13.0015443, "tags": {"addr:city": "Paluzza", "addr:housenumber": "7", "addr:postcode": "33026", "addr:street": "Via Pal Piccolo"}, "content": "Adresse: Via Pal Piccolo 7, 33026 Paluzza\nOrt: Paluzza\nPLZ: 33026\nKoordinaten: 46.584725, 13.001544", "doc_type": "addresses"}
{"source": "OSM", "region": "Kärnten", "osm_type": "node", "osm_id": 3834054693, "name": null, "category": null, "address": "Via Quattro Novembre 7, 33026 Paluzza", "street": "Via Quattro Novembre", "housenumber": "7", "postcode": "33026", "place": "Paluzza", "lat": 46.581611, "lon": 13.0065361, "tags": {"addr:city": "Paluzza", "addr:housenumber": "7", "addr:postcode": "33026", "addr:street": "Via Quattro Novembre"}, "content": "Adresse: Via Quattro Novembre 7, 33026 Paluzza\nOrt: Paluzza\nPLZ: 33026\nKoordinaten: 46.581611, 13.006536", "doc_type": "addresses"}
{"source": "OSM", "region": "Kärnten", "osm_type": "node", "osm_id": 3834054849, "name": null, "category": null, "address": "Via Maria Plozner Mentil 78, 33026 Paluzza", "street": "Via Maria Plozner Mentil", "housenumber": "78", "postcode": "33026", "place": "Paluzza", "lat": 46.583671, "lon": 13.0040774, "tags": {"addr:city": "Paluzza", "addr:housenumber": "78", "addr:postcode": "33026", "addr:street": "Via Maria Plozner Mentil"}, "content": "Adresse: Via Maria Plozner Mentil 78, 33026 Paluzza\nOrt: Paluzza\nPLZ: 33026\nKoordinaten: 46.583671, 13.004077", "doc_type": "addresses"}
{"source": "OSM", "region": "Kärnten", "osm_type": "node", "osm_id": 3834055115, "name": null, "category": null, "address": "Via Maria Plozner Mentil 75, 33026 Paluzza", "street": "Via Maria Plozner Mentil", "housenumber": "75", "postcode": "33026", "place": "Paluzza", "lat": 46.5838024, "lon": 13.0037391, "tags": {"addr:city": "Paluzza", "addr:housenumber": "75", "addr:postcode": "33026", "addr:street": "Via Maria Plozner Mentil"}, "content": "Adresse: Via Maria Plozner Mentil 75, 33026 Paluzza\nOrt: Paluzza\nPLZ: 33026\nKoordinaten: 46.583802, 13.003739", "doc_type": "addresses"}
{"source": "OSM", "region": "Kärnten", "osm_type": "node", "osm_id": 3834055117, "name": null, "category": null, "address": "Via Nazionale 75, 33026 Paluzza", "street": "Via Nazionale", "housenumber": "75", "postcode": "33026", "place": "Paluzza", "lat": 46.5824166, "lon": 13.0040285, "tags": {"addr:city": "Paluzza", "addr:housenumber": "75", "addr:postcode": "33026", "addr:street": "Via Nazionale"}, "content": "Adresse: Via Nazionale 75, 33026 Paluzza\nOrt: Paluzza\nPLZ: 33026\nKoordinaten: 46.582417, 13.004029", "doc_type": "addresses"}
{"source": "OSM", "region": "Kärnten", "osm_type": "node", "osm_id": 3834055120, "name": null, "category": null, "address": "Via Maria Plozner Mentil 76, 33026 Paluzza", "street": "Via Maria Plozner Mentil", "housenumber": "76", "postcode": "33026", "place": "Paluzza", "lat": 46.5835733, "lon": 13.0042455, "tags": {"addr:city": "Paluzza", "addr:housenumber": "76", "addr:postcode": "33026", "addr:street": "Via Maria Plozner Mentil"}, "content": "Adresse: Via Maria Plozner Mentil 76, 33026 Paluzza\nOrt: Paluzza\nPLZ: 33026\nKoordinaten: 46.583573, 13.004245", "doc_type": "addresses"}
{"source": "OSM", "region": "Kärnten", "osm_type": "node", "osm_id": 3834055121, "name": null, "category": null, "address": "Via Nazionale 76, 33026 Paluzza", "street": "Via Nazionale", "housenumber": "76", "postcode": "33026", "place": "Paluzza", "lat": 46.5819026, "lon": 13.0053259, "tags": {"addr:city": "Paluzza", "addr:housenumber": "76", "addr:postcode": "33026", "addr:street": "Via Nazionale"}, "content": "Adresse: Via Nazionale 76, 33026 Paluzza\nOrt: Paluzza\nPLZ: 33026\nKoordinaten: 46.581903, 13.005326", "doc_type": "addresses"}
{"source": "OSM", "region": "Kärnten", "osm_type": "node", "osm_id": 3834055123, "name": null, "category": null, "address": "Via Maria Plozner Mentil 77, 33026 Paluzza", "street": "Via Maria Plozner Mentil", "housenumber": "77", "postcode": "33026", "place": "Paluzza", "lat": 46.583917, "lon": 13.003626, "tags": {"addr:city": "Paluzza", "addr:housenumber": "77", "addr:postcode": "33026", "addr:street": "Via Maria Plozner Mentil"}, "content": "Adresse: Via Maria Plozner Mentil 77, 33026 Paluzza\nOrt: Paluzza\nPLZ: 33026\nKoordinaten: 46.583917, 13.003626", "doc_type": "addresses"}
{"source": "OSM", "region": "Kärnten", "osm_type": "node", "osm_id": 3834055124, "name": null, "category": null, "address": "Via Nazionale 77, 33026 Paluzza", "street": "Via Nazionale", "housenumber": "77", "postcode": "33026", "place": "Paluzza", "lat": 46.58238, "lon": 13.0039465, "tags": {"addr:city": "Paluzza", "addr:housenumber": "77", "addr:postcode": "33026", "addr:street": "Via Nazionale"}, "content": "Adresse: Via Nazionale 77, 33026 Paluzza\nOrt: Paluzza\nPLZ: 33026\nKoordinaten: 46.582380, 13.003946", "doc_type": "addresses"}
{"source": "OSM", "region": "Kärnten", "osm_type": "node", "osm_id": 3834055231, "name": null, "category": null, "address": "Via Monte Coglians 8, 33026 Paluzza", "street": "Via Monte Coglians", "housenumber": "8", "postcode": "33026", "place": "Paluzza", "lat": 46.5840474, "lon": 13.0019467, "tags": {"addr:city": "Paluzza", "addr:housenumber": "8", "addr:postcode": "33026", "addr:street": "Via Monte Coglians"}, "content": "Adresse: Via Monte Coglians 8, 33026 Paluzza\nOrt: Paluzza\nPLZ: 33026\nKoordinaten: 46.584047, 13.001947", "doc_type": "addresses"}
{"source": "OSM", "region": "Kärnten", "osm_type": "node", "osm_id": 3834055243, "name": null, "category": null, "address": "Via Santa Geltrude 8, 33026 Paluzza", "street": "Via Santa Geltrude", "housenumber": "8", "postcode": "33026", "place": "Paluzza", "lat": 46.5823174, "lon": 13.0068932, "tags": {"addr:city": "Paluzza", "addr:housenumber": "8", "addr:postcode": "33026", "addr:street": "Via Santa Geltrude"}, "content": "Adresse: Via Santa Geltrude 8, 33026 Paluzza\nOrt: Paluzza\nPLZ: 33026\nKoordinaten: 46.582317, 13.006893", "doc_type": "addresses"}
{"source": "OSM", "region": "Kärnten", "osm_type": "node", "osm_id": 3834055250, "name": null, "category": null, "address": "Via Maria Plozner Mentil 80, 33026 Paluzza", "street": "Via Maria Plozner Mentil", "housenumber": "80", "postcode": "33026", "place": "Paluzza", "lat": 46.5837408, "lon": 13.0039638, "tags": {"addr:city": "Paluzza", "addr:housenumber": "80", "addr:postcode": "33026", "addr:street": "Via Maria Plozner Mentil"}, "content": "Adresse: Via Maria Plozner Mentil 80, 33026 Paluzza\nOrt: Paluzza\nPLZ: 33026\nKoordinaten: 46.583741, 13.003964", "doc_type": "addresses"}
{"source": "OSM", "region": "Kärnten", "osm_type": "node", "osm_id": 3834055464, "name": null, "category": null, "address": "Via Maria Plozner Mentil 8, 33026 Paluzza", "street": "Via Maria Plozner Mentil", "housenumber": "8", "postcode": "33026", "place": "Paluzza", "lat": 46.5815616, "lon": 13.0061906, "tags": {"addr:city": "Paluzza", "addr:housenumber": "8", "addr:postcode": "33026", "addr:street": "Via Maria Plozner Mentil"}, "content": "Adresse: Via Maria Plozner Mentil 8, 33026 Paluzza\nOrt: Paluzza\nPLZ: 33026\nKoordinaten: 46.581562, 13.006191", "doc_type": "addresses"}
{"source": "OSM", "region": "Kärnten", "osm_type": "node", "osm_id": 3834055559, "name": null, "category": null, "address": "Via Maria Plozner Mentil 81, 33026 Paluzza", "street": "Via Maria Plozner Mentil", "housenumber": "81", "postcode": "33026", "place": "Paluzza", "lat": 46.5840959, "lon": 13.003536, "tags": {"addr:city": "Paluzza", "addr:housenumber": "81", "addr:postcode": "33026", "addr:street": "Via Maria Plozner Mentil"}, "content": "Adresse: Via Maria Plozner Mentil 81, 33026 Paluzza\nOrt: Paluzza\nPLZ: 33026\nKoordinaten: 46.584096, 13.003536", "doc_type": "addresses"}
{"source": "OSM", "region": "Kärnten", "osm_type": "node", "osm_id": 3834055563, "name": null, "category": null, "address": "Via Maria Plozner Mentil 82, 33026 Paluzza", "street": "Via Maria Plozner Mentil", "housenumber": "82", "postcode": "33026", "place": "Paluzza", "lat": 46.5837704, "lon": 13.003914, "tags": {"addr:city": "Paluzza", "addr:housenumber": "82", "addr:postcode": "33026", "addr:street": "Via Maria Plozner Mentil"}, "content": "Adresse: Via Maria Plozner Mentil 82, 33026 Paluzza\nOrt: Paluzza\nPLZ: 33026\nKoordinaten: 46.583770, 13.003914", "doc_type": "addresses"}
{"source": "OSM", "region": "Kärnten", "osm_type": "node", "osm_id": 3834055566, "name": null, "category": null, "address": "Via Maria Plozner Mentil 85, 33026 Paluzza", "street": "Via Maria Plozner Mentil", "housenumber": "85", "postcode": "33026", "place": "Paluzza", "lat": 46.5843267, "lon": 13.0034025, "tags": {"addr:city": "Paluzza", "addr:housenumber": "85", "addr:postcode": "33026", "addr:street": "Via Maria Plozner Mentil"}, "content": "Adresse: Via Maria Plozner Mentil 85, 33026 Paluzza\nOrt: Paluzza\nPLZ: 33026\nKoordinaten: 46.584327, 13.003402", "doc_type": "addresses"}
{"source": "OSM", "region": "Kärnten", "osm_type": "node", "osm_id": 3834055568, "name": null, "category": null, "address": "Via Nazionale 85, 33026 Paluzza", "street": "Via Nazionale", "housenumber": "85", "postcode": "33026", "place": "Paluzza", "lat": 46.5826056, "lon": 13.003695, "tags": {"addr:city": "Paluzza", "addr:housenumber": "85", "addr:postcode": "33026", "addr:street": "Via Nazionale"}, "content": "Adresse: Via Nazionale 85, 33026 Paluzza\nOrt: Paluzza\nPLZ: 33026\nKoordinaten: 46.582606, 13.003695", "doc_type": "addresses"}
{"source": "OSM", "region": "Kärnten", "osm_type": "node", "osm_id": 3834055572, "name": null, "category": null, "address": "Via Nazionale 86, 33026 Paluzza", "street": "Via Nazionale", "housenumber": "86", "postcode": "33026", "place": "Paluzza", "lat": 46.5822317, "lon": 13.004781, "tags": {"addr:city": "Paluzza", "addr:housenumber": "86", "addr:postcode": "33026", "addr:street": "Via Nazionale"}, "content": "Adresse: Via Nazionale 86, 33026 Paluzza\nOrt: Paluzza\nPLZ: 33026\nKoordinaten: 46.582232, 13.004781", "doc_type": "addresses"}
{"source": "OSM", "region": "Kärnten", "osm_type": "node", "osm_id": 3834055574, "name": null, "category": null, "address": "Via Maria Plozner Mentil 87, 33026 Paluzza", "street": "Via Maria Plozner Mentil", "housenumber": "87", "postcode": "33026", "place": "Paluzza", "lat": 46.5844289, "lon": 13.0033108, "tags": {"addr:city": "Paluzza", "addr:housenumber": "87", "addr:postcode": "33026", "addr:street": "Via Maria Plozner Mentil"}, "content": "Adresse: Via Maria Plozner Mentil 87, 33026 Paluzza\nOrt: Paluzza\nPLZ: 33026\nKoordinaten: 46.584429, 13.003311", "doc_type": "addresses"}
{"source": "OSM", "region": "Kärnten", "osm_type": "node", "osm_id": 3834055770, "name": null, "category": null, "address": "Via Maria Plozner Mentil 90, 33026 Paluzza", "street": "Via Maria Plozner Mentil", "housenumber": "90", "postcode": "33026", "place": "Paluzza", "lat": 46.5840392, "lon": 13.0036702, "tags": {"addr:city": "Paluzza", "addr:housenumber": "90", "addr:postcode": "33026", "addr:street": "Via Maria Plozner Mentil"}, "content": "Adresse: Via Maria Plozner Mentil 90, 33026 Paluzza\nOrt: Paluzza\nPLZ: 33026\nKoordinaten: 46.584039, 13.003670", "doc_type": "addresses"}
{"source": "OSM", "region": "Kärnten", "osm_type": "node", "osm_id": 3834055772, "name": null, "category": null, "address": "Via Nazionale 90, 33026 Paluzza", "street": "Via Nazionale", "housenumber": "90", "postcode": "33026", "place": "Paluzza", "lat": 46.5824359, "lon": 13.0044956, "tags": {"addr:city": "Paluzza", "addr:housenumber": "90", "addr:postcode": "33026", "addr:street": "Via Nazionale"}, "content": "Adresse: Via Nazionale 90, 33026 Paluzza\nOrt: Paluzza\nPLZ: 33026\nKoordinaten: 46.582436, 13.004496", "doc_type": "addresses"}
{"source": "OSM", "region": "Kärnten", "osm_type": "node", "osm_id": 3834055774, "name": null, "category": null, "address": "Via Maria Plozner Mentil 91, 33026 Paluzza", "street": "Via Maria Plozner Mentil", "housenumber": "91", "postcode": "33026", "place": "Paluzza", "lat": 46.5845048, "lon": 13.003176, "tags": {"addr:city": "Paluzza", "addr:housenumber": "91", "addr:postcode": "33026", "addr:street": "Via Maria Plozner Mentil"}, "content": "Adresse: Via Maria Plozner Mentil 91, 33026 Paluzza\nOrt: Paluzza\nPLZ: 33026\nKoordinaten: 46.584505, 13.003176", "doc_type": "addresses"}
{"source": "OSM", "region": "Kärnten", "osm_type": "node", "osm_id": 3834055776, "name": null, "category": null, "address": "Via Nazionale 91, 33026 Paluzza", "street": "Via Nazionale", "housenumber": "91", "postcode": "33026", "place": "Paluzza", "lat": 46.5827678, "lon": 13.0032907, "tags": {"addr:city": "Paluzza", "addr:housenumber": "91", "addr:postcode": "33026", "addr:street": "Via Nazionale"}, "content": "Adresse: Via Nazionale 91, 33026 Paluzza\nOrt: Paluzza\nPLZ: 33026\nKoordinaten: 46.582768, 13.003291", "doc_type": "addresses"}
{"source": "OSM", "region": "Kärnten", "osm_type": "node", "osm_id": 3834055778, "name": null, "category": null, "address": "Via Maria Plozner Mentil 92, 33026 Paluzza", "street": "Via Maria Plozner Mentil", "housenumber": "92", "postcode": "33026", "place": "Paluzza", "lat": 46.5839923, "lon": 13.0040934, "tags": {"addr:city": "Paluzza", "addr:housenumber": "92", "addr:postcode": "33026", "addr:street": "Via Maria Plozner Mentil"}, "content": "Adresse: Via Maria Plozner Mentil 92, 33026 Paluzza\nOrt: Paluzza\nPLZ: 33026\nKoordinaten: 46.583992, 13.004093", "doc_type": "addresses"}
{"source": "OSM", "region": "Kärnten", "osm_type": "node", "osm_id": 3834055781, "name": null, "category": null, "address": "Via Maria Plozner Mentil 95, 33026 Paluzza", "street": "Via Maria Plozner Mentil", "housenumber": "95", "postcode": "33026", "place": "Paluzza", "lat": 46.5845462, "lon": 13.0028062, "tags": {"addr:city": "Paluzza", "addr:housenumber": "95", "addr:postcode": "33026", "addr:street": "Via Maria Plozner Mentil"}, "content": "Adresse: Via Maria Plozner Mentil 95, 33026 Paluzza\nOrt: Paluzza\nPLZ: 33026\nKoordinaten: 46.584546, 13.002806", "doc_type": "addresses"}
{"source": "OSM", "region": "Kärnten", "osm_type": "node", "osm_id": 3834055782, "name": null, "category": null, "address": "Via Nazionale 95, 33026 Paluzza", "street": "Via Nazionale", "housenumber": "95", "postcode": "33026", "place": "Paluzza", "lat": 46.5828692, "lon": 13.00306, "tags": {"addr:city": "Paluzza", "addr:housenumber": "95", "addr:postcode": "33026", "addr:street": "Via Nazionale"}, "content": "Adresse: Via Nazionale 95, 33026 Paluzza\nOrt: Paluzza\nPLZ: 33026\nKoordinaten: 46.582869, 13.003060", "doc_type": "addresses"}
{"source": "OSM", "region": "Kärnten", "osm_type": "node", "osm_id": 3834055784, "name": null, "category": null, "address": "Via Maria Plozner Mentil 96, 33026 Paluzza", "street": "Via Maria Plozner Mentil", "housenumber": "96", "postcode": "33026", "place": "Paluzza", "lat": 46.5841648, "lon": 13.0037305, "tags": {"addr:city": "Paluzza", "addr:housenumber": "96", "addr:postcode": "33026", "addr:street": "Via Maria Plozner Mentil"}, "content": "Adresse: Via Maria Plozner Mentil 96, 33026 Paluzza\nOrt: Paluzza\nPLZ: 33026\nKoordinaten: 46.584165, 13.003730", "doc_type": "addresses"}
{"source": "OSM", "region": "Kärnten", "osm_type": "node", "osm_id": 3834055787, "name": null, "category": null, "address": "Via Maria Plozner Mentil 97, 33026 Paluzza", "street": "Via Maria Plozner Mentil", "housenumber": "97", "postcode": "33026", "place": "Paluzza", "lat": 46.5845573, "lon": 13.0027085, "tags": {"addr:city": "Paluzza", "addr:housenumber": "97", "addr:postcode": "33026", "addr:street": "Via Maria Plozner Mentil"}, "content": "Adresse: Via Maria Plozner Mentil 97, 33026 Paluzza\nOrt: Paluzza\nPLZ: 33026\nKoordinaten: 46.584557, 13.002709", "doc_type": "addresses"}
{"source": "OSM", "region": "Kärnten", "osm_type": "node", "osm_id": 3834055788, "name": null, "category": null, "address": "Via Nazionale 97, 33026 Paluzza", "street": "Via Nazionale", "housenumber": "97", "postcode": "33026", "place": "Paluzza", "lat": 46.5829173, "lon": 13.0029795, "tags": {"addr:city": "Paluzza", "addr:housenumber": "97", "addr:postcode": "33026", "addr:street": "Via Nazionale"}, "content": "Adresse: Via Nazionale 97, 33026 Paluzza\nOrt: Paluzza\nPLZ: 33026\nKoordinaten: 46.582917, 13.002980", "doc_type": "addresses"}
{"source": "OSM", "region": "Kärnten", "osm_type": "node", "osm_id": 3834055958, "name": null, "category": null, "address": "Via Velt 9, 33026 Paluzza", "street": "Via Velt", "housenumber": "9", "postcode": "33026", "place": "Paluzza", "lat": 46.5832164, "lon": 13.0052059, "tags": {"addr:city": "Paluzza", "addr:housenumber": "9", "addr:postcode": "33026", "addr:street": "Via Velt"}, "content": "Adresse: Via Velt 9, 33026 Paluzza\nOrt: Paluzza\nPLZ: 33026\nKoordinaten: 46.583216, 13.005206", "doc_type": "addresses"}
{"source": "OSM", "region": "Kärnten", "osm_type": "node", "osm_id": 3834055965, "name": null, "category": null, "address": "Via Nazionale 92, 33026 Paluzza", "street": "Via Nazionale", "housenumber": "92", "postcode": "33026", "place": "Paluzza", "lat": 46.5830433, "lon": 13.0031556, "tags": {"addr:city": "Paluzza", "addr:housenumber": "92", "addr:postcode": "33026", "addr:street": "Via Nazionale"}, "content": "Adresse: Via Nazionale 92, 33026 Paluzza\nOrt: Paluzza\nPLZ: 33026\nKoordinaten: 46.583043, 13.003156", "doc_type": "addresses"}
{"source": "OSM", "region": "Kärnten", "osm_type": "node", "osm_id": 3834055968, "name": null, "category": null, "address": "Via Maria Plozner Mentil 93, 33026 Paluzza", "street": "Via Maria Plozner Mentil", "housenumber": "93", "postcode": "33026", "place": "Paluzza", "lat": 46.5845303, "lon": 13.0028994, "tags": {"addr:city": "Paluzza", "addr:housenumber": "93", "addr:postcode": "33026", "addr:street": "Via Maria Plozner Mentil"}, "content": "Adresse: Via Maria Plozner Mentil 93, 33026 Paluzza\nOrt: Paluzza\nPLZ: 33026\nKoordinaten: 46.584530, 13.002899", "doc_type": "addresses"}
{"source": "OSM", "region": "Kärnten", "osm_type": "node", "osm_id": 3834055970, "name": null, "category": null, "address": "Via Maria Plozner Mentil 94, 33026 Paluzza", "street": "Via Maria Plozner Mentil", "housenumber": "94", "postcode": "33026", "place": "Paluzza", "lat": 46.5840607, "lon": 13.0038988, "tags": {"addr:city": "Paluzza", "addr:housenumber": "94", "addr:postcode": "33026", "addr:street": "Via Maria Plozner Mentil"}, "content": "Adresse: Via Maria Plozner Mentil 94, 33026 Paluzza\nOrt: Paluzza\nPLZ: 33026\nKoordinaten: 46.584061, 13.003899", "doc_type": "addresses"}
{"source": "OSM", "region": "Kärnten", "osm_type": "node", "osm_id": 3834055972, "name": null, "category": null, "address": "Via Nazionale 94, 33026 Paluzza", "street": "Via Nazionale", "housenumber": "94", "postcode": "33026", "place": "Paluzza", "lat": 46.5832688, "lon": 13.0028994, "tags": {"addr:city": "Paluzza", "addr:housenumber": "94", "addr:postcode": "33026", "addr:street": "Via Nazionale"}, "content": "Adresse: Via Nazionale 94, 33026 Paluzza\nOrt: Paluzza\nPLZ: 33026\nKoordinaten: 46.583269, 13.002899", "doc_type": "addresses"}
{"source": "OSM", "region": "Kärnten", "osm_type": "node", "osm_id": 3834056058, "name": null, "category": null, "address": "Via della Bella Cappella 9, 33026 Paluzza", "street": "Via della Bella Cappella", "housenumber": "9", "postcode": "33026", "place": "Paluzza", "lat": 46.5834216, "lon": 13.0052539, "tags": {"addr:city": "Paluzza", "addr:housenumber": "9", "addr:postcode": "33026", "addr:street": "Via della Bella Cappella"}, "content": "Adresse: Via della Bella Cappella 9, 33026 Paluzza\nOrt: Paluzza\nPLZ: 33026\nKoordinaten: 46.583422, 13.005254", "doc_type": "addresses"}
{"source": "OSM", "region": "Kärnten", "osm_type": "node", "osm_id": 3834056060, "name": null, "category": null, "address": "Via Venticinque Aprile 9, 33026 Paluzza", "street": "Via Venticinque Aprile", "housenumber": "9", "postcode": "33026", "place": "Paluzza", "lat": 46.5815485, "lon": 13.0068769, "tags": {"addr:city": "Paluzza", "addr:housenumber": "9", "addr:postcode": "33026", "addr:street": "Via Venticinque Aprile"}, "content": "Adresse: Via Venticinque Aprile 9, 33026 Paluzza\nOrt: Paluzza\nPLZ: 33026\nKoordinaten: 46.581548, 13.006877", "doc_type": "addresses"}
{"source": "OSM", "region": "Kärnten", "osm_type": "node", "osm_id": 3834056069, "name": null, "category": null, "address": "Via Maria Plozner Mentil 98, 33026 Paluzza", "street": "Via Maria Plozner Mentil", "housenumber": "98", "postcode": "33026", "place": "Paluzza", "lat": 46.5841994, "lon": 13.0037014, "tags": {"addr:city": "Paluzza", "addr:housenumber": "98", "addr:postcode": "33026", "addr:street": "Via Maria Plozner Mentil"}, "content": "Adresse: Via Maria Plozner Mentil 98, 33026 Paluzza\nOrt: Paluzza\nPLZ: 33026\nKoordinaten: 46.584199, 13.003701", "doc_type": "addresses"}
{"source": "OSM", "region": "Kärnten", "osm_type": "node", "osm_id": 3834056072, "name": null, "category": null, "address": "Via Maria Plozner Mentil 99, 33026 Paluzza", "street": "Via Maria Plozner Mentil", "housenumber": "99", "postcode": "33026", "place": "Paluzza", "lat": 46.5845208, "lon": 13.0026264, "tags": {"addr:city": "Paluzza", "addr:housenumber": "99", "addr:postcode": "33026", "addr:street": "Via Maria Plozner Mentil"}, "content": "Adresse: Via Maria Plozner Mentil 99, 33026 Paluzza\nOrt: Paluzza\nPLZ: 33026\nKoordinaten: 46.584521, 13.002626", "doc_type": "addresses"}
{"source": "OSM", "region": "Kärnten", "osm_type": "node", "osm_id": 3834056073, "name": null, "category": null, "address": "Via Nazionale 99, 33026 Paluzza", "street": "Via Nazionale", "housenumber": "99", "postcode": "33026", "place": "Paluzza", "lat": 46.5830156, "lon": 13.0027606, "tags": {"addr:city": "Paluzza", "addr:housenumber": "99", "addr:postcode": "33026", "addr:street": "Via Nazionale"}, "content": "Adresse: Via Nazionale 99, 33026 Paluzza\nOrt: Paluzza\nPLZ: 33026\nKoordinaten: 46.583016, 13.002761", "doc_type": "addresses"}
