{"source": "OSM", "region": "Kärnten", "osm_type": "node", "osm_id": 534284239, "name": "Turistični biro", "category": "tourism:information", "address": "Kolodvorska ulica 1c, 4280 Kranjska Gora", "street": "Kolodvorska ulica", "housenumber": "1c", "postcode": "4280", "place": "Kranjska Gora", "lat": 46.4852044, "lon": 13.7852902, "tags": {"addr:city": "Kranjska Gora", "addr:housenumber": "1c", "addr:postcode": "4280", "addr:street": "Kolodvorska ulica", "name": "Turistični biro", "tourism": "information"}, "content": "Turistični biro\nKategorie: tourism:information\nAdresse: Kolodvorska ulica 1c, 4280 Kranjska Gora\nOrt: Kranjska Gora\nPLZ: 4280\nKoordinaten: 46.485204, 13.785290", "doc_type": "addresses"}
{"source": "OSM", "region": "Kärnten", "osm_type": "node", "osm_id": 2984354609, "name": "Turizem Kranjska Gora", "category": "tourism:information", "address": "Kolodvorska ulica 1c, 4280 Kranjska Gora", "street": "Kolodvorska ulica", "housenumber": "1c", "postcode": "4280", "place": "Kranjska Gora", "lat": 46.4853278, "lon": 13.7855409, "tags": {"addr:city": "Kranjska Gora", "addr:housenumber": "1c", "addr:postcode": "4280", "addr:street": "Kolodvorska ulica", "name": "Turizem Kranjska Gora", "tourism": "information"}, "content": "Turizem Kranjska Gora\nKategorie: tourism:information\nAdresse: Kolodvorska ulica 1c, 4280 Kranjska Gora\nOrt: Kranjska Gora\nPLZ: 4280\nKoordinaten: 46.485328, 13.785541", "doc_type": "addresses"}
{"source": "OSM", "region": "Kärnten", "osm_type": "node", "osm_id": 4223416734, "name": "Občina Kranjska Gora", "category": "office:government", "address": "Kolodvorska ulica 1b, 4280 Kranjska Gora", "street": "Kolodvorska ulica", "housenumber": "1b", "postcode": "4280", "place": "Kranjska Gora", "lat": 46.4854108, "lon": 13.7847996, "tags": {"addr:city": "Kranjska Gora", "addr:housenumber": "1b", "addr:postcode": "4280", "addr:street": "Kolodvorska ulica", "name": "Občina Kranjska Gora", "office": "government", "phone": "+386 4 5809800", "website": "https://obcina.kranjska-gora.si/"}, "content": "Občina Kranjska Gora\nKategorie: office:government\nAdresse: Kolodvorska ulica 1b, 4280 Kranjska Gora\nOrt: Kranjska Gora\nPLZ: 4280\nKoordinaten: 46.485411, 13.784800\nTags: office=government, phone=+386 4 5809800, website=https://obcina.kranjska-gora.si/", "doc_type": "addresses"}
{"source": "OSM", "region": "Kärnten", "osm_type": "node", "osm_id": 4649099584, "name": "Lekarna Kranjska gora", "category": "emergency:defibrillator", "address": "Naselje Slavka Černeta 34, 4280 Kranjska Gora", "street": "Naselje Slavka Černeta", "housenumber": "34", "postcode": "4280", "place": "Kranjska Gora", "lat": 46.4877073, "lon": 13.7896843, "tags": {"addr:city": "Kranjska Gora", "addr:housenumber": "34", "addr:postcode": "4280", "addr:street": "Naselje Slavka Černeta", "emergency": "defibrillator", "name": "Lekarna Kranjska gora"}, "content": "Lekarna Kranjska gora\nKategorie: emergency:defibrillator\nAdresse: Naselje Slavka Černeta 34, 4280 Kranjska Gora\nOrt: Kranjska Gora\nPLZ: 4280\nKoordinaten: 46.487707, 13.789684\nTags: emergency=defibrillator", "doc_type": "addresses"}
{"source": "OSM", "region": "Kärnten", "osm_type": "node", "osm_id": 4678686518, "name": "Modno frizerstvo Polonca", "category": "shop:hairdresser", "address": "Naselje Slavka Černeta 33, 4280 Kranjska Gora", "street": "Naselje Slavka Černeta", "housenumber": "33", "postcode": "4280", "place": "Kranjska Gora", "lat": 46.4875025, "lon": 13.7900878, "tags": {"addr:city": "Kranjska Gora", "addr:housenumber": "33", "addr:postcode": "4280", "addr:street": "Naselje Slavka Černeta", "name": "Modno frizerstvo Polonca", "phone": "+386 41 176115", "shop": "hairdresser"}, "content": "Modno frizerstvo Polonca\nKategorie: shop:hairdresser\nAdresse: Naselje Slavka Černeta 33, 4280 Kranjska Gora\nOrt: Kranjska Gora\nPLZ: 4280\nKoordinaten: 46.487502, 13.790088\nTags: shop=hairdresser, phone=+386 41 176115", "doc_type": "addresses"}
{"source": "OSM", "region": "Kärnten", "osm_type": "node", "osm_id": 534284239, "name": "Turistični biro", "category": "tourism:information", "address": "Kolodvorska ulica 1c, 4280 Kranjska Gora", "street": "Kolodvorska ulica", "housenumber": "1c", "postcode": "4280", "place": "Kranjska Gora", "lat": 46.4852044, "lon": 13.7852902, "tags": {"addr:city": "Kranjska Gora", "addr:housenumber": "1c", "addr:postcode": "4280", "addr:street": "Kolodvorska ulica", "name": "Turistični biro", "tourism": "information"}, "content": "Turistični biro\nKategorie: tourism:information\nAdresse: Kolodvorska ulica 1c, 4280 Kranjska Gora\nOrt: Kranjska Gora\nPLZ: 4280\nKoordinaten: 46.485204, 13.785290", "doc_type": "pois"}
{"source": "OSM", "region": "Kärnten", "osm_type": "node", "osm_id": 2984354609, "name": "Turizem Kranjska Gora", "category": "tourism:information", "address": "Kolodvorska ulica 1c, 4280 Kranjska Gora", "street": "Kolodvorska ulica", "housenumber": "1c", "postcode": "4280", "place": "Kranjska Gora", "lat": 46.4853278, "lon": 13.7855409, "tags": {"addr:city": "Kranjska Gora", "addr:housenumber": "1c", "addr:postcode": "4280", "addr:street": "Kolodvorska ulica", "name": "Turizem Kranjska Gora", "tourism": "information"}, "content": "Turizem Kranjska Gora\nKategorie: tourism:information\nAdresse: Kolodvorska ulica 1c, 4280 Kranjska Gora\nOrt: Kranjska Gora\nPLZ: 4280\nKoordinaten: 46.485328, 13.785541", "doc_type": "pois"}
{"source": "OSM", "region": "Kärnten", "osm_type": "node", "osm_id": 4223416734, "name": "Občina Kranjska Gora", "category": "office:government", "address": "Kolodvorska ulica 1b, 4280 Kranjska Gora", "street": "Kolodvorska ulica", "housenumber": "1b", "postcode": "4280", "place": "Kranjska Gora", "lat": 46.4854108, "lon": 13.7847996, "tags": {"addr:city": "Kranjska Gora", "addr:housenumber": "1b", "addr:postcode": "4280", "addr:street": "Kolodvorska ulica", "name": "Občina Kranjska Gora", "office": "government", "phone": "+386 4 5809800", "website": "https://obcina.kranjska-gora.si/"}, "content": "Občina Kranjska Gora\nKategorie: office:government\nAdresse: Kolodvorska ulica 1b, 4280 Kranjska Gora\nOrt: Kranjska Gora\nPLZ: 4280\nKoordinaten: 46.485411, 13.784800\nTags: office=government, phone=+386 4 5809800, website=https://obcina.kranjska-gora.si/", "doc_type": "pois"}
{"source": "OSM", "region": "Kärnten", "osm_type": "node", "osm_id": 4649099584, "name": "Lekarna Kranjska gora", "category": "emergency:defibrillator", "address": "Naselje Slavka Černeta 34, 4280 Kranjska Gora", "street": "Naselje Slavka Černeta", "housenumber": "34", "postcode": "4280", "place": "Kranjska Gora", "lat": 46.4877073, "lon": 13.7896843, "tags": {"addr:city": "Kranjska Gora", "addr:housenumber": "34", "addr:postcode": "4280", "addr:street": "Naselje Slavka Černeta", "emergency": "defibrillator", "name": "Lekarna Kranjska gora"}, "content": "Lekarna Kranjska gora\nKategorie: emergency:defibrillator\nAdresse: Naselje Slavka Černeta 34, 4280 Kranjska Gora\nOrt: Kranjska Gora\nPLZ: 4280\nKoordinaten: 46.487707, 13.789684\nTags: emergency=defibrillator", "doc_type": "pois"}
{"source": "OSM", "region": "Kärnten", "osm_type": "node", "osm_id": 4678686518, "name": "Modno frizerstvo Polonca", "category": "shop:hairdresser", "address": "Naselje Slavka Černeta 33, 4280 Kranjska Gora", "street": "Naselje Slavka Černeta", "housenumber": "33", "postcode": "4280", "place": "Kranjska Gora", "lat": 46.4875025, "lon": 13.7900878, "tags": {"addr:city": "Kranjska Gora", "addr:housenumber": "33", "addr:postcode": "4280", "addr:street": "Naselje Slavka Černeta", "name": "Modno frizerstvo Polonca", "phone": "+386 41 176115", "shop": "hairdresser"}, "content": "Modno frizerstvo Polonca\nKategorie: shop:hairdresser\nAdresse: Naselje Slavka Černeta 33, 4280 Kranjska Gora\nOrt: Kranjska Gora\nPLZ: 4280\nKoordinaten: 46.487502, 13.790088\nTags: shop=hairdresser, phone=+386 41 176115", "doc_type": "pois"}
