{"source": "OSM", "region": "Kärnten", "osm_type": "node", "osm_id": 4276677961, "name": "Gasthof Leitgeb", "category": "amenity:restaurant", "address": "3, 9341 Mölbling", "street": null, "housenumber": "3", "postcode": "9341", "place": "Mölbling", "lat": 46.8773284, "lon": 14.3701568, "tags": {"addr:city": "Mölbling", "addr:housenumber": "3", "addr:place": "Gunzenberg", "addr:postcode": "9341", "amenity": "restaurant", "name": "Gasthof Leitgeb", "operator": "Fradler Marion"}, "content": "Gasthof Leitgeb\nKategorie: amenity:restaurant\nAdresse: 3, 9341 Mölbling\nOrt: Mölbling\nPLZ: 9341\nKoordinaten: 46.877328, 14.370157\nTags: amenity=restaurant, operator=Fradler Marion", "doc_type": "addresses"}
{"source": "OSM", "region": "Kärnten", "osm_type": "node", "osm_id": 4276677961, "name": "Gasthof Leitgeb", "category": "amenity:restaurant", "address": "3, 9341 Mölbling", "street": null, "housenumber": "3", "postcode": "9341", "place": "Mölbling", "lat": 46.8773284, "lon": 14.3701568, "tags": {"addr:city": "Mölbling", "addr:housenumber": "3", "addr:place": "Gunzenberg", "addr:postcode": "9341", "amenity": "restaurant", "name": "Gasthof Leitgeb", "operator": "Fradler Marion"}, "content": "Gasthof Leitgeb\nKategorie: amenity:restaurant\nAdresse: 3, 9341 Mölbling\nOrt: Mölbling\nPLZ: 9341\nKoordinaten: 46.877328, 14.370157\nTags: amenity=restaurant, operator=Fradler Marion", "doc_type": "pois"}
