{"source": "OSM", "region": "Kärnten", "osm_type": "node", "osm_id": 340517734, "name": "Postpartner 9062, Regionaler Shop und Post Partner", "category": "amenity:post_office", "address": "Kirchplatz 2, 9062 Moosburg", "street": "Kirchplatz", "housenumber": "2", "postcode": "9062", "place": "Moosburg", "lat": 46.6574144, "lon": 14.1740615, "tags": {"addr:city": "Moosburg", "addr:housenumber": "2", "addr:postcode": "9062", "addr:street": "Kirchplatz", "amenity": "post_office", "name": "Postpartner 9062, Regionaler Shop und Post Partner"}, "content": "Postpartner 9062, Regionaler Shop und Post Partner\nKategorie: amenity:post_office\nAdresse: Kirchplatz 2, 9062 Moosburg\nOrt: Moosburg\nPLZ: 9062\nKoordinaten: 46.657414, 14.174062\nTags: amenity=post_office", "doc_type": "addresses"}
{"source": "OSM", "region": "Kärnten", "osm_type": "node", "osm_id": 1490535575, "name": "Polizeiinspektion Moosburg", "category": "amenity:police", "address": "Klagenfurter Straße 5, 9062 Moosburg", "street": "Klagenfurter Straße", "housenumber": "5", "postcode": "9062", "place": "Moosburg", "lat": 46.6582217, "lon": 14.1743052, "tags": {"addr:city": "Moosburg", "addr:housenumber": "5", "addr:postcode": "9062", "addr:street": "Klagenfurter Straße", "amenity": "police", "name": "Polizeiinspektion Moosburg", "phone": "+43 59133 2112-100"}, "content": "Polizeiinspektion Moosburg\nKategorie: amenity:police\nAdresse: Klagenfurter Straße 5, 9062 Moosburg\nOrt: Moosburg\nPLZ: 9062\nKoordinaten: 46.658222, 14.174305\nTags: amenity=police, phone=+43 59133 2112-100", "doc_type": "addresses"}
{"source": "OSM", "region": "Kärnten", "osm_type": "node", "osm_id": 1870640993, "name": "Gasthof Bärnwirt", "category": "amenity:restaurant", "address": "3, 9062 Moosburg", "street": null, "housenumber": "3", "postcode": "9062", "place": "Moosburg", "lat": 46.6656791, "lon": 14.1340727, "tags": {"addr:city": "Moosburg", "addr:housenumber": "3", "addr:place": "Bärndorf", "addr:postcode": "9062", "amenity": "restaurant", "name": "Gasthof Bärnwirt", "website": "https://www.baernwirt.at/"}, "content": "Gasthof Bärnwirt\nKategorie: amenity:restaurant\nAdresse: 3, 9062 Moosburg\nOrt: Moosburg\nPLZ: 9062\nKoordinaten: 46.665679, 14.134073\nTags: amenity=restaurant, website=https://www.baernwirt.at/", "doc_type": "addresses"}
{"source": "OSM", "region": "Kärnten", "osm_type": "node", "osm_id": 2695071960, "name": "Dieter Endisch Sudetenhof", "category": "tourism:camp_site", "address": "1a, 9062 Moosburg", "street": null, "housenumber": "1a", "postcode": "9062", "place": "Moosburg", "lat": 46.671006, "lon": 14.1986977, "tags": {"addr:city": "Moosburg", "addr:housenumber": "1a", "addr:place": "Dellach", "addr:postcode": "9062", "operator": "Dieter Endisch Sudetenhof", "phone": "+43 427283473", "tourism": "camp_site"}, "content": "Dieter Endisch Sudetenhof\nKategorie: tourism:camp_site\nAdresse: 1a, 9062 Moosburg\nOrt: Moosburg\nPLZ: 9062\nKoordinaten: 46.671006, 14.198698\nTags: operator=Dieter Endisch Sudetenhof, phone=+43 427283473", "doc_type": "addresses"}
{"source": "OSM", "region": "Kärnten", "osm_type": "node", "osm_id": 2907284926, "name": "FF Bärndorf-Stallhofen", "category": "amenity:fire_station", "address": "68/1, 9062 Moosburg", "street": null, "housenumber": "68/1", "postcode": "9062", "place": "Moosburg", "lat": 46.6651169, "lon": 14.1333717, "tags": {"addr:city": "Moosburg", "addr:housenumber": "68/1", "addr:place": "Bärndorf", "addr:postcode": "9062", "amenity": "fire_station", "name": "FF Bärndorf-Stallhofen"}, "content": "FF Bärndorf-Stallhofen\nKategorie: amenity:fire_station\nAdresse: 68/1, 9062 Moosburg\nOrt: Moosburg\nPLZ: 9062\nKoordinaten: 46.665117, 14.133372\nTags: amenity=fire_station", "doc_type": "addresses"}
{"source": "OSM", "region": "Kärnten", "osm_type": "node", "osm_id": 3491874473, "name": "Buschenschank Koschu", "category": "amenity:restaurant", "address": "Goritschitzen 12, 9062 Moosburg", "street": "Goritschitzen", "housenumber": "12", "postcode": "9062", "place": "Moosburg", "lat": 46.6540833, "lon": 14.2140158, "tags": {"addr:city": "Moosburg", "addr:housenumber": "12", "addr:postcode": "9062", "addr:street": "Goritschitzen", "amenity": "restaurant", "name": "Buschenschank Koschu", "phone": "+43 4272 83358"}, "content": "Buschenschank Koschu\nKategorie: amenity:restaurant\nAdresse: Goritschitzen 12, 9062 Moosburg\nOrt: Moosburg\nPLZ: 9062\nKoordinaten: 46.654083, 14.214016\nTags: amenity=restaurant, phone=+43 4272 83358", "doc_type": "addresses"}
{"source": "OSM", "region": "Kärnten", "osm_type": "node", "osm_id": 3491892219, "name": "Buschenschank Wassacher", "category": "amenity:restaurant", "address": "Bärndorfer Straße 3, 9062 Moosburg", "street": "Bärndorfer Straße", "housenumber": "3", "postcode": "9062", "place": "Moosburg", "lat": 46.6625258, "lon": 14.1458555, "tags": {"addr:city": "Moosburg", "addr:housenumber": "3", "addr:postcode": "9062", "addr:street": "Bärndorfer Straße", "amenity": "restaurant", "name": "Buschenschank Wassacher", "phone": "+43 4272 83020"}, "content": "Buschenschank Wassacher\nKategorie: amenity:restaurant\nAdresse: Bärndorfer Straße 3, 9062 Moosburg\nOrt: Moosburg\nPLZ: 9062\nKoordinaten: 46.662526, 14.145855\nTags: amenity=restaurant, phone=+43 4272 83020", "doc_type": "addresses"}
{"source": "OSM", "region": "Kärnten", "osm_type": "node", "osm_id": 3491892220, "name": "Buschenschank Falkner", "category": "amenity:restaurant", "address": "Thurnerweg 1, 9062 Moosburg", "street": "Thurnerweg", "housenumber": "1", "postcode": "9062", "place": "Moosburg", "lat": 46.6602862, "lon": 14.1564977, "tags": {"addr:city": "Moosburg", "addr:housenumber": "1", "addr:postcode": "9062", "addr:street": "Thurnerweg", "amenity": "restaurant", "name": "Buschenschank Falkner", "phone": "+43 4272 83689"}, "content": "Buschenschank Falkner\nKategorie: amenity:restaurant\nAdresse: Thurnerweg 1, 9062 Moosburg\nOrt: Moosburg\nPLZ: 9062\nKoordinaten: 46.660286, 14.156498\nTags: amenity=restaurant, phone=+43 4272 83689", "doc_type": "addresses"}
{"source": "OSM", "region": "Kärnten", "osm_type": "node", "osm_id": 4484303867, "name": "Hotel Schloss Moosburg", "category": "tourism:hotel", "address": "Schloß 1, 9062 Moosburg", "street": "Schloß", "housenumber": "1", "postcode": "9062", "place": "Moosburg", "lat": 46.6586627, "lon": 14.1698752, "tags": {"addr:city": "Moosburg", "addr:housenumber": "1", "addr:postcode": "9062", "addr:street": "Schloß", "name": "Hotel Schloss Moosburg", "tourism": "hotel", "website": "https://www.schloss-moosburg.at/"}, "content": "Hotel Schloss Moosburg\nKategorie: tourism:hotel\nAdresse: Schloß 1, 9062 Moosburg\nOrt: Moosburg\nPLZ: 9062\nKoordinaten: 46.658663, 14.169875\nTags: website=https://www.schloss-moosburg.at/", "doc_type": "addresses"}
{"source": "OSM", "region": "Kärnten", "osm_type": "node", "osm_id": 4856218230, "name": null, "category": null, "address": "Weidenweg 6, 9062 Moosburg", "street": "Weidenweg", "housenumber": "6", "postcode": "9062", "place": "Moosburg", "lat": 46.6645632, "lon": 14.1452245, "tags": {"addr:city": "Moosburg", "addr:housenumber": "6", "addr:postcode": "9062", "addr:street": "Weidenweg"}, "content": "Adresse: Weidenweg 6, 9062 Moosburg\nOrt: Moosburg\nPLZ: 9062\nKoordinaten: 46.664563, 14.145224", "doc_type": "addresses"}
{"source": "OSM", "region": "Kärnten", "osm_type": "node", "osm_id": 4856284524, "name": null, "category": null, "address": "Pestalozzistraße 6, 9062 Moosburg", "street": "Pestalozzistraße", "housenumber": "6", "postcode": "9062", "place": "Moosburg", "lat": 46.6541394, "lon": 14.1733155, "tags": {"addr:city": "Moosburg", "addr:housenumber": "6", "addr:postcode": "9062", "addr:street": "Pestalozzistraße"}, "content": "Adresse: Pestalozzistraße 6, 9062 Moosburg\nOrt: Moosburg\nPLZ: 9062\nKoordinaten: 46.654139, 14.173315", "doc_type": "addresses"}
{"source": "OSM", "region": "Kärnten", "osm_type": "node", "osm_id": 4856284603, "name": null, "category": null, "address": "Panoramastraße 17, 9062 Moosburg", "street": "Panoramastraße", "housenumber": "17", "postcode": "9062", "place": "Moosburg", "lat": 46.6510145, "lon": 14.1942008, "tags": {"addr:city": "Moosburg", "addr:housenumber": "17", "addr:postcode": "9062", "addr:street": "Panoramastraße"}, "content": "Adresse: Panoramastraße 17, 9062 Moosburg\nOrt: Moosburg\nPLZ: 9062\nKoordinaten: 46.651015, 14.194201", "doc_type": "addresses"}
{"source": "OSM", "region": "Kärnten", "osm_type": "node", "osm_id": 4856284604, "name": null, "category": null, "address": "Panoramastraße 12, 9062 Moosburg", "street": "Panoramastraße", "housenumber": "12", "postcode": "9062", "place": "Moosburg", "lat": 46.6502339, "lon": 14.192948, "tags": {"addr:city": "Moosburg", "addr:housenumber": "12", "addr:postcode": "9062", "addr:street": "Panoramastraße"}, "content": "Adresse: Panoramastraße 12, 9062 Moosburg\nOrt: Moosburg\nPLZ: 9062\nKoordinaten: 46.650234, 14.192948", "doc_type": "addresses"}
{"source": "OSM", "region": "Kärnten", "osm_type": "node", "osm_id": 4856284605, "name": null, "category": null, "address": "Panoramastraße 10, 9062 Moosburg", "street": "Panoramastraße", "housenumber": "10", "postcode": "9062", "place": "Moosburg", "lat": 46.6501455, "lon": 14.1926064, "tags": {"addr:city": "Moosburg", "addr:housenumber": "10", "addr:postcode": "9062", "addr:street": "Panoramastraße"}, "content": "Adresse: Panoramastraße 10, 9062 Moosburg\nOrt: Moosburg\nPLZ: 9062\nKoordinaten: 46.650146, 14.192606", "doc_type": "addresses"}
{"source": "OSM", "region": "Kärnten", "osm_type": "node", "osm_id": 4856284606, "name": null, "category": null, "address": "Gradenegg 48, 9062 Moosburg", "street": "Gradenegg", "housenumber": "48", "postcode": "9062", "place": "Moosburg", "lat": 46.6688895, "lon": 14.1618647, "tags": {"addr:city": "Moosburg", "addr:housenumber": "48", "addr:postcode": "9062", "addr:street": "Gradenegg"}, "content": "Adresse: Gradenegg 48, 9062 Moosburg\nOrt: Moosburg\nPLZ: 9062\nKoordinaten: 46.668889, 14.161865", "doc_type": "addresses"}
{"source": "OSM", "region": "Kärnten", "osm_type": "node", "osm_id": 4904877702, "name": null, "category": null, "address": "Brunnenweg 8, 9062 Moosburg", "street": "Brunnenweg", "housenumber": "8", "postcode": "9062", "place": "Moosburg", "lat": 46.6673104, "lon": 14.176839, "tags": {"addr:city": "Moosburg", "addr:housenumber": "8", "addr:postcode": "9062", "addr:street": "Brunnenweg"}, "content": "Adresse: Brunnenweg 8, 9062 Moosburg\nOrt: Moosburg\nPLZ: 9062\nKoordinaten: 46.667310, 14.176839", "doc_type": "addresses"}
{"source": "OSM", "region": "Kärnten", "osm_type": "node", "osm_id": 4904877703, "name": null, "category": null, "address": "Brunnenweg 9, 9062 Moosburg", "street": "Brunnenweg", "housenumber": "9", "postcode": "9062", "place": "Moosburg", "lat": 46.6670961, "lon": 14.1764392, "tags": {"addr:city": "Moosburg", "addr:housenumber": "9", "addr:postcode": "9062", "addr:street": "Brunnenweg"}, "content": "Adresse: Brunnenweg 9, 9062 Moosburg\nOrt: Moosburg\nPLZ: 9062\nKoordinaten: 46.667096, 14.176439", "doc_type": "addresses"}
{"source": "OSM", "region": "Kärnten", "osm_type": "node", "osm_id": 4904877704, "name": null, "category": null, "address": "Haselweg 4, 9062 Moosburg", "street": "Haselweg", "housenumber": "4", "postcode": "9062", "place": "Moosburg", "lat": 46.6668372, "lon": 14.1763628, "tags": {"addr:city": "Moosburg", "addr:housenumber": "4", "addr:postcode": "9062", "addr:street": "Haselweg"}, "content": "Adresse: Haselweg 4, 9062 Moosburg\nOrt: Moosburg\nPLZ: 9062\nKoordinaten: 46.666837, 14.176363", "doc_type": "addresses"}
{"source": "OSM", "region": "Kärnten", "osm_type": "node", "osm_id": 4904877705, "name": null, "category": null, "address": "Haselweg 8, 9062 Moosburg", "street": "Haselweg", "housenumber": "8", "postcode": "9062", "place": "Moosburg", "lat": 46.6664148, "lon": 14.1758642, "tags": {"addr:city": "Moosburg", "addr:housenumber": "8", "addr:postcode": "9062", "addr:street": "Haselweg"}, "content": "Adresse: Haselweg 8, 9062 Moosburg\nOrt: Moosburg\nPLZ: 9062\nKoordinaten: 46.666415, 14.175864", "doc_type": "addresses"}
{"source": "OSM", "region": "Kärnten", "osm_type": "node", "osm_id": 4904878036, "name": null, "category": null, "address": "Hohenfeld 1, 9062 Moosburg", "street": "Hohenfeld", "housenumber": "1", "postcode": "9062", "place": "Moosburg", "lat": 46.645836, "lon": 14.2072563, "tags": {"addr:city": "Moosburg", "addr:housenumber": "1", "addr:postcode": "9062", "addr:street": "Hohenfeld"}, "content": "Adresse: Hohenfeld 1, 9062 Moosburg\nOrt: Moosburg\nPLZ: 9062\nKoordinaten: 46.645836, 14.207256", "doc_type": "addresses"}
{"source": "OSM", "region": "Kärnten", "osm_type": "node", "osm_id": 4904878042, "name": null, "category": null, "address": "Radischweg 1, 9062 Moosburg", "street": "Radischweg", "housenumber": "1", "postcode": "9062", "place": "Moosburg", "lat": 46.6656743, "lon": 14.177316, "tags": {"addr:city": "Moosburg", "addr:housenumber": "1", "addr:postcode": "9062", "addr:street": "Radischweg"}, "content": "Adresse: Radischweg 1, 9062 Moosburg\nOrt: Moosburg\nPLZ: 9062\nKoordinaten: 46.665674, 14.177316", "doc_type": "addresses"}
{"source": "OSM", "region": "Kärnten", "osm_type": "node", "osm_id": 4904878044, "name": null, "category": null, "address": "Radischweg 44, 9062 Moosburg", "street": "Radischweg", "housenumber": "44", "postcode": "9062", "place": "Moosburg", "lat": 46.66793, "lon": 14.1740531, "tags": {"addr:city": "Moosburg", "addr:housenumber": "44", "addr:postcode": "9062", "addr:street": "Radischweg"}, "content": "Adresse: Radischweg 44, 9062 Moosburg\nOrt: Moosburg\nPLZ: 9062\nKoordinaten: 46.667930, 14.174053", "doc_type": "addresses"}
{"source": "OSM", "region": "Kärnten", "osm_type": "node", "osm_id": 4904878045, "name": null, "category": null, "address": "Radischweg 15, 9062 Moosburg", "street": "Radischweg", "housenumber": "15", "postcode": "9062", "place": "Moosburg", "lat": 46.6648561, "lon": 14.1757911, "tags": {"addr:city": "Moosburg", "addr:housenumber": "15", "addr:postcode": "9062", "addr:street": "Radischweg"}, "content": "Adresse: Radischweg 15, 9062 Moosburg\nOrt: Moosburg\nPLZ: 9062\nKoordinaten: 46.664856, 14.175791", "doc_type": "addresses"}
{"source": "OSM", "region": "Kärnten", "osm_type": "node", "osm_id": 4904878062, "name": null, "category": null, "address": "Radischweg 5, 9062 Moosburg", "street": "Radischweg", "housenumber": "5", "postcode": "9062", "place": "Moosburg", "lat": 46.6654221, "lon": 14.1769633, "tags": {"addr:city": "Moosburg", "addr:housenumber": "5", "addr:postcode": "9062", "addr:street": "Radischweg"}, "content": "Adresse: Radischweg 5, 9062 Moosburg\nOrt: Moosburg\nPLZ: 9062\nKoordinaten: 46.665422, 14.176963", "doc_type": "addresses"}
{"source": "OSM", "region": "Kärnten", "osm_type": "node", "osm_id": 4904891922, "name": null, "category": null, "address": "Raderweg 27, 9062 Moosburg", "street": "Raderweg", "housenumber": "27", "postcode": "9062", "place": "Moosburg", "lat": 46.6523728, "lon": 14.1928644, "tags": {"addr:city": "Moosburg", "addr:housenumber": "27", "addr:postcode": "9062", "addr:street": "Raderweg"}, "content": "Adresse: Raderweg 27, 9062 Moosburg\nOrt: Moosburg\nPLZ: 9062\nKoordinaten: 46.652373, 14.192864", "doc_type": "addresses"}
{"source": "OSM", "region": "Kärnten", "osm_type": "node", "osm_id": 4904891927, "name": null, "category": null, "address": "Veilchenweg 1, 9062 Moosburg", "street": "Veilchenweg", "housenumber": "1", "postcode": "9062", "place": "Moosburg", "lat": 46.6866574, "lon": 14.1832119, "tags": {"addr:city": "Moosburg", "addr:housenumber": "1", "addr:postcode": "9062", "addr:street": "Veilchenweg"}, "content": "Adresse: Veilchenweg 1, 9062 Moosburg\nOrt: Moosburg\nPLZ: 9062\nKoordinaten: 46.686657, 14.183212", "doc_type": "addresses"}
{"source": "OSM", "region": "Kärnten", "osm_type": "node", "osm_id": 4904911431, "name": null, "category": null, "address": "Nußberg 26, 9062 Moosburg", "street": "Nußberg", "housenumber": "26", "postcode": "9062", "place": "Moosburg", "lat": 46.6959637, "lon": 14.2121051, "tags": {"addr:city": "Moosburg", "addr:housenumber": "26", "addr:postcode": "9062", "addr:street": "Nußberg"}, "content": "Adresse: Nußberg 26, 9062 Moosburg\nOrt: Moosburg\nPLZ: 9062\nKoordinaten: 46.695964, 14.212105", "doc_type": "addresses"}
{"source": "OSM", "region": "Kärnten", "osm_type": "node", "osm_id": 4905491811, "name": null, "category": null, "address": "Witsch 21, 9062 Moosburg", "street": "Witsch", "housenumber": "21", "postcode": "9062", "place": "Moosburg", "lat": 46.6946429, "lon": 14.1836014, "tags": {"addr:city": "Moosburg", "addr:housenumber": "21", "addr:postcode": "9062", "addr:street": "Witsch"}, "content": "Adresse: Witsch 21, 9062 Moosburg\nOrt: Moosburg\nPLZ: 9062\nKoordinaten: 46.694643, 14.183601", "doc_type": "addresses"}
{"source": "OSM", "region": "Kärnten", "osm_type": "node", "osm_id": 4911604433, "name": null, "category": null, "address": "Buchenkogelweg 4B, 9062 Moosburg", "street": "Buchenkogelweg", "housenumber": "4B", "postcode": "9062", "place": "Moosburg", "lat": 46.6539898, "lon": 14.1790757, "tags": {"addr:city": "Moosburg", "addr:housenumber": "4B", "addr:postcode": "9062", "addr:street": "Buchenkogelweg"}, "content": "Adresse: Buchenkogelweg 4B, 9062 Moosburg\nOrt: Moosburg\nPLZ: 9062\nKoordinaten: 46.653990, 14.179076", "doc_type": "addresses"}
{"source": "OSM", "region": "Kärnten", "osm_type": "node", "osm_id": 4911604434, "name": null, "category": null, "address": "Buchenkogelweg 4A, 9062 Moosburg", "street": "Buchenkogelweg", "housenumber": "4A", "postcode": "9062", "place": "Moosburg", "lat": 46.6541101, "lon": 14.1791911, "tags": {"addr:city": "Moosburg", "addr:housenumber": "4A", "addr:postcode": "9062", "addr:street": "Buchenkogelweg"}, "content": "Adresse: Buchenkogelweg 4A, 9062 Moosburg\nOrt: Moosburg\nPLZ: 9062\nKoordinaten: 46.654110, 14.179191", "doc_type": "addresses"}
{"source": "OSM", "region": "Kärnten", "osm_type": "node", "osm_id": 4911604435, "name": null, "category": null, "address": "Buchenkogelweg 2, 9062 Moosburg", "street": "Buchenkogelweg", "housenumber": "2", "postcode": "9062", "place": "Moosburg", "lat": 46.6542559, "lon": 14.1793103, "tags": {"addr:city": "Moosburg", "addr:housenumber": "2", "addr:postcode": "9062", "addr:street": "Buchenkogelweg"}, "content": "Adresse: Buchenkogelweg 2, 9062 Moosburg\nOrt: Moosburg\nPLZ: 9062\nKoordinaten: 46.654256, 14.179310", "doc_type": "addresses"}
{"source": "OSM", "region": "Kärnten", "osm_type": "node", "osm_id": 4911604436, "name": null, "category": null, "address": "Buchenkogelweg 5, 9062 Moosburg", "street": "Buchenkogelweg", "housenumber": "5", "postcode": "9062", "place": "Moosburg", "lat": 46.6531532, "lon": 14.179517, "tags": {"addr:city": "Moosburg", "addr:housenumber": "5", "addr:postcode": "9062", "addr:street": "Buchenkogelweg"}, "content": "Adresse: Buchenkogelweg 5, 9062 Moosburg\nOrt: Moosburg\nPLZ: 9062\nKoordinaten: 46.653153, 14.179517", "doc_type": "addresses"}
{"source": "OSM", "region": "Kärnten", "osm_type": "node", "osm_id": 4911604442, "name": null, "category": null, "address": "Damnigweg 30;30a, 9062 Moosburg", "street": "Damnigweg", "housenumber": "30;30a", "postcode": "9062", "place": "Moosburg", "lat": 46.6567521, "lon": 14.1520158, "tags": {"addr:city": "Moosburg", "addr:housenumber": "30;30a", "addr:postcode": "9062", "addr:street": "Damnigweg"}, "content": "Adresse: Damnigweg 30;30a, 9062 Moosburg\nOrt: Moosburg\nPLZ: 9062\nKoordinaten: 46.656752, 14.152016", "doc_type": "addresses"}
{"source": "OSM", "region": "Kärnten", "osm_type": "node", "osm_id": 4911604443, "name": null, "category": null, "address": "Erlenweg 17, 9062 Moosburg", "street": "Erlenweg", "housenumber": "17", "postcode": "9062", "place": "Moosburg", "lat": 46.6682716, "lon": 14.1876486, "tags": {"addr:city": "Moosburg", "addr:housenumber": "17", "addr:postcode": "9062", "addr:street": "Erlenweg"}, "content": "Adresse: Erlenweg 17, 9062 Moosburg\nOrt: Moosburg\nPLZ: 9062\nKoordinaten: 46.668272, 14.187649", "doc_type": "addresses"}
{"source": "OSM", "region": "Kärnten", "osm_type": "node", "osm_id": 4911604444, "name": null, "category": null, "address": "Föhrenweg 17, 9062 Moosburg", "street": "Föhrenweg", "housenumber": "17", "postcode": "9062", "place": "Moosburg", "lat": 46.663751, "lon": 14.167597, "tags": {"addr:city": "Moosburg", "addr:housenumber": "17", "addr:postcode": "9062", "addr:street": "Föhrenweg"}, "content": "Adresse: Föhrenweg 17, 9062 Moosburg\nOrt: Moosburg\nPLZ: 9062\nKoordinaten: 46.663751, 14.167597", "doc_type": "addresses"}
{"source": "OSM", "region": "Kärnten", "osm_type": "node", "osm_id": 4911604448, "name": null, "category": null, "address": "Klagenfurter Straße 23, 9062 Moosburg", "street": "Klagenfurter Straße", "housenumber": "23", "postcode": "9062", "place": "Moosburg", "lat": 46.6597204, "lon": 14.1786157, "tags": {"addr:city": "Moosburg", "addr:housenumber": "23", "addr:postcode": "9062", "addr:street": "Klagenfurter Straße"}, "content": "Adresse: Klagenfurter Straße 23, 9062 Moosburg\nOrt: Moosburg\nPLZ: 9062\nKoordinaten: 46.659720, 14.178616", "doc_type": "addresses"}
{"source": "OSM", "region": "Kärnten", "osm_type": "node", "osm_id": 4911604452, "name": null, "category": null, "address": "Lerchenweg 5, 9062 Moosburg", "street": "Lerchenweg", "housenumber": "5", "postcode": "9062", "place": "Moosburg", "lat": 46.6636489, "lon": 14.1742967, "tags": {"addr:city": "Moosburg", "addr:housenumber": "5", "addr:postcode": "9062", "addr:street": "Lerchenweg"}, "content": "Adresse: Lerchenweg 5, 9062 Moosburg\nOrt: Moosburg\nPLZ: 9062\nKoordinaten: 46.663649, 14.174297", "doc_type": "addresses"}
{"source": "OSM", "region": "Kärnten", "osm_type": "node", "osm_id": 4911604465, "name": null, "category": null, "address": "Pörtschacher Straße 6A, 9062 Moosburg", "street": "Pörtschacher Straße", "housenumber": "6A", "postcode": "9062", "place": "Moosburg", "lat": 46.6607805, "lon": 14.1681007, "tags": {"addr:city": "Moosburg", "addr:housenumber": "6A", "addr:postcode": "9062", "addr:street": "Pörtschacher Straße"}, "content": "Adresse: Pörtschacher Straße 6A, 9062 Moosburg\nOrt: Moosburg\nPLZ: 9062\nKoordinaten: 46.660781, 14.168101", "doc_type": "addresses"}
{"source": "OSM", "region": "Kärnten", "osm_type": "node", "osm_id": 4911604466, "name": null, "category": null, "address": "Simislauer Straße 14, 9062 Moosburg", "street": "Simislauer Straße", "housenumber": "14", "postcode": "9062", "place": "Moosburg", "lat": 46.6624103, "lon": 14.2100187, "tags": {"addr:city": "Moosburg", "addr:housenumber": "14", "addr:postcode": "9062", "addr:street": "Simislauer Straße"}, "content": "Adresse: Simislauer Straße 14, 9062 Moosburg\nOrt: Moosburg\nPLZ: 9062\nKoordinaten: 46.662410, 14.210019", "doc_type": "addresses"}
{"source": "OSM", "region": "Kärnten", "osm_type": "node", "osm_id": 4911604492, "name": null, "category": null, "address": "Am Sonnengrund 6, 9062 Moosburg", "street": "Am Sonnengrund", "housenumber": "6", "postcode": "9062", "place": "Moosburg", "lat": 46.6674807, "lon": 14.1785132, "tags": {"addr:city": "Moosburg", "addr:housenumber": "6", "addr:postcode": "9062", "addr:street": "Am Sonnengrund"}, "content": "Adresse: Am Sonnengrund 6, 9062 Moosburg\nOrt: Moosburg\nPLZ: 9062\nKoordinaten: 46.667481, 14.178513", "doc_type": "addresses"}
{"source": "OSM", "region": "Kärnten", "osm_type": "node", "osm_id": 4911604536, "name": null, "category": null, "address": "Haselweg 12, 9062 Moosburg", "street": "Haselweg", "housenumber": "12", "postcode": "9062", "place": "Moosburg", "lat": 46.6660902, "lon": 14.1764483, "tags": {"addr:city": "Moosburg", "addr:housenumber": "12", "addr:postcode": "9062", "addr:street": "Haselweg"}, "content": "Adresse: Haselweg 12, 9062 Moosburg\nOrt: Moosburg\nPLZ: 9062\nKoordinaten: 46.666090, 14.176448", "doc_type": "addresses"}
{"source": "OSM", "region": "Kärnten", "osm_type": "node", "osm_id": 4911604537, "name": null, "category": null, "address": "Hügelweg 11, 9062 Moosburg", "street": "Hügelweg", "housenumber": "11", "postcode": "9062", "place": "Moosburg", "lat": 46.6513464, "lon": 14.1987633, "tags": {"addr:city": "Moosburg", "addr:housenumber": "11", "addr:postcode": "9062", "addr:street": "Hügelweg"}, "content": "Adresse: Hügelweg 11, 9062 Moosburg\nOrt: Moosburg\nPLZ: 9062\nKoordinaten: 46.651346, 14.198763", "doc_type": "addresses"}
{"source": "OSM", "region": "Kärnten", "osm_type": "node", "osm_id": 4911604592, "name": null, "category": null, "address": "Krainig 1, 9062 Moosburg", "street": "Krainig", "housenumber": "1", "postcode": "9062", "place": "Moosburg", "lat": 46.6980296, "lon": 14.1987071, "tags": {"addr:city": "Moosburg", "addr:housenumber": "1", "addr:postcode": "9062", "addr:street": "Krainig"}, "content": "Adresse: Krainig 1, 9062 Moosburg\nOrt: Moosburg\nPLZ: 9062\nKoordinaten: 46.698030, 14.198707", "doc_type": "addresses"}
{"source": "OSM", "region": "Kärnten", "osm_type": "node", "osm_id": 4911604605, "name": null, "category": null, "address": "Moosweg 23, 9062 Moosburg", "street": "Moosweg", "housenumber": "23", "postcode": "9062", "place": "Moosburg", "lat": 46.6600224, "lon": 14.1534579, "tags": {"addr:city": "Moosburg", "addr:housenumber": "23", "addr:postcode": "9062", "addr:street": "Moosweg"}, "content": "Adresse: Moosweg 23, 9062 Moosburg\nOrt: Moosburg\nPLZ: 9062\nKoordinaten: 46.660022, 14.153458", "doc_type": "addresses"}
{"source": "OSM", "region": "Kärnten", "osm_type": "node", "osm_id": 4911604606, "name": null, "category": null, "address": "12, 9062 Moosburg", "street": null, "housenumber": "12", "postcode": "9062", "place": "Moosburg", "lat": 46.6767252, "lon": 14.1916587, "tags": {"addr:city": "Moosburg", "addr:housenumber": "12", "addr:place": "Rosenau", "addr:postcode": "9062"}, "content": "Adresse: 12, 9062 Moosburg\nOrt: Moosburg\nPLZ: 9062\nKoordinaten: 46.676725, 14.191659", "doc_type": "addresses"}
{"source": "OSM", "region": "Kärnten", "osm_type": "node", "osm_id": 4911631345, "name": null, "category": null, "address": "Zeno Goeß Weg 13, 9062 Moosburg", "street": "Zeno Goeß Weg", "housenumber": "13", "postcode": "9062", "place": "Moosburg", "lat": 46.6604153, "lon": 14.1899957, "tags": {"addr:city": "Moosburg", "addr:housenumber": "13", "addr:postcode": "9062", "addr:street": "Zeno Goeß Weg"}, "content": "Adresse: Zeno Goeß Weg 13, 9062 Moosburg\nOrt: Moosburg\nPLZ: 9062\nKoordinaten: 46.660415, 14.189996", "doc_type": "addresses"}
{"source": "OSM", "region": "Kärnten", "osm_type": "node", "osm_id": 4911631346, "name": null, "category": null, "address": "Gaisrückenstraße 35, 9062 Moosburg", "street": "Gaisrückenstraße", "housenumber": "35", "postcode": "9062", "place": "Moosburg", "lat": 46.6533704, "lon": 14.1707009, "tags": {"addr:city": "Moosburg", "addr:housenumber": "35", "addr:postcode": "9062", "addr:street": "Gaisrückenstraße"}, "content": "Adresse: Gaisrückenstraße 35, 9062 Moosburg\nOrt: Moosburg\nPLZ: 9062\nKoordinaten: 46.653370, 14.170701", "doc_type": "addresses"}
{"source": "OSM", "region": "Kärnten", "osm_type": "node", "osm_id": 4911631347, "name": null, "category": null, "address": "Hubertusweg 20, 9062 Moosburg", "street": "Hubertusweg", "housenumber": "20", "postcode": "9062", "place": "Moosburg", "lat": 46.662084, "lon": 14.1641017, "tags": {"addr:city": "Moosburg", "addr:housenumber": "20", "addr:postcode": "9062", "addr:street": "Hubertusweg"}, "content": "Adresse: Hubertusweg 20, 9062 Moosburg\nOrt: Moosburg\nPLZ: 9062\nKoordinaten: 46.662084, 14.164102", "doc_type": "addresses"}
{"source": "OSM", "region": "Kärnten", "osm_type": "node", "osm_id": 4911631348, "name": null, "category": null, "address": "Hubertusweg 16, 9062 Moosburg", "street": "Hubertusweg", "housenumber": "16", "postcode": "9062", "place": "Moosburg", "lat": 46.6618054, "lon": 14.1643006, "tags": {"addr:city": "Moosburg", "addr:housenumber": "16", "addr:postcode": "9062", "addr:street": "Hubertusweg"}, "content": "Adresse: Hubertusweg 16, 9062 Moosburg\nOrt: Moosburg\nPLZ: 9062\nKoordinaten: 46.661805, 14.164301", "doc_type": "addresses"}
{"source": "OSM", "region": "Kärnten", "osm_type": "node", "osm_id": 4911631349, "name": null, "category": null, "address": "Hubertusweg 6, 9062 Moosburg", "street": "Hubertusweg", "housenumber": "6", "postcode": "9062", "place": "Moosburg", "lat": 46.6612352, "lon": 14.1629809, "tags": {"addr:city": "Moosburg", "addr:housenumber": "6", "addr:postcode": "9062", "addr:street": "Hubertusweg"}, "content": "Adresse: Hubertusweg 6, 9062 Moosburg\nOrt: Moosburg\nPLZ: 9062\nKoordinaten: 46.661235, 14.162981", "doc_type": "addresses"}
{"source": "OSM", "region": "Kärnten", "osm_type": "node", "osm_id": 4911631409, "name": null, "category": null, "address": "Mühlweg 22, 9062 Moosburg", "street": "Mühlweg", "housenumber": "22", "postcode": "9062", "place": "Moosburg", "lat": 46.6660042, "lon": 14.1931218, "tags": {"addr:city": "Moosburg", "addr:housenumber": "22", "addr:postcode": "9062", "addr:street": "Mühlweg"}, "content": "Adresse: Mühlweg 22, 9062 Moosburg\nOrt: Moosburg\nPLZ: 9062\nKoordinaten: 46.666004, 14.193122", "doc_type": "addresses"}
{"source": "OSM", "region": "Kärnten", "osm_type": "node", "osm_id": 4911631412, "name": null, "category": null, "address": "Sonnleitenweg 5A, 9062 Moosburg", "street": "Sonnleitenweg", "housenumber": "5A", "postcode": "9062", "place": "Moosburg", "lat": 46.6513281, "lon": 14.1851888, "tags": {"addr:city": "Moosburg", "addr:housenumber": "5A", "addr:postcode": "9062", "addr:street": "Sonnleitenweg"}, "content": "Adresse: Sonnleitenweg 5A, 9062 Moosburg\nOrt: Moosburg\nPLZ: 9062\nKoordinaten: 46.651328, 14.185189", "doc_type": "addresses"}
{"source": "OSM", "region": "Kärnten", "osm_type": "node", "osm_id": 4911631413, "name": null, "category": null, "address": "Sonnleitenweg 4, 9062 Moosburg", "street": "Sonnleitenweg", "housenumber": "4", "postcode": "9062", "place": "Moosburg", "lat": 46.6506708, "lon": 14.1862722, "tags": {"addr:city": "Moosburg", "addr:housenumber": "4", "addr:postcode": "9062", "addr:street": "Sonnleitenweg"}, "content": "Adresse: Sonnleitenweg 4, 9062 Moosburg\nOrt: Moosburg\nPLZ: 9062\nKoordinaten: 46.650671, 14.186272", "doc_type": "addresses"}
{"source": "OSM", "region": "Kärnten", "osm_type": "node", "osm_id": 340517734, "name": "Postpartner 9062, Regionaler Shop und Post Partner", "category": "amenity:post_office", "address": "Kirchplatz 2, 9062 Moosburg", "street": "Kirchplatz", "housenumber": "2", "postcode": "9062", "place": "Moosburg", "lat": 46.6574144, "lon": 14.1740615, "tags": {"addr:city": "Moosburg", "addr:housenumber": "2", "addr:postcode": "9062", "addr:street": "Kirchplatz", "amenity": "post_office", "name": "Postpartner 9062, Regionaler Shop und Post Partner"}, "content": "Postpartner 9062, Regionaler Shop und Post Partner\nKategorie: amenity:post_office\nAdresse: Kirchplatz 2, 9062 Moosburg\nOrt: Moosburg\nPLZ: 9062\nKoordinaten: 46.657414, 14.174062\nTags: amenity=post_office", "doc_type": "pois"}
{"source": "OSM", "region": "Kärnten", "osm_type": "node", "osm_id": 1490535575, "name": "Polizeiinspektion Moosburg", "category": "amenity:police", "address": "Klagenfurter Straße 5, 9062 Moosburg", "street": "Klagenfurter Straße", "housenumber": "5", "postcode": "9062", "place": "Moosburg", "lat": 46.6582217, "lon": 14.1743052, "tags": {"addr:city": "Moosburg", "addr:housenumber": "5", "addr:postcode": "9062", "addr:street": "Klagenfurter Straße", "amenity": "police", "name": "Polizeiinspektion Moosburg", "phone": "+43 59133 2112-100"}, "content": "Polizeiinspektion Moosburg\nKategorie: amenity:police\nAdresse: Klagenfurter Straße 5, 9062 Moosburg\nOrt: Moosburg\nPLZ: 9062\nKoordinaten: 46.658222, 14.174305\nTags: amenity=police, phone=+43 59133 2112-100", "doc_type": "pois"}
{"source": "OSM", "region": "Kärnten", "osm_type": "node", "osm_id": 1870640993, "name": "Gasthof Bärnwirt", "category": "amenity:restaurant", "address": "3, 9062 Moosburg", "street": null, "housenumber": "3", "postcode": "9062", "place": "Moosburg", "lat": 46.6656791, "lon": 14.1340727, "tags": {"addr:city": "Moosburg", "addr:housenumber": "3", "addr:place": "Bärndorf", "addr:postcode": "9062", "amenity": "restaurant", "name": "Gasthof Bärnwirt", "website": "https://www.baernwirt.at/"}, "content": "Gasthof Bärnwirt\nKategorie: amenity:restaurant\nAdresse: 3, 9062 Moosburg\nOrt: Moosburg\nPLZ: 9062\nKoordinaten: 46.665679, 14.134073\nTags: amenity=restaurant, website=https://www.baernwirt.at/", "doc_type": "pois"}
{"source": "OSM", "region": "Kärnten", "osm_type": "node", "osm_id": 2695071960, "name": "Dieter Endisch Sudetenhof", "category": "tourism:camp_site", "address": "1a, 9062 Moosburg", "street": null, "housenumber": "1a", "postcode": "9062", "place": "Moosburg", "lat": 46.671006, "lon": 14.1986977, "tags": {"addr:city": "Moosburg", "addr:housenumber": "1a", "addr:place": "Dellach", "addr:postcode": "9062", "operator": "Dieter Endisch Sudetenhof", "phone": "+43 427283473", "tourism": "camp_site"}, "content": "Dieter Endisch Sudetenhof\nKategorie: tourism:camp_site\nAdresse: 1a, 9062 Moosburg\nOrt: Moosburg\nPLZ: 9062\nKoordinaten: 46.671006, 14.198698\nTags: operator=Dieter Endisch Sudetenhof, phone=+43 427283473", "doc_type": "pois"}
{"source": "OSM", "region": "Kärnten", "osm_type": "node", "osm_id": 2907284926, "name": "FF Bärndorf-Stallhofen", "category": "amenity:fire_station", "address": "68/1, 9062 Moosburg", "street": null, "housenumber": "68/1", "postcode": "9062", "place": "Moosburg", "lat": 46.6651169, "lon": 14.1333717, "tags": {"addr:city": "Moosburg", "addr:housenumber": "68/1", "addr:place": "Bärndorf", "addr:postcode": "9062", "amenity": "fire_station", "name": "FF Bärndorf-Stallhofen"}, "content": "FF Bärndorf-Stallhofen\nKategorie: amenity:fire_station\nAdresse: 68/1, 9062 Moosburg\nOrt: Moosburg\nPLZ: 9062\nKoordinaten: 46.665117, 14.133372\nTags: amenity=fire_station", "doc_type": "pois"}
{"source": "OSM", "region": "Kärnten", "osm_type": "node", "osm_id": 3491874473, "name": "Buschenschank Koschu", "category": "amenity:restaurant", "address": "Goritschitzen 12, 9062 Moosburg", "street": "Goritschitzen", "housenumber": "12", "postcode": "9062", "place": "Moosburg", "lat": 46.6540833, "lon": 14.2140158, "tags": {"addr:city": "Moosburg", "addr:housenumber": "12", "addr:postcode": "9062", "addr:street": "Goritschitzen", "amenity": "restaurant", "name": "Buschenschank Koschu", "phone": "+43 4272 83358"}, "content": "Buschenschank Koschu\nKategorie: amenity:restaurant\nAdresse: Goritschitzen 12, 9062 Moosburg\nOrt: Moosburg\nPLZ: 9062\nKoordinaten: 46.654083, 14.214016\nTags: amenity=restaurant, phone=+43 4272 83358", "doc_type": "pois"}
{"source": "OSM", "region": "Kärnten", "osm_type": "node", "osm_id": 3491892219, "name": "Buschenschank Wassacher", "category": "amenity:restaurant", "address": "Bärndorfer Straße 3, 9062 Moosburg", "street": "Bärndorfer Straße", "housenumber": "3", "postcode": "9062", "place": "Moosburg", "lat": 46.6625258, "lon": 14.1458555, "tags": {"addr:city": "Moosburg", "addr:housenumber": "3", "addr:postcode": "9062", "addr:street": "Bärndorfer Straße", "amenity": "restaurant", "name": "Buschenschank Wassacher", "phone": "+43 4272 83020"}, "content": "Buschenschank Wassacher\nKategorie: amenity:restaurant\nAdresse: Bärndorfer Straße 3, 9062 Moosburg\nOrt: Moosburg\nPLZ: 9062\nKoordinaten: 46.662526, 14.145855\nTags: amenity=restaurant, phone=+43 4272 83020", "doc_type": "pois"}
{"source": "OSM", "region": "Kärnten", "osm_type": "node", "osm_id": 3491892220, "name": "Buschenschank Falkner", "category": "amenity:restaurant", "address": "Thurnerweg 1, 9062 Moosburg", "street": "Thurnerweg", "housenumber": "1", "postcode": "9062", "place": "Moosburg", "lat": 46.6602862, "lon": 14.1564977, "tags": {"addr:city": "Moosburg", "addr:housenumber": "1", "addr:postcode": "9062", "addr:street": "Thurnerweg", "amenity": "restaurant", "name": "Buschenschank Falkner", "phone": "+43 4272 83689"}, "content": "Buschenschank Falkner\nKategorie: amenity:restaurant\nAdresse: Thurnerweg 1, 9062 Moosburg\nOrt: Moosburg\nPLZ: 9062\nKoordinaten: 46.660286, 14.156498\nTags: amenity=restaurant, phone=+43 4272 83689", "doc_type": "pois"}
{"source": "OSM", "region": "Kärnten", "osm_type": "node", "osm_id": 4484303867, "name": "Hotel Schloss Moosburg", "category": "tourism:hotel", "address": "Schloß 1, 9062 Moosburg", "street": "Schloß", "housenumber": "1", "postcode": "9062", "place": "Moosburg", "lat": 46.6586627, "lon": 14.1698752, "tags": {"addr:city": "Moosburg", "addr:housenumber": "1", "addr:postcode": "9062", "addr:street": "Schloß", "name": "Hotel Schloss Moosburg", "tourism": "hotel", "website": "https://www.schloss-moosburg.at/"}, "content": "Hotel Schloss Moosburg\nKategorie: tourism:hotel\nAdresse: Schloß 1, 9062 Moosburg\nOrt: Moosburg\nPLZ: 9062\nKoordinaten: 46.658663, 14.169875\nTags: website=https://www.schloss-moosburg.at/", "doc_type": "pois"}
