{"source": "OSM", "region": "Kärnten", "osm_type": "node", "osm_id": 698595807, "name": "Pension am Hügel", "category": "tourism:hotel", "address": "Am Hügel 6, 9560 Feldkirchen", "street": "Am Hügel", "housenumber": "6", "postcode": "9560", "place": "Feldkirchen", "lat": 46.7221594, "lon": 14.0892091, "tags": {"addr:city": "Feldkirchen", "addr:housenumber": "6", "addr:postcode": "9560", "addr:street": "Am Hügel", "name": "Pension am Hügel", "phone": "+4342762632", "tourism": "hotel", "website": "http://www.hotel-germann.com/pension.htm"}, "content": "Pension am Hügel\nKategorie: tourism:hotel\nAdresse: Am Hügel 6, 9560 Feldkirchen\nOrt: Feldkirchen\nPLZ: 9560\nKoordinaten: 46.722159, 14.089209\nTags: phone=+4342762632, website=http://www.hotel-germann.com/pension.htm", "doc_type": "addresses"}
{"source": "OSM", "region": "Kärnten", "osm_type": "node", "osm_id": 3320168340, "name": "Musikschule Feldkirchen", "category": "amenity:music_school", "address": "Amthofgasse 5, 9560 Feldkirchen", "street": "Amthofgasse", "housenumber": "5", "postcode": "9560", "place": "Feldkirchen", "lat": 46.7224162, "lon": 14.0923739, "tags": {"addr:city": "Feldkirchen", "addr:housenumber": "5", "addr:postcode": "9560", "addr:street": "Amthofgasse", "amenity": "music_school", "name": "Musikschule Feldkirchen"}, "content": "Musikschule Feldkirchen\nKategorie: amenity:music_school\nAdresse: Amthofgasse 5, 9560 Feldkirchen\nOrt: Feldkirchen\nPLZ: 9560\nKoordinaten: 46.722416, 14.092374\nTags: amenity=music_school", "doc_type": "addresses"}
{"source": "OSM", "region": "Kärnten", "osm_type": "node", "osm_id": 5539972919, "name": "Drive In Bäckerei Schieder GmbH", "category": "amenity:cafe", "address": "Ossiacher Straße 5, 9560 Feldkirchen", "street": "Ossiacher Straße", "housenumber": "5", "postcode": "9560", "place": "Feldkirchen", "lat": 46.7250326, "lon": 14.0881506, "tags": {"addr:city": "Feldkirchen", "addr:housenumber": "5", "addr:postcode": "9560", "addr:street": "Ossiacher Straße", "amenity": "cafe", "name": "Drive In Bäckerei Schieder GmbH"}, "content": "Drive In Bäckerei Schieder GmbH\nKategorie: amenity:cafe\nAdresse: Ossiacher Straße 5, 9560 Feldkirchen\nOrt: Feldkirchen\nPLZ: 9560\nKoordinaten: 46.725033, 14.088151\nTags: amenity=cafe", "doc_type": "addresses"}
{"source": "OSM", "region": "Kärnten", "osm_type": "node", "osm_id": 698595807, "name": "Pension am Hügel", "category": "tourism:hotel", "address": "Am Hügel 6, 9560 Feldkirchen", "street": "Am Hügel", "housenumber": "6", "postcode": "9560", "place": "Feldkirchen", "lat": 46.7221594, "lon": 14.0892091, "tags": {"addr:city": "Feldkirchen", "addr:housenumber": "6", "addr:postcode": "9560", "addr:street": "Am Hügel", "name": "Pension am Hügel", "phone": "+4342762632", "tourism": "hotel", "website": "http://www.hotel-germann.com/pension.htm"}, "content": "Pension am Hügel\nKategorie: tourism:hotel\nAdresse: Am Hügel 6, 9560 Feldkirchen\nOrt: Feldkirchen\nPLZ: 9560\nKoordinaten: 46.722159, 14.089209\nTags: phone=+4342762632, website=http://www.hotel-germann.com/pension.htm", "doc_type": "pois"}
{"source": "OSM", "region": "Kärnten", "osm_type": "node", "osm_id": 3320168340, "name": "Musikschule Feldkirchen", "category": "amenity:music_school", "address": "Amthofgasse 5, 9560 Feldkirchen", "street": "Amthofgasse", "housenumber": "5", "postcode": "9560", "place": "Feldkirchen", "lat": 46.7224162, "lon": 14.0923739, "tags": {"addr:city": "Feldkirchen", "addr:housenumber": "5", "addr:postcode": "9560", "addr:street": "Amthofgasse", "amenity": "music_school", "name": "Musikschule Feldkirchen"}, "content": "Musikschule Feldkirchen\nKategorie: amenity:music_school\nAdresse: Amthofgasse 5, 9560 Feldkirchen\nOrt: Feldkirchen\nPLZ: 9560\nKoordinaten: 46.722416, 14.092374\nTags: amenity=music_school", "doc_type": "pois"}
{"source": "OSM", "region": "Kärnten", "osm_type": "node", "osm_id": 5539972919, "name": "Drive In Bäckerei Schieder GmbH", "category": "amenity:cafe", "address": "Ossiacher Straße 5, 9560 Feldkirchen", "street": "Ossiacher Straße", "housenumber": "5", "postcode": "9560", "place": "Feldkirchen", "lat": 46.7250326, "lon": 14.0881506, "tags": {"addr:city": "Feldkirchen", "addr:housenumber": "5", "addr:postcode": "9560", "addr:street": "Ossiacher Straße", "amenity": "cafe", "name": "Drive In Bäckerei Schieder GmbH"}, "content": "Drive In Bäckerei Schieder GmbH\nKategorie: amenity:cafe\nAdresse: Ossiacher Straße 5, 9560 Feldkirchen\nOrt: Feldkirchen\nPLZ: 9560\nKoordinaten: 46.725033, 14.088151\nTags: amenity=cafe", "doc_type": "pois"}
