{"source": "OSM", "region": "Kärnten", "osm_type": "node", "osm_id": 5133395875, "name": "Polizeiinspektion St. Andrä im Lavanttal", "category": "amenity:police", "address": "61, 9433 St. Andrä", "street": null, "housenumber": "61", "postcode": "9433", "place": "St. Andrä", "lat": 46.7602336, "lon": 14.8219608, "tags": {"addr:city": "St. Andrä", "addr:housenumber": "61", "addr:place": "Burgstall-St. Andrä", "addr:postcode": "9433", "amenity": "police", "name": "Polizeiinspektion St. Andrä im Lavanttal", "phone": "+43 59133 2166100"}, "content": "Polizeiinspektion St. Andrä im Lavanttal\nKategorie: amenity:police\nAdresse: 61, 9433 St. Andrä\nOrt: St. Andrä\nPLZ: 9433\nKoordinaten: 46.760234, 14.821961\nTags: amenity=police, phone=+43 59133 2166100", "doc_type": "addresses"}
{"source": "OSM", "region": "Kärnten", "osm_type": "node", "osm_id": 5398261375, "name": null, "category": null, "address": "36, 9433 St. Andrä", "street": null, "housenumber": "36", "postcode": "9433", "place": "St. Andrä", "lat": 46.7661581, "lon": 14.821777, "tags": {"addr:city": "St. Andrä", "addr:housenumber": "36", "addr:place": "St. Andrä", "addr:postcode": "9433"}, "content": "Adresse: 36, 9433 St. Andrä\nOrt: St. Andrä\nPLZ: 9433\nKoordinaten: 46.766158, 14.821777", "doc_type": "addresses"}
{"source": "OSM", "region": "Kärnten", "osm_type": "node", "osm_id": 5398261376, "name": null, "category": null, "address": "80, 9433 St. Andrä", "street": null, "housenumber": "80", "postcode": "9433", "place": "St. Andrä", "lat": 46.766013, "lon": 14.8217502, "tags": {"addr:city": "St. Andrä", "addr:housenumber": "80", "addr:place": "St. Andrä", "addr:postcode": "9433"}, "content": "Adresse: 80, 9433 St. Andrä\nOrt: St. Andrä\nPLZ: 9433\nKoordinaten: 46.766013, 14.821750", "doc_type": "addresses"}
{"source": "OSM", "region": "Kärnten", "osm_type": "node", "osm_id": 5398261377, "name": null, "category": null, "address": "80, 9433 St. Andrä", "street": null, "housenumber": "80", "postcode": "9433", "place": "St. Andrä", "lat": 46.7659459, "lon": 14.8217663, "tags": {"addr:city": "St. Andrä", "addr:housenumber": "80", "addr:place": "St. Andrä", "addr:postcode": "9433"}, "content": "Adresse: 80, 9433 St. Andrä\nOrt: St. Andrä\nPLZ: 9433\nKoordinaten: 46.765946, 14.821766", "doc_type": "addresses"}
{"source": "OSM", "region": "Kärnten", "osm_type": "node", "osm_id": 5398261378, "name": null, "category": null, "address": "38, 9433 St. Andrä", "street": null, "housenumber": "38", "postcode": "9433", "place": "St. Andrä", "lat": 46.7658724, "lon": 14.8217516, "tags": {"addr:city": "St. Andrä", "addr:housenumber": "38", "addr:place": "St. Andrä", "addr:postcode": "9433"}, "content": "Adresse: 38, 9433 St. Andrä\nOrt: St. Andrä\nPLZ: 9433\nKoordinaten: 46.765872, 14.821752", "doc_type": "addresses"}
{"source": "OSM", "region": "Kärnten", "osm_type": "node", "osm_id": 5469870486, "name": null, "category": null, "address": "87, 9433 St. Andrä", "street": null, "housenumber": "87", "postcode": "9433", "place": "St. Andrä", "lat": 46.7747043, "lon": 14.816245, "tags": {"addr:city": "St. Andrä", "addr:housenumber": "87", "addr:place": "Wölzing-Fischering", "addr:postcode": "9433"}, "content": "Adresse: 87, 9433 St. Andrä\nOrt: St. Andrä\nPLZ: 9433\nKoordinaten: 46.774704, 14.816245", "doc_type": "addresses"}
{"source": "OSM", "region": "Kärnten", "osm_type": "node", "osm_id": 5469870487, "name": null, "category": null, "address": "88, 9433 St. Andrä", "street": null, "housenumber": "88", "postcode": "9433", "place": "St. Andrä", "lat": 46.7746639, "lon": 14.8165186, "tags": {"addr:city": "St. Andrä", "addr:housenumber": "88", "addr:place": "Wölzing-Fischering", "addr:postcode": "9433"}, "content": "Adresse: 88, 9433 St. Andrä\nOrt: St. Andrä\nPLZ: 9433\nKoordinaten: 46.774664, 14.816519", "doc_type": "addresses"}
{"source": "OSM", "region": "Kärnten", "osm_type": "node", "osm_id": 5469870488, "name": null, "category": null, "address": "89, 9433 St. Andrä", "street": null, "housenumber": "89", "postcode": "9433", "place": "St. Andrä", "lat": 46.774562, "lon": 14.8167922, "tags": {"addr:city": "St. Andrä", "addr:housenumber": "89", "addr:place": "Wölzing-Fischering", "addr:postcode": "9433"}, "content": "Adresse: 89, 9433 St. Andrä\nOrt: St. Andrä\nPLZ: 9433\nKoordinaten: 46.774562, 14.816792", "doc_type": "addresses"}
{"source": "OSM", "region": "Kärnten", "osm_type": "node", "osm_id": 5469870489, "name": null, "category": null, "address": "90, 9433 St. Andrä", "street": null, "housenumber": "90", "postcode": "9433", "place": "St. Andrä", "lat": 46.7743966, "lon": 14.8167184, "tags": {"addr:city": "St. Andrä", "addr:housenumber": "90", "addr:place": "Wölzing-Fischering", "addr:postcode": "9433"}, "content": "Adresse: 90, 9433 St. Andrä\nOrt: St. Andrä\nPLZ: 9433\nKoordinaten: 46.774397, 14.816718", "doc_type": "addresses"}
{"source": "OSM", "region": "Kärnten", "osm_type": "node", "osm_id": 5469870490, "name": null, "category": null, "address": "84, 9433 St. Andrä", "street": null, "housenumber": "84", "postcode": "9433", "place": "St. Andrä", "lat": 46.774866, "lon": 14.8172146, "tags": {"addr:city": "St. Andrä", "addr:housenumber": "84", "addr:place": "Wölzing-Fischering", "addr:postcode": "9433"}, "content": "Adresse: 84, 9433 St. Andrä\nOrt: St. Andrä\nPLZ: 9433\nKoordinaten: 46.774866, 14.817215", "doc_type": "addresses"}
{"source": "OSM", "region": "Kärnten", "osm_type": "node", "osm_id": 5469870491, "name": null, "category": null, "address": "83, 9433 St. Andrä", "street": null, "housenumber": "83", "postcode": "9433", "place": "St. Andrä", "lat": 46.7750699, "lon": 14.8172495, "tags": {"addr:city": "St. Andrä", "addr:housenumber": "83", "addr:place": "Wölzing-Fischering", "addr:postcode": "9433"}, "content": "Adresse: 83, 9433 St. Andrä\nOrt: St. Andrä\nPLZ: 9433\nKoordinaten: 46.775070, 14.817250", "doc_type": "addresses"}
{"source": "OSM", "region": "Kärnten", "osm_type": "node", "osm_id": 5469870492, "name": null, "category": null, "address": "82, 9433 St. Andrä", "street": null, "housenumber": "82", "postcode": "9433", "place": "St. Andrä", "lat": 46.7751599, "lon": 14.8169745, "tags": {"addr:city": "St. Andrä", "addr:housenumber": "82", "addr:place": "Wölzing-Fischering", "addr:postcode": "9433"}, "content": "Adresse: 82, 9433 St. Andrä\nOrt: St. Andrä\nPLZ: 9433\nKoordinaten: 46.775160, 14.816975", "doc_type": "addresses"}
{"source": "OSM", "region": "Kärnten", "osm_type": "node", "osm_id": 5469870493, "name": null, "category": null, "address": "80, 9433 St. Andrä", "street": null, "housenumber": "80", "postcode": "9433", "place": "St. Andrä", "lat": 46.7753279, "lon": 14.8162812, "tags": {"addr:city": "St. Andrä", "addr:housenumber": "80", "addr:place": "Wölzing-Fischering", "addr:postcode": "9433"}, "content": "Adresse: 80, 9433 St. Andrä\nOrt: St. Andrä\nPLZ: 9433\nKoordinaten: 46.775328, 14.816281", "doc_type": "addresses"}
{"source": "OSM", "region": "Kärnten", "osm_type": "node", "osm_id": 5469870494, "name": null, "category": null, "address": "85, 9433 St. Andrä", "street": null, "housenumber": "85", "postcode": "9433", "place": "St. Andrä", "lat": 46.7749505, "lon": 14.8166352, "tags": {"addr:city": "St. Andrä", "addr:housenumber": "85", "addr:place": "Wölzing-Fischering", "addr:postcode": "9433"}, "content": "Adresse: 85, 9433 St. Andrä\nOrt: St. Andrä\nPLZ: 9433\nKoordinaten: 46.774951, 14.816635", "doc_type": "addresses"}
{"source": "OSM", "region": "Kärnten", "osm_type": "node", "osm_id": 5469870495, "name": null, "category": null, "address": "94, 9433 St. Andrä", "street": null, "housenumber": "94", "postcode": "9433", "place": "St. Andrä", "lat": 46.7741863, "lon": 14.8176813, "tags": {"addr:city": "St. Andrä", "addr:housenumber": "94", "addr:place": "Wölzing-Fischering", "addr:postcode": "9433"}, "content": "Adresse: 94, 9433 St. Andrä\nOrt: St. Andrä\nPLZ: 9433\nKoordinaten: 46.774186, 14.817681", "doc_type": "addresses"}
{"source": "OSM", "region": "Kärnten", "osm_type": "node", "osm_id": 5469870496, "name": null, "category": null, "address": "104, 9433 St. Andrä", "street": null, "housenumber": "104", "postcode": "9433", "place": "St. Andrä", "lat": 46.7744628, "lon": 14.8177631, "tags": {"addr:city": "St. Andrä", "addr:housenumber": "104", "addr:place": "Wölzing-Fischering", "addr:postcode": "9433"}, "content": "Adresse: 104, 9433 St. Andrä\nOrt: St. Andrä\nPLZ: 9433\nKoordinaten: 46.774463, 14.817763", "doc_type": "addresses"}
{"source": "OSM", "region": "Kärnten", "osm_type": "node", "osm_id": 5469870497, "name": null, "category": null, "address": "91, 9433 St. Andrä", "street": null, "housenumber": "91", "postcode": "9433", "place": "St. Andrä", "lat": 46.7742965, "lon": 14.8171435, "tags": {"addr:city": "St. Andrä", "addr:housenumber": "91", "addr:place": "Wölzing-Fischering", "addr:postcode": "9433"}, "content": "Adresse: 91, 9433 St. Andrä\nOrt: St. Andrä\nPLZ: 9433\nKoordinaten: 46.774296, 14.817144", "doc_type": "addresses"}
{"source": "OSM", "region": "Kärnten", "osm_type": "node", "osm_id": 5469870498, "name": null, "category": null, "address": "92, 9433 St. Andrä", "street": null, "housenumber": "92", "postcode": "9433", "place": "St. Andrä", "lat": 46.7741284, "lon": 14.817106, "tags": {"addr:city": "St. Andrä", "addr:housenumber": "92", "addr:place": "Wölzing-Fischering", "addr:postcode": "9433"}, "content": "Adresse: 92, 9433 St. Andrä\nOrt: St. Andrä\nPLZ: 9433\nKoordinaten: 46.774128, 14.817106", "doc_type": "addresses"}
{"source": "OSM", "region": "Kärnten", "osm_type": "node", "osm_id": 5133395875, "name": "Polizeiinspektion St. Andrä im Lavanttal", "category": "amenity:police", "address": "61, 9433 St. Andrä", "street": null, "housenumber": "61", "postcode": "9433", "place": "St. Andrä", "lat": 46.7602336, "lon": 14.8219608, "tags": {"addr:city": "St. Andrä", "addr:housenumber": "61", "addr:place": "Burgstall-St. Andrä", "addr:postcode": "9433", "amenity": "police", "name": "Polizeiinspektion St. Andrä im Lavanttal", "phone": "+43 59133 2166100"}, "content": "Polizeiinspektion St. Andrä im Lavanttal\nKategorie: amenity:police\nAdresse: 61, 9433 St. Andrä\nOrt: St. Andrä\nPLZ: 9433\nKoordinaten: 46.760234, 14.821961\nTags: amenity=police, phone=+43 59133 2166100", "doc_type": "pois"}
