{"source": "OSM", "region": "Kärnten", "osm_type": "node", "osm_id": 1057024254, "name": "RAIBA Millstättersee, Bankstelle Millstatt", "category": "amenity:bank", "address": "Georgsritterplatz 177, 9872 Millstatt am See", "street": "Georgsritterplatz", "housenumber": "177", "postcode": "9872", "place": "Millstatt am See", "lat": 46.8027365, "lon": 13.5717469, "tags": {"addr:city": "Millstatt am See", "addr:housenumber": "177", "addr:postcode": "9872", "addr:street": "Georgsritterplatz", "amenity": "bank", "name": "RAIBA Millstättersee, Bankstelle Millstatt", "operator": "RAIFFEISENBANK MILLSTÄTTERSEE"}, "content": "RAIBA Millstättersee, Bankstelle Millstatt\nKategorie: amenity:bank\nAdresse: Georgsritterplatz 177, 9872 Millstatt am See\nOrt: Millstatt am See\nPLZ: 9872\nKoordinaten: 46.802737, 13.571747\nTags: amenity=bank, operator=RAIFFEISENBANK MILLSTÄTTERSEE", "doc_type": "addresses"}
{"source": "OSM", "region": "Kärnten", "osm_type": "node", "osm_id": 1687653637, "name": "Buschenschenke Höfler", "category": "amenity:restaurant", "address": "Waldweg 6, 9872 Millstatt am See", "street": "Waldweg", "housenumber": "6", "postcode": "9872", "place": "Millstatt am See", "lat": 46.8133305, "lon": 13.5542647, "tags": {"addr:city": "Millstatt am See", "addr:housenumber": "6", "addr:postcode": "9872", "addr:street": "Waldweg", "amenity": "restaurant", "name": "Buschenschenke Höfler"}, "content": "Buschenschenke Höfler\nKategorie: amenity:restaurant\nAdresse: Waldweg 6, 9872 Millstatt am See\nOrt: Millstatt am See\nPLZ: 9872\nKoordinaten: 46.813330, 13.554265\nTags: amenity=restaurant", "doc_type": "addresses"}
{"source": "OSM", "region": "Kärnten", "osm_type": "node", "osm_id": 1687654084, "name": "Rathaus-Café", "category": "amenity:cafe", "address": "Marktplatz 14, 9872 Millstatt am See", "street": "Marktplatz", "housenumber": "14", "postcode": "9872", "place": "Millstatt am See", "lat": 46.8053245, "lon": 13.5715893, "tags": {"addr:city": "Millstatt am See", "addr:housenumber": "14", "addr:postcode": "9872", "addr:street": "Marktplatz", "amenity": "cafe", "name": "Rathaus-Café"}, "content": "Rathaus-Café\nKategorie: amenity:cafe\nAdresse: Marktplatz 14, 9872 Millstatt am See\nOrt: Millstatt am See\nPLZ: 9872\nKoordinaten: 46.805324, 13.571589\nTags: amenity=cafe", "doc_type": "addresses"}
{"source": "OSM", "region": "Kärnten", "osm_type": "node", "osm_id": 1687654097, "name": "Naturbäckerei Lagler Millstatt", "category": "shop:bakery", "address": "Kaiser-Franz-Josef-Straße 176, 9872 Millstatt am See", "street": "Kaiser-Franz-Josef-Straße", "housenumber": "176", "postcode": "9872", "place": "Millstatt am See", "lat": 46.8025899, "lon": 13.5719916, "tags": {"addr:city": "Millstatt am See", "addr:housenumber": "176", "addr:postcode": "9872", "addr:street": "Kaiser-Franz-Josef-Straße", "name": "Naturbäckerei Lagler Millstatt", "operator": "Lagler", "phone": "+43 4762 629 29", "shop": "bakery", "website": "https://www.lagler.at/"}, "content": "Naturbäckerei Lagler Millstatt\nKategorie: shop:bakery\nAdresse: Kaiser-Franz-Josef-Straße 176, 9872 Millstatt am See\nOrt: Millstatt am See\nPLZ: 9872\nKoordinaten: 46.802590, 13.571992\nTags: shop=bakery, operator=Lagler, phone=+43 4762 629 29, website=https://www.lagler.at/", "doc_type": "addresses"}
{"source": "OSM", "region": "Kärnten", "osm_type": "node", "osm_id": 2124315962, "name": null, "category": null, "address": "44, 9872 Millstatt am See", "street": null, "housenumber": "44", "postcode": "9872", "place": "Millstatt am See", "lat": 46.7881238, "lon": 13.6357098, "tags": {"addr:city": "Millstatt am See", "addr:housenumber": "44", "addr:place": "Matzelsdorf", "addr:postcode": "9872"}, "content": "Adresse: 44, 9872 Millstatt am See\nOrt: Millstatt am See\nPLZ: 9872\nKoordinaten: 46.788124, 13.635710", "doc_type": "addresses"}
{"source": "OSM", "region": "Kärnten", "osm_type": "node", "osm_id": 2124315963, "name": null, "category": null, "address": "45, 9872 Millstatt am See", "street": null, "housenumber": "45", "postcode": "9872", "place": "Millstatt am See", "lat": 46.7882034, "lon": 13.6356595, "tags": {"addr:city": "Millstatt am See", "addr:housenumber": "45", "addr:place": "Matzelsdorf", "addr:postcode": "9872"}, "content": "Adresse: 45, 9872 Millstatt am See\nOrt: Millstatt am See\nPLZ: 9872\nKoordinaten: 46.788203, 13.635659", "doc_type": "addresses"}
{"source": "OSM", "region": "Kärnten", "osm_type": "node", "osm_id": 2278771493, "name": null, "category": null, "address": "49, 9872 Millstatt am See", "street": null, "housenumber": "49", "postcode": "9872", "place": "Millstatt am See", "lat": 46.7872919, "lon": 13.6355956, "tags": {"addr:city": "Millstatt am See", "addr:housenumber": "49", "addr:place": "Matzelsdorf", "addr:postcode": "9872"}, "content": "Adresse: 49, 9872 Millstatt am See\nOrt: Millstatt am See\nPLZ: 9872\nKoordinaten: 46.787292, 13.635596", "doc_type": "addresses"}
{"source": "OSM", "region": "Kärnten", "osm_type": "node", "osm_id": 2291035970, "name": null, "category": null, "address": "10, 9872 Millstatt am See", "street": null, "housenumber": "10", "postcode": "9872", "place": "Millstatt am See", "lat": 46.7878305, "lon": 13.6367001, "tags": {"addr:city": "Millstatt am See", "addr:housenumber": "10", "addr:place": "Matzelsdorf", "addr:postcode": "9872"}, "content": "Adresse: 10, 9872 Millstatt am See\nOrt: Millstatt am See\nPLZ: 9872\nKoordinaten: 46.787830, 13.636700", "doc_type": "addresses"}
{"source": "OSM", "region": "Kärnten", "osm_type": "node", "osm_id": 2291035971, "name": null, "category": null, "address": "11, 9872 Millstatt am See", "street": null, "housenumber": "11", "postcode": "9872", "place": "Millstatt am See", "lat": 46.7892435, "lon": 13.6317149, "tags": {"addr:city": "Millstatt am See", "addr:housenumber": "11", "addr:place": "Matzelsdorf", "addr:postcode": "9872"}, "content": "Adresse: 11, 9872 Millstatt am See\nOrt: Millstatt am See\nPLZ: 9872\nKoordinaten: 46.789243, 13.631715", "doc_type": "addresses"}
{"source": "OSM", "region": "Kärnten", "osm_type": "node", "osm_id": 2291035973, "name": null, "category": null, "address": "2, 9872 Millstatt am See", "street": null, "housenumber": "2", "postcode": "9872", "place": "Millstatt am See", "lat": 46.7898763, "lon": 13.6311683, "tags": {"addr:city": "Millstatt am See", "addr:housenumber": "2", "addr:place": "Matzelsdorf", "addr:postcode": "9872"}, "content": "Adresse: 2, 9872 Millstatt am See\nOrt: Millstatt am See\nPLZ: 9872\nKoordinaten: 46.789876, 13.631168", "doc_type": "addresses"}
{"source": "OSM", "region": "Kärnten", "osm_type": "node", "osm_id": 2291035975, "name": null, "category": null, "address": "37, 9872 Millstatt am See", "street": null, "housenumber": "37", "postcode": "9872", "place": "Millstatt am See", "lat": 46.7878876, "lon": 13.6327683, "tags": {"addr:city": "Millstatt am See", "addr:housenumber": "37", "addr:place": "Matzelsdorf", "addr:postcode": "9872"}, "content": "Adresse: 37, 9872 Millstatt am See\nOrt: Millstatt am See\nPLZ: 9872\nKoordinaten: 46.787888, 13.632768", "doc_type": "addresses"}
{"source": "OSM", "region": "Kärnten", "osm_type": "node", "osm_id": 2291035978, "name": null, "category": null, "address": "53, 9872 Millstatt am See", "street": null, "housenumber": "53", "postcode": "9872", "place": "Millstatt am See", "lat": 46.7877229, "lon": 13.6328637, "tags": {"addr:city": "Millstatt am See", "addr:housenumber": "53", "addr:place": "Matzelsdorf", "addr:postcode": "9872"}, "content": "Adresse: 53, 9872 Millstatt am See\nOrt: Millstatt am See\nPLZ: 9872\nKoordinaten: 46.787723, 13.632864", "doc_type": "addresses"}
{"source": "OSM", "region": "Kärnten", "osm_type": "node", "osm_id": 2291035979, "name": null, "category": null, "address": "8, 9872 Millstatt am See", "street": null, "housenumber": "8", "postcode": "9872", "place": "Millstatt am See", "lat": 46.7880269, "lon": 13.6372014, "tags": {"addr:city": "Millstatt am See", "addr:housenumber": "8", "addr:place": "Matzelsdorf", "addr:postcode": "9872"}, "content": "Adresse: 8, 9872 Millstatt am See\nOrt: Millstatt am See\nPLZ: 9872\nKoordinaten: 46.788027, 13.637201", "doc_type": "addresses"}
{"source": "OSM", "region": "Kärnten", "osm_type": "node", "osm_id": 2791050244, "name": "Due Cuori e un Prosciutto", "category": "amenity:restaurant", "address": "Kaiser-Franz-Josef-Straße 179, 9872 Millstatt am See", "street": "Kaiser-Franz-Josef-Straße", "housenumber": "179", "postcode": "9872", "place": "Millstatt am See", "lat": 46.8032489, "lon": 13.5700429, "tags": {"addr:city": "Millstatt am See", "addr:housenumber": "179", "addr:postcode": "9872", "addr:street": "Kaiser-Franz-Josef-Straße", "amenity": "restaurant", "name": "Due Cuori e un Prosciutto", "phone": "+43660 9839005", "website": "https://duecuorieunprosciutto.my.canva.site/"}, "content": "Due Cuori e un Prosciutto\nKategorie: amenity:restaurant\nAdresse: Kaiser-Franz-Josef-Straße 179, 9872 Millstatt am See\nOrt: Millstatt am See\nPLZ: 9872\nKoordinaten: 46.803249, 13.570043\nTags: amenity=restaurant, phone=+43660 9839005, website=https://duecuorieunprosciutto.my.canva.site/", "doc_type": "addresses"}
{"source": "OSM", "region": "Kärnten", "osm_type": "node", "osm_id": 3142050105, "name": "Polizeiinspektion Millstatt", "category": "amenity:police", "address": "Kaiser-Franz-Josef-Straße 179, 9872 Millstatt am See", "street": "Kaiser-Franz-Josef-Straße", "housenumber": "179", "postcode": "9872", "place": "Millstatt am See", "lat": 46.8031381, "lon": 13.5701554, "tags": {"addr:city": "Millstatt am See", "addr:housenumber": "179", "addr:postcode": "9872", "addr:street": "Kaiser-Franz-Josef-Straße", "amenity": "police", "name": "Polizeiinspektion Millstatt", "phone": "+43 59133 2228100"}, "content": "Polizeiinspektion Millstatt\nKategorie: amenity:police\nAdresse: Kaiser-Franz-Josef-Straße 179, 9872 Millstatt am See\nOrt: Millstatt am See\nPLZ: 9872\nKoordinaten: 46.803138, 13.570155\nTags: amenity=police, phone=+43 59133 2228100", "doc_type": "addresses"}
{"source": "OSM", "region": "Kärnten", "osm_type": "node", "osm_id": 3434928767, "name": "Fisch-Häusl Stark", "category": null, "address": "Kaiser-Franz-Josef-Straße 134, 9872 Millstatt am See", "street": "Kaiser-Franz-Josef-Straße", "housenumber": "134", "postcode": "9872", "place": "Millstatt am See", "lat": 46.8026651, "lon": 13.5714063, "tags": {"addr:city": "Millstatt am See", "addr:housenumber": "134", "addr:postcode": "9872", "addr:street": "Kaiser-Franz-Josef-Straße", "name": "Fisch-Häusl Stark"}, "content": "Fisch-Häusl Stark\nAdresse: Kaiser-Franz-Josef-Straße 134, 9872 Millstatt am See\nOrt: Millstatt am See\nPLZ: 9872\nKoordinaten: 46.802665, 13.571406", "doc_type": "addresses"}
{"source": "OSM", "region": "Kärnten", "osm_type": "node", "osm_id": 3434928768, "name": "Lavendel \"pur\"", "category": "shop:florist", "address": "Kaiser-Franz-Josef-Straße 86, 9872 Millstatt am See", "street": "Kaiser-Franz-Josef-Straße", "housenumber": "86", "postcode": "9872", "place": "Millstatt am See", "lat": 46.8029329, "lon": 13.5709172, "tags": {"addr:city": "Millstatt am See", "addr:housenumber": "86", "addr:postcode": "9872", "addr:street": "Kaiser-Franz-Josef-Straße", "name": "Lavendel \"pur\"", "shop": "florist"}, "content": "Lavendel \"pur\"\nKategorie: shop:florist\nAdresse: Kaiser-Franz-Josef-Straße 86, 9872 Millstatt am See\nOrt: Millstatt am See\nPLZ: 9872\nKoordinaten: 46.802933, 13.570917\nTags: shop=florist", "doc_type": "addresses"}
{"source": "OSM", "region": "Kärnten", "osm_type": "node", "osm_id": 3434928770, "name": "Moden und Trachten Fian", "category": "shop:clothes", "address": "Kaiser-Franz-Josef-Straße 181, 9872 Millstatt am See", "street": "Kaiser-Franz-Josef-Straße", "housenumber": "181", "postcode": "9872", "place": "Millstatt am See", "lat": 46.8030416, "lon": 13.5706968, "tags": {"addr:city": "Millstatt am See", "addr:housenumber": "181", "addr:postcode": "9872", "addr:street": "Kaiser-Franz-Josef-Straße", "name": "Moden und Trachten Fian", "shop": "clothes"}, "content": "Moden und Trachten Fian\nKategorie: shop:clothes\nAdresse: Kaiser-Franz-Josef-Straße 181, 9872 Millstatt am See\nOrt: Millstatt am See\nPLZ: 9872\nKoordinaten: 46.803042, 13.570697\nTags: shop=clothes", "doc_type": "addresses"}
{"source": "OSM", "region": "Kärnten", "osm_type": "node", "osm_id": 3434928772, "name": "Mountain Bike Station", "category": "shop:bicycle", "address": "Kaiser-Franz-Josef-Straße 59, 9872 Millstatt am See", "street": "Kaiser-Franz-Josef-Straße", "housenumber": "59", "postcode": "9872", "place": "Millstatt am See", "lat": 46.8027182, "lon": 13.5712853, "tags": {"addr:city": "Millstatt am See", "addr:housenumber": "59", "addr:postcode": "9872", "addr:street": "Kaiser-Franz-Josef-Straße", "name": "Mountain Bike Station", "shop": "bicycle"}, "content": "Mountain Bike Station\nKategorie: shop:bicycle\nAdresse: Kaiser-Franz-Josef-Straße 59, 9872 Millstatt am See\nOrt: Millstatt am See\nPLZ: 9872\nKoordinaten: 46.802718, 13.571285\nTags: shop=bicycle", "doc_type": "addresses"}
{"source": "OSM", "region": "Kärnten", "osm_type": "node", "osm_id": 3729842138, "name": "Pension Pleikner", "category": "tourism:guest_house", "address": "Kaiser-Franz-Josef-Straße 181, 9872 Millstatt am See", "street": "Kaiser-Franz-Josef-Straße", "housenumber": "181", "postcode": "9872", "place": "Millstatt am See", "lat": 46.8029437, "lon": 13.570569, "tags": {"addr:city": "Millstatt am See", "addr:housenumber": "181", "addr:postcode": "9872", "addr:street": "Kaiser-Franz-Josef-Straße", "name": "Pension Pleikner", "tourism": "guest_house"}, "content": "Pension Pleikner\nKategorie: tourism:guest_house\nAdresse: Kaiser-Franz-Josef-Straße 181, 9872 Millstatt am See\nOrt: Millstatt am See\nPLZ: 9872\nKoordinaten: 46.802944, 13.570569", "doc_type": "addresses"}
{"source": "OSM", "region": "Kärnten", "osm_type": "node", "osm_id": 5487901453, "name": "Lindenhof Wirtshaus", "category": "amenity:restaurant", "address": "Stiftgasse 2, 9872 Millstatt am See", "street": "Stiftgasse", "housenumber": "2", "postcode": "9872", "place": "Millstatt am See", "lat": 46.8034351, "lon": 13.5705646, "tags": {"addr:city": "Millstatt am See", "addr:housenumber": "2", "addr:postcode": "9872", "addr:street": "Stiftgasse", "amenity": "restaurant", "name": "Lindenhof Wirtshaus"}, "content": "Lindenhof Wirtshaus\nKategorie: amenity:restaurant\nAdresse: Stiftgasse 2, 9872 Millstatt am See\nOrt: Millstatt am See\nPLZ: 9872\nKoordinaten: 46.803435, 13.570565\nTags: amenity=restaurant", "doc_type": "addresses"}
{"source": "OSM", "region": "Kärnten", "osm_type": "node", "osm_id": 5618523867, "name": "Pension Sedlak", "category": "tourism:guest_house", "address": "Zopfenkopfweg 12, 9872 Millstatt am See", "street": "Zopfenkopfweg", "housenumber": "12", "postcode": "9872", "place": "Millstatt am See", "lat": 46.8076319, "lon": 13.5625899, "tags": {"addr:city": "Millstatt am See", "addr:housenumber": "12", "addr:postcode": "9872", "addr:street": "Zopfenkopfweg", "name": "Pension Sedlak", "tourism": "guest_house", "website": "https://www.pension-sedlak.at/"}, "content": "Pension Sedlak\nKategorie: tourism:guest_house\nAdresse: Zopfenkopfweg 12, 9872 Millstatt am See\nOrt: Millstatt am See\nPLZ: 9872\nKoordinaten: 46.807632, 13.562590\nTags: website=https://www.pension-sedlak.at/", "doc_type": "addresses"}
{"source": "OSM", "region": "Kärnten", "osm_type": "node", "osm_id": 5618876329, "name": null, "category": null, "address": "Tschierweg 26, 9872 Millstatt am See", "street": "Tschierweg", "housenumber": "26", "postcode": "9872", "place": "Millstatt am See", "lat": 46.8195167, "lon": 13.5661814, "tags": {"addr:city": "Millstatt am See", "addr:housenumber": "26", "addr:postcode": "9872", "addr:street": "Tschierweg"}, "content": "Adresse: Tschierweg 26, 9872 Millstatt am See\nOrt: Millstatt am See\nPLZ: 9872\nKoordinaten: 46.819517, 13.566181", "doc_type": "addresses"}
{"source": "OSM", "region": "Kärnten", "osm_type": "node", "osm_id": 5618876330, "name": null, "category": null, "address": "Tschierweg 6, 9872 Millstatt am See", "street": "Tschierweg", "housenumber": "6", "postcode": "9872", "place": "Millstatt am See", "lat": 46.8182356, "lon": 13.5660553, "tags": {"addr:city": "Millstatt am See", "addr:housenumber": "6", "addr:postcode": "9872", "addr:street": "Tschierweg"}, "content": "Adresse: Tschierweg 6, 9872 Millstatt am See\nOrt: Millstatt am See\nPLZ: 9872\nKoordinaten: 46.818236, 13.566055", "doc_type": "addresses"}
{"source": "OSM", "region": "Kärnten", "osm_type": "node", "osm_id": 5618876331, "name": null, "category": null, "address": "Tschierweg 35, 9872 Millstatt am See", "street": "Tschierweg", "housenumber": "35", "postcode": "9872", "place": "Millstatt am See", "lat": 46.817483, "lon": 13.5669726, "tags": {"addr:city": "Millstatt am See", "addr:housenumber": "35", "addr:postcode": "9872", "addr:street": "Tschierweg"}, "content": "Adresse: Tschierweg 35, 9872 Millstatt am See\nOrt: Millstatt am See\nPLZ: 9872\nKoordinaten: 46.817483, 13.566973", "doc_type": "addresses"}
{"source": "OSM", "region": "Kärnten", "osm_type": "node", "osm_id": 5618876332, "name": null, "category": null, "address": "Tschierweg 53, 9872 Millstatt am See", "street": "Tschierweg", "housenumber": "53", "postcode": "9872", "place": "Millstatt am See", "lat": 46.8178318, "lon": 13.5659829, "tags": {"addr:city": "Millstatt am See", "addr:housenumber": "53", "addr:postcode": "9872", "addr:street": "Tschierweg"}, "content": "Adresse: Tschierweg 53, 9872 Millstatt am See\nOrt: Millstatt am See\nPLZ: 9872\nKoordinaten: 46.817832, 13.565983", "doc_type": "addresses"}
{"source": "OSM", "region": "Kärnten", "osm_type": "node", "osm_id": 5618876333, "name": null, "category": null, "address": "Tschierweg 67, 9872 Millstatt am See", "street": "Tschierweg", "housenumber": "67", "postcode": "9872", "place": "Millstatt am See", "lat": 46.8177749, "lon": 13.5658246, "tags": {"addr:city": "Millstatt am See", "addr:housenumber": "67", "addr:postcode": "9872", "addr:street": "Tschierweg"}, "content": "Adresse: Tschierweg 67, 9872 Millstatt am See\nOrt: Millstatt am See\nPLZ: 9872\nKoordinaten: 46.817775, 13.565825", "doc_type": "addresses"}
{"source": "OSM", "region": "Kärnten", "osm_type": "node", "osm_id": 5618876334, "name": null, "category": null, "address": "Tschierweg 39, 9872 Millstatt am See", "street": "Tschierweg", "housenumber": "39", "postcode": "9872", "place": "Millstatt am See", "lat": 46.8177382, "lon": 13.5663959, "tags": {"addr:city": "Millstatt am See", "addr:housenumber": "39", "addr:postcode": "9872", "addr:street": "Tschierweg"}, "content": "Adresse: Tschierweg 39, 9872 Millstatt am See\nOrt: Millstatt am See\nPLZ: 9872\nKoordinaten: 46.817738, 13.566396", "doc_type": "addresses"}
{"source": "OSM", "region": "Kärnten", "osm_type": "node", "osm_id": 5618876335, "name": null, "category": null, "address": "Tschierweg 33, 9872 Millstatt am See", "street": "Tschierweg", "housenumber": "33", "postcode": "9872", "place": "Millstatt am See", "lat": 46.8173802, "lon": 13.5662216, "tags": {"addr:city": "Millstatt am See", "addr:housenumber": "33", "addr:postcode": "9872", "addr:street": "Tschierweg"}, "content": "Adresse: Tschierweg 33, 9872 Millstatt am See\nOrt: Millstatt am See\nPLZ: 9872\nKoordinaten: 46.817380, 13.566222", "doc_type": "addresses"}
{"source": "OSM", "region": "Kärnten", "osm_type": "node", "osm_id": 5618876336, "name": null, "category": null, "address": "Tschierweg 50, 9872 Millstatt am See", "street": "Tschierweg", "housenumber": "50", "postcode": "9872", "place": "Millstatt am See", "lat": 46.8179272, "lon": 13.5653311, "tags": {"addr:city": "Millstatt am See", "addr:housenumber": "50", "addr:postcode": "9872", "addr:street": "Tschierweg"}, "content": "Adresse: Tschierweg 50, 9872 Millstatt am See\nOrt: Millstatt am See\nPLZ: 9872\nKoordinaten: 46.817927, 13.565331", "doc_type": "addresses"}
{"source": "OSM", "region": "Kärnten", "osm_type": "node", "osm_id": 5618876337, "name": null, "category": null, "address": "Tschierweg 52, 9872 Millstatt am See", "street": "Tschierweg", "housenumber": "52", "postcode": "9872", "place": "Millstatt am See", "lat": 46.8182906, "lon": 13.5644594, "tags": {"addr:city": "Millstatt am See", "addr:housenumber": "52", "addr:postcode": "9872", "addr:street": "Tschierweg"}, "content": "Adresse: Tschierweg 52, 9872 Millstatt am See\nOrt: Millstatt am See\nPLZ: 9872\nKoordinaten: 46.818291, 13.564459", "doc_type": "addresses"}
{"source": "OSM", "region": "Kärnten", "osm_type": "node", "osm_id": 5618876338, "name": null, "category": null, "address": "Tschierweg 49, 9872 Millstatt am See", "street": "Tschierweg", "housenumber": "49", "postcode": "9872", "place": "Millstatt am See", "lat": 46.8193387, "lon": 13.5646901, "tags": {"addr:city": "Millstatt am See", "addr:housenumber": "49", "addr:postcode": "9872", "addr:street": "Tschierweg"}, "content": "Adresse: Tschierweg 49, 9872 Millstatt am See\nOrt: Millstatt am See\nPLZ: 9872\nKoordinaten: 46.819339, 13.564690", "doc_type": "addresses"}
{"source": "OSM", "region": "Kärnten", "osm_type": "node", "osm_id": 5618876339, "name": null, "category": null, "address": "27, 9872 Millstatt am See", "street": null, "housenumber": "27", "postcode": "9872", "place": "Millstatt am See", "lat": 46.8192891, "lon": 13.5634509, "tags": {"addr:city": "Millstatt am See", "addr:housenumber": "27", "addr:place": "Laubendorf", "addr:postcode": "9872"}, "content": "Adresse: 27, 9872 Millstatt am See\nOrt: Millstatt am See\nPLZ: 9872\nKoordinaten: 46.819289, 13.563451", "doc_type": "addresses"}
{"source": "OSM", "region": "Kärnten", "osm_type": "node", "osm_id": 5618876340, "name": null, "category": null, "address": "84, 9872 Millstatt am See", "street": null, "housenumber": "84", "postcode": "9872", "place": "Millstatt am See", "lat": 46.8192671, "lon": 13.5627374, "tags": {"addr:city": "Millstatt am See", "addr:housenumber": "84", "addr:place": "Laubendorf", "addr:postcode": "9872"}, "content": "Adresse: 84, 9872 Millstatt am See\nOrt: Millstatt am See\nPLZ: 9872\nKoordinaten: 46.819267, 13.562737", "doc_type": "addresses"}
{"source": "OSM", "region": "Kärnten", "osm_type": "node", "osm_id": 5618876341, "name": null, "category": null, "address": "35, 9872 Millstatt am See", "street": null, "housenumber": "35", "postcode": "9872", "place": "Millstatt am See", "lat": 46.8193222, "lon": 13.5592747, "tags": {"addr:city": "Millstatt am See", "addr:housenumber": "35", "addr:place": "Laubendorf", "addr:postcode": "9872"}, "content": "Adresse: 35, 9872 Millstatt am See\nOrt: Millstatt am See\nPLZ: 9872\nKoordinaten: 46.819322, 13.559275", "doc_type": "addresses"}
{"source": "OSM", "region": "Kärnten", "osm_type": "node", "osm_id": 5618876342, "name": null, "category": null, "address": "60, 9872 Millstatt am See", "street": null, "housenumber": "60", "postcode": "9872", "place": "Millstatt am See", "lat": 46.818421, "lon": 13.5589153, "tags": {"addr:city": "Millstatt am See", "addr:housenumber": "60", "addr:place": "Laubendorf", "addr:postcode": "9872"}, "content": "Adresse: 60, 9872 Millstatt am See\nOrt: Millstatt am See\nPLZ: 9872\nKoordinaten: 46.818421, 13.558915", "doc_type": "addresses"}
{"source": "OSM", "region": "Kärnten", "osm_type": "node", "osm_id": 5618876343, "name": null, "category": null, "address": "64, 9872 Millstatt am See", "street": null, "housenumber": "64", "postcode": "9872", "place": "Millstatt am See", "lat": 46.8185219, "lon": 13.5585129, "tags": {"addr:city": "Millstatt am See", "addr:housenumber": "64", "addr:place": "Laubendorf", "addr:postcode": "9872"}, "content": "Adresse: 64, 9872 Millstatt am See\nOrt: Millstatt am See\nPLZ: 9872\nKoordinaten: 46.818522, 13.558513", "doc_type": "addresses"}
{"source": "OSM", "region": "Kärnten", "osm_type": "node", "osm_id": 5618876344, "name": null, "category": null, "address": "41, 9872 Millstatt am See", "street": null, "housenumber": "41", "postcode": "9872", "place": "Millstatt am See", "lat": 46.8188523, "lon": 13.5588562, "tags": {"addr:city": "Millstatt am See", "addr:housenumber": "41", "addr:place": "Laubendorf", "addr:postcode": "9872"}, "content": "Adresse: 41, 9872 Millstatt am See\nOrt: Millstatt am See\nPLZ: 9872\nKoordinaten: 46.818852, 13.558856", "doc_type": "addresses"}
{"source": "OSM", "region": "Kärnten", "osm_type": "node", "osm_id": 5618876345, "name": null, "category": null, "address": "40, 9872 Millstatt am See", "street": null, "housenumber": "40", "postcode": "9872", "place": "Millstatt am See", "lat": 46.8186981, "lon": 13.559272, "tags": {"addr:city": "Millstatt am See", "addr:housenumber": "40", "addr:place": "Laubendorf", "addr:postcode": "9872"}, "content": "Adresse: 40, 9872 Millstatt am See\nOrt: Millstatt am See\nPLZ: 9872\nKoordinaten: 46.818698, 13.559272", "doc_type": "addresses"}
{"source": "OSM", "region": "Kärnten", "osm_type": "node", "osm_id": 5618876346, "name": null, "category": null, "address": "42, 9872 Millstatt am See", "street": null, "housenumber": "42", "postcode": "9872", "place": "Millstatt am See", "lat": 46.8185549, "lon": 13.5595697, "tags": {"addr:city": "Millstatt am See", "addr:housenumber": "42", "addr:place": "Laubendorf", "addr:postcode": "9872"}, "content": "Adresse: 42, 9872 Millstatt am See\nOrt: Millstatt am See\nPLZ: 9872\nKoordinaten: 46.818555, 13.559570", "doc_type": "addresses"}
{"source": "OSM", "region": "Kärnten", "osm_type": "node", "osm_id": 5618876347, "name": null, "category": null, "address": "5, 9872 Millstatt am See", "street": null, "housenumber": "5", "postcode": "9872", "place": "Millstatt am See", "lat": 46.8188761, "lon": 13.559728, "tags": {"addr:city": "Millstatt am See", "addr:housenumber": "5", "addr:place": "Laubendorf", "addr:postcode": "9872"}, "content": "Adresse: 5, 9872 Millstatt am See\nOrt: Millstatt am See\nPLZ: 9872\nKoordinaten: 46.818876, 13.559728", "doc_type": "addresses"}
{"source": "OSM", "region": "Kärnten", "osm_type": "node", "osm_id": 5618876348, "name": null, "category": null, "address": "73, 9872 Millstatt am See", "street": null, "housenumber": "73", "postcode": "9872", "place": "Millstatt am See", "lat": 46.8187348, "lon": 13.5615706, "tags": {"addr:city": "Millstatt am See", "addr:housenumber": "73", "addr:place": "Laubendorf", "addr:postcode": "9872"}, "content": "Adresse: 73, 9872 Millstatt am See\nOrt: Millstatt am See\nPLZ: 9872\nKoordinaten: 46.818735, 13.561571", "doc_type": "addresses"}
{"source": "OSM", "region": "Kärnten", "osm_type": "node", "osm_id": 5618876349, "name": null, "category": null, "address": "32, 9872 Millstatt am See", "street": null, "housenumber": "32", "postcode": "9872", "place": "Millstatt am See", "lat": 46.8189294, "lon": 13.5609779, "tags": {"addr:city": "Millstatt am See", "addr:housenumber": "32", "addr:place": "Laubendorf", "addr:postcode": "9872"}, "content": "Adresse: 32, 9872 Millstatt am See\nOrt: Millstatt am See\nPLZ: 9872\nKoordinaten: 46.818929, 13.560978", "doc_type": "addresses"}
{"source": "OSM", "region": "Kärnten", "osm_type": "node", "osm_id": 5618876350, "name": null, "category": null, "address": "33, 9872 Millstatt am See", "street": null, "housenumber": "33", "postcode": "9872", "place": "Millstatt am See", "lat": 46.8191551, "lon": 13.5605407, "tags": {"addr:city": "Millstatt am See", "addr:housenumber": "33", "addr:place": "Laubendorf", "addr:postcode": "9872"}, "content": "Adresse: 33, 9872 Millstatt am See\nOrt: Millstatt am See\nPLZ: 9872\nKoordinaten: 46.819155, 13.560541", "doc_type": "addresses"}
{"source": "OSM", "region": "Kärnten", "osm_type": "node", "osm_id": 5618876351, "name": null, "category": null, "address": "51, 9872 Millstatt am See", "street": null, "housenumber": "51", "postcode": "9872", "place": "Millstatt am See", "lat": 46.8194139, "lon": 13.5601437, "tags": {"addr:city": "Millstatt am See", "addr:housenumber": "51", "addr:place": "Laubendorf", "addr:postcode": "9872"}, "content": "Adresse: 51, 9872 Millstatt am See\nOrt: Millstatt am See\nPLZ: 9872\nKoordinaten: 46.819414, 13.560144", "doc_type": "addresses"}
{"source": "OSM", "region": "Kärnten", "osm_type": "node", "osm_id": 5618876352, "name": null, "category": null, "address": "46, 9872 Millstatt am See", "street": null, "housenumber": "46", "postcode": "9872", "place": "Millstatt am See", "lat": 46.819168, "lon": 13.5599372, "tags": {"addr:city": "Millstatt am See", "addr:housenumber": "46", "addr:place": "Laubendorf", "addr:postcode": "9872"}, "content": "Adresse: 46, 9872 Millstatt am See\nOrt: Millstatt am See\nPLZ: 9872\nKoordinaten: 46.819168, 13.559937", "doc_type": "addresses"}
{"source": "OSM", "region": "Kärnten", "osm_type": "node", "osm_id": 5618876353, "name": null, "category": null, "address": "6, 9872 Millstatt am See", "street": null, "housenumber": "6", "postcode": "9872", "place": "Millstatt am See", "lat": 46.8205097, "lon": 13.5610074, "tags": {"addr:city": "Millstatt am See", "addr:housenumber": "6", "addr:place": "Laubendorf", "addr:postcode": "9872"}, "content": "Adresse: 6, 9872 Millstatt am See\nOrt: Millstatt am See\nPLZ: 9872\nKoordinaten: 46.820510, 13.561007", "doc_type": "addresses"}
{"source": "OSM", "region": "Kärnten", "osm_type": "node", "osm_id": 5618876354, "name": null, "category": null, "address": "2, 9872 Millstatt am See", "street": null, "housenumber": "2", "postcode": "9872", "place": "Millstatt am See", "lat": 46.8210548, "lon": 13.5616055, "tags": {"addr:city": "Millstatt am See", "addr:housenumber": "2", "addr:place": "Laubendorf", "addr:postcode": "9872"}, "content": "Adresse: 2, 9872 Millstatt am See\nOrt: Millstatt am See\nPLZ: 9872\nKoordinaten: 46.821055, 13.561606", "doc_type": "addresses"}
{"source": "OSM", "region": "Kärnten", "osm_type": "node", "osm_id": 5618876356, "name": null, "category": null, "address": "57, 9872 Millstatt am See", "street": null, "housenumber": "57", "postcode": "9872", "place": "Millstatt am See", "lat": 46.8210383, "lon": 13.5625792, "tags": {"addr:city": "Millstatt am See", "addr:housenumber": "57", "addr:place": "Laubendorf", "addr:postcode": "9872"}, "content": "Adresse: 57, 9872 Millstatt am See\nOrt: Millstatt am See\nPLZ: 9872\nKoordinaten: 46.821038, 13.562579", "doc_type": "addresses"}
{"source": "OSM", "region": "Kärnten", "osm_type": "node", "osm_id": 5618876357, "name": null, "category": null, "address": "19, 9872 Millstatt am See", "street": null, "housenumber": "19", "postcode": "9872", "place": "Millstatt am See", "lat": 46.8212805, "lon": 13.562437, "tags": {"addr:city": "Millstatt am See", "addr:housenumber": "19", "addr:place": "Laubendorf", "addr:postcode": "9872"}, "content": "Adresse: 19, 9872 Millstatt am See\nOrt: Millstatt am See\nPLZ: 9872\nKoordinaten: 46.821281, 13.562437", "doc_type": "addresses"}
{"source": "OSM", "region": "Kärnten", "osm_type": "node", "osm_id": 5618876358, "name": null, "category": null, "address": "11, 9872 Millstatt am See", "street": null, "housenumber": "11", "postcode": "9872", "place": "Millstatt am See", "lat": 46.8214622, "lon": 13.5619059, "tags": {"addr:city": "Millstatt am See", "addr:housenumber": "11", "addr:place": "Laubendorf", "addr:postcode": "9872"}, "content": "Adresse: 11, 9872 Millstatt am See\nOrt: Millstatt am See\nPLZ: 9872\nKoordinaten: 46.821462, 13.561906", "doc_type": "addresses"}
{"source": "OSM", "region": "Kärnten", "osm_type": "node", "osm_id": 5618876359, "name": null, "category": null, "address": "15, 9872 Millstatt am See", "street": null, "housenumber": "15", "postcode": "9872", "place": "Millstatt am See", "lat": 46.8209336, "lon": 13.5640249, "tags": {"addr:city": "Millstatt am See", "addr:housenumber": "15", "addr:place": "Laubendorf", "addr:postcode": "9872"}, "content": "Adresse: 15, 9872 Millstatt am See\nOrt: Millstatt am See\nPLZ: 9872\nKoordinaten: 46.820934, 13.564025", "doc_type": "addresses"}
{"source": "OSM", "region": "Kärnten", "osm_type": "node", "osm_id": 5618876360, "name": null, "category": null, "address": "72, 9872 Millstatt am See", "street": null, "housenumber": "72", "postcode": "9872", "place": "Millstatt am See", "lat": 46.821209, "lon": 13.5639042, "tags": {"addr:city": "Millstatt am See", "addr:housenumber": "72", "addr:place": "Laubendorf", "addr:postcode": "9872"}, "content": "Adresse: 72, 9872 Millstatt am See\nOrt: Millstatt am See\nPLZ: 9872\nKoordinaten: 46.821209, 13.563904", "doc_type": "addresses"}
{"source": "OSM", "region": "Kärnten", "osm_type": "node", "osm_id": 5618876361, "name": null, "category": null, "address": "90, 9872 Millstatt am See", "street": null, "housenumber": "90", "postcode": "9872", "place": "Millstatt am See", "lat": 46.8210952, "lon": 13.5636172, "tags": {"addr:city": "Millstatt am See", "addr:housenumber": "90", "addr:place": "Laubendorf", "addr:postcode": "9872"}, "content": "Adresse: 90, 9872 Millstatt am See\nOrt: Millstatt am See\nPLZ: 9872\nKoordinaten: 46.821095, 13.563617", "doc_type": "addresses"}
{"source": "OSM", "region": "Kärnten", "osm_type": "node", "osm_id": 5618876362, "name": null, "category": null, "address": "80, 9872 Millstatt am See", "street": null, "housenumber": "80", "postcode": "9872", "place": "Millstatt am See", "lat": 46.8208712, "lon": 13.5635018, "tags": {"addr:city": "Millstatt am See", "addr:housenumber": "80", "addr:place": "Laubendorf", "addr:postcode": "9872"}, "content": "Adresse: 80, 9872 Millstatt am See\nOrt: Millstatt am See\nPLZ: 9872\nKoordinaten: 46.820871, 13.563502", "doc_type": "addresses"}
{"source": "OSM", "region": "Kärnten", "osm_type": "node", "osm_id": 5618876363, "name": null, "category": null, "address": "52, 9872 Millstatt am See", "street": null, "housenumber": "52", "postcode": "9872", "place": "Millstatt am See", "lat": 46.8210419, "lon": 13.5630807, "tags": {"addr:city": "Millstatt am See", "addr:housenumber": "52", "addr:place": "Laubendorf", "addr:postcode": "9872"}, "content": "Adresse: 52, 9872 Millstatt am See\nOrt: Millstatt am See\nPLZ: 9872\nKoordinaten: 46.821042, 13.563081", "doc_type": "addresses"}
{"source": "OSM", "region": "Kärnten", "osm_type": "node", "osm_id": 5618876364, "name": null, "category": null, "address": "66, 9872 Millstatt am See", "street": null, "housenumber": "66", "postcode": "9872", "place": "Millstatt am See", "lat": 46.8207648, "lon": 13.5628554, "tags": {"addr:city": "Millstatt am See", "addr:housenumber": "66", "addr:place": "Laubendorf", "addr:postcode": "9872"}, "content": "Adresse: 66, 9872 Millstatt am See\nOrt: Millstatt am See\nPLZ: 9872\nKoordinaten: 46.820765, 13.562855", "doc_type": "addresses"}
{"source": "OSM", "region": "Kärnten", "osm_type": "node", "osm_id": 5618876365, "name": null, "category": null, "address": "76, 9872 Millstatt am See", "street": null, "housenumber": "76", "postcode": "9872", "place": "Millstatt am See", "lat": 46.8206473, "lon": 13.5631692, "tags": {"addr:city": "Millstatt am See", "addr:housenumber": "76", "addr:place": "Laubendorf", "addr:postcode": "9872"}, "content": "Adresse: 76, 9872 Millstatt am See\nOrt: Millstatt am See\nPLZ: 9872\nKoordinaten: 46.820647, 13.563169", "doc_type": "addresses"}
{"source": "OSM", "region": "Kärnten", "osm_type": "node", "osm_id": 5618876366, "name": null, "category": null, "address": "75, 9872 Millstatt am See", "street": null, "housenumber": "75", "postcode": "9872", "place": "Millstatt am See", "lat": 46.8203977, "lon": 13.5631826, "tags": {"addr:city": "Millstatt am See", "addr:housenumber": "75", "addr:place": "Laubendorf", "addr:postcode": "9872"}, "content": "Adresse: 75, 9872 Millstatt am See\nOrt: Millstatt am See\nPLZ: 9872\nKoordinaten: 46.820398, 13.563183", "doc_type": "addresses"}
{"source": "OSM", "region": "Kärnten", "osm_type": "node", "osm_id": 5618876367, "name": null, "category": null, "address": "9, 9872 Millstatt am See", "street": null, "housenumber": "9", "postcode": "9872", "place": "Millstatt am See", "lat": 46.8206694, "lon": 13.5624129, "tags": {"addr:city": "Millstatt am See", "addr:housenumber": "9", "addr:place": "Laubendorf", "addr:postcode": "9872"}, "content": "Adresse: 9, 9872 Millstatt am See\nOrt: Millstatt am See\nPLZ: 9872\nKoordinaten: 46.820669, 13.562413", "doc_type": "addresses"}
{"source": "OSM", "region": "Kärnten", "osm_type": "node", "osm_id": 5618876368, "name": null, "category": null, "address": "8, 9872 Millstatt am See", "street": null, "housenumber": "8", "postcode": "9872", "place": "Millstatt am See", "lat": 46.8206106, "lon": 13.561922, "tags": {"addr:city": "Millstatt am See", "addr:housenumber": "8", "addr:place": "Laubendorf", "addr:postcode": "9872"}, "content": "Adresse: 8, 9872 Millstatt am See\nOrt: Millstatt am See\nPLZ: 9872\nKoordinaten: 46.820611, 13.561922", "doc_type": "addresses"}
{"source": "OSM", "region": "Kärnten", "osm_type": "node", "osm_id": 5618876369, "name": null, "category": null, "address": "93, 9872 Millstatt am See", "street": null, "housenumber": "93", "postcode": "9872", "place": "Millstatt am See", "lat": 46.8202968, "lon": 13.5615492, "tags": {"addr:city": "Millstatt am See", "addr:housenumber": "93", "addr:place": "Laubendorf", "addr:postcode": "9872"}, "content": "Adresse: 93, 9872 Millstatt am See\nOrt: Millstatt am See\nPLZ: 9872\nKoordinaten: 46.820297, 13.561549", "doc_type": "addresses"}
{"source": "OSM", "region": "Kärnten", "osm_type": "node", "osm_id": 5618876370, "name": null, "category": null, "address": "7, 9872 Millstatt am See", "street": null, "housenumber": "7", "postcode": "9872", "place": "Millstatt am See", "lat": 46.8201591, "lon": 13.5618228, "tags": {"addr:city": "Millstatt am See", "addr:housenumber": "7", "addr:place": "Laubendorf", "addr:postcode": "9872"}, "content": "Adresse: 7, 9872 Millstatt am See\nOrt: Millstatt am See\nPLZ: 9872\nKoordinaten: 46.820159, 13.561823", "doc_type": "addresses"}
{"source": "OSM", "region": "Kärnten", "osm_type": "node", "osm_id": 5618876371, "name": null, "category": null, "address": "4, 9872 Millstatt am See", "street": null, "housenumber": "4", "postcode": "9872", "place": "Millstatt am See", "lat": 46.8199994, "lon": 13.561517, "tags": {"addr:city": "Millstatt am See", "addr:housenumber": "4", "addr:place": "Laubendorf", "addr:postcode": "9872"}, "content": "Adresse: 4, 9872 Millstatt am See\nOrt: Millstatt am See\nPLZ: 9872\nKoordinaten: 46.819999, 13.561517", "doc_type": "addresses"}
{"source": "OSM", "region": "Kärnten", "osm_type": "node", "osm_id": 5618876372, "name": null, "category": null, "address": "34, 9872 Millstatt am See", "street": null, "housenumber": "34", "postcode": "9872", "place": "Millstatt am See", "lat": 46.8196635, "lon": 13.5610288, "tags": {"addr:city": "Millstatt am See", "addr:housenumber": "34", "addr:place": "Laubendorf", "addr:postcode": "9872"}, "content": "Adresse: 34, 9872 Millstatt am See\nOrt: Millstatt am See\nPLZ: 9872\nKoordinaten: 46.819663, 13.561029", "doc_type": "addresses"}
{"source": "OSM", "region": "Kärnten", "osm_type": "node", "osm_id": 5618876373, "name": null, "category": null, "address": "43, 9872 Millstatt am See", "street": null, "housenumber": "43", "postcode": "9872", "place": "Millstatt am See", "lat": 46.8200306, "lon": 13.5610825, "tags": {"addr:city": "Millstatt am See", "addr:housenumber": "43", "addr:place": "Laubendorf", "addr:postcode": "9872"}, "content": "Adresse: 43, 9872 Millstatt am See\nOrt: Millstatt am See\nPLZ: 9872\nKoordinaten: 46.820031, 13.561082", "doc_type": "addresses"}
{"source": "OSM", "region": "Kärnten", "osm_type": "node", "osm_id": 5618876375, "name": null, "category": null, "address": "37, 9872 Millstatt am See", "street": null, "housenumber": "37", "postcode": "9872", "place": "Millstatt am See", "lat": 46.8197645, "lon": 13.5604441, "tags": {"addr:city": "Millstatt am See", "addr:housenumber": "37", "addr:place": "Laubendorf", "addr:postcode": "9872"}, "content": "Adresse: 37, 9872 Millstatt am See\nOrt: Millstatt am See\nPLZ: 9872\nKoordinaten: 46.819764, 13.560444", "doc_type": "addresses"}
{"source": "OSM", "region": "Kärnten", "osm_type": "node", "osm_id": 5618876376, "name": null, "category": null, "address": "47, 9872 Millstatt am See", "street": null, "housenumber": "47", "postcode": "9872", "place": "Millstatt am See", "lat": 46.820506, "lon": 13.5595214, "tags": {"addr:city": "Millstatt am See", "addr:housenumber": "47", "addr:place": "Laubendorf", "addr:postcode": "9872"}, "content": "Adresse: 47, 9872 Millstatt am See\nOrt: Millstatt am See\nPLZ: 9872\nKoordinaten: 46.820506, 13.559521", "doc_type": "addresses"}
{"source": "OSM", "region": "Kärnten", "osm_type": "node", "osm_id": 5618876377, "name": null, "category": null, "address": "67, 9872 Millstatt am See", "street": null, "housenumber": "67", "postcode": "9872", "place": "Millstatt am See", "lat": 46.8207042, "lon": 13.5587355, "tags": {"addr:city": "Millstatt am See", "addr:housenumber": "67", "addr:place": "Laubendorf", "addr:postcode": "9872"}, "content": "Adresse: 67, 9872 Millstatt am See\nOrt: Millstatt am See\nPLZ: 9872\nKoordinaten: 46.820704, 13.558735", "doc_type": "addresses"}
{"source": "OSM", "region": "Kärnten", "osm_type": "node", "osm_id": 5618876378, "name": null, "category": null, "address": "56, 9872 Millstatt am See", "street": null, "housenumber": "56", "postcode": "9872", "place": "Millstatt am See", "lat": 46.8204785, "lon": 13.5586229, "tags": {"addr:city": "Millstatt am See", "addr:housenumber": "56", "addr:place": "Laubendorf", "addr:postcode": "9872"}, "content": "Adresse: 56, 9872 Millstatt am See\nOrt: Millstatt am See\nPLZ: 9872\nKoordinaten: 46.820479, 13.558623", "doc_type": "addresses"}
{"source": "OSM", "region": "Kärnten", "osm_type": "node", "osm_id": 5618876379, "name": null, "category": null, "address": "74, 9872 Millstatt am See", "street": null, "housenumber": "74", "postcode": "9872", "place": "Millstatt am See", "lat": 46.8203518, "lon": 13.5588965, "tags": {"addr:city": "Millstatt am See", "addr:housenumber": "74", "addr:place": "Laubendorf", "addr:postcode": "9872"}, "content": "Adresse: 74, 9872 Millstatt am See\nOrt: Millstatt am See\nPLZ: 9872\nKoordinaten: 46.820352, 13.558896", "doc_type": "addresses"}
{"source": "OSM", "region": "Kärnten", "osm_type": "node", "osm_id": 5618876380, "name": null, "category": null, "address": "8, 9872 Millstatt am See", "street": null, "housenumber": "8", "postcode": "9872", "place": "Millstatt am See", "lat": 46.820205, "lon": 13.5580221, "tags": {"addr:city": "Millstatt am See", "addr:housenumber": "8", "addr:place": "Gössering", "addr:postcode": "9872"}, "content": "Adresse: 8, 9872 Millstatt am See\nOrt: Millstatt am See\nPLZ: 9872\nKoordinaten: 46.820205, 13.558022", "doc_type": "addresses"}
{"source": "OSM", "region": "Kärnten", "osm_type": "node", "osm_id": 5618876381, "name": null, "category": null, "address": "9, 9872 Millstatt am See", "street": null, "housenumber": "9", "postcode": "9872", "place": "Millstatt am See", "lat": 46.8203812, "lon": 13.5576385, "tags": {"addr:city": "Millstatt am See", "addr:housenumber": "9", "addr:place": "Gössering", "addr:postcode": "9872"}, "content": "Adresse: 9, 9872 Millstatt am See\nOrt: Millstatt am See\nPLZ: 9872\nKoordinaten: 46.820381, 13.557638", "doc_type": "addresses"}
{"source": "OSM", "region": "Kärnten", "osm_type": "node", "osm_id": 5618876382, "name": null, "category": null, "address": "16, 9872 Millstatt am See", "street": null, "housenumber": "16", "postcode": "9872", "place": "Millstatt am See", "lat": 46.8223478, "lon": 13.557597, "tags": {"addr:city": "Millstatt am See", "addr:housenumber": "16", "addr:place": "Gössering", "addr:postcode": "9872"}, "content": "Adresse: 16, 9872 Millstatt am See\nOrt: Millstatt am See\nPLZ: 9872\nKoordinaten: 46.822348, 13.557597", "doc_type": "addresses"}
{"source": "OSM", "region": "Kärnten", "osm_type": "node", "osm_id": 5618876383, "name": null, "category": null, "address": "18, 9872 Millstatt am See", "street": null, "housenumber": "18", "postcode": "9872", "place": "Millstatt am See", "lat": 46.82171, "lon": 13.5570484, "tags": {"addr:city": "Millstatt am See", "addr:housenumber": "18", "addr:place": "Gössering", "addr:postcode": "9872"}, "content": "Adresse: 18, 9872 Millstatt am See\nOrt: Millstatt am See\nPLZ: 9872\nKoordinaten: 46.821710, 13.557048", "doc_type": "addresses"}
{"source": "OSM", "region": "Kärnten", "osm_type": "node", "osm_id": 5618876384, "name": null, "category": null, "address": "11, 9872 Millstatt am See", "street": null, "housenumber": "11", "postcode": "9872", "place": "Millstatt am See", "lat": 46.8229635, "lon": 13.5568446, "tags": {"addr:city": "Millstatt am See", "addr:housenumber": "11", "addr:place": "Gössering", "addr:postcode": "9872"}, "content": "Adresse: 11, 9872 Millstatt am See\nOrt: Millstatt am See\nPLZ: 9872\nKoordinaten: 46.822964, 13.556845", "doc_type": "addresses"}
{"source": "OSM", "region": "Kärnten", "osm_type": "node", "osm_id": 5618876385, "name": null, "category": null, "address": "6, 9872 Millstatt am See", "street": null, "housenumber": "6", "postcode": "9872", "place": "Millstatt am See", "lat": 46.8227855, "lon": 13.5564208, "tags": {"addr:city": "Millstatt am See", "addr:housenumber": "6", "addr:place": "Gössering", "addr:postcode": "9872"}, "content": "Adresse: 6, 9872 Millstatt am See\nOrt: Millstatt am See\nPLZ: 9872\nKoordinaten: 46.822786, 13.556421", "doc_type": "addresses"}
{"source": "OSM", "region": "Kärnten", "osm_type": "node", "osm_id": 5618876386, "name": null, "category": null, "address": "3, 9872 Millstatt am See", "street": null, "housenumber": "3", "postcode": "9872", "place": "Millstatt am See", "lat": 46.8226222, "lon": 13.5557047, "tags": {"addr:city": "Millstatt am See", "addr:housenumber": "3", "addr:place": "Gössering", "addr:postcode": "9872"}, "content": "Adresse: 3, 9872 Millstatt am See\nOrt: Millstatt am See\nPLZ: 9872\nKoordinaten: 46.822622, 13.555705", "doc_type": "addresses"}
{"source": "OSM", "region": "Kärnten", "osm_type": "node", "osm_id": 5618876387, "name": null, "category": null, "address": "17, 9872 Millstatt am See", "street": null, "housenumber": "17", "postcode": "9872", "place": "Millstatt am See", "lat": 46.8227855, "lon": 13.5541785, "tags": {"addr:city": "Millstatt am See", "addr:housenumber": "17", "addr:place": "Gössering", "addr:postcode": "9872"}, "content": "Adresse: 17, 9872 Millstatt am See\nOrt: Millstatt am See\nPLZ: 9872\nKoordinaten: 46.822786, 13.554179", "doc_type": "addresses"}
{"source": "OSM", "region": "Kärnten", "osm_type": "node", "osm_id": 5618876388, "name": null, "category": null, "address": "10, 9872 Millstatt am See", "street": null, "housenumber": "10", "postcode": "9872", "place": "Millstatt am See", "lat": 46.8229158, "lon": 13.5539103, "tags": {"addr:city": "Millstatt am See", "addr:housenumber": "10", "addr:place": "Gössering", "addr:postcode": "9872"}, "content": "Adresse: 10, 9872 Millstatt am See\nOrt: Millstatt am See\nPLZ: 9872\nKoordinaten: 46.822916, 13.553910", "doc_type": "addresses"}
{"source": "OSM", "region": "Kärnten", "osm_type": "node", "osm_id": 5618876389, "name": null, "category": null, "address": "15, 9872 Millstatt am See", "street": null, "housenumber": "15", "postcode": "9872", "place": "Millstatt am See", "lat": 46.8229672, "lon": 13.5530117, "tags": {"addr:city": "Millstatt am See", "addr:housenumber": "15", "addr:place": "Gössering", "addr:postcode": "9872"}, "content": "Adresse: 15, 9872 Millstatt am See\nOrt: Millstatt am See\nPLZ: 9872\nKoordinaten: 46.822967, 13.553012", "doc_type": "addresses"}
{"source": "OSM", "region": "Kärnten", "osm_type": "node", "osm_id": 5618884145, "name": null, "category": null, "address": "28, 9872 Millstatt am See", "street": null, "housenumber": "28", "postcode": "9872", "place": "Millstatt am See", "lat": 46.8097917, "lon": 13.5717711, "tags": {"addr:city": "Millstatt am See", "addr:housenumber": "28", "addr:place": "Großdombra", "addr:postcode": "9872"}, "content": "Adresse: 28, 9872 Millstatt am See\nOrt: Millstatt am See\nPLZ: 9872\nKoordinaten: 46.809792, 13.571771", "doc_type": "addresses"}
{"source": "OSM", "region": "Kärnten", "osm_type": "node", "osm_id": 5618884146, "name": null, "category": null, "address": "10, 9872 Millstatt am See", "street": null, "housenumber": "10", "postcode": "9872", "place": "Millstatt am See", "lat": 46.8101901, "lon": 13.5718274, "tags": {"addr:city": "Millstatt am See", "addr:housenumber": "10", "addr:place": "Großdombra", "addr:postcode": "9872"}, "content": "Adresse: 10, 9872 Millstatt am See\nOrt: Millstatt am See\nPLZ: 9872\nKoordinaten: 46.810190, 13.571827", "doc_type": "addresses"}
{"source": "OSM", "region": "Kärnten", "osm_type": "node", "osm_id": 5618884150, "name": null, "category": null, "address": "Alexanderhofstraße 3, 9872 Millstatt am See", "street": "Alexanderhofstraße", "housenumber": "3", "postcode": "9872", "place": "Millstatt am See", "lat": 46.8085599, "lon": 13.5679275, "tags": {"addr:city": "Millstatt am See", "addr:housenumber": "3", "addr:postcode": "9872", "addr:street": "Alexanderhofstraße"}, "content": "Adresse: Alexanderhofstraße 3, 9872 Millstatt am See\nOrt: Millstatt am See\nPLZ: 9872\nKoordinaten: 46.808560, 13.567927", "doc_type": "addresses"}
{"source": "OSM", "region": "Kärnten", "osm_type": "node", "osm_id": 5618884151, "name": null, "category": null, "address": "Weg am Waldrand 80, 9872 Millstatt am See", "street": "Weg am Waldrand", "housenumber": "80", "postcode": "9872", "place": "Millstatt am See", "lat": 46.8096283, "lon": 13.5644728, "tags": {"addr:city": "Millstatt am See", "addr:housenumber": "80", "addr:postcode": "9872", "addr:street": "Weg am Waldrand"}, "content": "Adresse: Weg am Waldrand 80, 9872 Millstatt am See\nOrt: Millstatt am See\nPLZ: 9872\nKoordinaten: 46.809628, 13.564473", "doc_type": "addresses"}
{"source": "OSM", "region": "Kärnten", "osm_type": "node", "osm_id": 5618884152, "name": null, "category": null, "address": "Tiefenbacherweg 333, 9872 Millstatt am See", "street": "Tiefenbacherweg", "housenumber": "333", "postcode": "9872", "place": "Millstatt am See", "lat": 46.8079633, "lon": 13.5640624, "tags": {"addr:city": "Millstatt am See", "addr:housenumber": "333", "addr:postcode": "9872", "addr:street": "Tiefenbacherweg"}, "content": "Adresse: Tiefenbacherweg 333, 9872 Millstatt am See\nOrt: Millstatt am See\nPLZ: 9872\nKoordinaten: 46.807963, 13.564062", "doc_type": "addresses"}
{"source": "OSM", "region": "Kärnten", "osm_type": "node", "osm_id": 5618884153, "name": null, "category": null, "address": "12, 9872 Millstatt am See", "street": null, "housenumber": "12", "postcode": "9872", "place": "Millstatt am See", "lat": 46.8075722, "lon": 13.562728, "tags": {"addr:city": "Millstatt am See", "addr:housenumber": "12", "addr:place": "Lechnerschaft", "addr:postcode": "9872"}, "content": "Adresse: 12, 9872 Millstatt am See\nOrt: Millstatt am See\nPLZ: 9872\nKoordinaten: 46.807572, 13.562728", "doc_type": "addresses"}
{"source": "OSM", "region": "Kärnten", "osm_type": "node", "osm_id": 5618884154, "name": null, "category": null, "address": "Zopfenkopfweg 12a, 9872 Millstatt am See", "street": "Zopfenkopfweg", "housenumber": "12a", "postcode": "9872", "place": "Millstatt am See", "lat": 46.8078733, "lon": 13.5623002, "tags": {"addr:city": "Millstatt am See", "addr:housenumber": "12a", "addr:postcode": "9872", "addr:street": "Zopfenkopfweg"}, "content": "Adresse: Zopfenkopfweg 12a, 9872 Millstatt am See\nOrt: Millstatt am See\nPLZ: 9872\nKoordinaten: 46.807873, 13.562300", "doc_type": "addresses"}
{"source": "OSM", "region": "Kärnten", "osm_type": "node", "osm_id": 5618884155, "name": null, "category": null, "address": "Kaiser-Franz-Josef-Straße 329, 9872 Millstatt am See", "street": "Kaiser-Franz-Josef-Straße", "housenumber": "329", "postcode": "9872", "place": "Millstatt am See", "lat": 46.805393, "lon": 13.5662296, "tags": {"addr:city": "Millstatt am See", "addr:housenumber": "329", "addr:postcode": "9872", "addr:street": "Kaiser-Franz-Josef-Straße"}, "content": "Adresse: Kaiser-Franz-Josef-Straße 329, 9872 Millstatt am See\nOrt: Millstatt am See\nPLZ: 9872\nKoordinaten: 46.805393, 13.566230", "doc_type": "addresses"}
{"source": "OSM", "region": "Kärnten", "osm_type": "node", "osm_id": 5618884156, "name": null, "category": null, "address": "Aribonenstraße 146, 9872 Millstatt am See", "street": "Aribonenstraße", "housenumber": "146", "postcode": "9872", "place": "Millstatt am See", "lat": 46.8053398, "lon": 13.5674795, "tags": {"addr:city": "Millstatt am See", "addr:housenumber": "146", "addr:postcode": "9872", "addr:street": "Aribonenstraße"}, "content": "Adresse: Aribonenstraße 146, 9872 Millstatt am See\nOrt: Millstatt am See\nPLZ: 9872\nKoordinaten: 46.805340, 13.567479", "doc_type": "addresses"}
{"source": "OSM", "region": "Kärnten", "osm_type": "node", "osm_id": 5618884157, "name": null, "category": null, "address": "Kaiser-Franz-Josef-Straße 106, 9872 Millstatt am See", "street": "Kaiser-Franz-Josef-Straße", "housenumber": "106", "postcode": "9872", "place": "Millstatt am See", "lat": 46.8047927, "lon": 13.5672194, "tags": {"addr:city": "Millstatt am See", "addr:housenumber": "106", "addr:postcode": "9872", "addr:street": "Kaiser-Franz-Josef-Straße"}, "content": "Adresse: Kaiser-Franz-Josef-Straße 106, 9872 Millstatt am See\nOrt: Millstatt am See\nPLZ: 9872\nKoordinaten: 46.804793, 13.567219", "doc_type": "addresses"}
{"source": "OSM", "region": "Kärnten", "osm_type": "node", "osm_id": 5618884158, "name": null, "category": null, "address": "Kaiser-Franz-Josef-Straße 213, 9872 Millstatt am See", "street": "Kaiser-Franz-Josef-Straße", "housenumber": "213", "postcode": "9872", "place": "Millstatt am See", "lat": 46.8036728, "lon": 13.569223, "tags": {"addr:city": "Millstatt am See", "addr:housenumber": "213", "addr:postcode": "9872", "addr:street": "Kaiser-Franz-Josef-Straße"}, "content": "Adresse: Kaiser-Franz-Josef-Straße 213, 9872 Millstatt am See\nOrt: Millstatt am See\nPLZ: 9872\nKoordinaten: 46.803673, 13.569223", "doc_type": "addresses"}
{"source": "OSM", "region": "Kärnten", "osm_type": "node", "osm_id": 5618884159, "name": null, "category": null, "address": "Stiftgasse 3, 9872 Millstatt am See", "street": "Stiftgasse", "housenumber": "3", "postcode": "9872", "place": "Millstatt am See", "lat": 46.8049304, "lon": 13.5700384, "tags": {"addr:city": "Millstatt am See", "addr:housenumber": "3", "addr:postcode": "9872", "addr:street": "Stiftgasse"}, "content": "Adresse: Stiftgasse 3, 9872 Millstatt am See\nOrt: Millstatt am See\nPLZ: 9872\nKoordinaten: 46.804930, 13.570038", "doc_type": "addresses"}
{"source": "OSM", "region": "Kärnten", "osm_type": "node", "osm_id": 5618884160, "name": null, "category": null, "address": "Stiftgasse 5a, 9872 Millstatt am See", "street": "Stiftgasse", "housenumber": "5a", "postcode": "9872", "place": "Millstatt am See", "lat": 46.8047982, "lon": 13.5706177, "tags": {"addr:city": "Millstatt am See", "addr:housenumber": "5a", "addr:postcode": "9872", "addr:street": "Stiftgasse"}, "content": "Adresse: Stiftgasse 5a, 9872 Millstatt am See\nOrt: Millstatt am See\nPLZ: 9872\nKoordinaten: 46.804798, 13.570618", "doc_type": "addresses"}
{"source": "OSM", "region": "Kärnten", "osm_type": "node", "osm_id": 5618884161, "name": null, "category": null, "address": "Aribonenstraße 183, 9872 Millstatt am See", "street": "Aribonenstraße", "housenumber": "183", "postcode": "9872", "place": "Millstatt am See", "lat": 46.8055087, "lon": 13.5700035, "tags": {"addr:city": "Millstatt am See", "addr:housenumber": "183", "addr:postcode": "9872", "addr:street": "Aribonenstraße"}, "content": "Adresse: Aribonenstraße 183, 9872 Millstatt am See\nOrt: Millstatt am See\nPLZ: 9872\nKoordinaten: 46.805509, 13.570004", "doc_type": "addresses"}
{"source": "OSM", "region": "Kärnten", "osm_type": "node", "osm_id": 5618884162, "name": null, "category": null, "address": "36, 9872 Millstatt am See", "street": null, "housenumber": "36", "postcode": "9872", "place": "Millstatt am See", "lat": 46.8100634, "lon": 13.5714948, "tags": {"addr:city": "Millstatt am See", "addr:housenumber": "36", "addr:place": "Großdombra", "addr:postcode": "9872"}, "content": "Adresse: 36, 9872 Millstatt am See\nOrt: Millstatt am See\nPLZ: 9872\nKoordinaten: 46.810063, 13.571495", "doc_type": "addresses"}
{"source": "OSM", "region": "Kärnten", "osm_type": "node", "osm_id": 5618884163, "name": null, "category": null, "address": "37, 9872 Millstatt am See", "street": null, "housenumber": "37", "postcode": "9872", "place": "Millstatt am See", "lat": 46.8098358, "lon": 13.5714251, "tags": {"addr:city": "Millstatt am See", "addr:housenumber": "37", "addr:place": "Großdombra", "addr:postcode": "9872"}, "content": "Adresse: 37, 9872 Millstatt am See\nOrt: Millstatt am See\nPLZ: 9872\nKoordinaten: 46.809836, 13.571425", "doc_type": "addresses"}
{"source": "OSM", "region": "Kärnten", "osm_type": "node", "osm_id": 5618884164, "name": null, "category": null, "address": "Sonnleitenweg 25, 9872 Millstatt am See", "street": "Sonnleitenweg", "housenumber": "25", "postcode": "9872", "place": "Millstatt am See", "lat": 46.8099221, "lon": 13.5692176, "tags": {"addr:city": "Millstatt am See", "addr:housenumber": "25", "addr:postcode": "9872", "addr:street": "Sonnleitenweg"}, "content": "Adresse: Sonnleitenweg 25, 9872 Millstatt am See\nOrt: Millstatt am See\nPLZ: 9872\nKoordinaten: 46.809922, 13.569218", "doc_type": "addresses"}
{"source": "OSM", "region": "Kärnten", "osm_type": "node", "osm_id": 5618884165, "name": null, "category": null, "address": "Sonnleitenweg 26, 9872 Millstatt am See", "street": "Sonnleitenweg", "housenumber": "26", "postcode": "9872", "place": "Millstatt am See", "lat": 46.8096632, "lon": 13.569282, "tags": {"addr:city": "Millstatt am See", "addr:housenumber": "26", "addr:postcode": "9872", "addr:street": "Sonnleitenweg"}, "content": "Adresse: Sonnleitenweg 26, 9872 Millstatt am See\nOrt: Millstatt am See\nPLZ: 9872\nKoordinaten: 46.809663, 13.569282", "doc_type": "addresses"}
{"source": "OSM", "region": "Kärnten", "osm_type": "node", "osm_id": 5618884166, "name": null, "category": null, "address": "Sonnleitenweg 2, 9872 Millstatt am See", "street": "Sonnleitenweg", "housenumber": "2", "postcode": "9872", "place": "Millstatt am See", "lat": 46.8097018, "lon": 13.5699069, "tags": {"addr:city": "Millstatt am See", "addr:housenumber": "2", "addr:postcode": "9872", "addr:street": "Sonnleitenweg"}, "content": "Adresse: Sonnleitenweg 2, 9872 Millstatt am See\nOrt: Millstatt am See\nPLZ: 9872\nKoordinaten: 46.809702, 13.569907", "doc_type": "addresses"}
{"source": "OSM", "region": "Kärnten", "osm_type": "node", "osm_id": 5618884167, "name": null, "category": null, "address": "Sonnleitenweg 6, 9872 Millstatt am See", "street": "Sonnleitenweg", "housenumber": "6", "postcode": "9872", "place": "Millstatt am See", "lat": 46.8091951, "lon": 13.5697353, "tags": {"addr:city": "Millstatt am See", "addr:housenumber": "6", "addr:postcode": "9872", "addr:street": "Sonnleitenweg"}, "content": "Adresse: Sonnleitenweg 6, 9872 Millstatt am See\nOrt: Millstatt am See\nPLZ: 9872\nKoordinaten: 46.809195, 13.569735", "doc_type": "addresses"}
{"source": "OSM", "region": "Kärnten", "osm_type": "node", "osm_id": 5618884168, "name": null, "category": null, "address": "Sonnleitenweg 98, 9872 Millstatt am See", "street": "Sonnleitenweg", "housenumber": "98", "postcode": "9872", "place": "Millstatt am See", "lat": 46.8089858, "lon": 13.570025, "tags": {"addr:city": "Millstatt am See", "addr:housenumber": "98", "addr:postcode": "9872", "addr:street": "Sonnleitenweg"}, "content": "Adresse: Sonnleitenweg 98, 9872 Millstatt am See\nOrt: Millstatt am See\nPLZ: 9872\nKoordinaten: 46.808986, 13.570025", "doc_type": "addresses"}
{"source": "OSM", "region": "Kärnten", "osm_type": "node", "osm_id": 5618884169, "name": null, "category": null, "address": "Sonnleitenweg 72, 9872 Millstatt am See", "street": "Sonnleitenweg", "housenumber": "72", "postcode": "9872", "place": "Millstatt am See", "lat": 46.8087912, "lon": 13.5701483, "tags": {"addr:city": "Millstatt am See", "addr:housenumber": "72", "addr:postcode": "9872", "addr:street": "Sonnleitenweg"}, "content": "Adresse: Sonnleitenweg 72, 9872 Millstatt am See\nOrt: Millstatt am See\nPLZ: 9872\nKoordinaten: 46.808791, 13.570148", "doc_type": "addresses"}
{"source": "OSM", "region": "Kärnten", "osm_type": "node", "osm_id": 5618884170, "name": null, "category": null, "address": "Sonnleitenweg 44, 9872 Millstatt am See", "street": "Sonnleitenweg", "housenumber": "44", "postcode": "9872", "place": "Millstatt am See", "lat": 46.8085379, "lon": 13.5706204, "tags": {"addr:city": "Millstatt am See", "addr:housenumber": "44", "addr:postcode": "9872", "addr:street": "Sonnleitenweg"}, "content": "Adresse: Sonnleitenweg 44, 9872 Millstatt am See\nOrt: Millstatt am See\nPLZ: 9872\nKoordinaten: 46.808538, 13.570620", "doc_type": "addresses"}
{"source": "OSM", "region": "Kärnten", "osm_type": "node", "osm_id": 5618884171, "name": null, "category": null, "address": "15, 9872 Millstatt am See", "street": null, "housenumber": "15", "postcode": "9872", "place": "Millstatt am See", "lat": 46.8086884, "lon": 13.5708833, "tags": {"addr:city": "Millstatt am See", "addr:housenumber": "15", "addr:place": "Großdombra", "addr:postcode": "9872"}, "content": "Adresse: 15, 9872 Millstatt am See\nOrt: Millstatt am See\nPLZ: 9872\nKoordinaten: 46.808688, 13.570883", "doc_type": "addresses"}
{"source": "OSM", "region": "Kärnten", "osm_type": "node", "osm_id": 5618884172, "name": null, "category": null, "address": "Laubendorfer Straße 43, 9872 Millstatt am See", "street": "Laubendorfer Straße", "housenumber": "43", "postcode": "9872", "place": "Millstatt am See", "lat": 46.8084167, "lon": 13.5708645, "tags": {"addr:city": "Millstatt am See", "addr:housenumber": "43", "addr:postcode": "9872", "addr:street": "Laubendorfer Straße"}, "content": "Adresse: Laubendorfer Straße 43, 9872 Millstatt am See\nOrt: Millstatt am See\nPLZ: 9872\nKoordinaten: 46.808417, 13.570865", "doc_type": "addresses"}
{"source": "OSM", "region": "Kärnten", "osm_type": "node", "osm_id": 5618884175, "name": null, "category": null, "address": "18, 9872 Millstatt am See", "street": null, "housenumber": "18", "postcode": "9872", "place": "Millstatt am See", "lat": 46.8087912, "lon": 13.5547578, "tags": {"addr:city": "Millstatt am See", "addr:housenumber": "18", "addr:place": "Lechnerschaft", "addr:postcode": "9872"}, "content": "Adresse: 18, 9872 Millstatt am See\nOrt: Millstatt am See\nPLZ: 9872\nKoordinaten: 46.808791, 13.554758", "doc_type": "addresses"}
{"source": "OSM", "region": "Kärnten", "osm_type": "node", "osm_id": 5618884176, "name": null, "category": null, "address": "10, 9872 Millstatt am See", "street": null, "housenumber": "10", "postcode": "9872", "place": "Millstatt am See", "lat": 46.810001, "lon": 13.5550395, "tags": {"addr:city": "Millstatt am See", "addr:housenumber": "10", "addr:place": "Lechnerschaft", "addr:postcode": "9872"}, "content": "Adresse: 10, 9872 Millstatt am See\nOrt: Millstatt am See\nPLZ: 9872\nKoordinaten: 46.810001, 13.555039", "doc_type": "addresses"}
{"source": "OSM", "region": "Kärnten", "osm_type": "node", "osm_id": 5618884177, "name": null, "category": null, "address": "13, 9872 Millstatt am See", "street": null, "housenumber": "13", "postcode": "9872", "place": "Millstatt am See", "lat": 46.8097715, "lon": 13.5543314, "tags": {"addr:city": "Millstatt am See", "addr:housenumber": "13", "addr:place": "Lechnerschaft", "addr:postcode": "9872"}, "content": "Adresse: 13, 9872 Millstatt am See\nOrt: Millstatt am See\nPLZ: 9872\nKoordinaten: 46.809771, 13.554331", "doc_type": "addresses"}
{"source": "OSM", "region": "Kärnten", "osm_type": "node", "osm_id": 5618884178, "name": null, "category": null, "address": "111, 9872 Millstatt am See", "street": null, "housenumber": "111", "postcode": "9872", "place": "Millstatt am See", "lat": 46.8101001, "lon": 13.5540578, "tags": {"addr:city": "Millstatt am See", "addr:housenumber": "111", "addr:place": "Lechnerschaft", "addr:postcode": "9872"}, "content": "Adresse: 111, 9872 Millstatt am See\nOrt: Millstatt am See\nPLZ: 9872\nKoordinaten: 46.810100, 13.554058", "doc_type": "addresses"}
{"source": "OSM", "region": "Kärnten", "osm_type": "node", "osm_id": 5618884179, "name": null, "category": null, "address": "8, 9872 Millstatt am See", "street": null, "housenumber": "8", "postcode": "9872", "place": "Millstatt am See", "lat": 46.8107279, "lon": 13.5538459, "tags": {"addr:city": "Millstatt am See", "addr:housenumber": "8", "addr:place": "Lechnerschaft", "addr:postcode": "9872"}, "content": "Adresse: 8, 9872 Millstatt am See\nOrt: Millstatt am See\nPLZ: 9872\nKoordinaten: 46.810728, 13.553846", "doc_type": "addresses"}
{"source": "OSM", "region": "Kärnten", "osm_type": "node", "osm_id": 5618884180, "name": null, "category": null, "address": "22, 9872 Millstatt am See", "street": null, "housenumber": "22", "postcode": "9872", "place": "Millstatt am See", "lat": 46.8101873, "lon": 13.5521413, "tags": {"addr:city": "Millstatt am See", "addr:housenumber": "22", "addr:place": "Lechnerschaft", "addr:postcode": "9872"}, "content": "Adresse: 22, 9872 Millstatt am See\nOrt: Millstatt am See\nPLZ: 9872\nKoordinaten: 46.810187, 13.552141", "doc_type": "addresses"}
{"source": "OSM", "region": "Kärnten", "osm_type": "node", "osm_id": 5618884181, "name": null, "category": null, "address": "26a, 9872 Millstatt am See", "street": null, "housenumber": "26a", "postcode": "9872", "place": "Millstatt am See", "lat": 46.8103186, "lon": 13.5520019, "tags": {"addr:city": "Millstatt am See", "addr:housenumber": "26a", "addr:place": "Lechnerschaft", "addr:postcode": "9872"}, "content": "Adresse: 26a, 9872 Millstatt am See\nOrt: Millstatt am See\nPLZ: 9872\nKoordinaten: 46.810319, 13.552002", "doc_type": "addresses"}
{"source": "OSM", "region": "Kärnten", "osm_type": "node", "osm_id": 5618884182, "name": null, "category": null, "address": "105, 9872 Millstatt am See", "street": null, "housenumber": "105", "postcode": "9872", "place": "Millstatt am See", "lat": 46.8106435, "lon": 13.5515043, "tags": {"addr:city": "Millstatt am See", "addr:housenumber": "105", "addr:place": "Lechnerschaft", "addr:postcode": "9872"}, "content": "Adresse: 105, 9872 Millstatt am See\nOrt: Millstatt am See\nPLZ: 9872\nKoordinaten: 46.810643, 13.551504", "doc_type": "addresses"}
{"source": "OSM", "region": "Kärnten", "osm_type": "node", "osm_id": 5618884183, "name": null, "category": null, "address": "24, 9872 Millstatt am See", "street": null, "housenumber": "24", "postcode": "9872", "place": "Millstatt am See", "lat": 46.8112071, "lon": 13.5500009, "tags": {"addr:city": "Millstatt am See", "addr:housenumber": "24", "addr:place": "Lechnerschaft", "addr:postcode": "9872"}, "content": "Adresse: 24, 9872 Millstatt am See\nOrt: Millstatt am See\nPLZ: 9872\nKoordinaten: 46.811207, 13.550001", "doc_type": "addresses"}
{"source": "OSM", "region": "Kärnten", "osm_type": "node", "osm_id": 5618884184, "name": null, "category": null, "address": "51, 9872 Millstatt am See", "street": null, "housenumber": "51", "postcode": "9872", "place": "Millstatt am See", "lat": 46.8109409, "lon": 13.5504287, "tags": {"addr:city": "Millstatt am See", "addr:housenumber": "51", "addr:place": "Lechnerschaft", "addr:postcode": "9872"}, "content": "Adresse: 51, 9872 Millstatt am See\nOrt: Millstatt am See\nPLZ: 9872\nKoordinaten: 46.810941, 13.550429", "doc_type": "addresses"}
{"source": "OSM", "region": "Kärnten", "osm_type": "node", "osm_id": 5618890777, "name": null, "category": null, "address": "36, 9872 Millstatt am See", "street": null, "housenumber": "36", "postcode": "9872", "place": "Millstatt am See", "lat": 46.8008288, "lon": 13.6003178, "tags": {"addr:city": "Millstatt am See", "addr:housenumber": "36", "addr:place": "Lammersdorf", "addr:postcode": "9872"}, "content": "Adresse: 36, 9872 Millstatt am See\nOrt: Millstatt am See\nPLZ: 9872\nKoordinaten: 46.800829, 13.600318", "doc_type": "addresses"}
{"source": "OSM", "region": "Kärnten", "osm_type": "node", "osm_id": 5618890778, "name": null, "category": null, "address": "62, 9872 Millstatt am See", "street": null, "housenumber": "62", "postcode": "9872", "place": "Millstatt am See", "lat": 46.8005442, "lon": 13.6010514, "tags": {"addr:city": "Millstatt am See", "addr:housenumber": "62", "addr:place": "Lammersdorf", "addr:postcode": "9872"}, "content": "Adresse: 62, 9872 Millstatt am See\nOrt: Millstatt am See\nPLZ: 9872\nKoordinaten: 46.800544, 13.601051", "doc_type": "addresses"}
{"source": "OSM", "region": "Kärnten", "osm_type": "node", "osm_id": 5618890779, "name": null, "category": null, "address": "54, 9872 Millstatt am See", "street": null, "housenumber": "54", "postcode": "9872", "place": "Millstatt am See", "lat": 46.7972318, "lon": 13.5925287, "tags": {"addr:city": "Millstatt am See", "addr:housenumber": "54", "addr:place": "Pesenthein am Millstätter See", "addr:postcode": "9872"}, "content": "Adresse: 54, 9872 Millstatt am See\nOrt: Millstatt am See\nPLZ: 9872\nKoordinaten: 46.797232, 13.592529", "doc_type": "addresses"}
{"source": "OSM", "region": "Kärnten", "osm_type": "node", "osm_id": 5622112734, "name": null, "category": null, "address": "109, 9872 Millstatt am See", "street": null, "housenumber": "109", "postcode": "9872", "place": "Millstatt am See", "lat": 46.8115173, "lon": 13.5502437, "tags": {"addr:city": "Millstatt am See", "addr:housenumber": "109", "addr:place": "Lechnerschaft", "addr:postcode": "9872"}, "content": "Adresse: 109, 9872 Millstatt am See\nOrt: Millstatt am See\nPLZ: 9872\nKoordinaten: 46.811517, 13.550244", "doc_type": "addresses"}
{"source": "OSM", "region": "Kärnten", "osm_type": "node", "osm_id": 5622112735, "name": null, "category": null, "address": "Sporerweg 353, 9872 Millstatt am See", "street": "Sporerweg", "housenumber": "353", "postcode": "9872", "place": "Millstatt am See", "lat": 46.8157062, "lon": 13.5506567, "tags": {"addr:city": "Millstatt am See", "addr:housenumber": "353", "addr:postcode": "9872", "addr:street": "Sporerweg"}, "content": "Adresse: Sporerweg 353, 9872 Millstatt am See\nOrt: Millstatt am See\nPLZ: 9872\nKoordinaten: 46.815706, 13.550657", "doc_type": "addresses"}
{"source": "OSM", "region": "Kärnten", "osm_type": "node", "osm_id": 5622112737, "name": null, "category": null, "address": "Sporerweg 276, 9872 Millstatt am See", "street": "Sporerweg", "housenumber": "276", "postcode": "9872", "place": "Millstatt am See", "lat": 46.8145516, "lon": 13.5578477, "tags": {"addr:city": "Millstatt am See", "addr:housenumber": "276", "addr:postcode": "9872", "addr:street": "Sporerweg"}, "content": "Adresse: Sporerweg 276, 9872 Millstatt am See\nOrt: Millstatt am See\nPLZ: 9872\nKoordinaten: 46.814552, 13.557848", "doc_type": "addresses"}
{"source": "OSM", "region": "Kärnten", "osm_type": "node", "osm_id": 5622112738, "name": null, "category": null, "address": "Sporerweg 243, 9872 Millstatt am See", "street": "Sporerweg", "housenumber": "243", "postcode": "9872", "place": "Millstatt am See", "lat": 46.8146544, "lon": 13.5586497, "tags": {"addr:city": "Millstatt am See", "addr:housenumber": "243", "addr:postcode": "9872", "addr:street": "Sporerweg"}, "content": "Adresse: Sporerweg 243, 9872 Millstatt am See\nOrt: Millstatt am See\nPLZ: 9872\nKoordinaten: 46.814654, 13.558650", "doc_type": "addresses"}
{"source": "OSM", "region": "Kärnten", "osm_type": "node", "osm_id": 5622112739, "name": null, "category": null, "address": "Sporerweg 242, 9872 Millstatt am See", "street": "Sporerweg", "housenumber": "242", "postcode": "9872", "place": "Millstatt am See", "lat": 46.8144975, "lon": 13.5588415, "tags": {"addr:city": "Millstatt am See", "addr:housenumber": "242", "addr:postcode": "9872", "addr:street": "Sporerweg"}, "content": "Adresse: Sporerweg 242, 9872 Millstatt am See\nOrt: Millstatt am See\nPLZ: 9872\nKoordinaten: 46.814498, 13.558841", "doc_type": "addresses"}
{"source": "OSM", "region": "Kärnten", "osm_type": "node", "osm_id": 5622112742, "name": null, "category": null, "address": "Am Golfplatz 1, 9872 Millstatt am See", "street": "Am Golfplatz", "housenumber": "1", "postcode": "9872", "place": "Millstatt am See", "lat": 46.8173325, "lon": 13.5532638, "tags": {"addr:city": "Millstatt am See", "addr:housenumber": "1", "addr:postcode": "9872", "addr:street": "Am Golfplatz"}, "content": "Adresse: Am Golfplatz 1, 9872 Millstatt am See\nOrt: Millstatt am See\nPLZ: 9872\nKoordinaten: 46.817332, 13.553264", "doc_type": "addresses"}
{"source": "OSM", "region": "Kärnten", "osm_type": "node", "osm_id": 5622112743, "name": null, "category": null, "address": "31, 9872 Millstatt am See", "street": null, "housenumber": "31", "postcode": "9872", "place": "Millstatt am See", "lat": 46.8229966, "lon": 13.5630861, "tags": {"addr:city": "Millstatt am See", "addr:housenumber": "31", "addr:place": "Laubendorf", "addr:postcode": "9872"}, "content": "Adresse: 31, 9872 Millstatt am See\nOrt: Millstatt am See\nPLZ: 9872\nKoordinaten: 46.822997, 13.563086", "doc_type": "addresses"}
{"source": "OSM", "region": "Kärnten", "osm_type": "node", "osm_id": 5622112744, "name": null, "category": null, "address": "91, 9872 Millstatt am See", "street": null, "housenumber": "91", "postcode": "9872", "place": "Millstatt am See", "lat": 46.8235839, "lon": 13.563475, "tags": {"addr:city": "Millstatt am See", "addr:housenumber": "91", "addr:place": "Laubendorf", "addr:postcode": "9872"}, "content": "Adresse: 91, 9872 Millstatt am See\nOrt: Millstatt am See\nPLZ: 9872\nKoordinaten: 46.823584, 13.563475", "doc_type": "addresses"}
{"source": "OSM", "region": "Kärnten", "osm_type": "node", "osm_id": 5622112745, "name": null, "category": null, "address": "17, 9872 Millstatt am See", "street": null, "housenumber": "17", "postcode": "9872", "place": "Millstatt am See", "lat": 46.8236389, "lon": 13.5626891, "tags": {"addr:city": "Millstatt am See", "addr:housenumber": "17", "addr:place": "Laubendorf", "addr:postcode": "9872"}, "content": "Adresse: 17, 9872 Millstatt am See\nOrt: Millstatt am See\nPLZ: 9872\nKoordinaten: 46.823639, 13.562689", "doc_type": "addresses"}
{"source": "OSM", "region": "Kärnten", "osm_type": "node", "osm_id": 5622112746, "name": null, "category": null, "address": "83, 9872 Millstatt am See", "street": null, "housenumber": "83", "postcode": "9872", "place": "Millstatt am See", "lat": 46.824206, "lon": 13.561179, "tags": {"addr:city": "Millstatt am See", "addr:housenumber": "83", "addr:place": "Laubendorf", "addr:postcode": "9872"}, "content": "Adresse: 83, 9872 Millstatt am See\nOrt: Millstatt am See\nPLZ: 9872\nKoordinaten: 46.824206, 13.561179", "doc_type": "addresses"}
{"source": "OSM", "region": "Kärnten", "osm_type": "node", "osm_id": 5622112747, "name": null, "category": null, "address": "3, 9872 Millstatt am See", "street": null, "housenumber": "3", "postcode": "9872", "place": "Millstatt am See", "lat": 46.8243492, "lon": 13.560369, "tags": {"addr:city": "Millstatt am See", "addr:housenumber": "3", "addr:place": "Laubendorf", "addr:postcode": "9872"}, "content": "Adresse: 3, 9872 Millstatt am See\nOrt: Millstatt am See\nPLZ: 9872\nKoordinaten: 46.824349, 13.560369", "doc_type": "addresses"}
{"source": "OSM", "region": "Kärnten", "osm_type": "node", "osm_id": 5622112748, "name": null, "category": null, "address": "23, 9872 Millstatt am See", "street": null, "housenumber": "23", "postcode": "9872", "place": "Millstatt am See", "lat": 46.8243896, "lon": 13.5606775, "tags": {"addr:city": "Millstatt am See", "addr:housenumber": "23", "addr:place": "Laubendorf", "addr:postcode": "9872"}, "content": "Adresse: 23, 9872 Millstatt am See\nOrt: Millstatt am See\nPLZ: 9872\nKoordinaten: 46.824390, 13.560678", "doc_type": "addresses"}
{"source": "OSM", "region": "Kärnten", "osm_type": "node", "osm_id": 1057024254, "name": "RAIBA Millstättersee, Bankstelle Millstatt", "category": "amenity:bank", "address": "Georgsritterplatz 177, 9872 Millstatt am See", "street": "Georgsritterplatz", "housenumber": "177", "postcode": "9872", "place": "Millstatt am See", "lat": 46.8027365, "lon": 13.5717469, "tags": {"addr:city": "Millstatt am See", "addr:housenumber": "177", "addr:postcode": "9872", "addr:street": "Georgsritterplatz", "amenity": "bank", "name": "RAIBA Millstättersee, Bankstelle Millstatt", "operator": "RAIFFEISENBANK MILLSTÄTTERSEE"}, "content": "RAIBA Millstättersee, Bankstelle Millstatt\nKategorie: amenity:bank\nAdresse: Georgsritterplatz 177, 9872 Millstatt am See\nOrt: Millstatt am See\nPLZ: 9872\nKoordinaten: 46.802737, 13.571747\nTags: amenity=bank, operator=RAIFFEISENBANK MILLSTÄTTERSEE", "doc_type": "pois"}
{"source": "OSM", "region": "Kärnten", "osm_type": "node", "osm_id": 1687653637, "name": "Buschenschenke Höfler", "category": "amenity:restaurant", "address": "Waldweg 6, 9872 Millstatt am See", "street": "Waldweg", "housenumber": "6", "postcode": "9872", "place": "Millstatt am See", "lat": 46.8133305, "lon": 13.5542647, "tags": {"addr:city": "Millstatt am See", "addr:housenumber": "6", "addr:postcode": "9872", "addr:street": "Waldweg", "amenity": "restaurant", "name": "Buschenschenke Höfler"}, "content": "Buschenschenke Höfler\nKategorie: amenity:restaurant\nAdresse: Waldweg 6, 9872 Millstatt am See\nOrt: Millstatt am See\nPLZ: 9872\nKoordinaten: 46.813330, 13.554265\nTags: amenity=restaurant", "doc_type": "pois"}
{"source": "OSM", "region": "Kärnten", "osm_type": "node", "osm_id": 1687654084, "name": "Rathaus-Café", "category": "amenity:cafe", "address": "Marktplatz 14, 9872 Millstatt am See", "street": "Marktplatz", "housenumber": "14", "postcode": "9872", "place": "Millstatt am See", "lat": 46.8053245, "lon": 13.5715893, "tags": {"addr:city": "Millstatt am See", "addr:housenumber": "14", "addr:postcode": "9872", "addr:street": "Marktplatz", "amenity": "cafe", "name": "Rathaus-Café"}, "content": "Rathaus-Café\nKategorie: amenity:cafe\nAdresse: Marktplatz 14, 9872 Millstatt am See\nOrt: Millstatt am See\nPLZ: 9872\nKoordinaten: 46.805324, 13.571589\nTags: amenity=cafe", "doc_type": "pois"}
{"source": "OSM", "region": "Kärnten", "osm_type": "node", "osm_id": 1687654097, "name": "Naturbäckerei Lagler Millstatt", "category": "shop:bakery", "address": "Kaiser-Franz-Josef-Straße 176, 9872 Millstatt am See", "street": "Kaiser-Franz-Josef-Straße", "housenumber": "176", "postcode": "9872", "place": "Millstatt am See", "lat": 46.8025899, "lon": 13.5719916, "tags": {"addr:city": "Millstatt am See", "addr:housenumber": "176", "addr:postcode": "9872", "addr:street": "Kaiser-Franz-Josef-Straße", "name": "Naturbäckerei Lagler Millstatt", "operator": "Lagler", "phone": "+43 4762 629 29", "shop": "bakery", "website": "https://www.lagler.at/"}, "content": "Naturbäckerei Lagler Millstatt\nKategorie: shop:bakery\nAdresse: Kaiser-Franz-Josef-Straße 176, 9872 Millstatt am See\nOrt: Millstatt am See\nPLZ: 9872\nKoordinaten: 46.802590, 13.571992\nTags: shop=bakery, operator=Lagler, phone=+43 4762 629 29, website=https://www.lagler.at/", "doc_type": "pois"}
{"source": "OSM", "region": "Kärnten", "osm_type": "node", "osm_id": 2791050244, "name": "Due Cuori e un Prosciutto", "category": "amenity:restaurant", "address": "Kaiser-Franz-Josef-Straße 179, 9872 Millstatt am See", "street": "Kaiser-Franz-Josef-Straße", "housenumber": "179", "postcode": "9872", "place": "Millstatt am See", "lat": 46.8032489, "lon": 13.5700429, "tags": {"addr:city": "Millstatt am See", "addr:housenumber": "179", "addr:postcode": "9872", "addr:street": "Kaiser-Franz-Josef-Straße", "amenity": "restaurant", "name": "Due Cuori e un Prosciutto", "phone": "+43660 9839005", "website": "https://duecuorieunprosciutto.my.canva.site/"}, "content": "Due Cuori e un Prosciutto\nKategorie: amenity:restaurant\nAdresse: Kaiser-Franz-Josef-Straße 179, 9872 Millstatt am See\nOrt: Millstatt am See\nPLZ: 9872\nKoordinaten: 46.803249, 13.570043\nTags: amenity=restaurant, phone=+43660 9839005, website=https://duecuorieunprosciutto.my.canva.site/", "doc_type": "pois"}
{"source": "OSM", "region": "Kärnten", "osm_type": "node", "osm_id": 3142050105, "name": "Polizeiinspektion Millstatt", "category": "amenity:police", "address": "Kaiser-Franz-Josef-Straße 179, 9872 Millstatt am See", "street": "Kaiser-Franz-Josef-Straße", "housenumber": "179", "postcode": "9872", "place": "Millstatt am See", "lat": 46.8031381, "lon": 13.5701554, "tags": {"addr:city": "Millstatt am See", "addr:housenumber": "179", "addr:postcode": "9872", "addr:street": "Kaiser-Franz-Josef-Straße", "amenity": "police", "name": "Polizeiinspektion Millstatt", "phone": "+43 59133 2228100"}, "content": "Polizeiinspektion Millstatt\nKategorie: amenity:police\nAdresse: Kaiser-Franz-Josef-Straße 179, 9872 Millstatt am See\nOrt: Millstatt am See\nPLZ: 9872\nKoordinaten: 46.803138, 13.570155\nTags: amenity=police, phone=+43 59133 2228100", "doc_type": "pois"}
{"source": "OSM", "region": "Kärnten", "osm_type": "node", "osm_id": 3434928768, "name": "Lavendel \"pur\"", "category": "shop:florist", "address": "Kaiser-Franz-Josef-Straße 86, 9872 Millstatt am See", "street": "Kaiser-Franz-Josef-Straße", "housenumber": "86", "postcode": "9872", "place": "Millstatt am See", "lat": 46.8029329, "lon": 13.5709172, "tags": {"addr:city": "Millstatt am See", "addr:housenumber": "86", "addr:postcode": "9872", "addr:street": "Kaiser-Franz-Josef-Straße", "name": "Lavendel \"pur\"", "shop": "florist"}, "content": "Lavendel \"pur\"\nKategorie: shop:florist\nAdresse: Kaiser-Franz-Josef-Straße 86, 9872 Millstatt am See\nOrt: Millstatt am See\nPLZ: 9872\nKoordinaten: 46.802933, 13.570917\nTags: shop=florist", "doc_type": "pois"}
{"source": "OSM", "region": "Kärnten", "osm_type": "node", "osm_id": 3434928770, "name": "Moden und Trachten Fian", "category": "shop:clothes", "address": "Kaiser-Franz-Josef-Straße 181, 9872 Millstatt am See", "street": "Kaiser-Franz-Josef-Straße", "housenumber": "181", "postcode": "9872", "place": "Millstatt am See", "lat": 46.8030416, "lon": 13.5706968, "tags": {"addr:city": "Millstatt am See", "addr:housenumber": "181", "addr:postcode": "9872", "addr:street": "Kaiser-Franz-Josef-Straße", "name": "Moden und Trachten Fian", "shop": "clothes"}, "content": "Moden und Trachten Fian\nKategorie: shop:clothes\nAdresse: Kaiser-Franz-Josef-Straße 181, 9872 Millstatt am See\nOrt: Millstatt am See\nPLZ: 9872\nKoordinaten: 46.803042, 13.570697\nTags: shop=clothes", "doc_type": "pois"}
{"source": "OSM", "region": "Kärnten", "osm_type": "node", "osm_id": 3434928772, "name": "Mountain Bike Station", "category": "shop:bicycle", "address": "Kaiser-Franz-Josef-Straße 59, 9872 Millstatt am See", "street": "Kaiser-Franz-Josef-Straße", "housenumber": "59", "postcode": "9872", "place": "Millstatt am See", "lat": 46.8027182, "lon": 13.5712853, "tags": {"addr:city": "Millstatt am See", "addr:housenumber": "59", "addr:postcode": "9872", "addr:street": "Kaiser-Franz-Josef-Straße", "name": "Mountain Bike Station", "shop": "bicycle"}, "content": "Mountain Bike Station\nKategorie: shop:bicycle\nAdresse: Kaiser-Franz-Josef-Straße 59, 9872 Millstatt am See\nOrt: Millstatt am See\nPLZ: 9872\nKoordinaten: 46.802718, 13.571285\nTags: shop=bicycle", "doc_type": "pois"}
{"source": "OSM", "region": "Kärnten", "osm_type": "node", "osm_id": 3729842138, "name": "Pension Pleikner", "category": "tourism:guest_house", "address": "Kaiser-Franz-Josef-Straße 181, 9872 Millstatt am See", "street": "Kaiser-Franz-Josef-Straße", "housenumber": "181", "postcode": "9872", "place": "Millstatt am See", "lat": 46.8029437, "lon": 13.570569, "tags": {"addr:city": "Millstatt am See", "addr:housenumber": "181", "addr:postcode": "9872", "addr:street": "Kaiser-Franz-Josef-Straße", "name": "Pension Pleikner", "tourism": "guest_house"}, "content": "Pension Pleikner\nKategorie: tourism:guest_house\nAdresse: Kaiser-Franz-Josef-Straße 181, 9872 Millstatt am See\nOrt: Millstatt am See\nPLZ: 9872\nKoordinaten: 46.802944, 13.570569", "doc_type": "pois"}
{"source": "OSM", "region": "Kärnten", "osm_type": "node", "osm_id": 5487901453, "name": "Lindenhof Wirtshaus", "category": "amenity:restaurant", "address": "Stiftgasse 2, 9872 Millstatt am See", "street": "Stiftgasse", "housenumber": "2", "postcode": "9872", "place": "Millstatt am See", "lat": 46.8034351, "lon": 13.5705646, "tags": {"addr:city": "Millstatt am See", "addr:housenumber": "2", "addr:postcode": "9872", "addr:street": "Stiftgasse", "amenity": "restaurant", "name": "Lindenhof Wirtshaus"}, "content": "Lindenhof Wirtshaus\nKategorie: amenity:restaurant\nAdresse: Stiftgasse 2, 9872 Millstatt am See\nOrt: Millstatt am See\nPLZ: 9872\nKoordinaten: 46.803435, 13.570565\nTags: amenity=restaurant", "doc_type": "pois"}
{"source": "OSM", "region": "Kärnten", "osm_type": "node", "osm_id": 5618523867, "name": "Pension Sedlak", "category": "tourism:guest_house", "address": "Zopfenkopfweg 12, 9872 Millstatt am See", "street": "Zopfenkopfweg", "housenumber": "12", "postcode": "9872", "place": "Millstatt am See", "lat": 46.8076319, "lon": 13.5625899, "tags": {"addr:city": "Millstatt am See", "addr:housenumber": "12", "addr:postcode": "9872", "addr:street": "Zopfenkopfweg", "name": "Pension Sedlak", "tourism": "guest_house", "website": "https://www.pension-sedlak.at/"}, "content": "Pension Sedlak\nKategorie: tourism:guest_house\nAdresse: Zopfenkopfweg 12, 9872 Millstatt am See\nOrt: Millstatt am See\nPLZ: 9872\nKoordinaten: 46.807632, 13.562590\nTags: website=https://www.pension-sedlak.at/", "doc_type": "pois"}
