{"source": "OSM", "region": "Kärnten", "osm_type": "node", "osm_id": 340517156, "name": "Postpartner 9844, Steinbock-Haus", "category": "amenity:post_office", "address": "Hof 38, 9844 Heiligenblut am Großglockner", "street": "Hof", "housenumber": "38", "postcode": "9844", "place": "Heiligenblut am Großglockner", "lat": 47.0391458, "lon": 12.8440589, "tags": {"addr:city": "Heiligenblut am Großglockner", "addr:housenumber": "38", "addr:postcode": "9844", "addr:street": "Hof", "amenity": "post_office", "name": "Postpartner 9844, Steinbock-Haus", "operator": "Tourismusverband", "website": "https://www.post.at/sf/standortfinder"}, "content": "Postpartner 9844, Steinbock-Haus\nKategorie: amenity:post_office\nAdresse: Hof 38, 9844 Heiligenblut am Großglockner\nOrt: Heiligenblut am Großglockner\nPLZ: 9844\nKoordinaten: 47.039146, 12.844059\nTags: amenity=post_office, operator=Tourismusverband, website=https://www.post.at/sf/standortfinder", "doc_type": "addresses"}
{"source": "OSM", "region": "Kärnten", "osm_type": "node", "osm_id": 665645393, "name": "Berggasthof Wallackhaus", "category": "tourism:hotel", "address": "Untertauern 20, 9844 Heiligenblut am Großglockner", "street": "Untertauern", "housenumber": "20", "postcode": "9844", "place": "Heiligenblut am Großglockner", "lat": 47.0704182, "lon": 12.838795, "tags": {"addr:city": "Heiligenblut am Großglockner", "addr:housenumber": "20", "addr:postcode": "9844", "addr:street": "Untertauern", "name": "Berggasthof Wallackhaus", "operator": "Karin & Gerwald Wallner", "phone": "+43 4824 2223", "tourism": "hotel", "website": "http://www.wallackhaus.at"}, "content": "Berggasthof Wallackhaus\nKategorie: tourism:hotel\nAdresse: Untertauern 20, 9844 Heiligenblut am Großglockner\nOrt: Heiligenblut am Großglockner\nPLZ: 9844\nKoordinaten: 47.070418, 12.838795\nTags: operator=Karin & Gerwald Wallner, phone=+43 4824 2223, website=http://www.wallackhaus.at", "doc_type": "addresses"}
{"source": "OSM", "region": "Kärnten", "osm_type": "node", "osm_id": 1446820841, "name": "Socar", "category": "amenity:fuel", "address": "Pockhorn 29, 9844 Heiligenblut am Großglockner", "street": "Pockhorn", "housenumber": "29", "postcode": "9844", "place": "Heiligenblut am Großglockner", "lat": 47.0235296, "lon": 12.8619772, "tags": {"addr:city": "Heiligenblut am Großglockner", "addr:housenumber": "29", "addr:postcode": "9844", "addr:street": "Pockhorn", "amenity": "fuel", "brand": "Socar", "name": "Socar"}, "content": "Socar\nKategorie: amenity:fuel\nAdresse: Pockhorn 29, 9844 Heiligenblut am Großglockner\nOrt: Heiligenblut am Großglockner\nPLZ: 9844\nKoordinaten: 47.023530, 12.861977\nTags: amenity=fuel, brand=Socar", "doc_type": "addresses"}
{"source": "OSM", "region": "Kärnten", "osm_type": "node", "osm_id": 2107380865, "name": "Alm Casino", "category": "amenity:restaurant", "address": "Hadergasse 11, 9844 Heiligenblut am Großglockner", "street": "Hadergasse", "housenumber": "11", "postcode": "9844", "place": "Heiligenblut am Großglockner", "lat": 47.037283, "lon": 12.839402, "tags": {"addr:city": "Heiligenblut am Großglockner", "addr:housenumber": "11", "addr:postcode": "9844", "addr:street": "Hadergasse", "amenity": "restaurant", "name": "Alm Casino"}, "content": "Alm Casino\nKategorie: amenity:restaurant\nAdresse: Hadergasse 11, 9844 Heiligenblut am Großglockner\nOrt: Heiligenblut am Großglockner\nPLZ: 9844\nKoordinaten: 47.037283, 12.839402\nTags: amenity=restaurant", "doc_type": "addresses"}
{"source": "OSM", "region": "Kärnten", "osm_type": "node", "osm_id": 2429255620, "name": "Alpengasthof \"Alter Pocher\"", "category": "amenity:restaurant", "address": "10, 9844 Heiligenblut am Großglockner", "street": null, "housenumber": "10", "postcode": "9844", "place": "Heiligenblut am Großglockner", "lat": 47.0454065, "lon": 12.9045724, "tags": {"addr:city": "Heiligenblut am Großglockner", "addr:housenumber": "10", "addr:place": "Fleiß", "addr:postcode": "9844", "amenity": "restaurant", "name": "Alpengasthof \"Alter Pocher\"", "tourism": "alpine_hut", "website": "http://www.alterpocher.at"}, "content": "Alpengasthof \"Alter Pocher\"\nKategorie: amenity:restaurant\nAdresse: 10, 9844 Heiligenblut am Großglockner\nOrt: Heiligenblut am Großglockner\nPLZ: 9844\nKoordinaten: 47.045406, 12.904572\nTags: amenity=restaurant, website=http://www.alterpocher.at", "doc_type": "addresses"}
{"source": "OSM", "region": "Kärnten", "osm_type": "node", "osm_id": 2641524377, "name": "ADEG", "category": "shop:supermarket", "address": "Hof 46, 9844 Heiligenblut am Großglockner", "street": "Hof", "housenumber": "46", "postcode": "9844", "place": "Heiligenblut am Großglockner", "lat": 47.0399172, "lon": 12.8429184, "tags": {"addr:city": "Heiligenblut am Großglockner", "addr:housenumber": "46", "addr:postcode": "9844", "addr:street": "Hof", "brand": "ADEG", "name": "ADEG", "operator": "Ernst Pichler", "phone": "+43 (0) 4824 2214", "shop": "supermarket", "website": "https://www.ernstpichler.at/"}, "content": "ADEG\nKategorie: shop:supermarket\nAdresse: Hof 46, 9844 Heiligenblut am Großglockner\nOrt: Heiligenblut am Großglockner\nPLZ: 9844\nKoordinaten: 47.039917, 12.842918\nTags: shop=supermarket, operator=Ernst Pichler, brand=ADEG, phone=+43 (0) 4824 2214, website=https://www.ernstpichler.at/", "doc_type": "addresses"}
{"source": "OSM", "region": "Kärnten", "osm_type": "node", "osm_id": 3377654434, "name": "Pension Edelweiß", "category": "tourism:guest_house", "address": "Hadergasse 17, 9844 Heiligenblut am Großglockner", "street": "Hadergasse", "housenumber": "17", "postcode": "9844", "place": "Heiligenblut am Großglockner", "lat": 47.0366698, "lon": 12.841578, "tags": {"addr:city": "Heiligenblut am Großglockner", "addr:housenumber": "17", "addr:postcode": "9844", "addr:street": "Hadergasse", "name": "Pension Edelweiß", "operator": "Familie Christian Fleißner", "phone": "+43 4824 2083", "tourism": "guest_house", "website": "https://www.pension-edelweiss.info/"}, "content": "Pension Edelweiß\nKategorie: tourism:guest_house\nAdresse: Hadergasse 17, 9844 Heiligenblut am Großglockner\nOrt: Heiligenblut am Großglockner\nPLZ: 9844\nKoordinaten: 47.036670, 12.841578\nTags: operator=Familie Christian Fleißner, phone=+43 4824 2083, website=https://www.pension-edelweiss.info/", "doc_type": "addresses"}
{"source": "OSM", "region": "Kärnten", "osm_type": "node", "osm_id": 3377661160, "name": "Taxi Fleissner", "category": "amenity:taxi", "address": "Hadergasse 17, 9844 Heiligenblut am Großglockner", "street": "Hadergasse", "housenumber": "17", "postcode": "9844", "place": "Heiligenblut am Großglockner", "lat": 47.0366489, "lon": 12.8416542, "tags": {"addr:city": "Heiligenblut am Großglockner", "addr:housenumber": "17", "addr:postcode": "9844", "addr:street": "Hadergasse", "amenity": "taxi", "name": "Taxi Fleissner", "operator": "Christian Fleissner", "phone": "+43 664 383 6311", "website": "https://www.taxi-fleissner.info/"}, "content": "Taxi Fleissner\nKategorie: amenity:taxi\nAdresse: Hadergasse 17, 9844 Heiligenblut am Großglockner\nOrt: Heiligenblut am Großglockner\nPLZ: 9844\nKoordinaten: 47.036649, 12.841654\nTags: amenity=taxi, operator=Christian Fleissner, phone=+43 664 383 6311, website=https://www.taxi-fleissner.info/", "doc_type": "addresses"}
{"source": "OSM", "region": "Kärnten", "osm_type": "node", "osm_id": 5122630219, "name": "Polizeiinspektion Heiligenblut", "category": "amenity:police", "address": "14, 9844 Heiligenblut am Großglockner", "street": null, "housenumber": "14", "postcode": "9844", "place": "Heiligenblut am Großglockner", "lat": 47.0374549, "lon": 12.84609, "tags": {"addr:city": "Heiligenblut am Großglockner", "addr:housenumber": "14", "addr:place": "Hof", "addr:postcode": "9844", "amenity": "police", "name": "Polizeiinspektion Heiligenblut", "phone": "+43 59133 2225100"}, "content": "Polizeiinspektion Heiligenblut\nKategorie: amenity:police\nAdresse: 14, 9844 Heiligenblut am Großglockner\nOrt: Heiligenblut am Großglockner\nPLZ: 9844\nKoordinaten: 47.037455, 12.846090\nTags: amenity=police, phone=+43 59133 2225100", "doc_type": "addresses"}
{"source": "OSM", "region": "Kärnten", "osm_type": "node", "osm_id": 5586880887, "name": null, "category": null, "address": "63, 9844 Heiligenblut am Großglockner", "street": null, "housenumber": "63", "postcode": "9844", "place": "Heiligenblut am Großglockner", "lat": 47.0761063, "lon": 12.750468, "tags": {"addr:city": "Heiligenblut am Großglockner", "addr:housenumber": "63", "addr:place": "Winkl", "addr:postcode": "9844"}, "content": "Adresse: 63, 9844 Heiligenblut am Großglockner\nOrt: Heiligenblut am Großglockner\nPLZ: 9844\nKoordinaten: 47.076106, 12.750468", "doc_type": "addresses"}
{"source": "OSM", "region": "Kärnten", "osm_type": "node", "osm_id": 5586880888, "name": null, "category": null, "address": "54, 9844 Heiligenblut am Großglockner", "street": null, "housenumber": "54", "postcode": "9844", "place": "Heiligenblut am Großglockner", "lat": 47.0759181, "lon": 12.7506879, "tags": {"addr:city": "Heiligenblut am Großglockner", "addr:housenumber": "54", "addr:place": "Winkl", "addr:postcode": "9844"}, "content": "Adresse: 54, 9844 Heiligenblut am Großglockner\nOrt: Heiligenblut am Großglockner\nPLZ: 9844\nKoordinaten: 47.075918, 12.750688", "doc_type": "addresses"}
{"source": "OSM", "region": "Kärnten", "osm_type": "node", "osm_id": 5586880898, "name": null, "category": null, "address": "78, 9844 Heiligenblut am Großglockner", "street": null, "housenumber": "78", "postcode": "9844", "place": "Heiligenblut am Großglockner", "lat": 47.0560678, "lon": 12.8051126, "tags": {"addr:city": "Heiligenblut am Großglockner", "addr:housenumber": "78", "addr:place": "Winkl", "addr:postcode": "9844"}, "content": "Adresse: 78, 9844 Heiligenblut am Großglockner\nOrt: Heiligenblut am Großglockner\nPLZ: 9844\nKoordinaten: 47.056068, 12.805113", "doc_type": "addresses"}
{"source": "OSM", "region": "Kärnten", "osm_type": "node", "osm_id": 5586880919, "name": null, "category": null, "address": "16, 9844 Heiligenblut am Großglockner", "street": null, "housenumber": "16", "postcode": "9844", "place": "Heiligenblut am Großglockner", "lat": 47.0375444, "lon": 12.8523248, "tags": {"addr:city": "Heiligenblut am Großglockner", "addr:housenumber": "16", "addr:place": "Wolkersdorf", "addr:postcode": "9844"}, "content": "Adresse: 16, 9844 Heiligenblut am Großglockner\nOrt: Heiligenblut am Großglockner\nPLZ: 9844\nKoordinaten: 47.037544, 12.852325", "doc_type": "addresses"}
{"source": "OSM", "region": "Kärnten", "osm_type": "node", "osm_id": 5586884422, "name": null, "category": null, "address": "12, 9844 Heiligenblut am Großglockner", "street": null, "housenumber": "12", "postcode": "9844", "place": "Heiligenblut am Großglockner", "lat": 47.0348061, "lon": 12.8640917, "tags": {"addr:city": "Heiligenblut am Großglockner", "addr:housenumber": "12", "addr:place": "Fleiß", "addr:postcode": "9844"}, "content": "Adresse: 12, 9844 Heiligenblut am Großglockner\nOrt: Heiligenblut am Großglockner\nPLZ: 9844\nKoordinaten: 47.034806, 12.864092", "doc_type": "addresses"}
{"source": "OSM", "region": "Kärnten", "osm_type": "node", "osm_id": 5586884432, "name": null, "category": null, "address": "43, 9844 Heiligenblut am Großglockner", "street": null, "housenumber": "43", "postcode": "9844", "place": "Heiligenblut am Großglockner", "lat": 47.0359486, "lon": 12.8560102, "tags": {"addr:city": "Heiligenblut am Großglockner", "addr:housenumber": "43", "addr:place": "Hof", "addr:postcode": "9844"}, "content": "Adresse: 43, 9844 Heiligenblut am Großglockner\nOrt: Heiligenblut am Großglockner\nPLZ: 9844\nKoordinaten: 47.035949, 12.856010", "doc_type": "addresses"}
{"source": "OSM", "region": "Kärnten", "osm_type": "node", "osm_id": 5586884442, "name": null, "category": null, "address": "3, 9844 Heiligenblut am Großglockner", "street": null, "housenumber": "3", "postcode": "9844", "place": "Heiligenblut am Großglockner", "lat": 47.0383396, "lon": 12.8530329, "tags": {"addr:city": "Heiligenblut am Großglockner", "addr:housenumber": "3", "addr:place": "Wolkersdorf", "addr:postcode": "9844"}, "content": "Adresse: 3, 9844 Heiligenblut am Großglockner\nOrt: Heiligenblut am Großglockner\nPLZ: 9844\nKoordinaten: 47.038340, 12.853033", "doc_type": "addresses"}
{"source": "OSM", "region": "Kärnten", "osm_type": "node", "osm_id": 5586884444, "name": null, "category": null, "address": "5, 9844 Heiligenblut am Großglockner", "street": null, "housenumber": "5", "postcode": "9844", "place": "Heiligenblut am Großglockner", "lat": 47.0386302, "lon": 12.8530383, "tags": {"addr:city": "Heiligenblut am Großglockner", "addr:housenumber": "5", "addr:place": "Wolkersdorf", "addr:postcode": "9844"}, "content": "Adresse: 5, 9844 Heiligenblut am Großglockner\nOrt: Heiligenblut am Großglockner\nPLZ: 9844\nKoordinaten: 47.038630, 12.853038", "doc_type": "addresses"}
{"source": "OSM", "region": "Kärnten", "osm_type": "node", "osm_id": 5586884448, "name": null, "category": null, "address": "10, 9844 Heiligenblut am Großglockner", "street": null, "housenumber": "10", "postcode": "9844", "place": "Heiligenblut am Großglockner", "lat": 47.0381769, "lon": 12.8544867, "tags": {"addr:city": "Heiligenblut am Großglockner", "addr:housenumber": "10", "addr:place": "Wolkersdorf", "addr:postcode": "9844"}, "content": "Adresse: 10, 9844 Heiligenblut am Großglockner\nOrt: Heiligenblut am Großglockner\nPLZ: 9844\nKoordinaten: 47.038177, 12.854487", "doc_type": "addresses"}
{"source": "OSM", "region": "Kärnten", "osm_type": "node", "osm_id": 5586884456, "name": null, "category": null, "address": "6, 9844 Heiligenblut am Großglockner", "street": null, "housenumber": "6", "postcode": "9844", "place": "Heiligenblut am Großglockner", "lat": 47.0367493, "lon": 12.8713042, "tags": {"addr:city": "Heiligenblut am Großglockner", "addr:housenumber": "6", "addr:place": "Fleiß", "addr:postcode": "9844"}, "content": "Adresse: 6, 9844 Heiligenblut am Großglockner\nOrt: Heiligenblut am Großglockner\nPLZ: 9844\nKoordinaten: 47.036749, 12.871304", "doc_type": "addresses"}
{"source": "OSM", "region": "Kärnten", "osm_type": "node", "osm_id": 5586884461, "name": null, "category": null, "address": "18, 9844 Heiligenblut am Großglockner", "street": null, "housenumber": "18", "postcode": "9844", "place": "Heiligenblut am Großglockner", "lat": 47.0501779, "lon": 12.8712934, "tags": {"addr:city": "Heiligenblut am Großglockner", "addr:housenumber": "18", "addr:place": "Fleiß", "addr:postcode": "9844"}, "content": "Adresse: 18, 9844 Heiligenblut am Großglockner\nOrt: Heiligenblut am Großglockner\nPLZ: 9844\nKoordinaten: 47.050178, 12.871293", "doc_type": "addresses"}
{"source": "OSM", "region": "Kärnten", "osm_type": "node", "osm_id": 5586884462, "name": null, "category": null, "address": "16, 9844 Heiligenblut am Großglockner", "street": null, "housenumber": "16", "postcode": "9844", "place": "Heiligenblut am Großglockner", "lat": 47.0516637, "lon": 12.8714329, "tags": {"addr:city": "Heiligenblut am Großglockner", "addr:housenumber": "16", "addr:place": "Fleiß", "addr:postcode": "9844"}, "content": "Adresse: 16, 9844 Heiligenblut am Großglockner\nOrt: Heiligenblut am Großglockner\nPLZ: 9844\nKoordinaten: 47.051664, 12.871433", "doc_type": "addresses"}
{"source": "OSM", "region": "Kärnten", "osm_type": "node", "osm_id": 5586884463, "name": null, "category": null, "address": "23, 9844 Heiligenblut am Großglockner", "street": null, "housenumber": "23", "postcode": "9844", "place": "Heiligenblut am Großglockner", "lat": 47.0477564, "lon": 12.8496051, "tags": {"addr:city": "Heiligenblut am Großglockner", "addr:housenumber": "23", "addr:place": "Untertauern", "addr:postcode": "9844"}, "content": "Adresse: 23, 9844 Heiligenblut am Großglockner\nOrt: Heiligenblut am Großglockner\nPLZ: 9844\nKoordinaten: 47.047756, 12.849605", "doc_type": "addresses"}
{"source": "OSM", "region": "Kärnten", "osm_type": "node", "osm_id": 5586884465, "name": null, "category": null, "address": "36, 9844 Heiligenblut am Großglockner", "street": null, "housenumber": "36", "postcode": "9844", "place": "Heiligenblut am Großglockner", "lat": 47.0476851, "lon": 12.8513324, "tags": {"addr:city": "Heiligenblut am Großglockner", "addr:housenumber": "36", "addr:place": "Untertauern", "addr:postcode": "9844"}, "content": "Adresse: 36, 9844 Heiligenblut am Großglockner\nOrt: Heiligenblut am Großglockner\nPLZ: 9844\nKoordinaten: 47.047685, 12.851332", "doc_type": "addresses"}
{"source": "OSM", "region": "Kärnten", "osm_type": "node", "osm_id": 5586884479, "name": null, "category": null, "address": "39, 9844 Heiligenblut am Großglockner", "street": null, "housenumber": "39", "postcode": "9844", "place": "Heiligenblut am Großglockner", "lat": 47.0399884, "lon": 12.8435728, "tags": {"addr:city": "Heiligenblut am Großglockner", "addr:housenumber": "39", "addr:place": "Hof", "addr:postcode": "9844"}, "content": "Adresse: 39, 9844 Heiligenblut am Großglockner\nOrt: Heiligenblut am Großglockner\nPLZ: 9844\nKoordinaten: 47.039988, 12.843573", "doc_type": "addresses"}
{"source": "OSM", "region": "Kärnten", "osm_type": "node", "osm_id": 5586884486, "name": null, "category": null, "address": "5, 9844 Heiligenblut am Großglockner", "street": null, "housenumber": "5", "postcode": "9844", "place": "Heiligenblut am Großglockner", "lat": 47.0402461, "lon": 12.8410622, "tags": {"addr:city": "Heiligenblut am Großglockner", "addr:housenumber": "5", "addr:place": "Hof", "addr:postcode": "9844"}, "content": "Adresse: 5, 9844 Heiligenblut am Großglockner\nOrt: Heiligenblut am Großglockner\nPLZ: 9844\nKoordinaten: 47.040246, 12.841062", "doc_type": "addresses"}
{"source": "OSM", "region": "Kärnten", "osm_type": "node", "osm_id": 5586884487, "name": null, "category": null, "address": "2, 9844 Heiligenblut am Großglockner", "street": null, "housenumber": "2", "postcode": "9844", "place": "Heiligenblut am Großglockner", "lat": 47.0401182, "lon": 12.840955, "tags": {"addr:city": "Heiligenblut am Großglockner", "addr:housenumber": "2", "addr:place": "Hof", "addr:postcode": "9844"}, "content": "Adresse: 2, 9844 Heiligenblut am Großglockner\nOrt: Heiligenblut am Großglockner\nPLZ: 9844\nKoordinaten: 47.040118, 12.840955", "doc_type": "addresses"}
{"source": "OSM", "region": "Kärnten", "osm_type": "node", "osm_id": 5586884492, "name": null, "category": null, "address": "19, 9844 Heiligenblut am Großglockner", "street": null, "housenumber": "19", "postcode": "9844", "place": "Heiligenblut am Großglockner", "lat": 47.0412524, "lon": 12.83941, "tags": {"addr:city": "Heiligenblut am Großglockner", "addr:housenumber": "19", "addr:place": "Untertauern", "addr:postcode": "9844"}, "content": "Adresse: 19, 9844 Heiligenblut am Großglockner\nOrt: Heiligenblut am Großglockner\nPLZ: 9844\nKoordinaten: 47.041252, 12.839410", "doc_type": "addresses"}
{"source": "OSM", "region": "Kärnten", "osm_type": "node", "osm_id": 5586884506, "name": null, "category": null, "address": "65, 9844 Heiligenblut am Großglockner", "street": null, "housenumber": "65", "postcode": "9844", "place": "Heiligenblut am Großglockner", "lat": 47.0409827, "lon": 12.8361522, "tags": {"addr:city": "Heiligenblut am Großglockner", "addr:housenumber": "65", "addr:place": "Winkl", "addr:postcode": "9844"}, "content": "Adresse: 65, 9844 Heiligenblut am Großglockner\nOrt: Heiligenblut am Großglockner\nPLZ: 9844\nKoordinaten: 47.040983, 12.836152", "doc_type": "addresses"}
{"source": "OSM", "region": "Kärnten", "osm_type": "node", "osm_id": 5586884507, "name": null, "category": null, "address": "1, 9844 Heiligenblut am Großglockner", "street": null, "housenumber": "1", "postcode": "9844", "place": "Heiligenblut am Großglockner", "lat": 47.0409509, "lon": 12.8359366, "tags": {"addr:city": "Heiligenblut am Großglockner", "addr:housenumber": "1", "addr:place": "Winkl", "addr:postcode": "9844"}, "content": "Adresse: 1, 9844 Heiligenblut am Großglockner\nOrt: Heiligenblut am Großglockner\nPLZ: 9844\nKoordinaten: 47.040951, 12.835937", "doc_type": "addresses"}
{"source": "OSM", "region": "Kärnten", "osm_type": "node", "osm_id": 5586884948, "name": null, "category": null, "address": "30, 9844 Heiligenblut am Großglockner", "street": null, "housenumber": "30", "postcode": "9844", "place": "Heiligenblut am Großglockner", "lat": 47.0495803, "lon": 12.8240061, "tags": {"addr:city": "Heiligenblut am Großglockner", "addr:housenumber": "30", "addr:place": "Winkl", "addr:postcode": "9844"}, "content": "Adresse: 30, 9844 Heiligenblut am Großglockner\nOrt: Heiligenblut am Großglockner\nPLZ: 9844\nKoordinaten: 47.049580, 12.824006", "doc_type": "addresses"}
{"source": "OSM", "region": "Kärnten", "osm_type": "node", "osm_id": 5586884967, "name": null, "category": null, "address": "32, 9844 Heiligenblut am Großglockner", "street": null, "housenumber": "32", "postcode": "9844", "place": "Heiligenblut am Großglockner", "lat": 47.0653151, "lon": 12.857464, "tags": {"addr:city": "Heiligenblut am Großglockner", "addr:housenumber": "32", "addr:place": "Untertauern", "addr:postcode": "9844"}, "content": "Adresse: 32, 9844 Heiligenblut am Großglockner\nOrt: Heiligenblut am Großglockner\nPLZ: 9844\nKoordinaten: 47.065315, 12.857464", "doc_type": "addresses"}
{"source": "OSM", "region": "Kärnten", "osm_type": "node", "osm_id": 5587427538, "name": null, "category": null, "address": "24, 9844 Heiligenblut am Großglockner", "street": null, "housenumber": "24", "postcode": "9844", "place": "Heiligenblut am Großglockner", "lat": 47.0812097, "lon": 12.8428124, "tags": {"addr:city": "Heiligenblut am Großglockner", "addr:housenumber": "24", "addr:place": "Untertauern", "addr:postcode": "9844"}, "content": "Adresse: 24, 9844 Heiligenblut am Großglockner\nOrt: Heiligenblut am Großglockner\nPLZ: 9844\nKoordinaten: 47.081210, 12.842812", "doc_type": "addresses"}
{"source": "OSM", "region": "Kärnten", "osm_type": "node", "osm_id": 5587427539, "name": null, "category": null, "address": "22, 9844 Heiligenblut am Großglockner", "street": null, "housenumber": "22", "postcode": "9844", "place": "Heiligenblut am Großglockner", "lat": 47.0810453, "lon": 12.8423564, "tags": {"addr:city": "Heiligenblut am Großglockner", "addr:housenumber": "22", "addr:place": "Untertauern", "addr:postcode": "9844"}, "content": "Adresse: 22, 9844 Heiligenblut am Großglockner\nOrt: Heiligenblut am Großglockner\nPLZ: 9844\nKoordinaten: 47.081045, 12.842356", "doc_type": "addresses"}
{"source": "OSM", "region": "Kärnten", "osm_type": "node", "osm_id": 340517156, "name": "Postpartner 9844, Steinbock-Haus", "category": "amenity:post_office", "address": "Hof 38, 9844 Heiligenblut am Großglockner", "street": "Hof", "housenumber": "38", "postcode": "9844", "place": "Heiligenblut am Großglockner", "lat": 47.0391458, "lon": 12.8440589, "tags": {"addr:city": "Heiligenblut am Großglockner", "addr:housenumber": "38", "addr:postcode": "9844", "addr:street": "Hof", "amenity": "post_office", "name": "Postpartner 9844, Steinbock-Haus", "operator": "Tourismusverband", "website": "https://www.post.at/sf/standortfinder"}, "content": "Postpartner 9844, Steinbock-Haus\nKategorie: amenity:post_office\nAdresse: Hof 38, 9844 Heiligenblut am Großglockner\nOrt: Heiligenblut am Großglockner\nPLZ: 9844\nKoordinaten: 47.039146, 12.844059\nTags: amenity=post_office, operator=Tourismusverband, website=https://www.post.at/sf/standortfinder", "doc_type": "pois"}
{"source": "OSM", "region": "Kärnten", "osm_type": "node", "osm_id": 665645393, "name": "Berggasthof Wallackhaus", "category": "tourism:hotel", "address": "Untertauern 20, 9844 Heiligenblut am Großglockner", "street": "Untertauern", "housenumber": "20", "postcode": "9844", "place": "Heiligenblut am Großglockner", "lat": 47.0704182, "lon": 12.838795, "tags": {"addr:city": "Heiligenblut am Großglockner", "addr:housenumber": "20", "addr:postcode": "9844", "addr:street": "Untertauern", "name": "Berggasthof Wallackhaus", "operator": "Karin & Gerwald Wallner", "phone": "+43 4824 2223", "tourism": "hotel", "website": "http://www.wallackhaus.at"}, "content": "Berggasthof Wallackhaus\nKategorie: tourism:hotel\nAdresse: Untertauern 20, 9844 Heiligenblut am Großglockner\nOrt: Heiligenblut am Großglockner\nPLZ: 9844\nKoordinaten: 47.070418, 12.838795\nTags: operator=Karin & Gerwald Wallner, phone=+43 4824 2223, website=http://www.wallackhaus.at", "doc_type": "pois"}
{"source": "OSM", "region": "Kärnten", "osm_type": "node", "osm_id": 1446820841, "name": "Socar", "category": "amenity:fuel", "address": "Pockhorn 29, 9844 Heiligenblut am Großglockner", "street": "Pockhorn", "housenumber": "29", "postcode": "9844", "place": "Heiligenblut am Großglockner", "lat": 47.0235296, "lon": 12.8619772, "tags": {"addr:city": "Heiligenblut am Großglockner", "addr:housenumber": "29", "addr:postcode": "9844", "addr:street": "Pockhorn", "amenity": "fuel", "brand": "Socar", "name": "Socar"}, "content": "Socar\nKategorie: amenity:fuel\nAdresse: Pockhorn 29, 9844 Heiligenblut am Großglockner\nOrt: Heiligenblut am Großglockner\nPLZ: 9844\nKoordinaten: 47.023530, 12.861977\nTags: amenity=fuel, brand=Socar", "doc_type": "pois"}
{"source": "OSM", "region": "Kärnten", "osm_type": "node", "osm_id": 2107380865, "name": "Alm Casino", "category": "amenity:restaurant", "address": "Hadergasse 11, 9844 Heiligenblut am Großglockner", "street": "Hadergasse", "housenumber": "11", "postcode": "9844", "place": "Heiligenblut am Großglockner", "lat": 47.037283, "lon": 12.839402, "tags": {"addr:city": "Heiligenblut am Großglockner", "addr:housenumber": "11", "addr:postcode": "9844", "addr:street": "Hadergasse", "amenity": "restaurant", "name": "Alm Casino"}, "content": "Alm Casino\nKategorie: amenity:restaurant\nAdresse: Hadergasse 11, 9844 Heiligenblut am Großglockner\nOrt: Heiligenblut am Großglockner\nPLZ: 9844\nKoordinaten: 47.037283, 12.839402\nTags: amenity=restaurant", "doc_type": "pois"}
{"source": "OSM", "region": "Kärnten", "osm_type": "node", "osm_id": 2429255620, "name": "Alpengasthof \"Alter Pocher\"", "category": "amenity:restaurant", "address": "10, 9844 Heiligenblut am Großglockner", "street": null, "housenumber": "10", "postcode": "9844", "place": "Heiligenblut am Großglockner", "lat": 47.0454065, "lon": 12.9045724, "tags": {"addr:city": "Heiligenblut am Großglockner", "addr:housenumber": "10", "addr:place": "Fleiß", "addr:postcode": "9844", "amenity": "restaurant", "name": "Alpengasthof \"Alter Pocher\"", "tourism": "alpine_hut", "website": "http://www.alterpocher.at"}, "content": "Alpengasthof \"Alter Pocher\"\nKategorie: amenity:restaurant\nAdresse: 10, 9844 Heiligenblut am Großglockner\nOrt: Heiligenblut am Großglockner\nPLZ: 9844\nKoordinaten: 47.045406, 12.904572\nTags: amenity=restaurant, website=http://www.alterpocher.at", "doc_type": "pois"}
{"source": "OSM", "region": "Kärnten", "osm_type": "node", "osm_id": 2641524377, "name": "ADEG", "category": "shop:supermarket", "address": "Hof 46, 9844 Heiligenblut am Großglockner", "street": "Hof", "housenumber": "46", "postcode": "9844", "place": "Heiligenblut am Großglockner", "lat": 47.0399172, "lon": 12.8429184, "tags": {"addr:city": "Heiligenblut am Großglockner", "addr:housenumber": "46", "addr:postcode": "9844", "addr:street": "Hof", "brand": "ADEG", "name": "ADEG", "operator": "Ernst Pichler", "phone": "+43 (0) 4824 2214", "shop": "supermarket", "website": "https://www.ernstpichler.at/"}, "content": "ADEG\nKategorie: shop:supermarket\nAdresse: Hof 46, 9844 Heiligenblut am Großglockner\nOrt: Heiligenblut am Großglockner\nPLZ: 9844\nKoordinaten: 47.039917, 12.842918\nTags: shop=supermarket, operator=Ernst Pichler, brand=ADEG, phone=+43 (0) 4824 2214, website=https://www.ernstpichler.at/", "doc_type": "pois"}
{"source": "OSM", "region": "Kärnten", "osm_type": "node", "osm_id": 3377654434, "name": "Pension Edelweiß", "category": "tourism:guest_house", "address": "Hadergasse 17, 9844 Heiligenblut am Großglockner", "street": "Hadergasse", "housenumber": "17", "postcode": "9844", "place": "Heiligenblut am Großglockner", "lat": 47.0366698, "lon": 12.841578, "tags": {"addr:city": "Heiligenblut am Großglockner", "addr:housenumber": "17", "addr:postcode": "9844", "addr:street": "Hadergasse", "name": "Pension Edelweiß", "operator": "Familie Christian Fleißner", "phone": "+43 4824 2083", "tourism": "guest_house", "website": "https://www.pension-edelweiss.info/"}, "content": "Pension Edelweiß\nKategorie: tourism:guest_house\nAdresse: Hadergasse 17, 9844 Heiligenblut am Großglockner\nOrt: Heiligenblut am Großglockner\nPLZ: 9844\nKoordinaten: 47.036670, 12.841578\nTags: operator=Familie Christian Fleißner, phone=+43 4824 2083, website=https://www.pension-edelweiss.info/", "doc_type": "pois"}
{"source": "OSM", "region": "Kärnten", "osm_type": "node", "osm_id": 3377661160, "name": "Taxi Fleissner", "category": "amenity:taxi", "address": "Hadergasse 17, 9844 Heiligenblut am Großglockner", "street": "Hadergasse", "housenumber": "17", "postcode": "9844", "place": "Heiligenblut am Großglockner", "lat": 47.0366489, "lon": 12.8416542, "tags": {"addr:city": "Heiligenblut am Großglockner", "addr:housenumber": "17", "addr:postcode": "9844", "addr:street": "Hadergasse", "amenity": "taxi", "name": "Taxi Fleissner", "operator": "Christian Fleissner", "phone": "+43 664 383 6311", "website": "https://www.taxi-fleissner.info/"}, "content": "Taxi Fleissner\nKategorie: amenity:taxi\nAdresse: Hadergasse 17, 9844 Heiligenblut am Großglockner\nOrt: Heiligenblut am Großglockner\nPLZ: 9844\nKoordinaten: 47.036649, 12.841654\nTags: amenity=taxi, operator=Christian Fleissner, phone=+43 664 383 6311, website=https://www.taxi-fleissner.info/", "doc_type": "pois"}
{"source": "OSM", "region": "Kärnten", "osm_type": "node", "osm_id": 5122630219, "name": "Polizeiinspektion Heiligenblut", "category": "amenity:police", "address": "14, 9844 Heiligenblut am Großglockner", "street": null, "housenumber": "14", "postcode": "9844", "place": "Heiligenblut am Großglockner", "lat": 47.0374549, "lon": 12.84609, "tags": {"addr:city": "Heiligenblut am Großglockner", "addr:housenumber": "14", "addr:place": "Hof", "addr:postcode": "9844", "amenity": "police", "name": "Polizeiinspektion Heiligenblut", "phone": "+43 59133 2225100"}, "content": "Polizeiinspektion Heiligenblut\nKategorie: amenity:police\nAdresse: 14, 9844 Heiligenblut am Großglockner\nOrt: Heiligenblut am Großglockner\nPLZ: 9844\nKoordinaten: 47.037455, 12.846090\nTags: amenity=police, phone=+43 59133 2225100", "doc_type": "pois"}
