{"source": "OSM", "region": "Kärnten", "osm_type": "node", "osm_id": 1251648608, "name": "Dr. Antja Ertl", "category": "amenity:doctors", "address": "Eichrainweg 3, 9521 Treffen", "street": "Eichrainweg", "housenumber": "3", "postcode": "9521", "place": "Treffen", "lat": 46.6557512, "lon": 13.8801855, "tags": {"addr:city": "Treffen", "addr:housenumber": "3", "addr:postcode": "9521", "addr:street": "Eichrainweg", "amenity": "doctors", "healthcare": "doctor", "name": "Dr. Antja Ertl", "phone": "+43 4248 2056", "website": "https://www.dr-antjeertl.at/"}, "content": "Dr. Antja Ertl\nKategorie: amenity:doctors\nAdresse: Eichrainweg 3, 9521 Treffen\nOrt: Treffen\nPLZ: 9521\nKoordinaten: 46.655751, 13.880185\nTags: amenity=doctors, healthcare=doctor, phone=+43 4248 2056, website=https://www.dr-antjeertl.at/", "doc_type": "addresses"}
{"source": "OSM", "region": "Kärnten", "osm_type": "node", "osm_id": 1251648608, "name": "Dr. Antja Ertl", "category": "amenity:doctors", "address": "Eichrainweg 3, 9521 Treffen", "street": "Eichrainweg", "housenumber": "3", "postcode": "9521", "place": "Treffen", "lat": 46.6557512, "lon": 13.8801855, "tags": {"addr:city": "Treffen", "addr:housenumber": "3", "addr:postcode": "9521", "addr:street": "Eichrainweg", "amenity": "doctors", "healthcare": "doctor", "name": "Dr. Antja Ertl", "phone": "+43 4248 2056", "website": "https://www.dr-antjeertl.at/"}, "content": "Dr. Antja Ertl\nKategorie: amenity:doctors\nAdresse: Eichrainweg 3, 9521 Treffen\nOrt: Treffen\nPLZ: 9521\nKoordinaten: 46.655751, 13.880185\nTags: amenity=doctors, healthcare=doctor, phone=+43 4248 2056, website=https://www.dr-antjeertl.at/", "doc_type": "pois"}
