{"source": "OSM", "region": "Kärnten", "osm_type": "node", "osm_id": 538375493, "name": "Schiffsstation Ossiach", "category": "amenity:ferry_terminal", "address": "Prof. Helmut Wobischweg, 9570 Ossiach", "street": "Prof. Helmut Wobischweg", "housenumber": null, "postcode": "9570", "place": "Ossiach", "lat": 46.6768219, "lon": 13.9806876, "tags": {"addr:city": "Ossiach", "addr:postcode": "9570", "addr:street": "Prof. Helmut Wobischweg", "amenity": "ferry_terminal", "name": "Schiffsstation Ossiach", "operator": "Nageler Schifffahrt & Restaurant GmbH & Co KG Ossiachersee Schifffahrt"}, "content": "Schiffsstation Ossiach\nKategorie: amenity:ferry_terminal\nAdresse: Prof. Helmut Wobischweg, 9570 Ossiach\nOrt: Ossiach\nPLZ: 9570\nKoordinaten: 46.676822, 13.980688\nTags: amenity=ferry_terminal, operator=Nageler Schifffahrt & Restaurant GmbH & Co KG Ossiachersee Schifffahrt", "doc_type": "addresses"}
{"source": "OSM", "region": "Kärnten", "osm_type": "node", "osm_id": 2632155590, "name": "Appartementhaus Karantanien", "category": "tourism:hotel", "address": "117, 9570 Ossiach", "street": null, "housenumber": "117", "postcode": "9570", "place": "Ossiach", "lat": 46.6684337, "lon": 13.9769042, "tags": {"addr:city": "Ossiach", "addr:housenumber": "117", "addr:place": "Ostriach", "addr:postcode": "9570", "name": "Appartementhaus Karantanien", "tourism": "hotel"}, "content": "Appartementhaus Karantanien\nKategorie: tourism:hotel\nAdresse: 117, 9570 Ossiach\nOrt: Ossiach\nPLZ: 9570\nKoordinaten: 46.668434, 13.976904", "doc_type": "addresses"}
{"source": "OSM", "region": "Kärnten", "osm_type": "node", "osm_id": 2632156783, "name": "Seehaus Karantanien", "category": "tourism:hotel", "address": "97, 9570 Ossiach", "street": null, "housenumber": "97", "postcode": "9570", "place": "Ossiach", "lat": 46.6689286, "lon": 13.975748, "tags": {"addr:city": "Ossiach", "addr:housenumber": "97", "addr:place": "Ostriach", "addr:postcode": "9570", "name": "Seehaus Karantanien", "tourism": "hotel"}, "content": "Seehaus Karantanien\nKategorie: tourism:hotel\nAdresse: 97, 9570 Ossiach\nOrt: Ossiach\nPLZ: 9570\nKoordinaten: 46.668929, 13.975748", "doc_type": "addresses"}
{"source": "OSM", "region": "Kärnten", "osm_type": "node", "osm_id": 2974080164, "name": "Postpartner 9570", "category": "amenity:post_office", "address": "8, 9570 Ossiach", "street": null, "housenumber": "8", "postcode": "9570", "place": "Ossiach", "lat": 46.6761224, "lon": 13.9835176, "tags": {"addr:city": "Ossiach", "addr:housenumber": "8", "addr:place": "Ossiach", "addr:postcode": "9570", "amenity": "post_office", "name": "Postpartner 9570", "operator": "Gemeindeamt"}, "content": "Postpartner 9570\nKategorie: amenity:post_office\nAdresse: 8, 9570 Ossiach\nOrt: Ossiach\nPLZ: 9570\nKoordinaten: 46.676122, 13.983518\nTags: amenity=post_office, operator=Gemeindeamt", "doc_type": "addresses"}
{"source": "OSM", "region": "Kärnten", "osm_type": "node", "osm_id": 3680475871, "name": "Spar", "category": null, "address": "32, 9570 Ossiach", "street": null, "housenumber": "32", "postcode": "9570", "place": "Ossiach", "lat": 46.6750052, "lon": 13.9841786, "tags": {"addr:housenumber": "32", "addr:place": "Ossiach", "addr:postcode": "9570", "brand": "Spar"}, "content": "Spar\nAdresse: 32, 9570 Ossiach\nOrt: Ossiach\nPLZ: 9570\nKoordinaten: 46.675005, 13.984179\nTags: brand=Spar", "doc_type": "addresses"}
{"source": "OSM", "region": "Kärnten", "osm_type": "node", "osm_id": 5015160916, "name": "Stiftsrestaurant Allegro", "category": "amenity:restaurant", "address": "1, 9570 Ossiach", "street": null, "housenumber": "1", "postcode": "9570", "place": "Ossiach", "lat": 46.6767016, "lon": 13.9822295, "tags": {"addr:city": "Ossiach", "addr:housenumber": "1", "addr:place": "Ossiach", "addr:postcode": "9570", "amenity": "restaurant", "name": "Stiftsrestaurant Allegro", "phone": "+43 4243 45594-412", "website": "https://www.die-cma.at/stiftsrestaurant-cafe-allegro"}, "content": "Stiftsrestaurant Allegro\nKategorie: amenity:restaurant\nAdresse: 1, 9570 Ossiach\nOrt: Ossiach\nPLZ: 9570\nKoordinaten: 46.676702, 13.982230\nTags: amenity=restaurant, phone=+43 4243 45594-412, website=https://www.die-cma.at/stiftsrestaurant-cafe-allegro", "doc_type": "addresses"}
{"source": "OSM", "region": "Kärnten", "osm_type": "node", "osm_id": 5015160917, "name": "Stiftshotel Ossiach", "category": "tourism:hotel", "address": "Stift Ossiach 1, 9570 Ossiach", "street": "Stift Ossiach", "housenumber": "1", "postcode": "9570", "place": "Ossiach", "lat": 46.6768249, "lon": 13.9821182, "tags": {"addr:city": "Ossiach", "addr:housenumber": "1", "addr:postcode": "9570", "addr:street": "Stift Ossiach", "name": "Stiftshotel Ossiach", "phone": "+43 4243 45594-411", "tourism": "hotel", "website": "https://www.die-cma.at"}, "content": "Stiftshotel Ossiach\nKategorie: tourism:hotel\nAdresse: Stift Ossiach 1, 9570 Ossiach\nOrt: Ossiach\nPLZ: 9570\nKoordinaten: 46.676825, 13.982118\nTags: phone=+43 4243 45594-411, website=https://www.die-cma.at", "doc_type": "addresses"}
{"source": "OSM", "region": "Kärnten", "osm_type": "node", "osm_id": 538375493, "name": "Schiffsstation Ossiach", "category": "amenity:ferry_terminal", "address": "Prof. Helmut Wobischweg, 9570 Ossiach", "street": "Prof. Helmut Wobischweg", "housenumber": null, "postcode": "9570", "place": "Ossiach", "lat": 46.6768219, "lon": 13.9806876, "tags": {"addr:city": "Ossiach", "addr:postcode": "9570", "addr:street": "Prof. Helmut Wobischweg", "amenity": "ferry_terminal", "name": "Schiffsstation Ossiach", "operator": "Nageler Schifffahrt & Restaurant GmbH & Co KG Ossiachersee Schifffahrt"}, "content": "Schiffsstation Ossiach\nKategorie: amenity:ferry_terminal\nAdresse: Prof. Helmut Wobischweg, 9570 Ossiach\nOrt: Ossiach\nPLZ: 9570\nKoordinaten: 46.676822, 13.980688\nTags: amenity=ferry_terminal, operator=Nageler Schifffahrt & Restaurant GmbH & Co KG Ossiachersee Schifffahrt", "doc_type": "pois"}
{"source": "OSM", "region": "Kärnten", "osm_type": "node", "osm_id": 2632155590, "name": "Appartementhaus Karantanien", "category": "tourism:hotel", "address": "117, 9570 Ossiach", "street": null, "housenumber": "117", "postcode": "9570", "place": "Ossiach", "lat": 46.6684337, "lon": 13.9769042, "tags": {"addr:city": "Ossiach", "addr:housenumber": "117", "addr:place": "Ostriach", "addr:postcode": "9570", "name": "Appartementhaus Karantanien", "tourism": "hotel"}, "content": "Appartementhaus Karantanien\nKategorie: tourism:hotel\nAdresse: 117, 9570 Ossiach\nOrt: Ossiach\nPLZ: 9570\nKoordinaten: 46.668434, 13.976904", "doc_type": "pois"}
{"source": "OSM", "region": "Kärnten", "osm_type": "node", "osm_id": 2632156783, "name": "Seehaus Karantanien", "category": "tourism:hotel", "address": "97, 9570 Ossiach", "street": null, "housenumber": "97", "postcode": "9570", "place": "Ossiach", "lat": 46.6689286, "lon": 13.975748, "tags": {"addr:city": "Ossiach", "addr:housenumber": "97", "addr:place": "Ostriach", "addr:postcode": "9570", "name": "Seehaus Karantanien", "tourism": "hotel"}, "content": "Seehaus Karantanien\nKategorie: tourism:hotel\nAdresse: 97, 9570 Ossiach\nOrt: Ossiach\nPLZ: 9570\nKoordinaten: 46.668929, 13.975748", "doc_type": "pois"}
{"source": "OSM", "region": "Kärnten", "osm_type": "node", "osm_id": 2974080164, "name": "Postpartner 9570", "category": "amenity:post_office", "address": "8, 9570 Ossiach", "street": null, "housenumber": "8", "postcode": "9570", "place": "Ossiach", "lat": 46.6761224, "lon": 13.9835176, "tags": {"addr:city": "Ossiach", "addr:housenumber": "8", "addr:place": "Ossiach", "addr:postcode": "9570", "amenity": "post_office", "name": "Postpartner 9570", "operator": "Gemeindeamt"}, "content": "Postpartner 9570\nKategorie: amenity:post_office\nAdresse: 8, 9570 Ossiach\nOrt: Ossiach\nPLZ: 9570\nKoordinaten: 46.676122, 13.983518\nTags: amenity=post_office, operator=Gemeindeamt", "doc_type": "pois"}
{"source": "OSM", "region": "Kärnten", "osm_type": "node", "osm_id": 5015160916, "name": "Stiftsrestaurant Allegro", "category": "amenity:restaurant", "address": "1, 9570 Ossiach", "street": null, "housenumber": "1", "postcode": "9570", "place": "Ossiach", "lat": 46.6767016, "lon": 13.9822295, "tags": {"addr:city": "Ossiach", "addr:housenumber": "1", "addr:place": "Ossiach", "addr:postcode": "9570", "amenity": "restaurant", "name": "Stiftsrestaurant Allegro", "phone": "+43 4243 45594-412", "website": "https://www.die-cma.at/stiftsrestaurant-cafe-allegro"}, "content": "Stiftsrestaurant Allegro\nKategorie: amenity:restaurant\nAdresse: 1, 9570 Ossiach\nOrt: Ossiach\nPLZ: 9570\nKoordinaten: 46.676702, 13.982230\nTags: amenity=restaurant, phone=+43 4243 45594-412, website=https://www.die-cma.at/stiftsrestaurant-cafe-allegro", "doc_type": "pois"}
{"source": "OSM", "region": "Kärnten", "osm_type": "node", "osm_id": 5015160917, "name": "Stiftshotel Ossiach", "category": "tourism:hotel", "address": "Stift Ossiach 1, 9570 Ossiach", "street": "Stift Ossiach", "housenumber": "1", "postcode": "9570", "place": "Ossiach", "lat": 46.6768249, "lon": 13.9821182, "tags": {"addr:city": "Ossiach", "addr:housenumber": "1", "addr:postcode": "9570", "addr:street": "Stift Ossiach", "name": "Stiftshotel Ossiach", "phone": "+43 4243 45594-411", "tourism": "hotel", "website": "https://www.die-cma.at"}, "content": "Stiftshotel Ossiach\nKategorie: tourism:hotel\nAdresse: Stift Ossiach 1, 9570 Ossiach\nOrt: Ossiach\nPLZ: 9570\nKoordinaten: 46.676825, 13.982118\nTags: phone=+43 4243 45594-411, website=https://www.die-cma.at", "doc_type": "pois"}
