{"source": "OSM", "region": "Kärnten", "osm_type": "node", "osm_id": 3788733174, "name": null, "category": null, "address": "Scalinata San Michele 5, 33020 Forni Avoltri", "street": "Scalinata San Michele", "housenumber": "5", "postcode": "33020", "place": "Forni Avoltri", "lat": 46.5856526, "lon": 12.8450102, "tags": {"addr:city": "Forni Avoltri", "addr:housenumber": "5", "addr:postcode": "33020", "addr:street": "Scalinata San Michele"}, "content": "Adresse: Scalinata San Michele 5, 33020 Forni Avoltri\nOrt: Forni Avoltri\nPLZ: 33020\nKoordinaten: 46.585653, 12.845010", "doc_type": "addresses"}
{"source": "OSM", "region": "Kärnten", "osm_type": "node", "osm_id": 3788737401, "name": null, "category": null, "address": "Via Corona 11, 33020 Forni Avoltri", "street": "Via Corona", "housenumber": "11", "postcode": "33020", "place": "Forni Avoltri", "lat": 46.5859597, "lon": 12.8427773, "tags": {"addr:city": "Forni Avoltri", "addr:housenumber": "11", "addr:postcode": "33020", "addr:street": "Via Corona"}, "content": "Adresse: Via Corona 11, 33020 Forni Avoltri\nOrt: Forni Avoltri\nPLZ: 33020\nKoordinaten: 46.585960, 12.842777", "doc_type": "addresses"}
{"source": "OSM", "region": "Kärnten", "osm_type": "node", "osm_id": 3788737419, "name": null, "category": null, "address": "Via Corona 9, 33020 Forni Avoltri", "street": "Via Corona", "housenumber": "9", "postcode": "33020", "place": "Forni Avoltri", "lat": 46.5860834, "lon": 12.8428771, "tags": {"addr:city": "Forni Avoltri", "addr:housenumber": "9", "addr:postcode": "33020", "addr:street": "Via Corona"}, "content": "Adresse: Via Corona 9, 33020 Forni Avoltri\nOrt: Forni Avoltri\nPLZ: 33020\nKoordinaten: 46.586083, 12.842877", "doc_type": "addresses"}
{"source": "OSM", "region": "Kärnten", "osm_type": "node", "osm_id": 3788742338, "name": null, "category": null, "address": "Via Sasso Nero 2, 33020 Forni Avoltri", "street": "Via Sasso Nero", "housenumber": "2", "postcode": "33020", "place": "Forni Avoltri", "lat": 46.586703, "lon": 12.8426333, "tags": {"addr:city": "Forni Avoltri", "addr:housenumber": "2", "addr:postcode": "33020", "addr:street": "Via Sasso Nero"}, "content": "Adresse: Via Sasso Nero 2, 33020 Forni Avoltri\nOrt: Forni Avoltri\nPLZ: 33020\nKoordinaten: 46.586703, 12.842633", "doc_type": "addresses"}
{"source": "OSM", "region": "Kärnten", "osm_type": "node", "osm_id": 3788742346, "name": null, "category": null, "address": "Via della Segheria 2, 33020 Forni Avoltri", "street": "Via della Segheria", "housenumber": "2", "postcode": "33020", "place": "Forni Avoltri", "lat": 46.5861615, "lon": 12.8429931, "tags": {"addr:city": "Forni Avoltri", "addr:housenumber": "2", "addr:postcode": "33020", "addr:street": "Via della Segheria"}, "content": "Adresse: Via della Segheria 2, 33020 Forni Avoltri\nOrt: Forni Avoltri\nPLZ: 33020\nKoordinaten: 46.586162, 12.842993", "doc_type": "addresses"}
{"source": "OSM", "region": "Kärnten", "osm_type": "node", "osm_id": 3788745651, "name": null, "category": null, "address": "Via del Leone 1, 33020 Forni Avoltri", "street": "Via del Leone", "housenumber": "1", "postcode": "33020", "place": "Forni Avoltri", "lat": 46.5865528, "lon": 12.84316, "tags": {"addr:city": "Forni Avoltri", "addr:housenumber": "1", "addr:postcode": "33020", "addr:street": "Via del Leone"}, "content": "Adresse: Via del Leone 1, 33020 Forni Avoltri\nOrt: Forni Avoltri\nPLZ: 33020\nKoordinaten: 46.586553, 12.843160", "doc_type": "addresses"}
{"source": "OSM", "region": "Kärnten", "osm_type": "node", "osm_id": 3788745652, "name": null, "category": null, "address": "Via del Leone 1, 33020 Forni Avoltri", "street": "Via del Leone", "housenumber": "1", "postcode": "33020", "place": "Forni Avoltri", "lat": 46.5868109, "lon": 12.8445721, "tags": {"addr:city": "Forni Avoltri", "addr:housenumber": "1", "addr:postcode": "33020", "addr:street": "Via del Leone"}, "content": "Adresse: Via del Leone 1, 33020 Forni Avoltri\nOrt: Forni Avoltri\nPLZ: 33020\nKoordinaten: 46.586811, 12.844572", "doc_type": "addresses"}
{"source": "OSM", "region": "Kärnten", "osm_type": "node", "osm_id": 3788745654, "name": null, "category": null, "address": "Via Sasso Nero 1a, 33020 Forni Avoltri", "street": "Via Sasso Nero", "housenumber": "1a", "postcode": "33020", "place": "Forni Avoltri", "lat": 46.5866883, "lon": 12.8428138, "tags": {"addr:city": "Forni Avoltri", "addr:housenumber": "1a", "addr:postcode": "33020", "addr:street": "Via Sasso Nero"}, "content": "Adresse: Via Sasso Nero 1a, 33020 Forni Avoltri\nOrt: Forni Avoltri\nPLZ: 33020\nKoordinaten: 46.586688, 12.842814", "doc_type": "addresses"}
{"source": "OSM", "region": "Kärnten", "osm_type": "node", "osm_id": 3788747188, "name": null, "category": null, "address": "Via Rifugio Marinelli 1, 33020 Forni Avoltri", "street": "Via Rifugio Marinelli", "housenumber": "1", "postcode": "33020", "place": "Forni Avoltri", "lat": 46.5864796, "lon": 12.8445601, "tags": {"addr:city": "Forni Avoltri", "addr:housenumber": "1", "addr:postcode": "33020", "addr:street": "Via Rifugio Marinelli"}, "content": "Adresse: Via Rifugio Marinelli 1, 33020 Forni Avoltri\nOrt: Forni Avoltri\nPLZ: 33020\nKoordinaten: 46.586480, 12.844560", "doc_type": "addresses"}
{"source": "OSM", "region": "Kärnten", "osm_type": "node", "osm_id": 3788747193, "name": null, "category": null, "address": "Via Sasso Nero 1, 33020 Forni Avoltri", "street": "Via Sasso Nero", "housenumber": "1", "postcode": "33020", "place": "Forni Avoltri", "lat": 46.5866182, "lon": 12.8428522, "tags": {"addr:city": "Forni Avoltri", "addr:housenumber": "1", "addr:postcode": "33020", "addr:street": "Via Sasso Nero"}, "content": "Adresse: Via Sasso Nero 1, 33020 Forni Avoltri\nOrt: Forni Avoltri\nPLZ: 33020\nKoordinaten: 46.586618, 12.842852", "doc_type": "addresses"}
{"source": "OSM", "region": "Kärnten", "osm_type": "node", "osm_id": 3788747209, "name": null, "category": null, "address": "Via Corona 10, 33020 Forni Avoltri", "street": "Via Corona", "housenumber": "10", "postcode": "33020", "place": "Forni Avoltri", "lat": 46.5860944, "lon": 12.8427221, "tags": {"addr:city": "Forni Avoltri", "addr:housenumber": "10", "addr:postcode": "33020", "addr:street": "Via Corona"}, "content": "Adresse: Via Corona 10, 33020 Forni Avoltri\nOrt: Forni Avoltri\nPLZ: 33020\nKoordinaten: 46.586094, 12.842722", "doc_type": "addresses"}
{"source": "OSM", "region": "Kärnten", "osm_type": "node", "osm_id": 3788747222, "name": null, "category": null, "address": "Via del Leone 10, 33020 Forni Avoltri", "street": "Via del Leone", "housenumber": "10", "postcode": "33020", "place": "Forni Avoltri", "lat": 46.5868265, "lon": 12.8443388, "tags": {"addr:city": "Forni Avoltri", "addr:housenumber": "10", "addr:postcode": "33020", "addr:street": "Via del Leone"}, "content": "Adresse: Via del Leone 10, 33020 Forni Avoltri\nOrt: Forni Avoltri\nPLZ: 33020\nKoordinaten: 46.586827, 12.844339", "doc_type": "addresses"}
{"source": "OSM", "region": "Kärnten", "osm_type": "node", "osm_id": 3788747829, "name": null, "category": null, "address": "Via del Leone 11, 33020 Forni Avoltri", "street": "Via del Leone", "housenumber": "11", "postcode": "33020", "place": "Forni Avoltri", "lat": 46.586953, "lon": 12.8439742, "tags": {"addr:city": "Forni Avoltri", "addr:housenumber": "11", "addr:postcode": "33020", "addr:street": "Via del Leone"}, "content": "Adresse: Via del Leone 11, 33020 Forni Avoltri\nOrt: Forni Avoltri\nPLZ: 33020\nKoordinaten: 46.586953, 12.843974", "doc_type": "addresses"}
{"source": "OSM", "region": "Kärnten", "osm_type": "node", "osm_id": 3788747869, "name": null, "category": null, "address": "Via Corona 12, 33020 Forni Avoltri", "street": "Via Corona", "housenumber": "12", "postcode": "33020", "place": "Forni Avoltri", "lat": 46.5858732, "lon": 12.8425305, "tags": {"addr:city": "Forni Avoltri", "addr:housenumber": "12", "addr:postcode": "33020", "addr:street": "Via Corona"}, "content": "Adresse: Via Corona 12, 33020 Forni Avoltri\nOrt: Forni Avoltri\nPLZ: 33020\nKoordinaten: 46.585873, 12.842531", "doc_type": "addresses"}
{"source": "OSM", "region": "Kärnten", "osm_type": "node", "osm_id": 3788747877, "name": null, "category": null, "address": "Via Corona 2, 33020 Forni Avoltri", "street": "Via Corona", "housenumber": "2", "postcode": "33020", "place": "Forni Avoltri", "lat": 46.5866713, "lon": 12.8438616, "tags": {"addr:city": "Forni Avoltri", "addr:housenumber": "2", "addr:postcode": "33020", "addr:street": "Via Corona"}, "content": "Adresse: Via Corona 2, 33020 Forni Avoltri\nOrt: Forni Avoltri\nPLZ: 33020\nKoordinaten: 46.586671, 12.843862", "doc_type": "addresses"}
{"source": "OSM", "region": "Kärnten", "osm_type": "node", "osm_id": 3788747882, "name": null, "category": null, "address": "Via Rifugio Marinelli 2, 33020 Forni Avoltri", "street": "Via Rifugio Marinelli", "housenumber": "2", "postcode": "33020", "place": "Forni Avoltri", "lat": 46.5867017, "lon": 12.8445721, "tags": {"addr:city": "Forni Avoltri", "addr:housenumber": "2", "addr:postcode": "33020", "addr:street": "Via Rifugio Marinelli"}, "content": "Adresse: Via Rifugio Marinelli 2, 33020 Forni Avoltri\nOrt: Forni Avoltri\nPLZ: 33020\nKoordinaten: 46.586702, 12.844572", "doc_type": "addresses"}
{"source": "OSM", "region": "Kärnten", "osm_type": "node", "osm_id": 3788748180, "name": null, "category": null, "address": "Via del Leone 13, 33020 Forni Avoltri", "street": "Via del Leone", "housenumber": "13", "postcode": "33020", "place": "Forni Avoltri", "lat": 46.5869806, "lon": 12.8442964, "tags": {"addr:city": "Forni Avoltri", "addr:housenumber": "13", "addr:postcode": "33020", "addr:street": "Via del Leone"}, "content": "Adresse: Via del Leone 13, 33020 Forni Avoltri\nOrt: Forni Avoltri\nPLZ: 33020\nKoordinaten: 46.586981, 12.844296", "doc_type": "addresses"}
{"source": "OSM", "region": "Kärnten", "osm_type": "node", "osm_id": 3788748349, "name": null, "category": null, "address": "Via Corona 6, 33020 Forni Avoltri", "street": "Via Corona", "housenumber": "6", "postcode": "33020", "place": "Forni Avoltri", "lat": 46.5864768, "lon": 12.8433612, "tags": {"addr:city": "Forni Avoltri", "addr:housenumber": "6", "addr:postcode": "33020", "addr:street": "Via Corona"}, "content": "Adresse: Via Corona 6, 33020 Forni Avoltri\nOrt: Forni Avoltri\nPLZ: 33020\nKoordinaten: 46.586477, 12.843361", "doc_type": "addresses"}
{"source": "OSM", "region": "Kärnten", "osm_type": "node", "osm_id": 3788748355, "name": null, "category": null, "address": "Via Rifugio Marinelli 6, 33020 Forni Avoltri", "street": "Via Rifugio Marinelli", "housenumber": "6", "postcode": "33020", "place": "Forni Avoltri", "lat": 46.5865992, "lon": 12.8446601, "tags": {"addr:city": "Forni Avoltri", "addr:housenumber": "6", "addr:postcode": "33020", "addr:street": "Via Rifugio Marinelli"}, "content": "Adresse: Via Rifugio Marinelli 6, 33020 Forni Avoltri\nOrt: Forni Avoltri\nPLZ: 33020\nKoordinaten: 46.586599, 12.844660", "doc_type": "addresses"}
{"source": "OSM", "region": "Kärnten", "osm_type": "node", "osm_id": 3788748370, "name": null, "category": null, "address": "Via della Segheria 12, 33020 Forni Avoltri", "street": "Via della Segheria", "housenumber": "12", "postcode": "33020", "place": "Forni Avoltri", "lat": 46.5861579, "lon": 12.8436858, "tags": {"addr:city": "Forni Avoltri", "addr:housenumber": "12", "addr:postcode": "33020", "addr:street": "Via della Segheria"}, "content": "Adresse: Via della Segheria 12, 33020 Forni Avoltri\nOrt: Forni Avoltri\nPLZ: 33020\nKoordinaten: 46.586158, 12.843686", "doc_type": "addresses"}
{"source": "OSM", "region": "Kärnten", "osm_type": "node", "osm_id": 3788748380, "name": null, "category": null, "address": "Via della Segheria 14, 33020 Forni Avoltri", "street": "Via della Segheria", "housenumber": "14", "postcode": "33020", "place": "Forni Avoltri", "lat": 46.5861321, "lon": 12.8437825, "tags": {"addr:city": "Forni Avoltri", "addr:housenumber": "14", "addr:postcode": "33020", "addr:street": "Via della Segheria"}, "content": "Adresse: Via della Segheria 14, 33020 Forni Avoltri\nOrt: Forni Avoltri\nPLZ: 33020\nKoordinaten: 46.586132, 12.843782", "doc_type": "addresses"}
{"source": "OSM", "region": "Kärnten", "osm_type": "node", "osm_id": 3788748390, "name": null, "category": null, "address": "Via del Leone 15, 33020 Forni Avoltri", "street": "Via del Leone", "housenumber": "15", "postcode": "33020", "place": "Forni Avoltri", "lat": 46.587172, "lon": 12.8442952, "tags": {"addr:city": "Forni Avoltri", "addr:housenumber": "15", "addr:postcode": "33020", "addr:street": "Via del Leone"}, "content": "Adresse: Via del Leone 15, 33020 Forni Avoltri\nOrt: Forni Avoltri\nPLZ: 33020\nKoordinaten: 46.587172, 12.844295", "doc_type": "addresses"}
{"source": "OSM", "region": "Kärnten", "osm_type": "node", "osm_id": 3788748394, "name": null, "category": null, "address": "Via Corona 16, 33020 Forni Avoltri", "street": "Via Corona", "housenumber": "16", "postcode": "33020", "place": "Forni Avoltri", "lat": 46.5856394, "lon": 12.8422769, "tags": {"addr:city": "Forni Avoltri", "addr:housenumber": "16", "addr:postcode": "33020", "addr:street": "Via Corona"}, "content": "Adresse: Via Corona 16, 33020 Forni Avoltri\nOrt: Forni Avoltri\nPLZ: 33020\nKoordinaten: 46.585639, 12.842277", "doc_type": "addresses"}
{"source": "OSM", "region": "Kärnten", "osm_type": "node", "osm_id": 3788748429, "name": null, "category": null, "address": "Via della Segheria 3, 33020 Forni Avoltri", "street": "Via della Segheria", "housenumber": "3", "postcode": "33020", "place": "Forni Avoltri", "lat": 46.5861573, "lon": 12.8439099, "tags": {"addr:city": "Forni Avoltri", "addr:housenumber": "3", "addr:postcode": "33020", "addr:street": "Via della Segheria"}, "content": "Adresse: Via della Segheria 3, 33020 Forni Avoltri\nOrt: Forni Avoltri\nPLZ: 33020\nKoordinaten: 46.586157, 12.843910", "doc_type": "addresses"}
{"source": "OSM", "region": "Kärnten", "osm_type": "node", "osm_id": 3788748444, "name": null, "category": null, "address": "Via della Segheria 32, 33020 Forni Avoltri", "street": "Via della Segheria", "housenumber": "32", "postcode": "33020", "place": "Forni Avoltri", "lat": 46.5870174, "lon": 12.846563, "tags": {"addr:city": "Forni Avoltri", "addr:housenumber": "32", "addr:postcode": "33020", "addr:street": "Via della Segheria"}, "content": "Adresse: Via della Segheria 32, 33020 Forni Avoltri\nOrt: Forni Avoltri\nPLZ: 33020\nKoordinaten: 46.587017, 12.846563", "doc_type": "addresses"}
{"source": "OSM", "region": "Kärnten", "osm_type": "node", "osm_id": 3788748461, "name": null, "category": null, "address": "Via Corona 13, 33020 Forni Avoltri", "street": "Via Corona", "housenumber": "13", "postcode": "33020", "place": "Forni Avoltri", "lat": 46.58581, "lon": 12.8426694, "tags": {"addr:city": "Forni Avoltri", "addr:housenumber": "13", "addr:postcode": "33020", "addr:street": "Via Corona"}, "content": "Adresse: Via Corona 13, 33020 Forni Avoltri\nOrt: Forni Avoltri\nPLZ: 33020\nKoordinaten: 46.585810, 12.842669", "doc_type": "addresses"}
{"source": "OSM", "region": "Kärnten", "osm_type": "node", "osm_id": 3788748598, "name": null, "category": null, "address": "Via della Segheria 16, 33020 Forni Avoltri", "street": "Via della Segheria", "housenumber": "16", "postcode": "33020", "place": "Forni Avoltri", "lat": 46.586064, "lon": 12.8441672, "tags": {"addr:city": "Forni Avoltri", "addr:housenumber": "16", "addr:postcode": "33020", "addr:street": "Via della Segheria"}, "content": "Adresse: Via della Segheria 16, 33020 Forni Avoltri\nOrt: Forni Avoltri\nPLZ: 33020\nKoordinaten: 46.586064, 12.844167", "doc_type": "addresses"}
{"source": "OSM", "region": "Kärnten", "osm_type": "node", "osm_id": 3788748674, "name": null, "category": null, "address": "Via Corona 21, 33020 Forni Avoltri", "street": "Via Corona", "housenumber": "21", "postcode": "33020", "place": "Forni Avoltri", "lat": 46.5854489, "lon": 12.8421982, "tags": {"addr:city": "Forni Avoltri", "addr:housenumber": "21", "addr:postcode": "33020", "addr:street": "Via Corona"}, "content": "Adresse: Via Corona 21, 33020 Forni Avoltri\nOrt: Forni Avoltri\nPLZ: 33020\nKoordinaten: 46.585449, 12.842198", "doc_type": "addresses"}
{"source": "OSM", "region": "Kärnten", "osm_type": "node", "osm_id": 3788748688, "name": null, "category": null, "address": "Via Corona 24, 33020 Forni Avoltri", "street": "Via Corona", "housenumber": "24", "postcode": "33020", "place": "Forni Avoltri", "lat": 46.5851399, "lon": 12.841705, "tags": {"addr:city": "Forni Avoltri", "addr:housenumber": "24", "addr:postcode": "33020", "addr:street": "Via Corona"}, "content": "Adresse: Via Corona 24, 33020 Forni Avoltri\nOrt: Forni Avoltri\nPLZ: 33020\nKoordinaten: 46.585140, 12.841705", "doc_type": "addresses"}
{"source": "OSM", "region": "Kärnten", "osm_type": "node", "osm_id": 3788748788, "name": null, "category": null, "address": "Via Corona 22, 33020 Forni Avoltri", "street": "Via Corona", "housenumber": "22", "postcode": "33020", "place": "Forni Avoltri", "lat": 46.5852311, "lon": 12.8418293, "tags": {"addr:city": "Forni Avoltri", "addr:housenumber": "22", "addr:postcode": "33020", "addr:street": "Via Corona"}, "content": "Adresse: Via Corona 22, 33020 Forni Avoltri\nOrt: Forni Avoltri\nPLZ: 33020\nKoordinaten: 46.585231, 12.841829", "doc_type": "addresses"}
{"source": "OSM", "region": "Kärnten", "osm_type": "node", "osm_id": 3788748790, "name": null, "category": null, "address": "Via della Segheria 22, 33020 Forni Avoltri", "street": "Via della Segheria", "housenumber": "22", "postcode": "33020", "place": "Forni Avoltri", "lat": 46.5870212, "lon": 12.8459217, "tags": {"addr:city": "Forni Avoltri", "addr:housenumber": "22", "addr:postcode": "33020", "addr:street": "Via della Segheria"}, "content": "Adresse: Via della Segheria 22, 33020 Forni Avoltri\nOrt: Forni Avoltri\nPLZ: 33020\nKoordinaten: 46.587021, 12.845922", "doc_type": "addresses"}
{"source": "OSM", "region": "Kärnten", "osm_type": "node", "osm_id": 3788748795, "name": null, "category": null, "address": "Via Corona 23, 33020 Forni Avoltri", "street": "Via Corona", "housenumber": "23", "postcode": "33020", "place": "Forni Avoltri", "lat": 46.5853393, "lon": 12.8420674, "tags": {"addr:city": "Forni Avoltri", "addr:housenumber": "23", "addr:postcode": "33020", "addr:street": "Via Corona"}, "content": "Adresse: Via Corona 23, 33020 Forni Avoltri\nOrt: Forni Avoltri\nPLZ: 33020\nKoordinaten: 46.585339, 12.842067", "doc_type": "addresses"}
{"source": "OSM", "region": "Kärnten", "osm_type": "node", "osm_id": 3788748859, "name": null, "category": null, "address": "Piazza degli Alpini 3, 33020 Forni Avoltri", "street": "Piazza degli Alpini", "housenumber": "3", "postcode": "33020", "place": "Forni Avoltri", "lat": 46.5867035, "lon": 12.8442978, "tags": {"addr:city": "Forni Avoltri", "addr:housenumber": "3", "addr:postcode": "33020", "addr:street": "Piazza degli Alpini"}, "content": "Adresse: Piazza degli Alpini 3, 33020 Forni Avoltri\nOrt: Forni Avoltri\nPLZ: 33020\nKoordinaten: 46.586703, 12.844298", "doc_type": "addresses"}
{"source": "OSM", "region": "Kärnten", "osm_type": "node", "osm_id": 3788748860, "name": null, "category": null, "address": "Scalinata San Michele 3, 33020 Forni Avoltri", "street": "Scalinata San Michele", "housenumber": "3", "postcode": "33020", "place": "Forni Avoltri", "lat": 46.5863522, "lon": 12.8450849, "tags": {"addr:city": "Forni Avoltri", "addr:housenumber": "3", "addr:postcode": "33020", "addr:street": "Scalinata San Michele"}, "content": "Adresse: Scalinata San Michele 3, 33020 Forni Avoltri\nOrt: Forni Avoltri\nPLZ: 33020\nKoordinaten: 46.586352, 12.845085", "doc_type": "addresses"}
{"source": "OSM", "region": "Kärnten", "osm_type": "node", "osm_id": 3788748864, "name": null, "category": null, "address": "Via Corona 3, 33020 Forni Avoltri", "street": "Via Corona", "housenumber": "3", "postcode": "33020", "place": "Forni Avoltri", "lat": 46.5865813, "lon": 12.8439843, "tags": {"addr:city": "Forni Avoltri", "addr:housenumber": "3", "addr:postcode": "33020", "addr:street": "Via Corona"}, "content": "Adresse: Via Corona 3, 33020 Forni Avoltri\nOrt: Forni Avoltri\nPLZ: 33020\nKoordinaten: 46.586581, 12.843984", "doc_type": "addresses"}
{"source": "OSM", "region": "Kärnten", "osm_type": "node", "osm_id": 3788749463, "name": null, "category": null, "address": "Via Rifugio Marinelli 4, 33020 Forni Avoltri", "street": "Via Rifugio Marinelli", "housenumber": "4", "postcode": "33020", "place": "Forni Avoltri", "lat": 46.5866607, "lon": 12.844615, "tags": {"addr:city": "Forni Avoltri", "addr:housenumber": "4", "addr:postcode": "33020", "addr:street": "Via Rifugio Marinelli"}, "content": "Adresse: Via Rifugio Marinelli 4, 33020 Forni Avoltri\nOrt: Forni Avoltri\nPLZ: 33020\nKoordinaten: 46.586661, 12.844615", "doc_type": "addresses"}
{"source": "OSM", "region": "Kärnten", "osm_type": "node", "osm_id": 3788749473, "name": null, "category": null, "address": "Via Corona 5, 33020 Forni Avoltri", "street": "Via Corona", "housenumber": "5", "postcode": "33020", "place": "Forni Avoltri", "lat": 46.5864632, "lon": 12.8437725, "tags": {"addr:city": "Forni Avoltri", "addr:housenumber": "5", "addr:postcode": "33020", "addr:street": "Via Corona"}, "content": "Adresse: Via Corona 5, 33020 Forni Avoltri\nOrt: Forni Avoltri\nPLZ: 33020\nKoordinaten: 46.586463, 12.843773", "doc_type": "addresses"}
{"source": "OSM", "region": "Kärnten", "osm_type": "node", "osm_id": 3788749484, "name": null, "category": null, "address": "Via della Segheria 5, 33020 Forni Avoltri", "street": "Via della Segheria", "housenumber": "5", "postcode": "33020", "place": "Forni Avoltri", "lat": 46.5861517, "lon": 12.8441271, "tags": {"addr:city": "Forni Avoltri", "addr:housenumber": "5", "addr:postcode": "33020", "addr:street": "Via della Segheria"}, "content": "Adresse: Via della Segheria 5, 33020 Forni Avoltri\nOrt: Forni Avoltri\nPLZ: 33020\nKoordinaten: 46.586152, 12.844127", "doc_type": "addresses"}
{"source": "OSM", "region": "Kärnten", "osm_type": "node", "osm_id": 3788749508, "name": null, "category": null, "address": "Via del Leone 6, 33020 Forni Avoltri", "street": "Via del Leone", "housenumber": "6", "postcode": "33020", "place": "Forni Avoltri", "lat": 46.586765, "lon": 12.8440442, "tags": {"addr:city": "Forni Avoltri", "addr:housenumber": "6", "addr:postcode": "33020", "addr:street": "Via del Leone"}, "content": "Adresse: Via del Leone 6, 33020 Forni Avoltri\nOrt: Forni Avoltri\nPLZ: 33020\nKoordinaten: 46.586765, 12.844044", "doc_type": "addresses"}
{"source": "OSM", "region": "Kärnten", "osm_type": "node", "osm_id": 3788749559, "name": null, "category": null, "address": "Via del Leone 4, 33020 Forni Avoltri", "street": "Via del Leone", "housenumber": "4", "postcode": "33020", "place": "Forni Avoltri", "lat": 46.586798, "lon": 12.8441769, "tags": {"addr:city": "Forni Avoltri", "addr:housenumber": "4", "addr:postcode": "33020", "addr:street": "Via del Leone"}, "content": "Adresse: Via del Leone 4, 33020 Forni Avoltri\nOrt: Forni Avoltri\nPLZ: 33020\nKoordinaten: 46.586798, 12.844177", "doc_type": "addresses"}
{"source": "OSM", "region": "Kärnten", "osm_type": "node", "osm_id": 3788749560, "name": null, "category": null, "address": "Via della Segheria 4, 33020 Forni Avoltri", "street": "Via della Segheria", "housenumber": "4", "postcode": "33020", "place": "Forni Avoltri", "lat": 46.5861767, "lon": 12.8430078, "tags": {"addr:city": "Forni Avoltri", "addr:housenumber": "4", "addr:postcode": "33020", "addr:street": "Via della Segheria"}, "content": "Adresse: Via della Segheria 4, 33020 Forni Avoltri\nOrt: Forni Avoltri\nPLZ: 33020\nKoordinaten: 46.586177, 12.843008", "doc_type": "addresses"}
{"source": "OSM", "region": "Kärnten", "osm_type": "node", "osm_id": 3788749561, "name": null, "category": null, "address": "Via della Segheria 4, 33020 Forni Avoltri", "street": "Via della Segheria", "housenumber": "4", "postcode": "33020", "place": "Forni Avoltri", "lat": 46.5864329, "lon": 12.8442623, "tags": {"addr:city": "Forni Avoltri", "addr:housenumber": "4", "addr:postcode": "33020", "addr:street": "Via della Segheria"}, "content": "Adresse: Via della Segheria 4, 33020 Forni Avoltri\nOrt: Forni Avoltri\nPLZ: 33020\nKoordinaten: 46.586433, 12.844262", "doc_type": "addresses"}
{"source": "OSM", "region": "Kärnten", "osm_type": "node", "osm_id": 3788749857, "name": null, "category": null, "address": "Via della Segheria 6, 33020 Forni Avoltri", "street": "Via della Segheria", "housenumber": "6", "postcode": "33020", "place": "Forni Avoltri", "lat": 46.5864616, "lon": 12.8443561, "tags": {"addr:city": "Forni Avoltri", "addr:housenumber": "6", "addr:postcode": "33020", "addr:street": "Via della Segheria"}, "content": "Adresse: Via della Segheria 6, 33020 Forni Avoltri\nOrt: Forni Avoltri\nPLZ: 33020\nKoordinaten: 46.586462, 12.844356", "doc_type": "addresses"}
{"source": "OSM", "region": "Kärnten", "osm_type": "node", "osm_id": 3788749866, "name": null, "category": null, "address": "Via Corona 7, 33020 Forni Avoltri", "street": "Via Corona", "housenumber": "7", "postcode": "33020", "place": "Forni Avoltri", "lat": 46.5863467, "lon": 12.8435779, "tags": {"addr:city": "Forni Avoltri", "addr:housenumber": "7", "addr:postcode": "33020", "addr:street": "Via Corona"}, "content": "Adresse: Via Corona 7, 33020 Forni Avoltri\nOrt: Forni Avoltri\nPLZ: 33020\nKoordinaten: 46.586347, 12.843578", "doc_type": "addresses"}
