{"source": "OSM", "region": "Kärnten", "osm_type": "node", "osm_id": 2082953622, "name": null, "category": null, "address": "Thermenweg 28, 9530 Bad Bleiberg", "street": "Thermenweg", "housenumber": "28", "postcode": "9530", "place": "Bad Bleiberg", "lat": 46.6276379, "lon": 13.6722285, "tags": {"addr:city": "Bad Bleiberg", "addr:housenumber": "28", "addr:postcode": "9530", "addr:street": "Thermenweg"}, "content": "Adresse: Thermenweg 28, 9530 Bad Bleiberg\nOrt: Bad Bleiberg\nPLZ: 9530\nKoordinaten: 46.627638, 13.672228", "doc_type": "addresses"}
{"source": "OSM", "region": "Kärnten", "osm_type": "node", "osm_id": 4456352808, "name": "Polizeiinspektion Bad Bleiberg", "category": "amenity:police", "address": "Bleiberger Straße 69, 9530 Bad Bleiberg", "street": "Bleiberger Straße", "housenumber": "69", "postcode": "9530", "place": "Bad Bleiberg", "lat": 46.6270059, "lon": 13.6609635, "tags": {"addr:city": "Bad Bleiberg", "addr:housenumber": "69", "addr:postcode": "9530", "addr:street": "Bleiberger Straße", "amenity": "police", "name": "Polizeiinspektion Bad Bleiberg", "phone": "+43 59133 2253-100", "website": "http://www.polizei.gv.at/ktn/lpd/dst/dienststellen.aspx?"}, "content": "Polizeiinspektion Bad Bleiberg\nKategorie: amenity:police\nAdresse: Bleiberger Straße 69, 9530 Bad Bleiberg\nOrt: Bad Bleiberg\nPLZ: 9530\nKoordinaten: 46.627006, 13.660963\nTags: amenity=police, phone=+43 59133 2253-100, website=http://www.polizei.gv.at/ktn/lpd/dst/dienststellen.aspx?", "doc_type": "addresses"}
{"source": "OSM", "region": "Kärnten", "osm_type": "node", "osm_id": 4456352808, "name": "Polizeiinspektion Bad Bleiberg", "category": "amenity:police", "address": "Bleiberger Straße 69, 9530 Bad Bleiberg", "street": "Bleiberger Straße", "housenumber": "69", "postcode": "9530", "place": "Bad Bleiberg", "lat": 46.6270059, "lon": 13.6609635, "tags": {"addr:city": "Bad Bleiberg", "addr:housenumber": "69", "addr:postcode": "9530", "addr:street": "Bleiberger Straße", "amenity": "police", "name": "Polizeiinspektion Bad Bleiberg", "phone": "+43 59133 2253-100", "website": "http://www.polizei.gv.at/ktn/lpd/dst/dienststellen.aspx?"}, "content": "Polizeiinspektion Bad Bleiberg\nKategorie: amenity:police\nAdresse: Bleiberger Straße 69, 9530 Bad Bleiberg\nOrt: Bad Bleiberg\nPLZ: 9530\nKoordinaten: 46.627006, 13.660963\nTags: amenity=police, phone=+43 59133 2253-100, website=http://www.polizei.gv.at/ktn/lpd/dst/dienststellen.aspx?", "doc_type": "pois"}
