{"source": "OSM", "region": "Kärnten", "osm_type": "node", "osm_id": 340516057, "name": "Postpartner 9555", "category": "amenity:post_office", "address": "20a, 9555 Glanegg", "street": null, "housenumber": "20a", "postcode": "9555", "place": "Glanegg", "lat": 46.7150514, "lon": 14.2111558, "tags": {"addr:city": "Glanegg", "addr:housenumber": "20a", "addr:place": "Glanegg", "addr:postcode": "9555", "amenity": "post_office", "name": "Postpartner 9555", "operator": "Gemeindeamt"}, "content": "Postpartner 9555\nKategorie: amenity:post_office\nAdresse: 20a, 9555 Glanegg\nOrt: Glanegg\nPLZ: 9555\nKoordinaten: 46.715051, 14.211156\nTags: amenity=post_office, operator=Gemeindeamt", "doc_type": "addresses"}
{"source": "OSM", "region": "Kärnten", "osm_type": "node", "osm_id": 3498506853, "name": "Gemeindeamt", "category": "amenity:townhall", "address": "Glanegg 20, 9555 Glanegg", "street": "Glanegg", "housenumber": "20", "postcode": "9555", "place": "Glanegg", "lat": 46.7151054, "lon": 14.2108881, "tags": {"addr:city": "Glanegg", "addr:housenumber": "20", "addr:place": "Glanegg", "addr:postcode": "9555", "addr:street": "Glanegg", "amenity": "townhall", "name": "Gemeindeamt", "phone": "+43 4277 2276", "website": "https://www.glanegg.gv.at/"}, "content": "Gemeindeamt\nKategorie: amenity:townhall\nAdresse: Glanegg 20, 9555 Glanegg\nOrt: Glanegg\nPLZ: 9555\nKoordinaten: 46.715105, 14.210888\nTags: amenity=townhall, phone=+43 4277 2276, website=https://www.glanegg.gv.at/", "doc_type": "addresses"}
{"source": "OSM", "region": "Kärnten", "osm_type": "node", "osm_id": 4730944595, "name": null, "category": null, "address": "55, 9555 Glanegg", "street": null, "housenumber": "55", "postcode": "9555", "place": "Glanegg", "lat": 46.7190663, "lon": 14.2241832, "tags": {"addr:city": "Glanegg", "addr:housenumber": "55", "addr:place": "Glanegg", "addr:postcode": "9555"}, "content": "Adresse: 55, 9555 Glanegg\nOrt: Glanegg\nPLZ: 9555\nKoordinaten: 46.719066, 14.224183", "doc_type": "addresses"}
{"source": "OSM", "region": "Kärnten", "osm_type": "node", "osm_id": 4848122676, "name": null, "category": "building:yes", "address": "Friedlach 15, 9560 Glanegg", "street": "Friedlach", "housenumber": "15", "postcode": "9560", "place": "Glanegg", "lat": 46.7279976, "lon": 14.203267, "tags": {"addr:city": "Glanegg", "addr:housenumber": "15", "addr:postcode": "9560", "addr:street": "Friedlach", "building": "yes"}, "content": "Kategorie: building:yes\nAdresse: Friedlach 15, 9560 Glanegg\nOrt: Glanegg\nPLZ: 9560\nKoordinaten: 46.727998, 14.203267\nTags: building=yes", "doc_type": "addresses"}
{"source": "OSM", "region": "Kärnten", "osm_type": "node", "osm_id": 4856366901, "name": null, "category": null, "address": "Friedlach 84, 9560 Glanegg", "street": "Friedlach", "housenumber": "84", "postcode": "9560", "place": "Glanegg", "lat": 46.7256353, "lon": 14.1956251, "tags": {"addr:city": "Glanegg", "addr:housenumber": "84", "addr:postcode": "9560", "addr:street": "Friedlach"}, "content": "Adresse: Friedlach 84, 9560 Glanegg\nOrt: Glanegg\nPLZ: 9560\nKoordinaten: 46.725635, 14.195625", "doc_type": "addresses"}
{"source": "OSM", "region": "Kärnten", "osm_type": "node", "osm_id": 4857663443, "name": null, "category": null, "address": "5, 9555 Glanegg", "street": null, "housenumber": "5", "postcode": "9555", "place": "Glanegg", "lat": 46.7226339, "lon": 14.193879, "tags": {"addr:city": "Glanegg", "addr:housenumber": "5", "addr:place": "Friedlach", "addr:postcode": "9555"}, "content": "Adresse: 5, 9555 Glanegg\nOrt: Glanegg\nPLZ: 9555\nKoordinaten: 46.722634, 14.193879", "doc_type": "addresses"}
{"source": "OSM", "region": "Kärnten", "osm_type": "node", "osm_id": 4858169115, "name": null, "category": null, "address": "1, 9555 Glanegg", "street": null, "housenumber": "1", "postcode": "9555", "place": "Glanegg", "lat": 46.7269102, "lon": 14.1830076, "tags": {"addr:city": "Glanegg", "addr:housenumber": "1", "addr:place": "Mautbrücken", "addr:postcode": "9555"}, "content": "Adresse: 1, 9555 Glanegg\nOrt: Glanegg\nPLZ: 9555\nKoordinaten: 46.726910, 14.183008", "doc_type": "addresses"}
{"source": "OSM", "region": "Kärnten", "osm_type": "node", "osm_id": 4858169140, "name": null, "category": null, "address": "Unterglanegg 11, 9560 Glanegg", "street": "Unterglanegg", "housenumber": "11", "postcode": "9560", "place": "Glanegg", "lat": 46.7300364, "lon": 14.1673147, "tags": {"addr:city": "Glanegg", "addr:housenumber": "11", "addr:postcode": "9560", "addr:street": "Unterglanegg"}, "content": "Adresse: Unterglanegg 11, 9560 Glanegg\nOrt: Glanegg\nPLZ: 9560\nKoordinaten: 46.730036, 14.167315", "doc_type": "addresses"}
{"source": "OSM", "region": "Kärnten", "osm_type": "node", "osm_id": 4858169141, "name": null, "category": null, "address": "9, 9555 Glanegg", "street": null, "housenumber": "9", "postcode": "9555", "place": "Glanegg", "lat": 46.72471, "lon": 14.1803019, "tags": {"addr:city": "Glanegg", "addr:housenumber": "9", "addr:place": "Unterglanegg", "addr:postcode": "9555"}, "content": "Adresse: 9, 9555 Glanegg\nOrt: Glanegg\nPLZ: 9555\nKoordinaten: 46.724710, 14.180302", "doc_type": "addresses"}
{"source": "OSM", "region": "Kärnten", "osm_type": "node", "osm_id": 4863669164, "name": null, "category": null, "address": "3, 9555 Glanegg", "street": null, "housenumber": "3", "postcode": "9555", "place": "Glanegg", "lat": 46.7342464, "lon": 14.1708908, "tags": {"addr:city": "Glanegg", "addr:housenumber": "3", "addr:place": "Rottendorf", "addr:postcode": "9555"}, "content": "Adresse: 3, 9555 Glanegg\nOrt: Glanegg\nPLZ: 9555\nKoordinaten: 46.734246, 14.170891", "doc_type": "addresses"}
{"source": "OSM", "region": "Kärnten", "osm_type": "node", "osm_id": 4863669165, "name": null, "category": null, "address": "16, 9555 Glanegg", "street": null, "housenumber": "16", "postcode": "9555", "place": "Glanegg", "lat": 46.7181784, "lon": 14.1869617, "tags": {"addr:city": "Glanegg", "addr:housenumber": "16", "addr:place": "Schwambach", "addr:postcode": "9555"}, "content": "Adresse: 16, 9555 Glanegg\nOrt: Glanegg\nPLZ: 9555\nKoordinaten: 46.718178, 14.186962", "doc_type": "addresses"}
{"source": "OSM", "region": "Kärnten", "osm_type": "node", "osm_id": 4863669166, "name": null, "category": null, "address": "13, 9555 Glanegg", "street": null, "housenumber": "13", "postcode": "9555", "place": "Glanegg", "lat": 46.7182035, "lon": 14.1870037, "tags": {"addr:city": "Glanegg", "addr:housenumber": "13", "addr:place": "Schwambach", "addr:postcode": "9555"}, "content": "Adresse: 13, 9555 Glanegg\nOrt: Glanegg\nPLZ: 9555\nKoordinaten: 46.718204, 14.187004", "doc_type": "addresses"}
{"source": "OSM", "region": "Kärnten", "osm_type": "node", "osm_id": 4863669167, "name": null, "category": null, "address": "3, 9555 Glanegg", "street": null, "housenumber": "3", "postcode": "9555", "place": "Glanegg", "lat": 46.7182873, "lon": 14.1867355, "tags": {"addr:city": "Glanegg", "addr:housenumber": "3", "addr:place": "Schwambach", "addr:postcode": "9555"}, "content": "Adresse: 3, 9555 Glanegg\nOrt: Glanegg\nPLZ: 9555\nKoordinaten: 46.718287, 14.186735", "doc_type": "addresses"}
{"source": "OSM", "region": "Kärnten", "osm_type": "node", "osm_id": 4889216445, "name": null, "category": null, "address": "23, 9555 Glanegg", "street": null, "housenumber": "23", "postcode": "9555", "place": "Glanegg", "lat": 46.7337233, "lon": 14.2248416, "tags": {"addr:city": "Glanegg", "addr:housenumber": "23", "addr:place": "Besendorf", "addr:postcode": "9555"}, "content": "Adresse: 23, 9555 Glanegg\nOrt: Glanegg\nPLZ: 9555\nKoordinaten: 46.733723, 14.224842", "doc_type": "addresses"}
{"source": "OSM", "region": "Kärnten", "osm_type": "node", "osm_id": 4889216446, "name": null, "category": null, "address": "19, 9555 Glanegg", "street": null, "housenumber": "19", "postcode": "9555", "place": "Glanegg", "lat": 46.7341635, "lon": 14.2226686, "tags": {"addr:city": "Glanegg", "addr:housenumber": "19", "addr:place": "Besendorf", "addr:postcode": "9555"}, "content": "Adresse: 19, 9555 Glanegg\nOrt: Glanegg\nPLZ: 9555\nKoordinaten: 46.734164, 14.222669", "doc_type": "addresses"}
{"source": "OSM", "region": "Kärnten", "osm_type": "node", "osm_id": 5368589215, "name": null, "category": null, "address": "18, 9555 Glanegg", "street": null, "housenumber": "18", "postcode": "9555", "place": "Glanegg", "lat": 46.7249481, "lon": 14.2181914, "tags": {"addr:city": "Glanegg", "addr:housenumber": "18", "addr:place": "Friedlach", "addr:postcode": "9555"}, "content": "Adresse: 18, 9555 Glanegg\nOrt: Glanegg\nPLZ: 9555\nKoordinaten: 46.724948, 14.218191", "doc_type": "addresses"}
{"source": "OSM", "region": "Kärnten", "osm_type": "node", "osm_id": 5368589231, "name": null, "category": null, "address": "9, 9555 Glanegg", "street": null, "housenumber": "9", "postcode": "9555", "place": "Glanegg", "lat": 46.7300227, "lon": 14.2153291, "tags": {"addr:city": "Glanegg", "addr:housenumber": "9", "addr:place": "Paindorf", "addr:postcode": "9555"}, "content": "Adresse: 9, 9555 Glanegg\nOrt: Glanegg\nPLZ: 9555\nKoordinaten: 46.730023, 14.215329", "doc_type": "addresses"}
{"source": "OSM", "region": "Kärnten", "osm_type": "node", "osm_id": 5368589232, "name": null, "category": null, "address": "5, 9555 Glanegg", "street": null, "housenumber": "5", "postcode": "9555", "place": "Glanegg", "lat": 46.7299527, "lon": 14.215299, "tags": {"addr:city": "Glanegg", "addr:housenumber": "5", "addr:place": "Paindorf", "addr:postcode": "9555"}, "content": "Adresse: 5, 9555 Glanegg\nOrt: Glanegg\nPLZ: 9555\nKoordinaten: 46.729953, 14.215299", "doc_type": "addresses"}
{"source": "OSM", "region": "Kärnten", "osm_type": "node", "osm_id": 5368589233, "name": null, "category": null, "address": "7, 9560 Glanegg", "street": null, "housenumber": "7", "postcode": "9560", "place": "Glanegg", "lat": 46.7300011, "lon": 14.215214, "tags": {"addr:city": "Glanegg", "addr:housenumber": "7", "addr:place": "Paindorf", "addr:postcode": "9560"}, "content": "Adresse: 7, 9560 Glanegg\nOrt: Glanegg\nPLZ: 9560\nKoordinaten: 46.730001, 14.215214", "doc_type": "addresses"}
{"source": "OSM", "region": "Kärnten", "osm_type": "node", "osm_id": 5368589242, "name": null, "category": null, "address": "Friedlach-Gewerbepark 2, 9555 Glanegg", "street": "Friedlach-Gewerbepark", "housenumber": "2", "postcode": "9555", "place": "Glanegg", "lat": 46.7221174, "lon": 14.2022958, "tags": {"addr:city": "Glanegg", "addr:housenumber": "2", "addr:postcode": "9555", "addr:street": "Friedlach-Gewerbepark"}, "content": "Adresse: Friedlach-Gewerbepark 2, 9555 Glanegg\nOrt: Glanegg\nPLZ: 9555\nKoordinaten: 46.722117, 14.202296", "doc_type": "addresses"}
{"source": "OSM", "region": "Kärnten", "osm_type": "node", "osm_id": 340516057, "name": "Postpartner 9555", "category": "amenity:post_office", "address": "20a, 9555 Glanegg", "street": null, "housenumber": "20a", "postcode": "9555", "place": "Glanegg", "lat": 46.7150514, "lon": 14.2111558, "tags": {"addr:city": "Glanegg", "addr:housenumber": "20a", "addr:place": "Glanegg", "addr:postcode": "9555", "amenity": "post_office", "name": "Postpartner 9555", "operator": "Gemeindeamt"}, "content": "Postpartner 9555\nKategorie: amenity:post_office\nAdresse: 20a, 9555 Glanegg\nOrt: Glanegg\nPLZ: 9555\nKoordinaten: 46.715051, 14.211156\nTags: amenity=post_office, operator=Gemeindeamt", "doc_type": "pois"}
{"source": "OSM", "region": "Kärnten", "osm_type": "node", "osm_id": 3498506853, "name": "Gemeindeamt", "category": "amenity:townhall", "address": "Glanegg 20, 9555 Glanegg", "street": "Glanegg", "housenumber": "20", "postcode": "9555", "place": "Glanegg", "lat": 46.7151054, "lon": 14.2108881, "tags": {"addr:city": "Glanegg", "addr:housenumber": "20", "addr:place": "Glanegg", "addr:postcode": "9555", "addr:street": "Glanegg", "amenity": "townhall", "name": "Gemeindeamt", "phone": "+43 4277 2276", "website": "https://www.glanegg.gv.at/"}, "content": "Gemeindeamt\nKategorie: amenity:townhall\nAdresse: Glanegg 20, 9555 Glanegg\nOrt: Glanegg\nPLZ: 9555\nKoordinaten: 46.715105, 14.210888\nTags: amenity=townhall, phone=+43 4277 2276, website=https://www.glanegg.gv.at/", "doc_type": "pois"}
{"source": "OSM", "region": "Kärnten", "osm_type": "node", "osm_id": 4848122676, "name": null, "category": "building:yes", "address": "Friedlach 15, 9560 Glanegg", "street": "Friedlach", "housenumber": "15", "postcode": "9560", "place": "Glanegg", "lat": 46.7279976, "lon": 14.203267, "tags": {"addr:city": "Glanegg", "addr:housenumber": "15", "addr:postcode": "9560", "addr:street": "Friedlach", "building": "yes"}, "content": "Kategorie: building:yes\nAdresse: Friedlach 15, 9560 Glanegg\nOrt: Glanegg\nPLZ: 9560\nKoordinaten: 46.727998, 14.203267\nTags: building=yes", "doc_type": "buildings"}
