{"source": "OSM", "region": "Kärnten", "osm_type": "node", "osm_id": 340520430, "name": "bank99", "category": "amenity:bank", "address": "Kreuzberglweg 1, 9141 Eberndorf", "street": "Kreuzberglweg", "housenumber": "1", "postcode": "9141", "place": "Eberndorf", "lat": 46.5909564, "lon": 14.6423719, "tags": {"addr:city": "Eberndorf", "addr:housenumber": "1", "addr:postcode": "9141", "addr:street": "Kreuzberglweg", "amenity": "bank", "brand": "bank99", "name": "bank99", "operator": "bank99 AG", "website": "https://www.bank99.at"}, "content": "bank99\nKategorie: amenity:bank\nAdresse: Kreuzberglweg 1, 9141 Eberndorf\nOrt: Eberndorf\nPLZ: 9141\nKoordinaten: 46.590956, 14.642372\nTags: amenity=bank, operator=bank99 AG, brand=bank99, website=https://www.bank99.at", "doc_type": "addresses"}
{"source": "OSM", "region": "Kärnten", "osm_type": "node", "osm_id": 1749001235, "name": "Spar", "category": "shop:supermarket", "address": "Gewerbestraße 2, 9141 Eberndorf", "street": "Gewerbestraße", "housenumber": "2", "postcode": "9141", "place": "Eberndorf", "lat": 46.5849086, "lon": 14.6495011, "tags": {"addr:city": "Eberndorf", "addr:housenumber": "2", "addr:postcode": "9141", "addr:street": "Gewerbestraße", "brand": "Spar", "name": "Spar", "shop": "supermarket"}, "content": "Spar\nKategorie: shop:supermarket\nAdresse: Gewerbestraße 2, 9141 Eberndorf\nOrt: Eberndorf\nPLZ: 9141\nKoordinaten: 46.584909, 14.649501\nTags: shop=supermarket, brand=Spar", "doc_type": "addresses"}
{"source": "OSM", "region": "Kärnten", "osm_type": "node", "osm_id": 2612637345, "name": "Haus für Tiere", "category": "amenity:animal_shelter", "address": "11, 9141 Eberndorf", "street": null, "housenumber": "11", "postcode": "9141", "place": "Eberndorf", "lat": 46.558062, "lon": 14.651341, "tags": {"addr:city": "Eberndorf", "addr:housenumber": "11", "addr:place": "Unterbergen", "addr:postcode": "9141", "amenity": "animal_shelter", "name": "Haus für Tiere"}, "content": "Haus für Tiere\nKategorie: amenity:animal_shelter\nAdresse: 11, 9141 Eberndorf\nOrt: Eberndorf\nPLZ: 9141\nKoordinaten: 46.558062, 14.651341\nTags: amenity=animal_shelter", "doc_type": "addresses"}
{"source": "OSM", "region": "Kärnten", "osm_type": "node", "osm_id": 3129239646, "name": "Posojilnica Bank eGen", "category": "amenity:bank", "address": "Bleiburger Straße 6, 9141 Eberndorf", "street": "Bleiburger Straße", "housenumber": "6", "postcode": "9141", "place": "Eberndorf", "lat": 46.5903763, "lon": 14.64021, "tags": {"addr:city": "Eberndorf", "addr:housenumber": "6", "addr:postcode": "9141", "addr:street": "Bleiburger Straße", "amenity": "bank", "name": "Posojilnica Bank eGen", "phone": "+43 463 512365", "website": "https://www.poso.at/de/ueber-uns/bankstellen/bankstelle-eberndorf.html"}, "content": "Posojilnica Bank eGen\nKategorie: amenity:bank\nAdresse: Bleiburger Straße 6, 9141 Eberndorf\nOrt: Eberndorf\nPLZ: 9141\nKoordinaten: 46.590376, 14.640210\nTags: amenity=bank, phone=+43 463 512365, website=https://www.poso.at/de/ueber-uns/bankstellen/bankstelle-eberndorf.html", "doc_type": "addresses"}
{"source": "OSM", "region": "Kärnten", "osm_type": "node", "osm_id": 5131738971, "name": null, "category": null, "address": "Kirchplatz 8, 9141 Eberndorf", "street": "Kirchplatz", "housenumber": "8", "postcode": "9141", "place": "Eberndorf", "lat": 46.5910764, "lon": 14.6421482, "tags": {"addr:city": "Eberndorf", "addr:housenumber": "8", "addr:postcode": "9141", "addr:street": "Kirchplatz"}, "content": "Adresse: Kirchplatz 8, 9141 Eberndorf\nOrt: Eberndorf\nPLZ: 9141\nKoordinaten: 46.591076, 14.642148", "doc_type": "addresses"}
{"source": "OSM", "region": "Kärnten", "osm_type": "node", "osm_id": 5528268213, "name": null, "category": null, "address": "Seeberg Straße 35, 9141 Eberndorf", "street": "Seeberg Straße", "housenumber": "35", "postcode": "9141", "place": "Eberndorf", "lat": 46.5653454, "lon": 14.6292682, "tags": {"addr:city": "Eberndorf", "addr:housenumber": "35", "addr:postcode": "9141", "addr:street": "Seeberg Straße"}, "content": "Adresse: Seeberg Straße 35, 9141 Eberndorf\nOrt: Eberndorf\nPLZ: 9141\nKoordinaten: 46.565345, 14.629268", "doc_type": "addresses"}
{"source": "OSM", "region": "Kärnten", "osm_type": "node", "osm_id": 5528268781, "name": null, "category": null, "address": "79, 9141 Eberndorf", "street": null, "housenumber": "79", "postcode": "9141", "place": "Eberndorf", "lat": 46.5736921, "lon": 14.6580362, "tags": {"addr:city": "Eberndorf", "addr:housenumber": "79", "addr:place": "Hart", "addr:postcode": "9141"}, "content": "Adresse: 79, 9141 Eberndorf\nOrt: Eberndorf\nPLZ: 9141\nKoordinaten: 46.573692, 14.658036", "doc_type": "addresses"}
{"source": "OSM", "region": "Kärnten", "osm_type": "node", "osm_id": 5528268782, "name": null, "category": null, "address": "80, 9141 Eberndorf", "street": null, "housenumber": "80", "postcode": "9141", "place": "Eberndorf", "lat": 46.5725249, "lon": 14.6572289, "tags": {"addr:city": "Eberndorf", "addr:housenumber": "80", "addr:place": "Hart", "addr:postcode": "9141"}, "content": "Adresse: 80, 9141 Eberndorf\nOrt: Eberndorf\nPLZ: 9141\nKoordinaten: 46.572525, 14.657229", "doc_type": "addresses"}
{"source": "OSM", "region": "Kärnten", "osm_type": "node", "osm_id": 5528268791, "name": null, "category": null, "address": "56, 9141 Eberndorf", "street": null, "housenumber": "56", "postcode": "9141", "place": "Eberndorf", "lat": 46.5727333, "lon": 14.6590421, "tags": {"addr:city": "Eberndorf", "addr:housenumber": "56", "addr:place": "Hart", "addr:postcode": "9141"}, "content": "Adresse: 56, 9141 Eberndorf\nOrt: Eberndorf\nPLZ: 9141\nKoordinaten: 46.572733, 14.659042", "doc_type": "addresses"}
{"source": "OSM", "region": "Kärnten", "osm_type": "node", "osm_id": 5528268792, "name": null, "category": null, "address": "58, 9141 Eberndorf", "street": null, "housenumber": "58", "postcode": "9141", "place": "Eberndorf", "lat": 46.5729527, "lon": 14.6592352, "tags": {"addr:city": "Eberndorf", "addr:housenumber": "58", "addr:place": "Hart", "addr:postcode": "9141"}, "content": "Adresse: 58, 9141 Eberndorf\nOrt: Eberndorf\nPLZ: 9141\nKoordinaten: 46.572953, 14.659235", "doc_type": "addresses"}
{"source": "OSM", "region": "Kärnten", "osm_type": "node", "osm_id": 5528268797, "name": null, "category": null, "address": "40, 9141 Eberndorf", "street": null, "housenumber": "40", "postcode": "9141", "place": "Eberndorf", "lat": 46.568708, "lon": 14.662022, "tags": {"addr:city": "Eberndorf", "addr:housenumber": "40", "addr:place": "Loibegg", "addr:postcode": "9141"}, "content": "Adresse: 40, 9141 Eberndorf\nOrt: Eberndorf\nPLZ: 9141\nKoordinaten: 46.568708, 14.662022", "doc_type": "addresses"}
{"source": "OSM", "region": "Kärnten", "osm_type": "node", "osm_id": 5528268798, "name": null, "category": null, "address": "24, 9141 Eberndorf", "street": null, "housenumber": "24", "postcode": "9141", "place": "Eberndorf", "lat": 46.5669599, "lon": 14.6680757, "tags": {"addr:city": "Eberndorf", "addr:housenumber": "24", "addr:place": "Loibegg", "addr:postcode": "9141"}, "content": "Adresse: 24, 9141 Eberndorf\nOrt: Eberndorf\nPLZ: 9141\nKoordinaten: 46.566960, 14.668076", "doc_type": "addresses"}
{"source": "OSM", "region": "Kärnten", "osm_type": "node", "osm_id": 5528268799, "name": null, "category": null, "address": "49a, 9141 Eberndorf", "street": null, "housenumber": "49a", "postcode": "9141", "place": "Eberndorf", "lat": 46.5679253, "lon": 14.6635213, "tags": {"addr:city": "Eberndorf", "addr:housenumber": "49a", "addr:place": "Loibegg", "addr:postcode": "9141"}, "content": "Adresse: 49a, 9141 Eberndorf\nOrt: Eberndorf\nPLZ: 9141\nKoordinaten: 46.567925, 14.663521", "doc_type": "addresses"}
{"source": "OSM", "region": "Kärnten", "osm_type": "node", "osm_id": 5528268947, "name": null, "category": null, "address": "2, 9141 Eberndorf", "street": null, "housenumber": "2", "postcode": "9141", "place": "Eberndorf", "lat": 46.563209, "lon": 14.6604207, "tags": {"addr:city": "Eberndorf", "addr:housenumber": "2", "addr:place": "Homitzberg", "addr:postcode": "9141"}, "content": "Adresse: 2, 9141 Eberndorf\nOrt: Eberndorf\nPLZ: 9141\nKoordinaten: 46.563209, 14.660421", "doc_type": "addresses"}
{"source": "OSM", "region": "Kärnten", "osm_type": "node", "osm_id": 340520430, "name": "bank99", "category": "amenity:bank", "address": "Kreuzberglweg 1, 9141 Eberndorf", "street": "Kreuzberglweg", "housenumber": "1", "postcode": "9141", "place": "Eberndorf", "lat": 46.5909564, "lon": 14.6423719, "tags": {"addr:city": "Eberndorf", "addr:housenumber": "1", "addr:postcode": "9141", "addr:street": "Kreuzberglweg", "amenity": "bank", "brand": "bank99", "name": "bank99", "operator": "bank99 AG", "website": "https://www.bank99.at"}, "content": "bank99\nKategorie: amenity:bank\nAdresse: Kreuzberglweg 1, 9141 Eberndorf\nOrt: Eberndorf\nPLZ: 9141\nKoordinaten: 46.590956, 14.642372\nTags: amenity=bank, operator=bank99 AG, brand=bank99, website=https://www.bank99.at", "doc_type": "pois"}
{"source": "OSM", "region": "Kärnten", "osm_type": "node", "osm_id": 1749001235, "name": "Spar", "category": "shop:supermarket", "address": "Gewerbestraße 2, 9141 Eberndorf", "street": "Gewerbestraße", "housenumber": "2", "postcode": "9141", "place": "Eberndorf", "lat": 46.5849086, "lon": 14.6495011, "tags": {"addr:city": "Eberndorf", "addr:housenumber": "2", "addr:postcode": "9141", "addr:street": "Gewerbestraße", "brand": "Spar", "name": "Spar", "shop": "supermarket"}, "content": "Spar\nKategorie: shop:supermarket\nAdresse: Gewerbestraße 2, 9141 Eberndorf\nOrt: Eberndorf\nPLZ: 9141\nKoordinaten: 46.584909, 14.649501\nTags: shop=supermarket, brand=Spar", "doc_type": "pois"}
{"source": "OSM", "region": "Kärnten", "osm_type": "node", "osm_id": 2612637345, "name": "Haus für Tiere", "category": "amenity:animal_shelter", "address": "11, 9141 Eberndorf", "street": null, "housenumber": "11", "postcode": "9141", "place": "Eberndorf", "lat": 46.558062, "lon": 14.651341, "tags": {"addr:city": "Eberndorf", "addr:housenumber": "11", "addr:place": "Unterbergen", "addr:postcode": "9141", "amenity": "animal_shelter", "name": "Haus für Tiere"}, "content": "Haus für Tiere\nKategorie: amenity:animal_shelter\nAdresse: 11, 9141 Eberndorf\nOrt: Eberndorf\nPLZ: 9141\nKoordinaten: 46.558062, 14.651341\nTags: amenity=animal_shelter", "doc_type": "pois"}
{"source": "OSM", "region": "Kärnten", "osm_type": "node", "osm_id": 3129239646, "name": "Posojilnica Bank eGen", "category": "amenity:bank", "address": "Bleiburger Straße 6, 9141 Eberndorf", "street": "Bleiburger Straße", "housenumber": "6", "postcode": "9141", "place": "Eberndorf", "lat": 46.5903763, "lon": 14.64021, "tags": {"addr:city": "Eberndorf", "addr:housenumber": "6", "addr:postcode": "9141", "addr:street": "Bleiburger Straße", "amenity": "bank", "name": "Posojilnica Bank eGen", "phone": "+43 463 512365", "website": "https://www.poso.at/de/ueber-uns/bankstellen/bankstelle-eberndorf.html"}, "content": "Posojilnica Bank eGen\nKategorie: amenity:bank\nAdresse: Bleiburger Straße 6, 9141 Eberndorf\nOrt: Eberndorf\nPLZ: 9141\nKoordinaten: 46.590376, 14.640210\nTags: amenity=bank, phone=+43 463 512365, website=https://www.poso.at/de/ueber-uns/bankstellen/bankstelle-eberndorf.html", "doc_type": "pois"}
