{"source": "OSM", "region": "Kärnten", "osm_type": "node", "osm_id": 4546229991, "name": "Billa", "category": "shop:supermarket", "address": "10. Oktober Straße 2, 9371 Brückl", "street": "10. Oktober Straße", "housenumber": "2", "postcode": "9371", "place": "Brückl", "lat": 46.7488852, "lon": 14.5331513, "tags": {"addr:city": "Brückl", "addr:housenumber": "2", "addr:postcode": "9371", "addr:street": "10. Oktober Straße", "brand": "Billa", "name": "Billa", "shop": "supermarket"}, "content": "Billa\nKategorie: shop:supermarket\nAdresse: 10. Oktober Straße 2, 9371 Brückl\nOrt: Brückl\nPLZ: 9371\nKoordinaten: 46.748885, 14.533151\nTags: shop=supermarket, brand=Billa", "doc_type": "addresses"}
{"source": "OSM", "region": "Kärnten", "osm_type": "node", "osm_id": 5508554811, "name": "Imbissstube Haimburger", "category": "amenity:restaurant", "address": "Sankt Veiter Straße, 9371 Brückl", "street": "Sankt Veiter Straße", "housenumber": null, "postcode": "9371", "place": "Brückl", "lat": 46.7489243, "lon": 14.5253636, "tags": {"addr:city": "Brückl", "addr:postcode": "9371", "addr:street": "Sankt Veiter Straße", "amenity": "restaurant", "name": "Imbissstube Haimburger"}, "content": "Imbissstube Haimburger\nKategorie: amenity:restaurant\nAdresse: Sankt Veiter Straße, 9371 Brückl\nOrt: Brückl\nPLZ: 9371\nKoordinaten: 46.748924, 14.525364\nTags: amenity=restaurant", "doc_type": "addresses"}
{"source": "OSM", "region": "Kärnten", "osm_type": "node", "osm_id": 5508576433, "name": "Aut Ark", "category": "amenity:social_facility", "address": "Gartenstraße, 9371 Brückl", "street": "Gartenstraße", "housenumber": null, "postcode": "9371", "place": "Brückl", "lat": 46.7466846, "lon": 14.5352518, "tags": {"addr:city": "Brückl", "addr:postcode": "9371", "addr:street": "Gartenstraße", "amenity": "social_facility", "name": "Aut Ark", "operator": "autark"}, "content": "Aut Ark\nKategorie: amenity:social_facility\nAdresse: Gartenstraße, 9371 Brückl\nOrt: Brückl\nPLZ: 9371\nKoordinaten: 46.746685, 14.535252\nTags: amenity=social_facility, operator=autark", "doc_type": "addresses"}
{"source": "OSM", "region": "Kärnten", "osm_type": "node", "osm_id": 4546229991, "name": "Billa", "category": "shop:supermarket", "address": "10. Oktober Straße 2, 9371 Brückl", "street": "10. Oktober Straße", "housenumber": "2", "postcode": "9371", "place": "Brückl", "lat": 46.7488852, "lon": 14.5331513, "tags": {"addr:city": "Brückl", "addr:housenumber": "2", "addr:postcode": "9371", "addr:street": "10. Oktober Straße", "brand": "Billa", "name": "Billa", "shop": "supermarket"}, "content": "Billa\nKategorie: shop:supermarket\nAdresse: 10. Oktober Straße 2, 9371 Brückl\nOrt: Brückl\nPLZ: 9371\nKoordinaten: 46.748885, 14.533151\nTags: shop=supermarket, brand=Billa", "doc_type": "pois"}
{"source": "OSM", "region": "Kärnten", "osm_type": "node", "osm_id": 5508554811, "name": "Imbissstube Haimburger", "category": "amenity:restaurant", "address": "Sankt Veiter Straße, 9371 Brückl", "street": "Sankt Veiter Straße", "housenumber": null, "postcode": "9371", "place": "Brückl", "lat": 46.7489243, "lon": 14.5253636, "tags": {"addr:city": "Brückl", "addr:postcode": "9371", "addr:street": "Sankt Veiter Straße", "amenity": "restaurant", "name": "Imbissstube Haimburger"}, "content": "Imbissstube Haimburger\nKategorie: amenity:restaurant\nAdresse: Sankt Veiter Straße, 9371 Brückl\nOrt: Brückl\nPLZ: 9371\nKoordinaten: 46.748924, 14.525364\nTags: amenity=restaurant", "doc_type": "pois"}
{"source": "OSM", "region": "Kärnten", "osm_type": "node", "osm_id": 5508576433, "name": "Aut Ark", "category": "amenity:social_facility", "address": "Gartenstraße, 9371 Brückl", "street": "Gartenstraße", "housenumber": null, "postcode": "9371", "place": "Brückl", "lat": 46.7466846, "lon": 14.5352518, "tags": {"addr:city": "Brückl", "addr:postcode": "9371", "addr:street": "Gartenstraße", "amenity": "social_facility", "name": "Aut Ark", "operator": "autark"}, "content": "Aut Ark\nKategorie: amenity:social_facility\nAdresse: Gartenstraße, 9371 Brückl\nOrt: Brückl\nPLZ: 9371\nKoordinaten: 46.746685, 14.535252\nTags: amenity=social_facility, operator=autark", "doc_type": "pois"}
