{"source": "OSM", "region": "Kärnten", "osm_type": "node", "osm_id": 4786622351, "name": null, "category": null, "address": "Bundesstraße 15a, Klein Sankt Paul", "street": "Bundesstraße", "housenumber": "15a", "postcode": null, "place": "Klein Sankt Paul", "lat": 46.8327762, "lon": 14.5400366, "tags": {"addr:housenumber": "15a", "addr:place": "Klein Sankt Paul", "addr:street": "Bundesstraße"}, "content": "Adresse: Bundesstraße 15a, Klein Sankt Paul\nOrt: Klein Sankt Paul\nKoordinaten: 46.832776, 14.540037", "doc_type": "addresses"}
{"source": "OSM", "region": "Kärnten", "osm_type": "node", "osm_id": 4786622352, "name": null, "category": null, "address": "Bundesstraße 15a, Klein Sankt Paul", "street": "Bundesstraße", "housenumber": "15a", "postcode": null, "place": "Klein Sankt Paul", "lat": 46.8328108, "lon": 14.5401114, "tags": {"addr:housenumber": "15a", "addr:place": "Klein Sankt Paul", "addr:street": "Bundesstraße"}, "content": "Adresse: Bundesstraße 15a, Klein Sankt Paul\nOrt: Klein Sankt Paul\nKoordinaten: 46.832811, 14.540111", "doc_type": "addresses"}
{"source": "OSM", "region": "Kärnten", "osm_type": "node", "osm_id": 4786622353, "name": null, "category": null, "address": "Bundesstraße 15b, Klein Sankt Paul", "street": "Bundesstraße", "housenumber": "15b", "postcode": null, "place": "Klein Sankt Paul", "lat": 46.8329892, "lon": 14.5401013, "tags": {"addr:housenumber": "15b", "addr:place": "Klein Sankt Paul", "addr:street": "Bundesstraße"}, "content": "Adresse: Bundesstraße 15b, Klein Sankt Paul\nOrt: Klein Sankt Paul\nKoordinaten: 46.832989, 14.540101", "doc_type": "addresses"}
{"source": "OSM", "region": "Kärnten", "osm_type": "node", "osm_id": 4786622354, "name": null, "category": null, "address": "Bundesstraße 15b, Klein Sankt Paul", "street": "Bundesstraße", "housenumber": "15b", "postcode": null, "place": "Klein Sankt Paul", "lat": 46.8329934, "lon": 14.5400204, "tags": {"addr:housenumber": "15b", "addr:place": "Klein Sankt Paul", "addr:street": "Bundesstraße"}, "content": "Adresse: Bundesstraße 15b, Klein Sankt Paul\nOrt: Klein Sankt Paul\nKoordinaten: 46.832993, 14.540020", "doc_type": "addresses"}
{"source": "OSM", "region": "Kärnten", "osm_type": "node", "osm_id": 4952210787, "name": null, "category": null, "address": "Sittenberg 3, 9373 Klein Sankt Paul", "street": "Sittenberg", "housenumber": "3", "postcode": "9373", "place": "Klein Sankt Paul", "lat": 46.8217361, "lon": 14.5336778, "tags": {"addr:city": "Klein Sankt Paul", "addr:housenumber": "3", "addr:postcode": "9373", "addr:street": "Sittenberg"}, "content": "Adresse: Sittenberg 3, 9373 Klein Sankt Paul\nOrt: Klein Sankt Paul\nPLZ: 9373\nKoordinaten: 46.821736, 14.533678", "doc_type": "addresses"}
