{"source": "OSM", "region": "Kärnten", "osm_type": "node", "osm_id": 340519763, "name": "9412 St. Margarethen im Lavanttal", "category": "amenity:post_office", "address": "Am Sonnberg 36, 9412 Wolfsberg", "street": "Am Sonnberg", "housenumber": "36", "postcode": "9412", "place": "Wolfsberg", "lat": 46.8549249, "lon": 14.8006933, "tags": {"addr:city": "Wolfsberg", "addr:housenumber": "36", "addr:postcode": "9412", "addr:street": "Am Sonnberg", "amenity": "post_office", "name": "9412 St. Margarethen im Lavanttal"}, "content": "9412 St. Margarethen im Lavanttal\nKategorie: amenity:post_office\nAdresse: Am Sonnberg 36, 9412 Wolfsberg\nOrt: Wolfsberg\nPLZ: 9412\nKoordinaten: 46.854925, 14.800693\nTags: amenity=post_office", "doc_type": "addresses"}
{"source": "OSM", "region": "Kärnten", "osm_type": "node", "osm_id": 479350196, "name": "Turmöl", "category": "amenity:fuel", "address": "Grazer Straße 1, 9400 Wolfsberg", "street": "Grazer Straße", "housenumber": "1", "postcode": "9400", "place": "Wolfsberg", "lat": 46.8461429, "lon": 14.8435767, "tags": {"addr:city": "Wolfsberg", "addr:housenumber": "1", "addr:postcode": "9400", "addr:street": "Grazer Straße", "amenity": "fuel", "brand": "Turmöl", "name": "Turmöl", "operator": "Turmöl"}, "content": "Turmöl\nKategorie: amenity:fuel\nAdresse: Grazer Straße 1, 9400 Wolfsberg\nOrt: Wolfsberg\nPLZ: 9400\nKoordinaten: 46.846143, 14.843577\nTags: amenity=fuel, operator=Turmöl, brand=Turmöl", "doc_type": "addresses"}
{"source": "OSM", "region": "Kärnten", "osm_type": "node", "osm_id": 1469179820, "name": null, "category": null, "address": "Grenzweg 1a, 9431 Wolfsberg", "street": "Grenzweg", "housenumber": "1a", "postcode": "9431", "place": "Wolfsberg", "lat": 46.8146703, "lon": 14.8494063, "tags": {"addr:city": "Wolfsberg", "addr:housenumber": "1a", "addr:postcode": "9431", "addr:street": "Grenzweg"}, "content": "Adresse: Grenzweg 1a, 9431 Wolfsberg\nOrt: Wolfsberg\nPLZ: 9431\nKoordinaten: 46.814670, 14.849406", "doc_type": "addresses"}
{"source": "OSM", "region": "Kärnten", "osm_type": "node", "osm_id": 1469179821, "name": null, "category": null, "address": "Grenzweg 1, 9431 Wolfsberg", "street": "Grenzweg", "housenumber": "1", "postcode": "9431", "place": "Wolfsberg", "lat": 46.8144903, "lon": 14.8494314, "tags": {"addr:city": "Wolfsberg", "addr:housenumber": "1", "addr:postcode": "9431", "addr:street": "Grenzweg"}, "content": "Adresse: Grenzweg 1, 9431 Wolfsberg\nOrt: Wolfsberg\nPLZ: 9431\nKoordinaten: 46.814490, 14.849431", "doc_type": "addresses"}
{"source": "OSM", "region": "Kärnten", "osm_type": "node", "osm_id": 1469932289, "name": null, "category": null, "address": "Hauptstraße 12, 9431 Wolfsberg", "street": "Hauptstraße", "housenumber": "12", "postcode": "9431", "place": "Wolfsberg", "lat": 46.8145296, "lon": 14.8499235, "tags": {"addr:city": "Wolfsberg", "addr:housenumber": "12", "addr:postcode": "9431", "addr:street": "Hauptstraße"}, "content": "Adresse: Hauptstraße 12, 9431 Wolfsberg\nOrt: Wolfsberg\nPLZ: 9431\nKoordinaten: 46.814530, 14.849923", "doc_type": "addresses"}
{"source": "OSM", "region": "Kärnten", "osm_type": "node", "osm_id": 1469932300, "name": null, "category": null, "address": "Hauptstraße 10, 9431 Wolfsberg", "street": "Hauptstraße", "housenumber": "10", "postcode": "9431", "place": "Wolfsberg", "lat": 46.8147324, "lon": 14.8499165, "tags": {"addr:city": "Wolfsberg", "addr:housenumber": "10", "addr:postcode": "9431", "addr:street": "Hauptstraße"}, "content": "Adresse: Hauptstraße 10, 9431 Wolfsberg\nOrt: Wolfsberg\nPLZ: 9431\nKoordinaten: 46.814732, 14.849917", "doc_type": "addresses"}
{"source": "OSM", "region": "Kärnten", "osm_type": "node", "osm_id": 1469932314, "name": null, "category": null, "address": "Gottfried-Wutscher-Weg 12b, 9431 Wolfsberg", "street": "Gottfried-Wutscher-Weg", "housenumber": "12b", "postcode": "9431", "place": "Wolfsberg", "lat": 46.8141522, "lon": 14.8492329, "tags": {"addr:city": "Wolfsberg", "addr:housenumber": "12b", "addr:postcode": "9431", "addr:street": "Gottfried-Wutscher-Weg"}, "content": "Adresse: Gottfried-Wutscher-Weg 12b, 9431 Wolfsberg\nOrt: Wolfsberg\nPLZ: 9431\nKoordinaten: 46.814152, 14.849233", "doc_type": "addresses"}
{"source": "OSM", "region": "Kärnten", "osm_type": "node", "osm_id": 1469932329, "name": null, "category": null, "address": "Hauptstraße 4, 9431 Wolfsberg", "street": "Hauptstraße", "housenumber": "4", "postcode": "9431", "place": "Wolfsberg", "lat": 46.8147904, "lon": 14.8503482, "tags": {"addr:city": "Wolfsberg", "addr:housenumber": "4", "addr:postcode": "9431", "addr:street": "Hauptstraße"}, "content": "Adresse: Hauptstraße 4, 9431 Wolfsberg\nOrt: Wolfsberg\nPLZ: 9431\nKoordinaten: 46.814790, 14.850348", "doc_type": "addresses"}
{"source": "OSM", "region": "Kärnten", "osm_type": "node", "osm_id": 1469932346, "name": null, "category": null, "address": "Gottfried-Wutscher-Weg 6, 9431 Wolfsberg", "street": "Gottfried-Wutscher-Weg", "housenumber": "6", "postcode": "9431", "place": "Wolfsberg", "lat": 46.8136875, "lon": 14.8503271, "tags": {"addr:city": "Wolfsberg", "addr:housenumber": "6", "addr:postcode": "9431", "addr:street": "Gottfried-Wutscher-Weg"}, "content": "Adresse: Gottfried-Wutscher-Weg 6, 9431 Wolfsberg\nOrt: Wolfsberg\nPLZ: 9431\nKoordinaten: 46.813688, 14.850327", "doc_type": "addresses"}
{"source": "OSM", "region": "Kärnten", "osm_type": "node", "osm_id": 1469932348, "name": null, "category": null, "address": "Hauptstraße 6, 9431 Wolfsberg", "street": "Hauptstraße", "housenumber": "6", "postcode": "9431", "place": "Wolfsberg", "lat": 46.8146039, "lon": 14.8503524, "tags": {"addr:city": "Wolfsberg", "addr:housenumber": "6", "addr:postcode": "9431", "addr:street": "Hauptstraße"}, "content": "Adresse: Hauptstraße 6, 9431 Wolfsberg\nOrt: Wolfsberg\nPLZ: 9431\nKoordinaten: 46.814604, 14.850352", "doc_type": "addresses"}
{"source": "OSM", "region": "Kärnten", "osm_type": "node", "osm_id": 1469932354, "name": null, "category": null, "address": "Hauptstraße 8, 9431 Wolfsberg", "street": "Hauptstraße", "housenumber": "8", "postcode": "9431", "place": "Wolfsberg", "lat": 46.8144101, "lon": 14.8503567, "tags": {"addr:city": "Wolfsberg", "addr:housenumber": "8", "addr:postcode": "9431", "addr:street": "Hauptstraße"}, "content": "Adresse: Hauptstraße 8, 9431 Wolfsberg\nOrt: Wolfsberg\nPLZ: 9431\nKoordinaten: 46.814410, 14.850357", "doc_type": "addresses"}
{"source": "OSM", "region": "Kärnten", "osm_type": "node", "osm_id": 1501695488, "name": null, "category": null, "address": "Rosenfeldstraße 1, 9431 Wolfsberg", "street": "Rosenfeldstraße", "housenumber": "1", "postcode": "9431", "place": "Wolfsberg", "lat": 46.8119275, "lon": 14.8500478, "tags": {"addr:city": "Wolfsberg", "addr:housenumber": "1", "addr:postcode": "9431", "addr:street": "Rosenfeldstraße"}, "content": "Adresse: Rosenfeldstraße 1, 9431 Wolfsberg\nOrt: Wolfsberg\nPLZ: 9431\nKoordinaten: 46.811928, 14.850048", "doc_type": "addresses"}
{"source": "OSM", "region": "Kärnten", "osm_type": "node", "osm_id": 1704169756, "name": "Zweirad Scharf", "category": "shop:bicycle", "address": "Roßmarkt 7, 9400 Wolfsberg", "street": "Roßmarkt", "housenumber": "7", "postcode": "9400", "place": "Wolfsberg", "lat": 46.8393617, "lon": 14.8410561, "tags": {"addr:city": "Wolfsberg", "addr:housenumber": "7", "addr:postcode": "9400", "addr:street": "Roßmarkt", "name": "Zweirad Scharf", "phone": "+43 4352 3312", "shop": "bicycle", "website": "https://www.zweirad-scharf.at"}, "content": "Zweirad Scharf\nKategorie: shop:bicycle\nAdresse: Roßmarkt 7, 9400 Wolfsberg\nOrt: Wolfsberg\nPLZ: 9400\nKoordinaten: 46.839362, 14.841056\nTags: shop=bicycle, phone=+43 4352 3312, website=https://www.zweirad-scharf.at", "doc_type": "addresses"}
{"source": "OSM", "region": "Kärnten", "osm_type": "node", "osm_id": 1704226948, "name": "Lagerhaus Lavanttal", "category": "amenity:fuel", "address": "Tanglstraße 4, 9400 Wolfsberg", "street": "Tanglstraße", "housenumber": "4", "postcode": "9400", "place": "Wolfsberg", "lat": 46.84393, "lon": 14.8396292, "tags": {"addr:city": "Wolfsberg", "addr:housenumber": "4", "addr:postcode": "9400", "addr:street": "Tanglstraße", "amenity": "fuel", "brand": "Lagerhaus", "name": "Lagerhaus Lavanttal", "operator": "Lagerhaus"}, "content": "Lagerhaus Lavanttal\nKategorie: amenity:fuel\nAdresse: Tanglstraße 4, 9400 Wolfsberg\nOrt: Wolfsberg\nPLZ: 9400\nKoordinaten: 46.843930, 14.839629\nTags: amenity=fuel, operator=Lagerhaus, brand=Lagerhaus", "doc_type": "addresses"}
{"source": "OSM", "region": "Kärnten", "osm_type": "node", "osm_id": 1704228758, "name": "Bezirkspolizeikommando Wolfsberg", "category": "amenity:police", "address": "Lindhofstraße 11, 9400 Wolfsberg", "street": "Lindhofstraße", "housenumber": "11", "postcode": "9400", "place": "Wolfsberg", "lat": 46.8337869, "lon": 14.8444531, "tags": {"addr:city": "Wolfsberg", "addr:housenumber": "11", "addr:postcode": "9400", "addr:street": "Lindhofstraße", "amenity": "police", "name": "Bezirkspolizeikommando Wolfsberg", "phone": "+43 59133 2160-305"}, "content": "Bezirkspolizeikommando Wolfsberg\nKategorie: amenity:police\nAdresse: Lindhofstraße 11, 9400 Wolfsberg\nOrt: Wolfsberg\nPLZ: 9400\nKoordinaten: 46.833787, 14.844453\nTags: amenity=police, phone=+43 59133 2160-305", "doc_type": "addresses"}
{"source": "OSM", "region": "Kärnten", "osm_type": "node", "osm_id": 1867612763, "name": "Sägewerk Wolfsberg", "category": "amenity:restaurant", "address": "Stadionbadstraße 2, 9400 Wolfsberg", "street": "Stadionbadstraße", "housenumber": "2", "postcode": "9400", "place": "Wolfsberg", "lat": 46.8271571, "lon": 14.8496213, "tags": {"addr:city": "Wolfsberg", "addr:housenumber": "2", "addr:postcode": "9400", "addr:street": "Stadionbadstraße", "amenity": "restaurant", "name": "Sägewerk Wolfsberg", "website": "https://www.diebausatzlokale.at/saegewerk-wolfsberg/"}, "content": "Sägewerk Wolfsberg\nKategorie: amenity:restaurant\nAdresse: Stadionbadstraße 2, 9400 Wolfsberg\nOrt: Wolfsberg\nPLZ: 9400\nKoordinaten: 46.827157, 14.849621\nTags: amenity=restaurant, website=https://www.diebausatzlokale.at/saegewerk-wolfsberg/", "doc_type": "addresses"}
{"source": "OSM", "region": "Kärnten", "osm_type": "node", "osm_id": 1878897048, "name": null, "category": null, "address": "Manhartweg 1, 9400 Wolfsberg", "street": "Manhartweg", "housenumber": "1", "postcode": "9400", "place": "Wolfsberg", "lat": 46.8305993, "lon": 14.8444248, "tags": {"addr:city": "Wolfsberg", "addr:housenumber": "1", "addr:postcode": "9400", "addr:street": "Manhartweg"}, "content": "Adresse: Manhartweg 1, 9400 Wolfsberg\nOrt: Wolfsberg\nPLZ: 9400\nKoordinaten: 46.830599, 14.844425", "doc_type": "addresses"}
{"source": "OSM", "region": "Kärnten", "osm_type": "node", "osm_id": 1878897054, "name": null, "category": null, "address": "Pernhartweg 2, 9400 Wolfsberg", "street": "Pernhartweg", "housenumber": "2", "postcode": "9400", "place": "Wolfsberg", "lat": 46.8293497, "lon": 14.8446943, "tags": {"addr:city": "Wolfsberg", "addr:housenumber": "2", "addr:postcode": "9400", "addr:street": "Pernhartweg"}, "content": "Adresse: Pernhartweg 2, 9400 Wolfsberg\nOrt: Wolfsberg\nPLZ: 9400\nKoordinaten: 46.829350, 14.844694", "doc_type": "addresses"}
{"source": "OSM", "region": "Kärnten", "osm_type": "node", "osm_id": 1878897059, "name": null, "category": null, "address": "Manhartweg 3, 9400 Wolfsberg", "street": "Manhartweg", "housenumber": "3", "postcode": "9400", "place": "Wolfsberg", "lat": 46.8305468, "lon": 14.84454, "tags": {"addr:city": "Wolfsberg", "addr:housenumber": "3", "addr:postcode": "9400", "addr:street": "Manhartweg"}, "content": "Adresse: Manhartweg 3, 9400 Wolfsberg\nOrt: Wolfsberg\nPLZ: 9400\nKoordinaten: 46.830547, 14.844540", "doc_type": "addresses"}
{"source": "OSM", "region": "Kärnten", "osm_type": "node", "osm_id": 2004014119, "name": null, "category": null, "address": "Draxlweg 13, 9431 Wolfsberg", "street": "Draxlweg", "housenumber": "13", "postcode": "9431", "place": "Wolfsberg", "lat": 46.814871, "lon": 14.8512714, "tags": {"addr:city": "Wolfsberg", "addr:housenumber": "13", "addr:postcode": "9431", "addr:street": "Draxlweg"}, "content": "Adresse: Draxlweg 13, 9431 Wolfsberg\nOrt: Wolfsberg\nPLZ: 9431\nKoordinaten: 46.814871, 14.851271", "doc_type": "addresses"}
{"source": "OSM", "region": "Kärnten", "osm_type": "node", "osm_id": 2004014120, "name": null, "category": null, "address": "Draxlweg 15, 9431 Wolfsberg", "street": "Draxlweg", "housenumber": "15", "postcode": "9431", "place": "Wolfsberg", "lat": 46.8149125, "lon": 14.8512548, "tags": {"addr:city": "Wolfsberg", "addr:housenumber": "15", "addr:postcode": "9431", "addr:street": "Draxlweg"}, "content": "Adresse: Draxlweg 15, 9431 Wolfsberg\nOrt: Wolfsberg\nPLZ: 9431\nKoordinaten: 46.814912, 14.851255", "doc_type": "addresses"}
{"source": "OSM", "region": "Kärnten", "osm_type": "node", "osm_id": 2004014121, "name": null, "category": null, "address": "Draxlweg 17, 9431 Wolfsberg", "street": "Draxlweg", "housenumber": "17", "postcode": "9431", "place": "Wolfsberg", "lat": 46.8150827, "lon": 14.8512737, "tags": {"addr:city": "Wolfsberg", "addr:housenumber": "17", "addr:postcode": "9431", "addr:street": "Draxlweg"}, "content": "Adresse: Draxlweg 17, 9431 Wolfsberg\nOrt: Wolfsberg\nPLZ: 9431\nKoordinaten: 46.815083, 14.851274", "doc_type": "addresses"}
{"source": "OSM", "region": "Kärnten", "osm_type": "node", "osm_id": 2004014122, "name": null, "category": null, "address": "Draxlweg 19, 9431 Wolfsberg", "street": "Draxlweg", "housenumber": "19", "postcode": "9431", "place": "Wolfsberg", "lat": 46.8151281, "lon": 14.8512565, "tags": {"addr:city": "Wolfsberg", "addr:housenumber": "19", "addr:postcode": "9431", "addr:street": "Draxlweg"}, "content": "Adresse: Draxlweg 19, 9431 Wolfsberg\nOrt: Wolfsberg\nPLZ: 9431\nKoordinaten: 46.815128, 14.851256", "doc_type": "addresses"}
{"source": "OSM", "region": "Kärnten", "osm_type": "node", "osm_id": 2008864180, "name": null, "category": null, "address": "Koralmblickweg 16, 9431 Wolfsberg", "street": "Koralmblickweg", "housenumber": "16", "postcode": "9431", "place": "Wolfsberg", "lat": 46.8135393, "lon": 14.8523154, "tags": {"addr:city": "Wolfsberg", "addr:housenumber": "16", "addr:postcode": "9431", "addr:street": "Koralmblickweg"}, "content": "Adresse: Koralmblickweg 16, 9431 Wolfsberg\nOrt: Wolfsberg\nPLZ: 9431\nKoordinaten: 46.813539, 14.852315", "doc_type": "addresses"}
{"source": "OSM", "region": "Kärnten", "osm_type": "node", "osm_id": 2008864184, "name": null, "category": null, "address": "Koralmblickweg 16a, 9431 Wolfsberg", "street": "Koralmblickweg", "housenumber": "16a", "postcode": "9431", "place": "Wolfsberg", "lat": 46.8135804, "lon": 14.8522791, "tags": {"addr:city": "Wolfsberg", "addr:housenumber": "16a", "addr:postcode": "9431", "addr:street": "Koralmblickweg"}, "content": "Adresse: Koralmblickweg 16a, 9431 Wolfsberg\nOrt: Wolfsberg\nPLZ: 9431\nKoordinaten: 46.813580, 14.852279", "doc_type": "addresses"}
{"source": "OSM", "region": "Kärnten", "osm_type": "node", "osm_id": 2008864185, "name": null, "category": null, "address": "Koralmblickweg 16b, 9431 Wolfsberg", "street": "Koralmblickweg", "housenumber": "16b", "postcode": "9431", "place": "Wolfsberg", "lat": 46.8137621, "lon": 14.8522908, "tags": {"addr:city": "Wolfsberg", "addr:housenumber": "16b", "addr:postcode": "9431", "addr:street": "Koralmblickweg"}, "content": "Adresse: Koralmblickweg 16b, 9431 Wolfsberg\nOrt: Wolfsberg\nPLZ: 9431\nKoordinaten: 46.813762, 14.852291", "doc_type": "addresses"}
{"source": "OSM", "region": "Kärnten", "osm_type": "node", "osm_id": 2008864187, "name": null, "category": null, "address": "Koralmblickweg 16c, 9431 Wolfsberg", "street": "Koralmblickweg", "housenumber": "16c", "postcode": "9431", "place": "Wolfsberg", "lat": 46.8138099, "lon": 14.8522547, "tags": {"addr:city": "Wolfsberg", "addr:housenumber": "16c", "addr:postcode": "9431", "addr:street": "Koralmblickweg"}, "content": "Adresse: Koralmblickweg 16c, 9431 Wolfsberg\nOrt: Wolfsberg\nPLZ: 9431\nKoordinaten: 46.813810, 14.852255", "doc_type": "addresses"}
{"source": "OSM", "region": "Kärnten", "osm_type": "node", "osm_id": 2008864188, "name": null, "category": null, "address": "Koralmblickweg 18, 9431 Wolfsberg", "street": "Koralmblickweg", "housenumber": "18", "postcode": "9431", "place": "Wolfsberg", "lat": 46.8133097, "lon": 14.8523445, "tags": {"addr:city": "Wolfsberg", "addr:housenumber": "18", "addr:postcode": "9431", "addr:street": "Koralmblickweg"}, "content": "Adresse: Koralmblickweg 18, 9431 Wolfsberg\nOrt: Wolfsberg\nPLZ: 9431\nKoordinaten: 46.813310, 14.852344", "doc_type": "addresses"}
{"source": "OSM", "region": "Kärnten", "osm_type": "node", "osm_id": 2008864189, "name": null, "category": null, "address": "Koralmblickweg 18a, 9431 Wolfsberg", "street": "Koralmblickweg", "housenumber": "18a", "postcode": "9431", "place": "Wolfsberg", "lat": 46.8133576, "lon": 14.8523078, "tags": {"addr:city": "Wolfsberg", "addr:housenumber": "18a", "addr:postcode": "9431", "addr:street": "Koralmblickweg"}, "content": "Adresse: Koralmblickweg 18a, 9431 Wolfsberg\nOrt: Wolfsberg\nPLZ: 9431\nKoordinaten: 46.813358, 14.852308", "doc_type": "addresses"}
{"source": "OSM", "region": "Kärnten", "osm_type": "node", "osm_id": 2008864190, "name": null, "category": null, "address": "Koralmblickweg 20, 9431 Wolfsberg", "street": "Koralmblickweg", "housenumber": "20", "postcode": "9431", "place": "Wolfsberg", "lat": 46.8130824, "lon": 14.8523756, "tags": {"addr:city": "Wolfsberg", "addr:housenumber": "20", "addr:postcode": "9431", "addr:street": "Koralmblickweg"}, "content": "Adresse: Koralmblickweg 20, 9431 Wolfsberg\nOrt: Wolfsberg\nPLZ: 9431\nKoordinaten: 46.813082, 14.852376", "doc_type": "addresses"}
{"source": "OSM", "region": "Kärnten", "osm_type": "node", "osm_id": 2008864191, "name": null, "category": null, "address": "Koralmblickweg 20a, 9431 Wolfsberg", "street": "Koralmblickweg", "housenumber": "20a", "postcode": "9431", "place": "Wolfsberg", "lat": 46.8131316, "lon": 14.8523375, "tags": {"addr:city": "Wolfsberg", "addr:housenumber": "20a", "addr:postcode": "9431", "addr:street": "Koralmblickweg"}, "content": "Adresse: Koralmblickweg 20a, 9431 Wolfsberg\nOrt: Wolfsberg\nPLZ: 9431\nKoordinaten: 46.813132, 14.852338", "doc_type": "addresses"}
{"source": "OSM", "region": "Kärnten", "osm_type": "node", "osm_id": 2008864192, "name": null, "category": null, "address": "Koralmblickweg 22, 9431 Wolfsberg", "street": "Koralmblickweg", "housenumber": "22", "postcode": "9431", "place": "Wolfsberg", "lat": 46.8128543, "lon": 14.8524055, "tags": {"addr:city": "Wolfsberg", "addr:housenumber": "22", "addr:postcode": "9431", "addr:street": "Koralmblickweg"}, "content": "Adresse: Koralmblickweg 22, 9431 Wolfsberg\nOrt: Wolfsberg\nPLZ: 9431\nKoordinaten: 46.812854, 14.852405", "doc_type": "addresses"}
{"source": "OSM", "region": "Kärnten", "osm_type": "node", "osm_id": 2008864193, "name": null, "category": null, "address": "Koralmblickweg 22a, 9431 Wolfsberg", "street": "Koralmblickweg", "housenumber": "22a", "postcode": "9431", "place": "Wolfsberg", "lat": 46.8129021, "lon": 14.8523713, "tags": {"addr:city": "Wolfsberg", "addr:housenumber": "22a", "addr:postcode": "9431", "addr:street": "Koralmblickweg"}, "content": "Adresse: Koralmblickweg 22a, 9431 Wolfsberg\nOrt: Wolfsberg\nPLZ: 9431\nKoordinaten: 46.812902, 14.852371", "doc_type": "addresses"}
{"source": "OSM", "region": "Kärnten", "osm_type": "node", "osm_id": 2596622581, "name": "Stones Wolfsberg", "category": "amenity:bar", "address": "Kirchgasse 2, 9400 Wolfsberg", "street": "Kirchgasse", "housenumber": "2", "postcode": "9400", "place": "Wolfsberg", "lat": 46.8383874, "lon": 14.8445955, "tags": {"addr:city": "Wolfsberg", "addr:housenumber": "2", "addr:postcode": "9400", "addr:street": "Kirchgasse", "amenity": "bar", "name": "Stones Wolfsberg"}, "content": "Stones Wolfsberg\nKategorie: amenity:bar\nAdresse: Kirchgasse 2, 9400 Wolfsberg\nOrt: Wolfsberg\nPLZ: 9400\nKoordinaten: 46.838387, 14.844596\nTags: amenity=bar", "doc_type": "addresses"}
{"source": "OSM", "region": "Kärnten", "osm_type": "node", "osm_id": 2596623609, "name": "Cafe-Bar \"Embassy\"", "category": "amenity:bar", "address": "St. Michaeler Straße 2, 9400 Wolfsberg", "street": "St. Michaeler Straße", "housenumber": "2", "postcode": "9400", "place": "Wolfsberg", "lat": 46.8365509, "lon": 14.8413447, "tags": {"addr:city": "Wolfsberg", "addr:housenumber": "2", "addr:postcode": "9400", "addr:street": "St. Michaeler Straße", "amenity": "bar", "name": "Cafe-Bar \"Embassy\""}, "content": "Cafe-Bar \"Embassy\"\nKategorie: amenity:bar\nAdresse: St. Michaeler Straße 2, 9400 Wolfsberg\nOrt: Wolfsberg\nPLZ: 9400\nKoordinaten: 46.836551, 14.841345\nTags: amenity=bar", "doc_type": "addresses"}
{"source": "OSM", "region": "Kärnten", "osm_type": "node", "osm_id": 2631646361, "name": "Kunstwerkstatt", "category": "amenity:social_facility", "address": "Jahnstraße 4, 9400 Wolfsberg", "street": "Jahnstraße", "housenumber": "4", "postcode": "9400", "place": "Wolfsberg", "lat": 46.8353823, "lon": 14.8450476, "tags": {"addr:city": "Wolfsberg", "addr:housenumber": "4", "addr:postcode": "9400", "addr:street": "Jahnstraße", "amenity": "social_facility", "craft": "handicraft", "name": "Kunstwerkstatt", "operator": "Lebenshilfe Kärnten", "website": "https://www.lebenshilfe-kaernten.at/"}, "content": "Kunstwerkstatt\nKategorie: amenity:social_facility\nAdresse: Jahnstraße 4, 9400 Wolfsberg\nOrt: Wolfsberg\nPLZ: 9400\nKoordinaten: 46.835382, 14.845048\nTags: amenity=social_facility, operator=Lebenshilfe Kärnten, website=https://www.lebenshilfe-kaernten.at/", "doc_type": "addresses"}
{"source": "OSM", "region": "Kärnten", "osm_type": "node", "osm_id": 2631735684, "name": "Zurich Versicherungs-AG", "category": "office:insurance", "address": "Lindhofstraße 3, 9400 Wolfsberg", "street": "Lindhofstraße", "housenumber": "3", "postcode": "9400", "place": "Wolfsberg", "lat": 46.8343532, "lon": 14.8441927, "tags": {"addr:city": "Wolfsberg", "addr:housenumber": "3", "addr:postcode": "9400", "addr:street": "Lindhofstraße", "name": "Zurich Versicherungs-AG", "office": "insurance"}, "content": "Zurich Versicherungs-AG\nKategorie: office:insurance\nAdresse: Lindhofstraße 3, 9400 Wolfsberg\nOrt: Wolfsberg\nPLZ: 9400\nKoordinaten: 46.834353, 14.844193\nTags: office=insurance", "doc_type": "addresses"}
{"source": "OSM", "region": "Kärnten", "osm_type": "node", "osm_id": 2843836675, "name": "Lagerhaus", "category": "shop:doityourself", "address": "Tanglstraße 2, 9400 Wolfsberg", "street": "Tanglstraße", "housenumber": "2", "postcode": "9400", "place": "Wolfsberg", "lat": 46.843991, "lon": 14.8403287, "tags": {"addr:city": "Wolfsberg", "addr:housenumber": "2", "addr:postcode": "9400", "addr:street": "Tanglstraße", "brand": "Lagerhaus", "name": "Lagerhaus", "operator": "Lagerhaus Lavanttal", "shop": "doityourself"}, "content": "Lagerhaus\nKategorie: shop:doityourself\nAdresse: Tanglstraße 2, 9400 Wolfsberg\nOrt: Wolfsberg\nPLZ: 9400\nKoordinaten: 46.843991, 14.840329\nTags: shop=doityourself, operator=Lagerhaus Lavanttal, brand=Lagerhaus", "doc_type": "addresses"}
{"source": "OSM", "region": "Kärnten", "osm_type": "node", "osm_id": 3358473954, "name": "Müller", "category": "shop:chemist", "address": "Am Weiher 11, 9400 Wolfsberg", "street": "Am Weiher", "housenumber": "11", "postcode": "9400", "place": "Wolfsberg", "lat": 46.8405165, "lon": 14.8415301, "tags": {"addr:city": "Wolfsberg", "addr:housenumber": "11", "addr:postcode": "9400", "addr:street": "Am Weiher", "brand": "Müller", "name": "Müller", "phone": "+43 4352/47232-0", "shop": "chemist"}, "content": "Müller\nKategorie: shop:chemist\nAdresse: Am Weiher 11, 9400 Wolfsberg\nOrt: Wolfsberg\nPLZ: 9400\nKoordinaten: 46.840516, 14.841530\nTags: shop=chemist, brand=Müller, phone=+43 4352/47232-0", "doc_type": "addresses"}
{"source": "OSM", "region": "Kärnten", "osm_type": "node", "osm_id": 3363415940, "name": null, "category": "shop:optician", "address": "Grazer Straße 20, 9400 Wolfsberg", "street": "Grazer Straße", "housenumber": "20", "postcode": "9400", "place": "Wolfsberg", "lat": 46.8468677, "lon": 14.8443898, "tags": {"addr:city": "Wolfsberg", "addr:housenumber": "20", "addr:postcode": "9400", "addr:street": "Grazer Straße", "shop": "optician"}, "content": "Kategorie: shop:optician\nAdresse: Grazer Straße 20, 9400 Wolfsberg\nOrt: Wolfsberg\nPLZ: 9400\nKoordinaten: 46.846868, 14.844390\nTags: shop=optician", "doc_type": "addresses"}
{"source": "OSM", "region": "Kärnten", "osm_type": "node", "osm_id": 4296583227, "name": "Lippbauerhof", "category": "amenity:restaurant", "address": "34, 9431 Wolfsberg", "street": null, "housenumber": "34", "postcode": "9431", "place": "Wolfsberg", "lat": 46.8144139, "lon": 14.7272559, "tags": {"addr:city": "Wolfsberg", "addr:housenumber": "34", "addr:place": "Reisberg", "addr:postcode": "9431", "amenity": "restaurant", "name": "Lippbauerhof"}, "content": "Lippbauerhof\nKategorie: amenity:restaurant\nAdresse: 34, 9431 Wolfsberg\nOrt: Wolfsberg\nPLZ: 9431\nKoordinaten: 46.814414, 14.727256\nTags: amenity=restaurant", "doc_type": "addresses"}
{"source": "OSM", "region": "Kärnten", "osm_type": "node", "osm_id": 4526366374, "name": "Dr. Maria Pieringer", "category": "amenity:dentist", "address": "Offnerplatzl 2, 9400 Wolfsberg", "street": "Offnerplatzl", "housenumber": "2", "postcode": "9400", "place": "Wolfsberg", "lat": 46.8402839, "lon": 14.8425936, "tags": {"addr:city": "Wolfsberg", "addr:housenumber": "2", "addr:postcode": "9400", "addr:street": "Offnerplatzl", "amenity": "dentist", "name": "Dr. Maria Pieringer"}, "content": "Dr. Maria Pieringer\nKategorie: amenity:dentist\nAdresse: Offnerplatzl 2, 9400 Wolfsberg\nOrt: Wolfsberg\nPLZ: 9400\nKoordinaten: 46.840284, 14.842594\nTags: amenity=dentist", "doc_type": "addresses"}
{"source": "OSM", "region": "Kärnten", "osm_type": "node", "osm_id": 4557351477, "name": "Bezirksgericht Wolfsberg", "category": "amenity:courthouse", "address": "Lavantquai 1, 9400 Wolfsberg", "street": "Lavantquai", "housenumber": "1", "postcode": "9400", "place": "Wolfsberg", "lat": 46.8384375, "lon": 14.8437306, "tags": {"addr:city": "Wolfsberg", "addr:housenumber": "1", "addr:postcode": "9400", "addr:street": "Lavantquai", "amenity": "courthouse", "name": "Bezirksgericht Wolfsberg"}, "content": "Bezirksgericht Wolfsberg\nKategorie: amenity:courthouse\nAdresse: Lavantquai 1, 9400 Wolfsberg\nOrt: Wolfsberg\nPLZ: 9400\nKoordinaten: 46.838437, 14.843731\nTags: amenity=courthouse", "doc_type": "addresses"}
{"source": "OSM", "region": "Kärnten", "osm_type": "node", "osm_id": 4609401941, "name": null, "category": null, "address": "Gartenstraße 1, 9400 Wolfsberg", "street": "Gartenstraße", "housenumber": "1", "postcode": "9400", "place": "Wolfsberg", "lat": 46.829098, "lon": 14.8511852, "tags": {"addr:city": "Wolfsberg", "addr:housenumber": "1", "addr:postcode": "9400", "addr:street": "Gartenstraße"}, "content": "Adresse: Gartenstraße 1, 9400 Wolfsberg\nOrt: Wolfsberg\nPLZ: 9400\nKoordinaten: 46.829098, 14.851185", "doc_type": "addresses"}
{"source": "OSM", "region": "Kärnten", "osm_type": "node", "osm_id": 4926634870, "name": "Graf's Signum", "category": "amenity:cafe", "address": "Bahnhofplatz 1, 9400 Wolfsberg", "street": "Bahnhofplatz", "housenumber": "1", "postcode": "9400", "place": "Wolfsberg", "lat": 46.8421361, "lon": 14.8392989, "tags": {"addr:city": "Wolfsberg", "addr:housenumber": "1", "addr:postcode": "9400", "addr:street": "Bahnhofplatz", "amenity": "cafe", "name": "Graf's Signum"}, "content": "Graf's Signum\nKategorie: amenity:cafe\nAdresse: Bahnhofplatz 1, 9400 Wolfsberg\nOrt: Wolfsberg\nPLZ: 9400\nKoordinaten: 46.842136, 14.839299\nTags: amenity=cafe", "doc_type": "addresses"}
{"source": "OSM", "region": "Kärnten", "osm_type": "node", "osm_id": 5130607825, "name": "Bipa", "category": "shop:chemist", "address": "Stadthammerstraße 12, 9400 Wolfsberg", "street": "Stadthammerstraße", "housenumber": "12", "postcode": "9400", "place": "Wolfsberg", "lat": 46.8427842, "lon": 14.8424233, "tags": {"addr:city": "Wolfsberg", "addr:housenumber": "12", "addr:postcode": "9400", "addr:street": "Stadthammerstraße", "brand": "Bipa", "name": "Bipa", "shop": "chemist"}, "content": "Bipa\nKategorie: shop:chemist\nAdresse: Stadthammerstraße 12, 9400 Wolfsberg\nOrt: Wolfsberg\nPLZ: 9400\nKoordinaten: 46.842784, 14.842423\nTags: shop=chemist, brand=Bipa", "doc_type": "addresses"}
{"source": "OSM", "region": "Kärnten", "osm_type": "node", "osm_id": 5133344123, "name": "Polizeiinspektion Wolfsberg", "category": "amenity:police", "address": "Lindhofstraße 7, 9400 Wolfsberg", "street": "Lindhofstraße", "housenumber": "7", "postcode": "9400", "place": "Wolfsberg", "lat": 46.8337629, "lon": 14.8443552, "tags": {"addr:city": "Wolfsberg", "addr:housenumber": "7", "addr:postcode": "9400", "addr:street": "Lindhofstraße", "amenity": "police", "name": "Polizeiinspektion Wolfsberg", "phone": "+43 59133 2160100"}, "content": "Polizeiinspektion Wolfsberg\nKategorie: amenity:police\nAdresse: Lindhofstraße 7, 9400 Wolfsberg\nOrt: Wolfsberg\nPLZ: 9400\nKoordinaten: 46.833763, 14.844355\nTags: amenity=police, phone=+43 59133 2160100", "doc_type": "addresses"}
{"source": "OSM", "region": "Kärnten", "osm_type": "node", "osm_id": 5230190522, "name": "Penny", "category": "shop:supermarket", "address": "Klagenfurter Straße 59, 9400 Wolfsberg", "street": "Klagenfurter Straße", "housenumber": "59", "postcode": "9400", "place": "Wolfsberg", "lat": 46.817918, "lon": 14.8367113, "tags": {"addr:city": "Wolfsberg", "addr:housenumber": "59", "addr:postcode": "9400", "addr:street": "Klagenfurter Straße", "brand": "Penny", "name": "Penny", "shop": "supermarket"}, "content": "Penny\nKategorie: shop:supermarket\nAdresse: Klagenfurter Straße 59, 9400 Wolfsberg\nOrt: Wolfsberg\nPLZ: 9400\nKoordinaten: 46.817918, 14.836711\nTags: shop=supermarket, brand=Penny", "doc_type": "addresses"}
{"source": "OSM", "region": "Kärnten", "osm_type": "node", "osm_id": 5267622322, "name": "Bipa", "category": "shop:chemist", "address": "Spanheimerstraße 30, 9400 Wolfsberg", "street": "Spanheimerstraße", "housenumber": "30", "postcode": "9400", "place": "Wolfsberg", "lat": 46.8382954, "lon": 14.839139, "tags": {"addr:city": "Wolfsberg", "addr:housenumber": "30", "addr:postcode": "9400", "addr:street": "Spanheimerstraße", "brand": "Bipa", "name": "Bipa", "shop": "chemist"}, "content": "Bipa\nKategorie: shop:chemist\nAdresse: Spanheimerstraße 30, 9400 Wolfsberg\nOrt: Wolfsberg\nPLZ: 9400\nKoordinaten: 46.838295, 14.839139\nTags: shop=chemist, brand=Bipa", "doc_type": "addresses"}
{"source": "OSM", "region": "Kärnten", "osm_type": "node", "osm_id": 5331669843, "name": null, "category": null, "address": "Rosenblütenweg 18, 9400 Wolfsberg", "street": "Rosenblütenweg", "housenumber": "18", "postcode": "9400", "place": "Wolfsberg", "lat": 46.845957, "lon": 14.8257427, "tags": {"addr:city": "Wolfsberg", "addr:housenumber": "18", "addr:postcode": "9400", "addr:street": "Rosenblütenweg"}, "content": "Adresse: Rosenblütenweg 18, 9400 Wolfsberg\nOrt: Wolfsberg\nPLZ: 9400\nKoordinaten: 46.845957, 14.825743", "doc_type": "addresses"}
{"source": "OSM", "region": "Kärnten", "osm_type": "node", "osm_id": 5331669844, "name": null, "category": null, "address": "Rosenblütenweg 16, 9400 Wolfsberg", "street": "Rosenblütenweg", "housenumber": "16", "postcode": "9400", "place": "Wolfsberg", "lat": 46.8460074, "lon": 14.8256408, "tags": {"addr:city": "Wolfsberg", "addr:housenumber": "16", "addr:postcode": "9400", "addr:street": "Rosenblütenweg"}, "content": "Adresse: Rosenblütenweg 16, 9400 Wolfsberg\nOrt: Wolfsberg\nPLZ: 9400\nKoordinaten: 46.846007, 14.825641", "doc_type": "addresses"}
{"source": "OSM", "region": "Kärnten", "osm_type": "node", "osm_id": 5331669845, "name": null, "category": null, "address": "Rosenblütenweg 14, 9400 Wolfsberg", "street": "Rosenblütenweg", "housenumber": "14", "postcode": "9400", "place": "Wolfsberg", "lat": 46.8460652, "lon": 14.8255603, "tags": {"addr:city": "Wolfsberg", "addr:housenumber": "14", "addr:postcode": "9400", "addr:street": "Rosenblütenweg"}, "content": "Adresse: Rosenblütenweg 14, 9400 Wolfsberg\nOrt: Wolfsberg\nPLZ: 9400\nKoordinaten: 46.846065, 14.825560", "doc_type": "addresses"}
{"source": "OSM", "region": "Kärnten", "osm_type": "node", "osm_id": 5331669846, "name": null, "category": null, "address": "Rosenblütenweg 30, 9400 Wolfsberg", "street": "Rosenblütenweg", "housenumber": "30", "postcode": "9400", "place": "Wolfsberg", "lat": 46.8455472, "lon": 14.8263844, "tags": {"addr:city": "Wolfsberg", "addr:housenumber": "30", "addr:postcode": "9400", "addr:street": "Rosenblütenweg"}, "content": "Adresse: Rosenblütenweg 30, 9400 Wolfsberg\nOrt: Wolfsberg\nPLZ: 9400\nKoordinaten: 46.845547, 14.826384", "doc_type": "addresses"}
{"source": "OSM", "region": "Kärnten", "osm_type": "node", "osm_id": 5331669847, "name": null, "category": null, "address": "Rosenblütenweg 26, 9400 Wolfsberg", "street": "Rosenblütenweg", "housenumber": "26", "postcode": "9400", "place": "Wolfsberg", "lat": 46.8456112, "lon": 14.8261585, "tags": {"addr:city": "Wolfsberg", "addr:housenumber": "26", "addr:postcode": "9400", "addr:street": "Rosenblütenweg"}, "content": "Adresse: Rosenblütenweg 26, 9400 Wolfsberg\nOrt: Wolfsberg\nPLZ: 9400\nKoordinaten: 46.845611, 14.826159", "doc_type": "addresses"}
{"source": "OSM", "region": "Kärnten", "osm_type": "node", "osm_id": 5331669848, "name": null, "category": null, "address": "Rosenblütenweg 24, 9400 Wolfsberg", "street": "Rosenblütenweg", "housenumber": "24", "postcode": "9400", "place": "Wolfsberg", "lat": 46.8456543, "lon": 14.8260418, "tags": {"addr:city": "Wolfsberg", "addr:housenumber": "24", "addr:postcode": "9400", "addr:street": "Rosenblütenweg"}, "content": "Adresse: Rosenblütenweg 24, 9400 Wolfsberg\nOrt: Wolfsberg\nPLZ: 9400\nKoordinaten: 46.845654, 14.826042", "doc_type": "addresses"}
{"source": "OSM", "region": "Kärnten", "osm_type": "node", "osm_id": 5331669849, "name": null, "category": null, "address": "Rosenblütenweg 22, 9400 Wolfsberg", "street": "Rosenblütenweg", "housenumber": "22", "postcode": "9400", "place": "Wolfsberg", "lat": 46.8456983, "lon": 14.825905, "tags": {"addr:city": "Wolfsberg", "addr:housenumber": "22", "addr:postcode": "9400", "addr:street": "Rosenblütenweg"}, "content": "Adresse: Rosenblütenweg 22, 9400 Wolfsberg\nOrt: Wolfsberg\nPLZ: 9400\nKoordinaten: 46.845698, 14.825905", "doc_type": "addresses"}
{"source": "OSM", "region": "Kärnten", "osm_type": "node", "osm_id": 5331669850, "name": null, "category": null, "address": "Rosenblütenweg 20, 9400 Wolfsberg", "street": "Rosenblütenweg", "housenumber": "20", "postcode": "9400", "place": "Wolfsberg", "lat": 46.8457533, "lon": 14.825803, "tags": {"addr:city": "Wolfsberg", "addr:housenumber": "20", "addr:postcode": "9400", "addr:street": "Rosenblütenweg"}, "content": "Adresse: Rosenblütenweg 20, 9400 Wolfsberg\nOrt: Wolfsberg\nPLZ: 9400\nKoordinaten: 46.845753, 14.825803", "doc_type": "addresses"}
{"source": "OSM", "region": "Kärnten", "osm_type": "node", "osm_id": 5448479627, "name": null, "category": null, "address": "Ritzinger Straße 12b, 9400 Wolfsberg", "street": "Ritzinger Straße", "housenumber": "12b", "postcode": "9400", "place": "Wolfsberg", "lat": 46.8469237, "lon": 14.8431382, "tags": {"addr:city": "Wolfsberg", "addr:housenumber": "12b", "addr:postcode": "9400", "addr:street": "Ritzinger Straße"}, "content": "Adresse: Ritzinger Straße 12b, 9400 Wolfsberg\nOrt: Wolfsberg\nPLZ: 9400\nKoordinaten: 46.846924, 14.843138", "doc_type": "addresses"}
{"source": "OSM", "region": "Kärnten", "osm_type": "node", "osm_id": 5448479628, "name": null, "category": null, "address": "Ritzinger Straße 12a, 9400 Wolfsberg", "street": "Ritzinger Straße", "housenumber": "12a", "postcode": "9400", "place": "Wolfsberg", "lat": 46.8469421, "lon": 14.8430604, "tags": {"addr:city": "Wolfsberg", "addr:housenumber": "12a", "addr:postcode": "9400", "addr:street": "Ritzinger Straße"}, "content": "Adresse: Ritzinger Straße 12a, 9400 Wolfsberg\nOrt: Wolfsberg\nPLZ: 9400\nKoordinaten: 46.846942, 14.843060", "doc_type": "addresses"}
{"source": "OSM", "region": "Kärnten", "osm_type": "node", "osm_id": 5448479629, "name": null, "category": null, "address": "Ritzinger Straße 12, 9400 Wolfsberg", "street": "Ritzinger Straße", "housenumber": "12", "postcode": "9400", "place": "Wolfsberg", "lat": 46.8469586, "lon": 14.8429826, "tags": {"addr:city": "Wolfsberg", "addr:housenumber": "12", "addr:postcode": "9400", "addr:street": "Ritzinger Straße"}, "content": "Adresse: Ritzinger Straße 12, 9400 Wolfsberg\nOrt: Wolfsberg\nPLZ: 9400\nKoordinaten: 46.846959, 14.842983", "doc_type": "addresses"}
{"source": "OSM", "region": "Kärnten", "osm_type": "node", "osm_id": 5449752444, "name": null, "category": null, "address": "Industriestraße 5, 9400 Wolfsberg", "street": "Industriestraße", "housenumber": "5", "postcode": "9400", "place": "Wolfsberg", "lat": 46.822728, "lon": 14.8416709, "tags": {"addr:city": "Wolfsberg", "addr:housenumber": "5", "addr:postcode": "9400", "addr:street": "Industriestraße"}, "content": "Adresse: Industriestraße 5, 9400 Wolfsberg\nOrt: Wolfsberg\nPLZ: 9400\nKoordinaten: 46.822728, 14.841671", "doc_type": "addresses"}
{"source": "OSM", "region": "Kärnten", "osm_type": "node", "osm_id": 5449754953, "name": null, "category": null, "address": "Habernigweg 2a, 9400 Wolfsberg", "street": "Habernigweg", "housenumber": "2a", "postcode": "9400", "place": "Wolfsberg", "lat": 46.8261018, "lon": 14.8472969, "tags": {"addr:city": "Wolfsberg", "addr:housenumber": "2a", "addr:postcode": "9400", "addr:street": "Habernigweg"}, "content": "Adresse: Habernigweg 2a, 9400 Wolfsberg\nOrt: Wolfsberg\nPLZ: 9400\nKoordinaten: 46.826102, 14.847297", "doc_type": "addresses"}
{"source": "OSM", "region": "Kärnten", "osm_type": "node", "osm_id": 5509294780, "name": null, "category": null, "address": "54, 9462 Wolfsberg", "street": null, "housenumber": "54", "postcode": "9462", "place": "Wolfsberg", "lat": 46.9442028, "lon": 14.7014116, "tags": {"addr:city": "Wolfsberg", "addr:housenumber": "54", "addr:place": "Klippitztörl", "addr:postcode": "9462"}, "content": "Adresse: 54, 9462 Wolfsberg\nOrt: Wolfsberg\nPLZ: 9462\nKoordinaten: 46.944203, 14.701412", "doc_type": "addresses"}
{"source": "OSM", "region": "Kärnten", "osm_type": "node", "osm_id": 5509315924, "name": null, "category": null, "address": "109a, 9462 Wolfsberg", "street": null, "housenumber": "109a", "postcode": "9462", "place": "Wolfsberg", "lat": 46.944716, "lon": 14.6953981, "tags": {"addr:city": "Wolfsberg", "addr:housenumber": "109a", "addr:place": "Klippitztörl", "addr:postcode": "9462"}, "content": "Adresse: 109a, 9462 Wolfsberg\nOrt: Wolfsberg\nPLZ: 9462\nKoordinaten: 46.944716, 14.695398", "doc_type": "addresses"}
{"source": "OSM", "region": "Kärnten", "osm_type": "node", "osm_id": 5509315925, "name": null, "category": null, "address": "109, 9462 Wolfsberg", "street": null, "housenumber": "109", "postcode": "9462", "place": "Wolfsberg", "lat": 46.9447105, "lon": 14.6952559, "tags": {"addr:city": "Wolfsberg", "addr:housenumber": "109", "addr:place": "Klippitztörl", "addr:postcode": "9462"}, "content": "Adresse: 109, 9462 Wolfsberg\nOrt: Wolfsberg\nPLZ: 9462\nKoordinaten: 46.944710, 14.695256", "doc_type": "addresses"}
{"source": "OSM", "region": "Kärnten", "osm_type": "node", "osm_id": 340519763, "name": "9412 St. Margarethen im Lavanttal", "category": "amenity:post_office", "address": "Am Sonnberg 36, 9412 Wolfsberg", "street": "Am Sonnberg", "housenumber": "36", "postcode": "9412", "place": "Wolfsberg", "lat": 46.8549249, "lon": 14.8006933, "tags": {"addr:city": "Wolfsberg", "addr:housenumber": "36", "addr:postcode": "9412", "addr:street": "Am Sonnberg", "amenity": "post_office", "name": "9412 St. Margarethen im Lavanttal"}, "content": "9412 St. Margarethen im Lavanttal\nKategorie: amenity:post_office\nAdresse: Am Sonnberg 36, 9412 Wolfsberg\nOrt: Wolfsberg\nPLZ: 9412\nKoordinaten: 46.854925, 14.800693\nTags: amenity=post_office", "doc_type": "pois"}
{"source": "OSM", "region": "Kärnten", "osm_type": "node", "osm_id": 479350196, "name": "Turmöl", "category": "amenity:fuel", "address": "Grazer Straße 1, 9400 Wolfsberg", "street": "Grazer Straße", "housenumber": "1", "postcode": "9400", "place": "Wolfsberg", "lat": 46.8461429, "lon": 14.8435767, "tags": {"addr:city": "Wolfsberg", "addr:housenumber": "1", "addr:postcode": "9400", "addr:street": "Grazer Straße", "amenity": "fuel", "brand": "Turmöl", "name": "Turmöl", "operator": "Turmöl"}, "content": "Turmöl\nKategorie: amenity:fuel\nAdresse: Grazer Straße 1, 9400 Wolfsberg\nOrt: Wolfsberg\nPLZ: 9400\nKoordinaten: 46.846143, 14.843577\nTags: amenity=fuel, operator=Turmöl, brand=Turmöl", "doc_type": "pois"}
{"source": "OSM", "region": "Kärnten", "osm_type": "node", "osm_id": 1704169756, "name": "Zweirad Scharf", "category": "shop:bicycle", "address": "Roßmarkt 7, 9400 Wolfsberg", "street": "Roßmarkt", "housenumber": "7", "postcode": "9400", "place": "Wolfsberg", "lat": 46.8393617, "lon": 14.8410561, "tags": {"addr:city": "Wolfsberg", "addr:housenumber": "7", "addr:postcode": "9400", "addr:street": "Roßmarkt", "name": "Zweirad Scharf", "phone": "+43 4352 3312", "shop": "bicycle", "website": "https://www.zweirad-scharf.at"}, "content": "Zweirad Scharf\nKategorie: shop:bicycle\nAdresse: Roßmarkt 7, 9400 Wolfsberg\nOrt: Wolfsberg\nPLZ: 9400\nKoordinaten: 46.839362, 14.841056\nTags: shop=bicycle, phone=+43 4352 3312, website=https://www.zweirad-scharf.at", "doc_type": "pois"}
{"source": "OSM", "region": "Kärnten", "osm_type": "node", "osm_id": 1704226948, "name": "Lagerhaus Lavanttal", "category": "amenity:fuel", "address": "Tanglstraße 4, 9400 Wolfsberg", "street": "Tanglstraße", "housenumber": "4", "postcode": "9400", "place": "Wolfsberg", "lat": 46.84393, "lon": 14.8396292, "tags": {"addr:city": "Wolfsberg", "addr:housenumber": "4", "addr:postcode": "9400", "addr:street": "Tanglstraße", "amenity": "fuel", "brand": "Lagerhaus", "name": "Lagerhaus Lavanttal", "operator": "Lagerhaus"}, "content": "Lagerhaus Lavanttal\nKategorie: amenity:fuel\nAdresse: Tanglstraße 4, 9400 Wolfsberg\nOrt: Wolfsberg\nPLZ: 9400\nKoordinaten: 46.843930, 14.839629\nTags: amenity=fuel, operator=Lagerhaus, brand=Lagerhaus", "doc_type": "pois"}
{"source": "OSM", "region": "Kärnten", "osm_type": "node", "osm_id": 1704228758, "name": "Bezirkspolizeikommando Wolfsberg", "category": "amenity:police", "address": "Lindhofstraße 11, 9400 Wolfsberg", "street": "Lindhofstraße", "housenumber": "11", "postcode": "9400", "place": "Wolfsberg", "lat": 46.8337869, "lon": 14.8444531, "tags": {"addr:city": "Wolfsberg", "addr:housenumber": "11", "addr:postcode": "9400", "addr:street": "Lindhofstraße", "amenity": "police", "name": "Bezirkspolizeikommando Wolfsberg", "phone": "+43 59133 2160-305"}, "content": "Bezirkspolizeikommando Wolfsberg\nKategorie: amenity:police\nAdresse: Lindhofstraße 11, 9400 Wolfsberg\nOrt: Wolfsberg\nPLZ: 9400\nKoordinaten: 46.833787, 14.844453\nTags: amenity=police, phone=+43 59133 2160-305", "doc_type": "pois"}
{"source": "OSM", "region": "Kärnten", "osm_type": "node", "osm_id": 1867612763, "name": "Sägewerk Wolfsberg", "category": "amenity:restaurant", "address": "Stadionbadstraße 2, 9400 Wolfsberg", "street": "Stadionbadstraße", "housenumber": "2", "postcode": "9400", "place": "Wolfsberg", "lat": 46.8271571, "lon": 14.8496213, "tags": {"addr:city": "Wolfsberg", "addr:housenumber": "2", "addr:postcode": "9400", "addr:street": "Stadionbadstraße", "amenity": "restaurant", "name": "Sägewerk Wolfsberg", "website": "https://www.diebausatzlokale.at/saegewerk-wolfsberg/"}, "content": "Sägewerk Wolfsberg\nKategorie: amenity:restaurant\nAdresse: Stadionbadstraße 2, 9400 Wolfsberg\nOrt: Wolfsberg\nPLZ: 9400\nKoordinaten: 46.827157, 14.849621\nTags: amenity=restaurant, website=https://www.diebausatzlokale.at/saegewerk-wolfsberg/", "doc_type": "pois"}
{"source": "OSM", "region": "Kärnten", "osm_type": "node", "osm_id": 2596622581, "name": "Stones Wolfsberg", "category": "amenity:bar", "address": "Kirchgasse 2, 9400 Wolfsberg", "street": "Kirchgasse", "housenumber": "2", "postcode": "9400", "place": "Wolfsberg", "lat": 46.8383874, "lon": 14.8445955, "tags": {"addr:city": "Wolfsberg", "addr:housenumber": "2", "addr:postcode": "9400", "addr:street": "Kirchgasse", "amenity": "bar", "name": "Stones Wolfsberg"}, "content": "Stones Wolfsberg\nKategorie: amenity:bar\nAdresse: Kirchgasse 2, 9400 Wolfsberg\nOrt: Wolfsberg\nPLZ: 9400\nKoordinaten: 46.838387, 14.844596\nTags: amenity=bar", "doc_type": "pois"}
{"source": "OSM", "region": "Kärnten", "osm_type": "node", "osm_id": 2596623609, "name": "Cafe-Bar \"Embassy\"", "category": "amenity:bar", "address": "St. Michaeler Straße 2, 9400 Wolfsberg", "street": "St. Michaeler Straße", "housenumber": "2", "postcode": "9400", "place": "Wolfsberg", "lat": 46.8365509, "lon": 14.8413447, "tags": {"addr:city": "Wolfsberg", "addr:housenumber": "2", "addr:postcode": "9400", "addr:street": "St. Michaeler Straße", "amenity": "bar", "name": "Cafe-Bar \"Embassy\""}, "content": "Cafe-Bar \"Embassy\"\nKategorie: amenity:bar\nAdresse: St. Michaeler Straße 2, 9400 Wolfsberg\nOrt: Wolfsberg\nPLZ: 9400\nKoordinaten: 46.836551, 14.841345\nTags: amenity=bar", "doc_type": "pois"}
{"source": "OSM", "region": "Kärnten", "osm_type": "node", "osm_id": 2631646361, "name": "Kunstwerkstatt", "category": "amenity:social_facility", "address": "Jahnstraße 4, 9400 Wolfsberg", "street": "Jahnstraße", "housenumber": "4", "postcode": "9400", "place": "Wolfsberg", "lat": 46.8353823, "lon": 14.8450476, "tags": {"addr:city": "Wolfsberg", "addr:housenumber": "4", "addr:postcode": "9400", "addr:street": "Jahnstraße", "amenity": "social_facility", "craft": "handicraft", "name": "Kunstwerkstatt", "operator": "Lebenshilfe Kärnten", "website": "https://www.lebenshilfe-kaernten.at/"}, "content": "Kunstwerkstatt\nKategorie: amenity:social_facility\nAdresse: Jahnstraße 4, 9400 Wolfsberg\nOrt: Wolfsberg\nPLZ: 9400\nKoordinaten: 46.835382, 14.845048\nTags: amenity=social_facility, operator=Lebenshilfe Kärnten, website=https://www.lebenshilfe-kaernten.at/", "doc_type": "pois"}
{"source": "OSM", "region": "Kärnten", "osm_type": "node", "osm_id": 2631735684, "name": "Zurich Versicherungs-AG", "category": "office:insurance", "address": "Lindhofstraße 3, 9400 Wolfsberg", "street": "Lindhofstraße", "housenumber": "3", "postcode": "9400", "place": "Wolfsberg", "lat": 46.8343532, "lon": 14.8441927, "tags": {"addr:city": "Wolfsberg", "addr:housenumber": "3", "addr:postcode": "9400", "addr:street": "Lindhofstraße", "name": "Zurich Versicherungs-AG", "office": "insurance"}, "content": "Zurich Versicherungs-AG\nKategorie: office:insurance\nAdresse: Lindhofstraße 3, 9400 Wolfsberg\nOrt: Wolfsberg\nPLZ: 9400\nKoordinaten: 46.834353, 14.844193\nTags: office=insurance", "doc_type": "pois"}
{"source": "OSM", "region": "Kärnten", "osm_type": "node", "osm_id": 2843836675, "name": "Lagerhaus", "category": "shop:doityourself", "address": "Tanglstraße 2, 9400 Wolfsberg", "street": "Tanglstraße", "housenumber": "2", "postcode": "9400", "place": "Wolfsberg", "lat": 46.843991, "lon": 14.8403287, "tags": {"addr:city": "Wolfsberg", "addr:housenumber": "2", "addr:postcode": "9400", "addr:street": "Tanglstraße", "brand": "Lagerhaus", "name": "Lagerhaus", "operator": "Lagerhaus Lavanttal", "shop": "doityourself"}, "content": "Lagerhaus\nKategorie: shop:doityourself\nAdresse: Tanglstraße 2, 9400 Wolfsberg\nOrt: Wolfsberg\nPLZ: 9400\nKoordinaten: 46.843991, 14.840329\nTags: shop=doityourself, operator=Lagerhaus Lavanttal, brand=Lagerhaus", "doc_type": "pois"}
{"source": "OSM", "region": "Kärnten", "osm_type": "node", "osm_id": 3358473954, "name": "Müller", "category": "shop:chemist", "address": "Am Weiher 11, 9400 Wolfsberg", "street": "Am Weiher", "housenumber": "11", "postcode": "9400", "place": "Wolfsberg", "lat": 46.8405165, "lon": 14.8415301, "tags": {"addr:city": "Wolfsberg", "addr:housenumber": "11", "addr:postcode": "9400", "addr:street": "Am Weiher", "brand": "Müller", "name": "Müller", "phone": "+43 4352/47232-0", "shop": "chemist"}, "content": "Müller\nKategorie: shop:chemist\nAdresse: Am Weiher 11, 9400 Wolfsberg\nOrt: Wolfsberg\nPLZ: 9400\nKoordinaten: 46.840516, 14.841530\nTags: shop=chemist, brand=Müller, phone=+43 4352/47232-0", "doc_type": "pois"}
{"source": "OSM", "region": "Kärnten", "osm_type": "node", "osm_id": 3363415940, "name": null, "category": "shop:optician", "address": "Grazer Straße 20, 9400 Wolfsberg", "street": "Grazer Straße", "housenumber": "20", "postcode": "9400", "place": "Wolfsberg", "lat": 46.8468677, "lon": 14.8443898, "tags": {"addr:city": "Wolfsberg", "addr:housenumber": "20", "addr:postcode": "9400", "addr:street": "Grazer Straße", "shop": "optician"}, "content": "Kategorie: shop:optician\nAdresse: Grazer Straße 20, 9400 Wolfsberg\nOrt: Wolfsberg\nPLZ: 9400\nKoordinaten: 46.846868, 14.844390\nTags: shop=optician", "doc_type": "pois"}
{"source": "OSM", "region": "Kärnten", "osm_type": "node", "osm_id": 4296583227, "name": "Lippbauerhof", "category": "amenity:restaurant", "address": "34, 9431 Wolfsberg", "street": null, "housenumber": "34", "postcode": "9431", "place": "Wolfsberg", "lat": 46.8144139, "lon": 14.7272559, "tags": {"addr:city": "Wolfsberg", "addr:housenumber": "34", "addr:place": "Reisberg", "addr:postcode": "9431", "amenity": "restaurant", "name": "Lippbauerhof"}, "content": "Lippbauerhof\nKategorie: amenity:restaurant\nAdresse: 34, 9431 Wolfsberg\nOrt: Wolfsberg\nPLZ: 9431\nKoordinaten: 46.814414, 14.727256\nTags: amenity=restaurant", "doc_type": "pois"}
{"source": "OSM", "region": "Kärnten", "osm_type": "node", "osm_id": 4526366374, "name": "Dr. Maria Pieringer", "category": "amenity:dentist", "address": "Offnerplatzl 2, 9400 Wolfsberg", "street": "Offnerplatzl", "housenumber": "2", "postcode": "9400", "place": "Wolfsberg", "lat": 46.8402839, "lon": 14.8425936, "tags": {"addr:city": "Wolfsberg", "addr:housenumber": "2", "addr:postcode": "9400", "addr:street": "Offnerplatzl", "amenity": "dentist", "name": "Dr. Maria Pieringer"}, "content": "Dr. Maria Pieringer\nKategorie: amenity:dentist\nAdresse: Offnerplatzl 2, 9400 Wolfsberg\nOrt: Wolfsberg\nPLZ: 9400\nKoordinaten: 46.840284, 14.842594\nTags: amenity=dentist", "doc_type": "pois"}
{"source": "OSM", "region": "Kärnten", "osm_type": "node", "osm_id": 4557351477, "name": "Bezirksgericht Wolfsberg", "category": "amenity:courthouse", "address": "Lavantquai 1, 9400 Wolfsberg", "street": "Lavantquai", "housenumber": "1", "postcode": "9400", "place": "Wolfsberg", "lat": 46.8384375, "lon": 14.8437306, "tags": {"addr:city": "Wolfsberg", "addr:housenumber": "1", "addr:postcode": "9400", "addr:street": "Lavantquai", "amenity": "courthouse", "name": "Bezirksgericht Wolfsberg"}, "content": "Bezirksgericht Wolfsberg\nKategorie: amenity:courthouse\nAdresse: Lavantquai 1, 9400 Wolfsberg\nOrt: Wolfsberg\nPLZ: 9400\nKoordinaten: 46.838437, 14.843731\nTags: amenity=courthouse", "doc_type": "pois"}
{"source": "OSM", "region": "Kärnten", "osm_type": "node", "osm_id": 4926634870, "name": "Graf's Signum", "category": "amenity:cafe", "address": "Bahnhofplatz 1, 9400 Wolfsberg", "street": "Bahnhofplatz", "housenumber": "1", "postcode": "9400", "place": "Wolfsberg", "lat": 46.8421361, "lon": 14.8392989, "tags": {"addr:city": "Wolfsberg", "addr:housenumber": "1", "addr:postcode": "9400", "addr:street": "Bahnhofplatz", "amenity": "cafe", "name": "Graf's Signum"}, "content": "Graf's Signum\nKategorie: amenity:cafe\nAdresse: Bahnhofplatz 1, 9400 Wolfsberg\nOrt: Wolfsberg\nPLZ: 9400\nKoordinaten: 46.842136, 14.839299\nTags: amenity=cafe", "doc_type": "pois"}
{"source": "OSM", "region": "Kärnten", "osm_type": "node", "osm_id": 5130607825, "name": "Bipa", "category": "shop:chemist", "address": "Stadthammerstraße 12, 9400 Wolfsberg", "street": "Stadthammerstraße", "housenumber": "12", "postcode": "9400", "place": "Wolfsberg", "lat": 46.8427842, "lon": 14.8424233, "tags": {"addr:city": "Wolfsberg", "addr:housenumber": "12", "addr:postcode": "9400", "addr:street": "Stadthammerstraße", "brand": "Bipa", "name": "Bipa", "shop": "chemist"}, "content": "Bipa\nKategorie: shop:chemist\nAdresse: Stadthammerstraße 12, 9400 Wolfsberg\nOrt: Wolfsberg\nPLZ: 9400\nKoordinaten: 46.842784, 14.842423\nTags: shop=chemist, brand=Bipa", "doc_type": "pois"}
{"source": "OSM", "region": "Kärnten", "osm_type": "node", "osm_id": 5133344123, "name": "Polizeiinspektion Wolfsberg", "category": "amenity:police", "address": "Lindhofstraße 7, 9400 Wolfsberg", "street": "Lindhofstraße", "housenumber": "7", "postcode": "9400", "place": "Wolfsberg", "lat": 46.8337629, "lon": 14.8443552, "tags": {"addr:city": "Wolfsberg", "addr:housenumber": "7", "addr:postcode": "9400", "addr:street": "Lindhofstraße", "amenity": "police", "name": "Polizeiinspektion Wolfsberg", "phone": "+43 59133 2160100"}, "content": "Polizeiinspektion Wolfsberg\nKategorie: amenity:police\nAdresse: Lindhofstraße 7, 9400 Wolfsberg\nOrt: Wolfsberg\nPLZ: 9400\nKoordinaten: 46.833763, 14.844355\nTags: amenity=police, phone=+43 59133 2160100", "doc_type": "pois"}
{"source": "OSM", "region": "Kärnten", "osm_type": "node", "osm_id": 5230190522, "name": "Penny", "category": "shop:supermarket", "address": "Klagenfurter Straße 59, 9400 Wolfsberg", "street": "Klagenfurter Straße", "housenumber": "59", "postcode": "9400", "place": "Wolfsberg", "lat": 46.817918, "lon": 14.8367113, "tags": {"addr:city": "Wolfsberg", "addr:housenumber": "59", "addr:postcode": "9400", "addr:street": "Klagenfurter Straße", "brand": "Penny", "name": "Penny", "shop": "supermarket"}, "content": "Penny\nKategorie: shop:supermarket\nAdresse: Klagenfurter Straße 59, 9400 Wolfsberg\nOrt: Wolfsberg\nPLZ: 9400\nKoordinaten: 46.817918, 14.836711\nTags: shop=supermarket, brand=Penny", "doc_type": "pois"}
{"source": "OSM", "region": "Kärnten", "osm_type": "node", "osm_id": 5267622322, "name": "Bipa", "category": "shop:chemist", "address": "Spanheimerstraße 30, 9400 Wolfsberg", "street": "Spanheimerstraße", "housenumber": "30", "postcode": "9400", "place": "Wolfsberg", "lat": 46.8382954, "lon": 14.839139, "tags": {"addr:city": "Wolfsberg", "addr:housenumber": "30", "addr:postcode": "9400", "addr:street": "Spanheimerstraße", "brand": "Bipa", "name": "Bipa", "shop": "chemist"}, "content": "Bipa\nKategorie: shop:chemist\nAdresse: Spanheimerstraße 30, 9400 Wolfsberg\nOrt: Wolfsberg\nPLZ: 9400\nKoordinaten: 46.838295, 14.839139\nTags: shop=chemist, brand=Bipa", "doc_type": "pois"}
