{"source": "OSM", "region": "Kärnten", "osm_type": "node", "osm_id": 1358120706, "name": null, "category": null, "address": "Vellach 59, 9135 Bad Eisenkappel", "street": "Vellach", "housenumber": "59", "postcode": "9135", "place": "Bad Eisenkappel", "lat": 46.4721366, "lon": 14.5932509, "tags": {"addr:city": "Bad Eisenkappel", "addr:housenumber": "59", "addr:postcode": "9135", "addr:street": "Vellach"}, "content": "Adresse: Vellach 59, 9135 Bad Eisenkappel\nOrt: Bad Eisenkappel\nPLZ: 9135\nKoordinaten: 46.472137, 14.593251", "doc_type": "addresses"}
{"source": "OSM", "region": "Kärnten", "osm_type": "node", "osm_id": 1358120711, "name": "Podobnik", "category": "amenity:restaurant", "address": "Vellach 157, 9135 Bad Eisenkappel", "street": "Vellach", "housenumber": "157", "postcode": "9135", "place": "Bad Eisenkappel", "lat": 46.4724498, "lon": 14.5928678, "tags": {"addr:city": "Bad Eisenkappel", "addr:housenumber": "157", "addr:postcode": "9135", "addr:street": "Vellach", "amenity": "restaurant", "name": "Podobnik", "phone": "+43-4238-202", "tourism": "guest_house", "website": "https://www.podobnik.at/"}, "content": "Podobnik\nKategorie: amenity:restaurant\nAdresse: Vellach 157, 9135 Bad Eisenkappel\nOrt: Bad Eisenkappel\nPLZ: 9135\nKoordinaten: 46.472450, 14.592868\nTags: amenity=restaurant, phone=+43-4238-202, website=https://www.podobnik.at/", "doc_type": "addresses"}
{"source": "OSM", "region": "Kärnten", "osm_type": "node", "osm_id": 4483808736, "name": "Posojilnica Bank eGen", "category": "amenity:bank", "address": "Bad Eisenkappel 67, 9135 Bad Eisenkappel", "street": "Bad Eisenkappel", "housenumber": "67", "postcode": "9135", "place": "Bad Eisenkappel", "lat": 46.4862547, "lon": 14.5933145, "tags": {"addr:city": "Bad Eisenkappel", "addr:housenumber": "67", "addr:postcode": "9135", "addr:street": "Bad Eisenkappel", "amenity": "bank", "name": "Posojilnica Bank eGen", "phone": "+43 463 512 365", "website": "https://www.poso.at/"}, "content": "Posojilnica Bank eGen\nKategorie: amenity:bank\nAdresse: Bad Eisenkappel 67, 9135 Bad Eisenkappel\nOrt: Bad Eisenkappel\nPLZ: 9135\nKoordinaten: 46.486255, 14.593314\nTags: amenity=bank, phone=+43 463 512 365, website=https://www.poso.at/", "doc_type": "addresses"}
{"source": "OSM", "region": "Kärnten", "osm_type": "node", "osm_id": 1358120711, "name": "Podobnik", "category": "amenity:restaurant", "address": "Vellach 157, 9135 Bad Eisenkappel", "street": "Vellach", "housenumber": "157", "postcode": "9135", "place": "Bad Eisenkappel", "lat": 46.4724498, "lon": 14.5928678, "tags": {"addr:city": "Bad Eisenkappel", "addr:housenumber": "157", "addr:postcode": "9135", "addr:street": "Vellach", "amenity": "restaurant", "name": "Podobnik", "phone": "+43-4238-202", "tourism": "guest_house", "website": "https://www.podobnik.at/"}, "content": "Podobnik\nKategorie: amenity:restaurant\nAdresse: Vellach 157, 9135 Bad Eisenkappel\nOrt: Bad Eisenkappel\nPLZ: 9135\nKoordinaten: 46.472450, 14.592868\nTags: amenity=restaurant, phone=+43-4238-202, website=https://www.podobnik.at/", "doc_type": "pois"}
{"source": "OSM", "region": "Kärnten", "osm_type": "node", "osm_id": 4483808736, "name": "Posojilnica Bank eGen", "category": "amenity:bank", "address": "Bad Eisenkappel 67, 9135 Bad Eisenkappel", "street": "Bad Eisenkappel", "housenumber": "67", "postcode": "9135", "place": "Bad Eisenkappel", "lat": 46.4862547, "lon": 14.5933145, "tags": {"addr:city": "Bad Eisenkappel", "addr:housenumber": "67", "addr:postcode": "9135", "addr:street": "Bad Eisenkappel", "amenity": "bank", "name": "Posojilnica Bank eGen", "phone": "+43 463 512 365", "website": "https://www.poso.at/"}, "content": "Posojilnica Bank eGen\nKategorie: amenity:bank\nAdresse: Bad Eisenkappel 67, 9135 Bad Eisenkappel\nOrt: Bad Eisenkappel\nPLZ: 9135\nKoordinaten: 46.486255, 14.593314\nTags: amenity=bank, phone=+43 463 512 365, website=https://www.poso.at/", "doc_type": "pois"}
