{"source": "OSM", "region": "Kärnten", "osm_type": "node", "osm_id": 477359854, "name": "Erlacherhaus", "category": "amenity:restaurant", "address": "Kaning 68, 9545 Radenthein", "street": "Kaning", "housenumber": "68", "postcode": "9545", "place": "Radenthein", "lat": 46.868996, "lon": 13.7487117, "tags": {"addr:city": "Radenthein", "addr:housenumber": "68", "addr:postcode": "9545", "addr:street": "Kaning", "amenity": "restaurant", "name": "Erlacherhaus", "tourism": "alpine_hut"}, "content": "Erlacherhaus\nKategorie: amenity:restaurant\nAdresse: Kaning 68, 9545 Radenthein\nOrt: Radenthein\nPLZ: 9545\nKoordinaten: 46.868996, 13.748712\nTags: amenity=restaurant", "doc_type": "addresses"}
{"source": "OSM", "region": "Kärnten", "osm_type": "node", "osm_id": 742554691, "name": "Paracelsus Apotheke", "category": "amenity:pharmacy", "address": "Paracelsusstraße 2, 9545 Radenthein", "street": "Paracelsusstraße", "housenumber": "2", "postcode": "9545", "place": "Radenthein", "lat": 46.7990033, "lon": 13.69928, "tags": {"addr:city": "Radenthein", "addr:housenumber": "2", "addr:postcode": "9545", "addr:street": "Paracelsusstraße", "amenity": "pharmacy", "healthcare": "pharmacy", "name": "Paracelsus Apotheke", "website": "https://www.apotheke-radenthein.at/"}, "content": "Paracelsus Apotheke\nKategorie: amenity:pharmacy\nAdresse: Paracelsusstraße 2, 9545 Radenthein\nOrt: Radenthein\nPLZ: 9545\nKoordinaten: 46.799003, 13.699280\nTags: amenity=pharmacy, healthcare=pharmacy, website=https://www.apotheke-radenthein.at/", "doc_type": "addresses"}
{"source": "OSM", "region": "Kärnten", "osm_type": "node", "osm_id": 742554726, "name": "Hofer", "category": "shop:supermarket", "address": "Hauptstraße 70, 9545 Radenthein", "street": "Hauptstraße", "housenumber": "70", "postcode": "9545", "place": "Radenthein", "lat": 46.7991767, "lon": 13.6985952, "tags": {"addr:city": "Radenthein", "addr:housenumber": "70", "addr:postcode": "9545", "addr:street": "Hauptstraße", "brand": "Hofer", "name": "Hofer", "shop": "supermarket"}, "content": "Hofer\nKategorie: shop:supermarket\nAdresse: Hauptstraße 70, 9545 Radenthein\nOrt: Radenthein\nPLZ: 9545\nKoordinaten: 46.799177, 13.698595\nTags: shop=supermarket, brand=Hofer", "doc_type": "addresses"}
{"source": "OSM", "region": "Kärnten", "osm_type": "node", "osm_id": 742554769, "name": "Spar", "category": null, "address": "Stadionstraße 2, 9545 Radenthein", "street": "Stadionstraße", "housenumber": "2", "postcode": "9545", "place": "Radenthein", "lat": 46.797711, "lon": 13.7022417, "tags": {"addr:city": "Radenthein", "addr:housenumber": "2", "addr:postcode": "9545", "addr:street": "Stadionstraße", "brand": "Spar"}, "content": "Spar\nAdresse: Stadionstraße 2, 9545 Radenthein\nOrt: Radenthein\nPLZ: 9545\nKoordinaten: 46.797711, 13.702242\nTags: brand=Spar", "doc_type": "addresses"}
{"source": "OSM", "region": "Kärnten", "osm_type": "node", "osm_id": 742554848, "name": "Lagler", "category": "shop:bakery", "address": "Hauptstraße 53, 9545 Radenthein", "street": "Hauptstraße", "housenumber": "53", "postcode": "9545", "place": "Radenthein", "lat": 46.8002392, "lon": 13.7026671, "tags": {"addr:city": "Radenthein", "addr:housenumber": "53", "addr:postcode": "9545", "addr:street": "Hauptstraße", "brand": "Lagler", "name": "Lagler", "shop": "bakery", "website": "https://www.lagler.at/shop/?L=0"}, "content": "Lagler\nKategorie: shop:bakery\nAdresse: Hauptstraße 53, 9545 Radenthein\nOrt: Radenthein\nPLZ: 9545\nKoordinaten: 46.800239, 13.702667\nTags: shop=bakery, brand=Lagler, website=https://www.lagler.at/shop/?L=0", "doc_type": "addresses"}
{"source": "OSM", "region": "Kärnten", "osm_type": "node", "osm_id": 742554873, "name": "Uhren Schmuck Optik Zieser", "category": "shop:optician", "address": "Hauptstraße 49, 9545 Radenthein", "street": "Hauptstraße", "housenumber": "49", "postcode": "9545", "place": "Radenthein", "lat": 46.8004635, "lon": 13.7033288, "tags": {"addr:city": "Radenthein", "addr:housenumber": "49", "addr:postcode": "9545", "addr:street": "Hauptstraße", "name": "Uhren Schmuck Optik Zieser", "shop": "optician", "website": "https://www.zieser.at/"}, "content": "Uhren Schmuck Optik Zieser\nKategorie: shop:optician\nAdresse: Hauptstraße 49, 9545 Radenthein\nOrt: Radenthein\nPLZ: 9545\nKoordinaten: 46.800463, 13.703329\nTags: shop=optician, website=https://www.zieser.at/", "doc_type": "addresses"}
{"source": "OSM", "region": "Kärnten", "osm_type": "node", "osm_id": 742554896, "name": "Tabak Trafik Unterweger Petra", "category": "shop:kiosk", "address": "Hauptstraße 37, 9545 Radenthein", "street": "Hauptstraße", "housenumber": "37", "postcode": "9545", "place": "Radenthein", "lat": 46.8006796, "lon": 13.7039754, "tags": {"addr:city": "Radenthein", "addr:housenumber": "37", "addr:postcode": "9545", "addr:street": "Hauptstraße", "name": "Tabak Trafik Unterweger Petra", "shop": "kiosk", "website": "https://www.radenthein.gv.at/betriebe/tabak-trafik/"}, "content": "Tabak Trafik Unterweger Petra\nKategorie: shop:kiosk\nAdresse: Hauptstraße 37, 9545 Radenthein\nOrt: Radenthein\nPLZ: 9545\nKoordinaten: 46.800680, 13.703975\nTags: shop=kiosk, website=https://www.radenthein.gv.at/betriebe/tabak-trafik/", "doc_type": "addresses"}
{"source": "OSM", "region": "Kärnten", "osm_type": "node", "osm_id": 742555109, "name": "Metzgerwirt", "category": "amenity:restaurant", "address": "Hauptstraße 22, 9545 Radenthein", "street": "Hauptstraße", "housenumber": "22", "postcode": "9545", "place": "Radenthein", "lat": 46.8013682, "lon": 13.7055132, "tags": {"addr:city": "Radenthein", "addr:housenumber": "22", "addr:postcode": "9545", "addr:street": "Hauptstraße", "amenity": "restaurant", "name": "Metzgerwirt", "operator": "Emanuel Stadler"}, "content": "Metzgerwirt\nKategorie: amenity:restaurant\nAdresse: Hauptstraße 22, 9545 Radenthein\nOrt: Radenthein\nPLZ: 9545\nKoordinaten: 46.801368, 13.705513\nTags: amenity=restaurant, operator=Emanuel Stadler", "doc_type": "addresses"}
{"source": "OSM", "region": "Kärnten", "osm_type": "node", "osm_id": 742555206, "name": "T&G", "category": "shop:supermarket", "address": "Stadionstraße 29, 9545 Radenthein", "street": "Stadionstraße", "housenumber": "29", "postcode": "9545", "place": "Radenthein", "lat": 46.798417, "lon": 13.7126039, "tags": {"addr:city": "Radenthein", "addr:housenumber": "29", "addr:postcode": "9545", "addr:street": "Stadionstraße", "name": "T&G", "shop": "supermarket", "website": "https://www.tundg.at/"}, "content": "T&G\nKategorie: shop:supermarket\nAdresse: Stadionstraße 29, 9545 Radenthein\nOrt: Radenthein\nPLZ: 9545\nKoordinaten: 46.798417, 13.712604\nTags: shop=supermarket, website=https://www.tundg.at/", "doc_type": "addresses"}
{"source": "OSM", "region": "Kärnten", "osm_type": "node", "osm_id": 762319585, "name": "Werkskaufhaus Radenthein", "category": "shop:supermarket", "address": "Millstätterstraße 8, 9545 Radenthein", "street": "Millstätterstraße", "housenumber": "8", "postcode": "9545", "place": "Radenthein", "lat": 46.7984592, "lon": 13.6977186, "tags": {"addr:city": "Radenthein", "addr:housenumber": "8", "addr:postcode": "9545", "addr:street": "Millstätterstraße", "name": "Werkskaufhaus Radenthein", "shop": "supermarket"}, "content": "Werkskaufhaus Radenthein\nKategorie: shop:supermarket\nAdresse: Millstätterstraße 8, 9545 Radenthein\nOrt: Radenthein\nPLZ: 9545\nKoordinaten: 46.798459, 13.697719\nTags: shop=supermarket", "doc_type": "addresses"}
{"source": "OSM", "region": "Kärnten", "osm_type": "node", "osm_id": 845136950, "name": "Wacker", "category": "amenity:restaurant", "address": "Dorfstraße 36, 9545 Radenthein", "street": "Dorfstraße", "housenumber": "36", "postcode": "9545", "place": "Radenthein", "lat": 46.7910196, "lon": 13.7326723, "tags": {"addr:city": "Radenthein", "addr:housenumber": "36", "addr:postcode": "9545", "addr:street": "Dorfstraße", "amenity": "restaurant", "name": "Wacker", "website": "http://www.gasthof-wacker.at/"}, "content": "Wacker\nKategorie: amenity:restaurant\nAdresse: Dorfstraße 36, 9545 Radenthein\nOrt: Radenthein\nPLZ: 9545\nKoordinaten: 46.791020, 13.732672\nTags: amenity=restaurant, website=http://www.gasthof-wacker.at/", "doc_type": "addresses"}
{"source": "OSM", "region": "Kärnten", "osm_type": "node", "osm_id": 1559378334, "name": "Armin's Radlwerkstatt", "category": "shop:bicycle", "address": "Holunderweg 6, 9545 Radenthein", "street": "Holunderweg", "housenumber": "6", "postcode": "9545", "place": "Radenthein", "lat": 46.7949473, "lon": 13.7198633, "tags": {"addr:city": "Radenthein", "addr:housenumber": "6", "addr:postcode": "9545", "addr:street": "Holunderweg", "name": "Armin's Radlwerkstatt", "shop": "bicycle", "website": "https://www.arminsradlwerkstatt.at/"}, "content": "Armin's Radlwerkstatt\nKategorie: shop:bicycle\nAdresse: Holunderweg 6, 9545 Radenthein\nOrt: Radenthein\nPLZ: 9545\nKoordinaten: 46.794947, 13.719863\nTags: shop=bicycle, website=https://www.arminsradlwerkstatt.at/", "doc_type": "addresses"}
{"source": "OSM", "region": "Kärnten", "osm_type": "node", "osm_id": 2668770463, "name": "Freiwillige Feuerwehr Untertweng", "category": "amenity:fire_station", "address": "Dorfstraße 18, 9545 Radenthein", "street": "Dorfstraße", "housenumber": "18", "postcode": "9545", "place": "Radenthein", "lat": 46.7917959, "lon": 13.7291587, "tags": {"addr:city": "Radenthein", "addr:housenumber": "18", "addr:postcode": "9545", "addr:street": "Dorfstraße", "amenity": "fire_station", "name": "Freiwillige Feuerwehr Untertweng"}, "content": "Freiwillige Feuerwehr Untertweng\nKategorie: amenity:fire_station\nAdresse: Dorfstraße 18, 9545 Radenthein\nOrt: Radenthein\nPLZ: 9545\nKoordinaten: 46.791796, 13.729159\nTags: amenity=fire_station", "doc_type": "addresses"}
{"source": "OSM", "region": "Kärnten", "osm_type": "node", "osm_id": 3012894896, "name": "Bioladen Naturesway", "category": "shop:supermarket", "address": "Hauptstraße 26, 9545 Radenthein", "street": "Hauptstraße", "housenumber": "26", "postcode": "9545", "place": "Radenthein", "lat": 46.8012384, "lon": 13.7052182, "tags": {"addr:city": "Radenthein", "addr:housenumber": "26", "addr:postcode": "9545", "addr:street": "Hauptstraße", "name": "Bioladen Naturesway", "shop": "supermarket"}, "content": "Bioladen Naturesway\nKategorie: shop:supermarket\nAdresse: Hauptstraße 26, 9545 Radenthein\nOrt: Radenthein\nPLZ: 9545\nKoordinaten: 46.801238, 13.705218\nTags: shop=supermarket", "doc_type": "addresses"}
{"source": "OSM", "region": "Kärnten", "osm_type": "node", "osm_id": 3012894897, "name": "Wega Flora", "category": "shop:florist", "address": "Villacherstraße 11, 9545 Radenthein", "street": "Villacherstraße", "housenumber": "11", "postcode": "9545", "place": "Radenthein", "lat": 46.8010352, "lon": 13.7118219, "tags": {"addr:city": "Radenthein", "addr:housenumber": "11", "addr:postcode": "9545", "addr:street": "Villacherstraße", "name": "Wega Flora", "operator": "Wega Flora GmbH", "shop": "florist"}, "content": "Wega Flora\nKategorie: shop:florist\nAdresse: Villacherstraße 11, 9545 Radenthein\nOrt: Radenthein\nPLZ: 9545\nKoordinaten: 46.801035, 13.711822\nTags: shop=florist, operator=Wega Flora GmbH", "doc_type": "addresses"}
{"source": "OSM", "region": "Kärnten", "osm_type": "node", "osm_id": 5122757456, "name": "Polizeiinspektion Radenthein", "category": "amenity:police", "address": "27, 9545 Radenthein", "street": null, "housenumber": "27", "postcode": "9545", "place": "Radenthein", "lat": 46.7998024, "lon": 13.7021157, "tags": {"addr:city": "Radenthein", "addr:housenumber": "27", "addr:place": "Neue Heimat", "addr:postcode": "9545", "amenity": "police", "name": "Polizeiinspektion Radenthein", "phone": "+43 59133 2233100"}, "content": "Polizeiinspektion Radenthein\nKategorie: amenity:police\nAdresse: 27, 9545 Radenthein\nOrt: Radenthein\nPLZ: 9545\nKoordinaten: 46.799802, 13.702116\nTags: amenity=police, phone=+43 59133 2233100", "doc_type": "addresses"}
{"source": "OSM", "region": "Kärnten", "osm_type": "node", "osm_id": 5143782381, "name": "Leiter Edelstahl GmbH", "category": "craft:metal_construction", "address": "Stadionstraße 23, 9545 Radenthein", "street": "Stadionstraße", "housenumber": "23", "postcode": "9545", "place": "Radenthein", "lat": 46.7983601, "lon": 13.7109147, "tags": {"addr:city": "Radenthein", "addr:housenumber": "23", "addr:postcode": "9545", "addr:street": "Stadionstraße", "craft": "metal_construction", "name": "Leiter Edelstahl GmbH", "phone": "+43 4246 29189", "website": "http://www.leiter-edelstahl.at/"}, "content": "Leiter Edelstahl GmbH\nKategorie: craft:metal_construction\nAdresse: Stadionstraße 23, 9545 Radenthein\nOrt: Radenthein\nPLZ: 9545\nKoordinaten: 46.798360, 13.710915\nTags: phone=+43 4246 29189, website=http://www.leiter-edelstahl.at/", "doc_type": "addresses"}
{"source": "OSM", "region": "Kärnten", "osm_type": "node", "osm_id": 5143782386, "name": "Impressum Glas Gasser GmbH", "category": "craft:window_construction", "address": "Stadionstraße 17, 9545 Radenthein", "street": "Stadionstraße", "housenumber": "17", "postcode": "9545", "place": "Radenthein", "lat": 46.7982692, "lon": 13.7095736, "tags": {"addr:city": "Radenthein", "addr:housenumber": "17", "addr:postcode": "9545", "addr:street": "Stadionstraße", "craft": "window_construction", "name": "Impressum Glas Gasser GmbH", "operator": "Herwig Gasser", "phone": "+43 4246 2674", "website": "https://www.glasgasser.at/index.php"}, "content": "Impressum Glas Gasser GmbH\nKategorie: craft:window_construction\nAdresse: Stadionstraße 17, 9545 Radenthein\nOrt: Radenthein\nPLZ: 9545\nKoordinaten: 46.798269, 13.709574\nTags: operator=Herwig Gasser, phone=+43 4246 2674, website=https://www.glasgasser.at/index.php", "doc_type": "addresses"}
{"source": "OSM", "region": "Kärnten", "osm_type": "node", "osm_id": 5200379804, "name": "Metzgerwirt", "category": null, "address": "Hauptstraße 22, 9545 Radenthein", "street": "Hauptstraße", "housenumber": "22", "postcode": "9545", "place": "Radenthein", "lat": 46.8013088, "lon": 13.7056762, "tags": {"addr:city": "Radenthein", "addr:housenumber": "22", "addr:postcode": "9545", "addr:street": "Hauptstraße", "name": "Metzgerwirt"}, "content": "Metzgerwirt\nAdresse: Hauptstraße 22, 9545 Radenthein\nOrt: Radenthein\nPLZ: 9545\nKoordinaten: 46.801309, 13.705676", "doc_type": "addresses"}
{"source": "OSM", "region": "Kärnten", "osm_type": "node", "osm_id": 5614923538, "name": "Meixner-Müller", "category": null, "address": "Hauptstraße 53, 9545 Radenthein", "street": "Hauptstraße", "housenumber": "53", "postcode": "9545", "place": "Radenthein", "lat": 46.8002826, "lon": 13.7026483, "tags": {"addr:city": "Radenthein", "addr:housenumber": "53", "addr:postcode": "9545", "addr:street": "Hauptstraße", "name": "Meixner-Müller"}, "content": "Meixner-Müller\nAdresse: Hauptstraße 53, 9545 Radenthein\nOrt: Radenthein\nPLZ: 9545\nKoordinaten: 46.800283, 13.702648", "doc_type": "addresses"}
{"source": "OSM", "region": "Kärnten", "osm_type": "node", "osm_id": 5620462264, "name": null, "category": null, "address": "Seefeldstraße 28, 9873 Radenthein", "street": "Seefeldstraße", "housenumber": "28", "postcode": "9873", "place": "Radenthein", "lat": 46.7705361, "lon": 13.647573, "tags": {"addr:city": "Radenthein", "addr:housenumber": "28", "addr:postcode": "9873", "addr:street": "Seefeldstraße"}, "content": "Adresse: Seefeldstraße 28, 9873 Radenthein\nOrt: Radenthein\nPLZ: 9873\nKoordinaten: 46.770536, 13.647573", "doc_type": "addresses"}
{"source": "OSM", "region": "Kärnten", "osm_type": "node", "osm_id": 5620462275, "name": null, "category": null, "address": "Strandweg 11e, 9873 Radenthein", "street": "Strandweg", "housenumber": "11e", "postcode": "9873", "place": "Radenthein", "lat": 46.7721931, "lon": 13.6452462, "tags": {"addr:city": "Radenthein", "addr:housenumber": "11e", "addr:postcode": "9873", "addr:street": "Strandweg"}, "content": "Adresse: Strandweg 11e, 9873 Radenthein\nOrt: Radenthein\nPLZ: 9873\nKoordinaten: 46.772193, 13.645246", "doc_type": "addresses"}
{"source": "OSM", "region": "Kärnten", "osm_type": "node", "osm_id": 5620462276, "name": null, "category": null, "address": "Strandweg 11f, 9873 Radenthein", "street": "Strandweg", "housenumber": "11f", "postcode": "9873", "place": "Radenthein", "lat": 46.7721527, "lon": 13.6451845, "tags": {"addr:city": "Radenthein", "addr:housenumber": "11f", "addr:postcode": "9873", "addr:street": "Strandweg"}, "content": "Adresse: Strandweg 11f, 9873 Radenthein\nOrt: Radenthein\nPLZ: 9873\nKoordinaten: 46.772153, 13.645184", "doc_type": "addresses"}
{"source": "OSM", "region": "Kärnten", "osm_type": "node", "osm_id": 5620462277, "name": null, "category": null, "address": "Strandweg 11g, 9873 Radenthein", "street": "Strandweg", "housenumber": "11g", "postcode": "9873", "place": "Radenthein", "lat": 46.7721077, "lon": 13.6450705, "tags": {"addr:city": "Radenthein", "addr:housenumber": "11g", "addr:postcode": "9873", "addr:street": "Strandweg"}, "content": "Adresse: Strandweg 11g, 9873 Radenthein\nOrt: Radenthein\nPLZ: 9873\nKoordinaten: 46.772108, 13.645070", "doc_type": "addresses"}
{"source": "OSM", "region": "Kärnten", "osm_type": "node", "osm_id": 5620462278, "name": null, "category": null, "address": "Strandweg 11i, 9873 Radenthein", "street": "Strandweg", "housenumber": "11i", "postcode": "9873", "place": "Radenthein", "lat": 46.77206, "lon": 13.6449444, "tags": {"addr:city": "Radenthein", "addr:housenumber": "11i", "addr:postcode": "9873", "addr:street": "Strandweg"}, "content": "Adresse: Strandweg 11i, 9873 Radenthein\nOrt: Radenthein\nPLZ: 9873\nKoordinaten: 46.772060, 13.644944", "doc_type": "addresses"}
{"source": "OSM", "region": "Kärnten", "osm_type": "node", "osm_id": 5620462280, "name": null, "category": null, "address": "Fischerweg 4, 9873 Radenthein", "street": "Fischerweg", "housenumber": "4", "postcode": "9873", "place": "Radenthein", "lat": 46.7730482, "lon": 13.6449766, "tags": {"addr:city": "Radenthein", "addr:housenumber": "4", "addr:postcode": "9873", "addr:street": "Fischerweg"}, "content": "Adresse: Fischerweg 4, 9873 Radenthein\nOrt: Radenthein\nPLZ: 9873\nKoordinaten: 46.773048, 13.644977", "doc_type": "addresses"}
{"source": "OSM", "region": "Kärnten", "osm_type": "node", "osm_id": 5621900759, "name": "Büro & Empfang", "category": "office:company", "address": "Glanzerstraße 66, 9873 Radenthein", "street": "Glanzerstraße", "housenumber": "66", "postcode": "9873", "place": "Radenthein", "lat": 46.7706124, "lon": 13.6525612, "tags": {"addr:city": "Radenthein", "addr:housenumber": "66", "addr:postcode": "9873", "addr:street": "Glanzerstraße", "name": "Büro & Empfang", "office": "company"}, "content": "Büro & Empfang\nKategorie: office:company\nAdresse: Glanzerstraße 66, 9873 Radenthein\nOrt: Radenthein\nPLZ: 9873\nKoordinaten: 46.770612, 13.652561\nTags: office=company", "doc_type": "addresses"}
{"source": "OSM", "region": "Kärnten", "osm_type": "node", "osm_id": 5621900786, "name": "Hotel Burgstaller", "category": "tourism:hotel", "address": "Seestraße 6, 9873 Radenthein", "street": "Seestraße", "housenumber": "6", "postcode": "9873", "place": "Radenthein", "lat": 46.7815466, "lon": 13.657233, "tags": {"addr:city": "Radenthein", "addr:housenumber": "6", "addr:postcode": "9873", "addr:street": "Seestraße", "name": "Hotel Burgstaller", "tourism": "hotel"}, "content": "Hotel Burgstaller\nKategorie: tourism:hotel\nAdresse: Seestraße 6, 9873 Radenthein\nOrt: Radenthein\nPLZ: 9873\nKoordinaten: 46.781547, 13.657233", "doc_type": "addresses"}
{"source": "OSM", "region": "Kärnten", "osm_type": "node", "osm_id": 5621900788, "name": null, "category": null, "address": "Hauptstraße 33, 9873 Radenthein", "street": "Hauptstraße", "housenumber": "33", "postcode": "9873", "place": "Radenthein", "lat": 46.7821757, "lon": 13.6576232, "tags": {"addr:city": "Radenthein", "addr:housenumber": "33", "addr:postcode": "9873", "addr:street": "Hauptstraße"}, "content": "Adresse: Hauptstraße 33, 9873 Radenthein\nOrt: Radenthein\nPLZ: 9873\nKoordinaten: 46.782176, 13.657623", "doc_type": "addresses"}
{"source": "OSM", "region": "Kärnten", "osm_type": "node", "osm_id": 5621900814, "name": null, "category": null, "address": "Mirnockstraße 21, 9873 Radenthein", "street": "Mirnockstraße", "housenumber": "21", "postcode": "9873", "place": "Radenthein", "lat": 46.7815208, "lon": 13.6589697, "tags": {"addr:city": "Radenthein", "addr:housenumber": "21", "addr:postcode": "9873", "addr:street": "Mirnockstraße"}, "content": "Adresse: Mirnockstraße 21, 9873 Radenthein\nOrt: Radenthein\nPLZ: 9873\nKoordinaten: 46.781521, 13.658970", "doc_type": "addresses"}
{"source": "OSM", "region": "Kärnten", "osm_type": "node", "osm_id": 5621900815, "name": null, "category": null, "address": "Mirnockstraße 19, 9873 Radenthein", "street": "Mirnockstraße", "housenumber": "19", "postcode": "9873", "place": "Radenthein", "lat": 46.7815356, "lon": 13.6591682, "tags": {"addr:city": "Radenthein", "addr:housenumber": "19", "addr:postcode": "9873", "addr:street": "Mirnockstraße"}, "content": "Adresse: Mirnockstraße 19, 9873 Radenthein\nOrt: Radenthein\nPLZ: 9873\nKoordinaten: 46.781536, 13.659168", "doc_type": "addresses"}
{"source": "OSM", "region": "Kärnten", "osm_type": "node", "osm_id": 5621901328, "name": null, "category": null, "address": "Seestraße 12, 9873 Radenthein", "street": "Seestraße", "housenumber": "12", "postcode": "9873", "place": "Radenthein", "lat": 46.7816347, "lon": 13.6568373, "tags": {"addr:city": "Radenthein", "addr:housenumber": "12", "addr:postcode": "9873", "addr:street": "Seestraße"}, "content": "Adresse: Seestraße 12, 9873 Radenthein\nOrt: Radenthein\nPLZ: 9873\nKoordinaten: 46.781635, 13.656837", "doc_type": "addresses"}
{"source": "OSM", "region": "Kärnten", "osm_type": "node", "osm_id": 5621901344, "name": null, "category": null, "address": "Seestraße 30, 9873 Radenthein", "street": "Seestraße", "housenumber": "30", "postcode": "9873", "place": "Radenthein", "lat": 46.7797989, "lon": 13.6549893, "tags": {"addr:city": "Radenthein", "addr:housenumber": "30", "addr:postcode": "9873", "addr:street": "Seestraße"}, "content": "Adresse: Seestraße 30, 9873 Radenthein\nOrt: Radenthein\nPLZ: 9873\nKoordinaten: 46.779799, 13.654989", "doc_type": "addresses"}
{"source": "OSM", "region": "Kärnten", "osm_type": "node", "osm_id": 5621901368, "name": null, "category": null, "address": "Peintenweg 1, 9873 Radenthein", "street": "Peintenweg", "housenumber": "1", "postcode": "9873", "place": "Radenthein", "lat": 46.780507, "lon": 13.6555405, "tags": {"addr:city": "Radenthein", "addr:housenumber": "1", "addr:postcode": "9873", "addr:street": "Peintenweg"}, "content": "Adresse: Peintenweg 1, 9873 Radenthein\nOrt: Radenthein\nPLZ: 9873\nKoordinaten: 46.780507, 13.655541", "doc_type": "addresses"}
{"source": "OSM", "region": "Kärnten", "osm_type": "node", "osm_id": 5621901369, "name": null, "category": null, "address": "Peintenweg 1a, 9873 Radenthein", "street": "Peintenweg", "housenumber": "1a", "postcode": "9873", "place": "Radenthein", "lat": 46.7804748, "lon": 13.6556022, "tags": {"addr:city": "Radenthein", "addr:housenumber": "1a", "addr:postcode": "9873", "addr:street": "Peintenweg"}, "content": "Adresse: Peintenweg 1a, 9873 Radenthein\nOrt: Radenthein\nPLZ: 9873\nKoordinaten: 46.780475, 13.655602", "doc_type": "addresses"}
{"source": "OSM", "region": "Kärnten", "osm_type": "node", "osm_id": 5621901377, "name": null, "category": null, "address": "Seestraße 19, 9873 Radenthein", "street": "Seestraße", "housenumber": "19", "postcode": "9873", "place": "Radenthein", "lat": 46.7800643, "lon": 13.6560729, "tags": {"addr:city": "Radenthein", "addr:housenumber": "19", "addr:postcode": "9873", "addr:street": "Seestraße"}, "content": "Adresse: Seestraße 19, 9873 Radenthein\nOrt: Radenthein\nPLZ: 9873\nKoordinaten: 46.780064, 13.656073", "doc_type": "addresses"}
{"source": "OSM", "region": "Kärnten", "osm_type": "node", "osm_id": 5621901389, "name": null, "category": null, "address": "Seestraße 74a, 9873 Radenthein", "street": "Seestraße", "housenumber": "74a", "postcode": "9873", "place": "Radenthein", "lat": 46.776173, "lon": 13.6508748, "tags": {"addr:city": "Radenthein", "addr:housenumber": "74a", "addr:postcode": "9873", "addr:street": "Seestraße"}, "content": "Adresse: Seestraße 74a, 9873 Radenthein\nOrt: Radenthein\nPLZ: 9873\nKoordinaten: 46.776173, 13.650875", "doc_type": "addresses"}
{"source": "OSM", "region": "Kärnten", "osm_type": "node", "osm_id": 5621901390, "name": null, "category": null, "address": "Seestraße 74, 9873 Radenthein", "street": "Seestraße", "housenumber": "74", "postcode": "9873", "place": "Radenthein", "lat": 46.7760894, "lon": 13.6510357, "tags": {"addr:city": "Radenthein", "addr:housenumber": "74", "addr:postcode": "9873", "addr:street": "Seestraße"}, "content": "Adresse: Seestraße 74, 9873 Radenthein\nOrt: Radenthein\nPLZ: 9873\nKoordinaten: 46.776089, 13.651036", "doc_type": "addresses"}
{"source": "OSM", "region": "Kärnten", "osm_type": "node", "osm_id": 477359854, "name": "Erlacherhaus", "category": "amenity:restaurant", "address": "Kaning 68, 9545 Radenthein", "street": "Kaning", "housenumber": "68", "postcode": "9545", "place": "Radenthein", "lat": 46.868996, "lon": 13.7487117, "tags": {"addr:city": "Radenthein", "addr:housenumber": "68", "addr:postcode": "9545", "addr:street": "Kaning", "amenity": "restaurant", "name": "Erlacherhaus", "tourism": "alpine_hut"}, "content": "Erlacherhaus\nKategorie: amenity:restaurant\nAdresse: Kaning 68, 9545 Radenthein\nOrt: Radenthein\nPLZ: 9545\nKoordinaten: 46.868996, 13.748712\nTags: amenity=restaurant", "doc_type": "pois"}
{"source": "OSM", "region": "Kärnten", "osm_type": "node", "osm_id": 742554691, "name": "Paracelsus Apotheke", "category": "amenity:pharmacy", "address": "Paracelsusstraße 2, 9545 Radenthein", "street": "Paracelsusstraße", "housenumber": "2", "postcode": "9545", "place": "Radenthein", "lat": 46.7990033, "lon": 13.69928, "tags": {"addr:city": "Radenthein", "addr:housenumber": "2", "addr:postcode": "9545", "addr:street": "Paracelsusstraße", "amenity": "pharmacy", "healthcare": "pharmacy", "name": "Paracelsus Apotheke", "website": "https://www.apotheke-radenthein.at/"}, "content": "Paracelsus Apotheke\nKategorie: amenity:pharmacy\nAdresse: Paracelsusstraße 2, 9545 Radenthein\nOrt: Radenthein\nPLZ: 9545\nKoordinaten: 46.799003, 13.699280\nTags: amenity=pharmacy, healthcare=pharmacy, website=https://www.apotheke-radenthein.at/", "doc_type": "pois"}
{"source": "OSM", "region": "Kärnten", "osm_type": "node", "osm_id": 742554726, "name": "Hofer", "category": "shop:supermarket", "address": "Hauptstraße 70, 9545 Radenthein", "street": "Hauptstraße", "housenumber": "70", "postcode": "9545", "place": "Radenthein", "lat": 46.7991767, "lon": 13.6985952, "tags": {"addr:city": "Radenthein", "addr:housenumber": "70", "addr:postcode": "9545", "addr:street": "Hauptstraße", "brand": "Hofer", "name": "Hofer", "shop": "supermarket"}, "content": "Hofer\nKategorie: shop:supermarket\nAdresse: Hauptstraße 70, 9545 Radenthein\nOrt: Radenthein\nPLZ: 9545\nKoordinaten: 46.799177, 13.698595\nTags: shop=supermarket, brand=Hofer", "doc_type": "pois"}
{"source": "OSM", "region": "Kärnten", "osm_type": "node", "osm_id": 742554848, "name": "Lagler", "category": "shop:bakery", "address": "Hauptstraße 53, 9545 Radenthein", "street": "Hauptstraße", "housenumber": "53", "postcode": "9545", "place": "Radenthein", "lat": 46.8002392, "lon": 13.7026671, "tags": {"addr:city": "Radenthein", "addr:housenumber": "53", "addr:postcode": "9545", "addr:street": "Hauptstraße", "brand": "Lagler", "name": "Lagler", "shop": "bakery", "website": "https://www.lagler.at/shop/?L=0"}, "content": "Lagler\nKategorie: shop:bakery\nAdresse: Hauptstraße 53, 9545 Radenthein\nOrt: Radenthein\nPLZ: 9545\nKoordinaten: 46.800239, 13.702667\nTags: shop=bakery, brand=Lagler, website=https://www.lagler.at/shop/?L=0", "doc_type": "pois"}
{"source": "OSM", "region": "Kärnten", "osm_type": "node", "osm_id": 742554873, "name": "Uhren Schmuck Optik Zieser", "category": "shop:optician", "address": "Hauptstraße 49, 9545 Radenthein", "street": "Hauptstraße", "housenumber": "49", "postcode": "9545", "place": "Radenthein", "lat": 46.8004635, "lon": 13.7033288, "tags": {"addr:city": "Radenthein", "addr:housenumber": "49", "addr:postcode": "9545", "addr:street": "Hauptstraße", "name": "Uhren Schmuck Optik Zieser", "shop": "optician", "website": "https://www.zieser.at/"}, "content": "Uhren Schmuck Optik Zieser\nKategorie: shop:optician\nAdresse: Hauptstraße 49, 9545 Radenthein\nOrt: Radenthein\nPLZ: 9545\nKoordinaten: 46.800463, 13.703329\nTags: shop=optician, website=https://www.zieser.at/", "doc_type": "pois"}
{"source": "OSM", "region": "Kärnten", "osm_type": "node", "osm_id": 742554896, "name": "Tabak Trafik Unterweger Petra", "category": "shop:kiosk", "address": "Hauptstraße 37, 9545 Radenthein", "street": "Hauptstraße", "housenumber": "37", "postcode": "9545", "place": "Radenthein", "lat": 46.8006796, "lon": 13.7039754, "tags": {"addr:city": "Radenthein", "addr:housenumber": "37", "addr:postcode": "9545", "addr:street": "Hauptstraße", "name": "Tabak Trafik Unterweger Petra", "shop": "kiosk", "website": "https://www.radenthein.gv.at/betriebe/tabak-trafik/"}, "content": "Tabak Trafik Unterweger Petra\nKategorie: shop:kiosk\nAdresse: Hauptstraße 37, 9545 Radenthein\nOrt: Radenthein\nPLZ: 9545\nKoordinaten: 46.800680, 13.703975\nTags: shop=kiosk, website=https://www.radenthein.gv.at/betriebe/tabak-trafik/", "doc_type": "pois"}
{"source": "OSM", "region": "Kärnten", "osm_type": "node", "osm_id": 742555109, "name": "Metzgerwirt", "category": "amenity:restaurant", "address": "Hauptstraße 22, 9545 Radenthein", "street": "Hauptstraße", "housenumber": "22", "postcode": "9545", "place": "Radenthein", "lat": 46.8013682, "lon": 13.7055132, "tags": {"addr:city": "Radenthein", "addr:housenumber": "22", "addr:postcode": "9545", "addr:street": "Hauptstraße", "amenity": "restaurant", "name": "Metzgerwirt", "operator": "Emanuel Stadler"}, "content": "Metzgerwirt\nKategorie: amenity:restaurant\nAdresse: Hauptstraße 22, 9545 Radenthein\nOrt: Radenthein\nPLZ: 9545\nKoordinaten: 46.801368, 13.705513\nTags: amenity=restaurant, operator=Emanuel Stadler", "doc_type": "pois"}
{"source": "OSM", "region": "Kärnten", "osm_type": "node", "osm_id": 742555206, "name": "T&G", "category": "shop:supermarket", "address": "Stadionstraße 29, 9545 Radenthein", "street": "Stadionstraße", "housenumber": "29", "postcode": "9545", "place": "Radenthein", "lat": 46.798417, "lon": 13.7126039, "tags": {"addr:city": "Radenthein", "addr:housenumber": "29", "addr:postcode": "9545", "addr:street": "Stadionstraße", "name": "T&G", "shop": "supermarket", "website": "https://www.tundg.at/"}, "content": "T&G\nKategorie: shop:supermarket\nAdresse: Stadionstraße 29, 9545 Radenthein\nOrt: Radenthein\nPLZ: 9545\nKoordinaten: 46.798417, 13.712604\nTags: shop=supermarket, website=https://www.tundg.at/", "doc_type": "pois"}
{"source": "OSM", "region": "Kärnten", "osm_type": "node", "osm_id": 762319585, "name": "Werkskaufhaus Radenthein", "category": "shop:supermarket", "address": "Millstätterstraße 8, 9545 Radenthein", "street": "Millstätterstraße", "housenumber": "8", "postcode": "9545", "place": "Radenthein", "lat": 46.7984592, "lon": 13.6977186, "tags": {"addr:city": "Radenthein", "addr:housenumber": "8", "addr:postcode": "9545", "addr:street": "Millstätterstraße", "name": "Werkskaufhaus Radenthein", "shop": "supermarket"}, "content": "Werkskaufhaus Radenthein\nKategorie: shop:supermarket\nAdresse: Millstätterstraße 8, 9545 Radenthein\nOrt: Radenthein\nPLZ: 9545\nKoordinaten: 46.798459, 13.697719\nTags: shop=supermarket", "doc_type": "pois"}
{"source": "OSM", "region": "Kärnten", "osm_type": "node", "osm_id": 845136950, "name": "Wacker", "category": "amenity:restaurant", "address": "Dorfstraße 36, 9545 Radenthein", "street": "Dorfstraße", "housenumber": "36", "postcode": "9545", "place": "Radenthein", "lat": 46.7910196, "lon": 13.7326723, "tags": {"addr:city": "Radenthein", "addr:housenumber": "36", "addr:postcode": "9545", "addr:street": "Dorfstraße", "amenity": "restaurant", "name": "Wacker", "website": "http://www.gasthof-wacker.at/"}, "content": "Wacker\nKategorie: amenity:restaurant\nAdresse: Dorfstraße 36, 9545 Radenthein\nOrt: Radenthein\nPLZ: 9545\nKoordinaten: 46.791020, 13.732672\nTags: amenity=restaurant, website=http://www.gasthof-wacker.at/", "doc_type": "pois"}
{"source": "OSM", "region": "Kärnten", "osm_type": "node", "osm_id": 1559378334, "name": "Armin's Radlwerkstatt", "category": "shop:bicycle", "address": "Holunderweg 6, 9545 Radenthein", "street": "Holunderweg", "housenumber": "6", "postcode": "9545", "place": "Radenthein", "lat": 46.7949473, "lon": 13.7198633, "tags": {"addr:city": "Radenthein", "addr:housenumber": "6", "addr:postcode": "9545", "addr:street": "Holunderweg", "name": "Armin's Radlwerkstatt", "shop": "bicycle", "website": "https://www.arminsradlwerkstatt.at/"}, "content": "Armin's Radlwerkstatt\nKategorie: shop:bicycle\nAdresse: Holunderweg 6, 9545 Radenthein\nOrt: Radenthein\nPLZ: 9545\nKoordinaten: 46.794947, 13.719863\nTags: shop=bicycle, website=https://www.arminsradlwerkstatt.at/", "doc_type": "pois"}
{"source": "OSM", "region": "Kärnten", "osm_type": "node", "osm_id": 2668770463, "name": "Freiwillige Feuerwehr Untertweng", "category": "amenity:fire_station", "address": "Dorfstraße 18, 9545 Radenthein", "street": "Dorfstraße", "housenumber": "18", "postcode": "9545", "place": "Radenthein", "lat": 46.7917959, "lon": 13.7291587, "tags": {"addr:city": "Radenthein", "addr:housenumber": "18", "addr:postcode": "9545", "addr:street": "Dorfstraße", "amenity": "fire_station", "name": "Freiwillige Feuerwehr Untertweng"}, "content": "Freiwillige Feuerwehr Untertweng\nKategorie: amenity:fire_station\nAdresse: Dorfstraße 18, 9545 Radenthein\nOrt: Radenthein\nPLZ: 9545\nKoordinaten: 46.791796, 13.729159\nTags: amenity=fire_station", "doc_type": "pois"}
{"source": "OSM", "region": "Kärnten", "osm_type": "node", "osm_id": 3012894896, "name": "Bioladen Naturesway", "category": "shop:supermarket", "address": "Hauptstraße 26, 9545 Radenthein", "street": "Hauptstraße", "housenumber": "26", "postcode": "9545", "place": "Radenthein", "lat": 46.8012384, "lon": 13.7052182, "tags": {"addr:city": "Radenthein", "addr:housenumber": "26", "addr:postcode": "9545", "addr:street": "Hauptstraße", "name": "Bioladen Naturesway", "shop": "supermarket"}, "content": "Bioladen Naturesway\nKategorie: shop:supermarket\nAdresse: Hauptstraße 26, 9545 Radenthein\nOrt: Radenthein\nPLZ: 9545\nKoordinaten: 46.801238, 13.705218\nTags: shop=supermarket", "doc_type": "pois"}
{"source": "OSM", "region": "Kärnten", "osm_type": "node", "osm_id": 3012894897, "name": "Wega Flora", "category": "shop:florist", "address": "Villacherstraße 11, 9545 Radenthein", "street": "Villacherstraße", "housenumber": "11", "postcode": "9545", "place": "Radenthein", "lat": 46.8010352, "lon": 13.7118219, "tags": {"addr:city": "Radenthein", "addr:housenumber": "11", "addr:postcode": "9545", "addr:street": "Villacherstraße", "name": "Wega Flora", "operator": "Wega Flora GmbH", "shop": "florist"}, "content": "Wega Flora\nKategorie: shop:florist\nAdresse: Villacherstraße 11, 9545 Radenthein\nOrt: Radenthein\nPLZ: 9545\nKoordinaten: 46.801035, 13.711822\nTags: shop=florist, operator=Wega Flora GmbH", "doc_type": "pois"}
{"source": "OSM", "region": "Kärnten", "osm_type": "node", "osm_id": 5122757456, "name": "Polizeiinspektion Radenthein", "category": "amenity:police", "address": "27, 9545 Radenthein", "street": null, "housenumber": "27", "postcode": "9545", "place": "Radenthein", "lat": 46.7998024, "lon": 13.7021157, "tags": {"addr:city": "Radenthein", "addr:housenumber": "27", "addr:place": "Neue Heimat", "addr:postcode": "9545", "amenity": "police", "name": "Polizeiinspektion Radenthein", "phone": "+43 59133 2233100"}, "content": "Polizeiinspektion Radenthein\nKategorie: amenity:police\nAdresse: 27, 9545 Radenthein\nOrt: Radenthein\nPLZ: 9545\nKoordinaten: 46.799802, 13.702116\nTags: amenity=police, phone=+43 59133 2233100", "doc_type": "pois"}
{"source": "OSM", "region": "Kärnten", "osm_type": "node", "osm_id": 5143782381, "name": "Leiter Edelstahl GmbH", "category": "craft:metal_construction", "address": "Stadionstraße 23, 9545 Radenthein", "street": "Stadionstraße", "housenumber": "23", "postcode": "9545", "place": "Radenthein", "lat": 46.7983601, "lon": 13.7109147, "tags": {"addr:city": "Radenthein", "addr:housenumber": "23", "addr:postcode": "9545", "addr:street": "Stadionstraße", "craft": "metal_construction", "name": "Leiter Edelstahl GmbH", "phone": "+43 4246 29189", "website": "http://www.leiter-edelstahl.at/"}, "content": "Leiter Edelstahl GmbH\nKategorie: craft:metal_construction\nAdresse: Stadionstraße 23, 9545 Radenthein\nOrt: Radenthein\nPLZ: 9545\nKoordinaten: 46.798360, 13.710915\nTags: phone=+43 4246 29189, website=http://www.leiter-edelstahl.at/", "doc_type": "pois"}
{"source": "OSM", "region": "Kärnten", "osm_type": "node", "osm_id": 5143782386, "name": "Impressum Glas Gasser GmbH", "category": "craft:window_construction", "address": "Stadionstraße 17, 9545 Radenthein", "street": "Stadionstraße", "housenumber": "17", "postcode": "9545", "place": "Radenthein", "lat": 46.7982692, "lon": 13.7095736, "tags": {"addr:city": "Radenthein", "addr:housenumber": "17", "addr:postcode": "9545", "addr:street": "Stadionstraße", "craft": "window_construction", "name": "Impressum Glas Gasser GmbH", "operator": "Herwig Gasser", "phone": "+43 4246 2674", "website": "https://www.glasgasser.at/index.php"}, "content": "Impressum Glas Gasser GmbH\nKategorie: craft:window_construction\nAdresse: Stadionstraße 17, 9545 Radenthein\nOrt: Radenthein\nPLZ: 9545\nKoordinaten: 46.798269, 13.709574\nTags: operator=Herwig Gasser, phone=+43 4246 2674, website=https://www.glasgasser.at/index.php", "doc_type": "pois"}
{"source": "OSM", "region": "Kärnten", "osm_type": "node", "osm_id": 5621900759, "name": "Büro & Empfang", "category": "office:company", "address": "Glanzerstraße 66, 9873 Radenthein", "street": "Glanzerstraße", "housenumber": "66", "postcode": "9873", "place": "Radenthein", "lat": 46.7706124, "lon": 13.6525612, "tags": {"addr:city": "Radenthein", "addr:housenumber": "66", "addr:postcode": "9873", "addr:street": "Glanzerstraße", "name": "Büro & Empfang", "office": "company"}, "content": "Büro & Empfang\nKategorie: office:company\nAdresse: Glanzerstraße 66, 9873 Radenthein\nOrt: Radenthein\nPLZ: 9873\nKoordinaten: 46.770612, 13.652561\nTags: office=company", "doc_type": "pois"}
{"source": "OSM", "region": "Kärnten", "osm_type": "node", "osm_id": 5621900786, "name": "Hotel Burgstaller", "category": "tourism:hotel", "address": "Seestraße 6, 9873 Radenthein", "street": "Seestraße", "housenumber": "6", "postcode": "9873", "place": "Radenthein", "lat": 46.7815466, "lon": 13.657233, "tags": {"addr:city": "Radenthein", "addr:housenumber": "6", "addr:postcode": "9873", "addr:street": "Seestraße", "name": "Hotel Burgstaller", "tourism": "hotel"}, "content": "Hotel Burgstaller\nKategorie: tourism:hotel\nAdresse: Seestraße 6, 9873 Radenthein\nOrt: Radenthein\nPLZ: 9873\nKoordinaten: 46.781547, 13.657233", "doc_type": "pois"}
