{"source": "OSM", "region": "Kärnten", "osm_type": "node", "osm_id": 1895016358, "name": "Alpengarten", "category": "tourism:hotel", "address": "Rabisch 11, 9822 Mallnitz", "street": "Rabisch", "housenumber": "11", "postcode": "9822", "place": "Mallnitz", "lat": 46.9739477, "lon": 13.1787245, "tags": {"addr:city": "Mallnitz", "addr:housenumber": "11", "addr:postcode": "9822", "addr:street": "Rabisch", "name": "Alpengarten", "phone": "+43 4784 8100", "tourism": "hotel", "website": "https://www.alpengarten.at/"}, "content": "Alpengarten\nKategorie: tourism:hotel\nAdresse: Rabisch 11, 9822 Mallnitz\nOrt: Mallnitz\nPLZ: 9822\nKoordinaten: 46.973948, 13.178724\nTags: phone=+43 4784 8100, website=https://www.alpengarten.at/", "doc_type": "addresses"}
{"source": "OSM", "region": "Kärnten", "osm_type": "node", "osm_id": 2024967966, "name": "9822 Mallnitz", "category": "amenity:post_office", "address": "Mallnitz 56, 9822 Mallnitz", "street": "Mallnitz", "housenumber": "56", "postcode": "9822", "place": "Mallnitz", "lat": 46.9889189, "lon": 13.169688, "tags": {"addr:city": "Mallnitz", "addr:housenumber": "56", "addr:postcode": "9822", "addr:street": "Mallnitz", "amenity": "post_office", "name": "9822 Mallnitz"}, "content": "9822 Mallnitz\nKategorie: amenity:post_office\nAdresse: Mallnitz 56, 9822 Mallnitz\nOrt: Mallnitz\nPLZ: 9822\nKoordinaten: 46.988919, 13.169688\nTags: amenity=post_office", "doc_type": "addresses"}
{"source": "OSM", "region": "Kärnten", "osm_type": "node", "osm_id": 4773661712, "name": "Eggerhof", "category": "amenity:restaurant", "address": "Mallnitz 119, 9822 Mallnitz", "street": "Mallnitz", "housenumber": "119", "postcode": "9822", "place": "Mallnitz", "lat": 46.9900372, "lon": 13.1704, "tags": {"addr:city": "Mallnitz", "addr:housenumber": "119", "addr:postcode": "9822", "addr:street": "Mallnitz", "amenity": "restaurant", "name": "Eggerhof", "operator": "Familie Supersberger"}, "content": "Eggerhof\nKategorie: amenity:restaurant\nAdresse: Mallnitz 119, 9822 Mallnitz\nOrt: Mallnitz\nPLZ: 9822\nKoordinaten: 46.990037, 13.170400\nTags: amenity=restaurant, operator=Familie Supersberger", "doc_type": "addresses"}
{"source": "OSM", "region": "Kärnten", "osm_type": "node", "osm_id": 1895016358, "name": "Alpengarten", "category": "tourism:hotel", "address": "Rabisch 11, 9822 Mallnitz", "street": "Rabisch", "housenumber": "11", "postcode": "9822", "place": "Mallnitz", "lat": 46.9739477, "lon": 13.1787245, "tags": {"addr:city": "Mallnitz", "addr:housenumber": "11", "addr:postcode": "9822", "addr:street": "Rabisch", "name": "Alpengarten", "phone": "+43 4784 8100", "tourism": "hotel", "website": "https://www.alpengarten.at/"}, "content": "Alpengarten\nKategorie: tourism:hotel\nAdresse: Rabisch 11, 9822 Mallnitz\nOrt: Mallnitz\nPLZ: 9822\nKoordinaten: 46.973948, 13.178724\nTags: phone=+43 4784 8100, website=https://www.alpengarten.at/", "doc_type": "pois"}
{"source": "OSM", "region": "Kärnten", "osm_type": "node", "osm_id": 2024967966, "name": "9822 Mallnitz", "category": "amenity:post_office", "address": "Mallnitz 56, 9822 Mallnitz", "street": "Mallnitz", "housenumber": "56", "postcode": "9822", "place": "Mallnitz", "lat": 46.9889189, "lon": 13.169688, "tags": {"addr:city": "Mallnitz", "addr:housenumber": "56", "addr:postcode": "9822", "addr:street": "Mallnitz", "amenity": "post_office", "name": "9822 Mallnitz"}, "content": "9822 Mallnitz\nKategorie: amenity:post_office\nAdresse: Mallnitz 56, 9822 Mallnitz\nOrt: Mallnitz\nPLZ: 9822\nKoordinaten: 46.988919, 13.169688\nTags: amenity=post_office", "doc_type": "pois"}
{"source": "OSM", "region": "Kärnten", "osm_type": "node", "osm_id": 4773661712, "name": "Eggerhof", "category": "amenity:restaurant", "address": "Mallnitz 119, 9822 Mallnitz", "street": "Mallnitz", "housenumber": "119", "postcode": "9822", "place": "Mallnitz", "lat": 46.9900372, "lon": 13.1704, "tags": {"addr:city": "Mallnitz", "addr:housenumber": "119", "addr:postcode": "9822", "addr:street": "Mallnitz", "amenity": "restaurant", "name": "Eggerhof", "operator": "Familie Supersberger"}, "content": "Eggerhof\nKategorie: amenity:restaurant\nAdresse: Mallnitz 119, 9822 Mallnitz\nOrt: Mallnitz\nPLZ: 9822\nKoordinaten: 46.990037, 13.170400\nTags: amenity=restaurant, operator=Familie Supersberger", "doc_type": "pois"}
