{"source": "OSM", "region": "Kärnten", "osm_type": "node", "osm_id": 340517768, "name": "Postpartner 9535, Schieflinger Ortsladen", "category": "amenity:post_office", "address": "Keutschacher Straße 117, 9535 Schiefling am Wörthersee", "street": "Keutschacher Straße", "housenumber": "117", "postcode": "9535", "place": "Schiefling am Wörthersee", "lat": 46.6026052, "lon": 14.0966864, "tags": {"addr:city": "Schiefling am Wörthersee", "addr:housenumber": "117", "addr:postcode": "9535", "addr:street": "Keutschacher Straße", "amenity": "post_office", "name": "Postpartner 9535, Schieflinger Ortsladen"}, "content": "Postpartner 9535, Schieflinger Ortsladen\nKategorie: amenity:post_office\nAdresse: Keutschacher Straße 117, 9535 Schiefling am Wörthersee\nOrt: Schiefling am Wörthersee\nPLZ: 9535\nKoordinaten: 46.602605, 14.096686\nTags: amenity=post_office", "doc_type": "addresses"}
{"source": "OSM", "region": "Kärnten", "osm_type": "node", "osm_id": 1794150080, "name": "Ferm", "category": "tourism:guest_house", "address": "Penkenstraße 6, 9535 Schiefling am Wörthersee", "street": "Penkenstraße", "housenumber": "6", "postcode": "9535", "place": "Schiefling am Wörthersee", "lat": 46.5850727, "lon": 14.1067966, "tags": {"addr:city": "Schiefling am Wörthersee", "addr:housenumber": "6", "addr:postcode": "9535", "addr:street": "Penkenstraße", "name": "Ferm", "operator": "Josef Christian Humnig", "phone": "+43 (0)4274 50122-0", "tourism": "guest_house", "website": "https://www.ferm.at/"}, "content": "Ferm\nKategorie: tourism:guest_house\nAdresse: Penkenstraße 6, 9535 Schiefling am Wörthersee\nOrt: Schiefling am Wörthersee\nPLZ: 9535\nKoordinaten: 46.585073, 14.106797\nTags: operator=Josef Christian Humnig, phone=+43 (0)4274 50122-0, website=https://www.ferm.at/", "doc_type": "addresses"}
{"source": "OSM", "region": "Kärnten", "osm_type": "node", "osm_id": 1813757010, "name": "Waldpension Schiefling am See", "category": "tourism:guest_house", "address": "Schiefling-Keutschacher Straße 70, 9535 Schiefling am Wörthersee", "street": "Schiefling-Keutschacher Straße", "housenumber": "70", "postcode": "9535", "place": "Schiefling am Wörthersee", "lat": 46.6020312, "lon": 14.0823274, "tags": {"addr:city": "Schiefling am Wörthersee", "addr:housenumber": "70", "addr:postcode": "9535", "addr:street": "Schiefling-Keutschacher Straße", "name": "Waldpension Schiefling am See", "tourism": "guest_house"}, "content": "Waldpension Schiefling am See\nKategorie: tourism:guest_house\nAdresse: Schiefling-Keutschacher Straße 70, 9535 Schiefling am Wörthersee\nOrt: Schiefling am Wörthersee\nPLZ: 9535\nKoordinaten: 46.602031, 14.082327", "doc_type": "addresses"}
{"source": "OSM", "region": "Kärnten", "osm_type": "node", "osm_id": 3428874817, "name": "Camping Village", "category": "amenity:restaurant", "address": "Auenstraße 47, 9535 Schiefling am Wörthersee", "street": "Auenstraße", "housenumber": "47", "postcode": "9535", "place": "Schiefling am Wörthersee", "lat": 46.6178306, "lon": 14.1040819, "tags": {"addr:city": "Schiefling am Wörthersee", "addr:housenumber": "47", "addr:postcode": "9535", "addr:street": "Auenstraße", "amenity": "restaurant", "name": "Camping Village", "phone": "+4342742898", "website": "https://campingvillage.at/de/camping-village"}, "content": "Camping Village\nKategorie: amenity:restaurant\nAdresse: Auenstraße 47, 9535 Schiefling am Wörthersee\nOrt: Schiefling am Wörthersee\nPLZ: 9535\nKoordinaten: 46.617831, 14.104082\nTags: amenity=restaurant, phone=+4342742898, website=https://campingvillage.at/de/camping-village", "doc_type": "addresses"}
{"source": "OSM", "region": "Kärnten", "osm_type": "node", "osm_id": 5255451266, "name": null, "category": null, "address": "Auen-Mühlweg 188, 9220 Schiefling am Wörthersee", "street": "Auen-Mühlweg", "housenumber": "188", "postcode": "9220", "place": "Schiefling am Wörthersee", "lat": 46.6093626, "lon": 14.0794479, "tags": {"addr:city": "Schiefling am Wörthersee", "addr:housenumber": "188", "addr:postcode": "9220", "addr:street": "Auen-Mühlweg"}, "content": "Adresse: Auen-Mühlweg 188, 9220 Schiefling am Wörthersee\nOrt: Schiefling am Wörthersee\nPLZ: 9220\nKoordinaten: 46.609363, 14.079448", "doc_type": "addresses"}
{"source": "OSM", "region": "Kärnten", "osm_type": "node", "osm_id": 5255451267, "name": null, "category": null, "address": "Auen-Mühlweg 191, 9220 Schiefling am Wörthersee", "street": "Auen-Mühlweg", "housenumber": "191", "postcode": "9220", "place": "Schiefling am Wörthersee", "lat": 46.6094207, "lon": 14.0795137, "tags": {"addr:city": "Schiefling am Wörthersee", "addr:housenumber": "191", "addr:postcode": "9220", "addr:street": "Auen-Mühlweg"}, "content": "Adresse: Auen-Mühlweg 191, 9220 Schiefling am Wörthersee\nOrt: Schiefling am Wörthersee\nPLZ: 9220\nKoordinaten: 46.609421, 14.079514", "doc_type": "addresses"}
{"source": "OSM", "region": "Kärnten", "osm_type": "node", "osm_id": 5255564549, "name": null, "category": null, "address": "Schiefling-Dobitschnigweg 289, 9535 Schiefling am Wörthersee", "street": "Schiefling-Dobitschnigweg", "housenumber": "289", "postcode": "9535", "place": "Schiefling am Wörthersee", "lat": 46.5980314, "lon": 14.10384, "tags": {"addr:city": "Schiefling am Wörthersee", "addr:housenumber": "289", "addr:postcode": "9535", "addr:street": "Schiefling-Dobitschnigweg"}, "content": "Adresse: Schiefling-Dobitschnigweg 289, 9535 Schiefling am Wörthersee\nOrt: Schiefling am Wörthersee\nPLZ: 9535\nKoordinaten: 46.598031, 14.103840", "doc_type": "addresses"}
{"source": "OSM", "region": "Kärnten", "osm_type": "node", "osm_id": 5255564572, "name": null, "category": null, "address": "Salamanderweg 5, 9535 Schiefling am Wörthersee", "street": "Salamanderweg", "housenumber": "5", "postcode": "9535", "place": "Schiefling am Wörthersee", "lat": 46.6041069, "lon": 14.1082478, "tags": {"addr:city": "Schiefling am Wörthersee", "addr:housenumber": "5", "addr:postcode": "9535", "addr:street": "Salamanderweg"}, "content": "Adresse: Salamanderweg 5, 9535 Schiefling am Wörthersee\nOrt: Schiefling am Wörthersee\nPLZ: 9535\nKoordinaten: 46.604107, 14.108248", "doc_type": "addresses"}
{"source": "OSM", "region": "Kärnten", "osm_type": "node", "osm_id": 5255564617, "name": null, "category": null, "address": "St. Kathrein-Farrendorfer Str. 15b, 9535 Schiefling am Wörthersee", "street": "St. Kathrein-Farrendorfer Str.", "housenumber": "15b", "postcode": "9535", "place": "Schiefling am Wörthersee", "lat": 46.5806032, "lon": 14.0734732, "tags": {"addr:city": "Schiefling am Wörthersee", "addr:housenumber": "15b", "addr:postcode": "9535", "addr:street": "St. Kathrein-Farrendorfer Str."}, "content": "Adresse: St. Kathrein-Farrendorfer Str. 15b, 9535 Schiefling am Wörthersee\nOrt: Schiefling am Wörthersee\nPLZ: 9535\nKoordinaten: 46.580603, 14.073473", "doc_type": "addresses"}
{"source": "OSM", "region": "Kärnten", "osm_type": "node", "osm_id": 5255564634, "name": null, "category": null, "address": "St. Kathrein-Kathreinkogelweg 3, 9535 Schiefling am Wörthersee", "street": "St. Kathrein-Kathreinkogelweg", "housenumber": "3", "postcode": "9535", "place": "Schiefling am Wörthersee", "lat": 46.5889482, "lon": 14.0684526, "tags": {"addr:city": "Schiefling am Wörthersee", "addr:housenumber": "3", "addr:postcode": "9535", "addr:street": "St. Kathrein-Kathreinkogelweg"}, "content": "Adresse: St. Kathrein-Kathreinkogelweg 3, 9535 Schiefling am Wörthersee\nOrt: Schiefling am Wörthersee\nPLZ: 9535\nKoordinaten: 46.588948, 14.068453", "doc_type": "addresses"}
{"source": "OSM", "region": "Kärnten", "osm_type": "node", "osm_id": 5257520474, "name": null, "category": null, "address": "Auen-Schieflinger Straße 152, 9220 Schiefling am Wörthersee", "street": "Auen-Schieflinger Straße", "housenumber": "152", "postcode": "9220", "place": "Schiefling am Wörthersee", "lat": 46.6101044, "lon": 14.0794987, "tags": {"addr:city": "Schiefling am Wörthersee", "addr:housenumber": "152", "addr:postcode": "9220", "addr:street": "Auen-Schieflinger Straße"}, "content": "Adresse: Auen-Schieflinger Straße 152, 9220 Schiefling am Wörthersee\nOrt: Schiefling am Wörthersee\nPLZ: 9220\nKoordinaten: 46.610104, 14.079499", "doc_type": "addresses"}
{"source": "OSM", "region": "Kärnten", "osm_type": "node", "osm_id": 5257520475, "name": null, "category": null, "address": "Auen-Süduferstraße 183, 9220 Schiefling am Wörthersee", "street": "Auen-Süduferstraße", "housenumber": "183", "postcode": "9220", "place": "Schiefling am Wörthersee", "lat": 46.6156416, "lon": 14.0905084, "tags": {"addr:city": "Schiefling am Wörthersee", "addr:housenumber": "183", "addr:postcode": "9220", "addr:street": "Auen-Süduferstraße"}, "content": "Adresse: Auen-Süduferstraße 183, 9220 Schiefling am Wörthersee\nOrt: Schiefling am Wörthersee\nPLZ: 9220\nKoordinaten: 46.615642, 14.090508", "doc_type": "addresses"}
{"source": "OSM", "region": "Kärnten", "osm_type": "node", "osm_id": 5257520476, "name": null, "category": null, "address": "Auen-Seerosenweg 183, 9220 Schiefling am Wörthersee", "street": "Auen-Seerosenweg", "housenumber": "183", "postcode": "9220", "place": "Schiefling am Wörthersee", "lat": 46.6156021, "lon": 14.0906294, "tags": {"addr:city": "Schiefling am Wörthersee", "addr:housenumber": "183", "addr:postcode": "9220", "addr:street": "Auen-Seerosenweg"}, "content": "Adresse: Auen-Seerosenweg 183, 9220 Schiefling am Wörthersee\nOrt: Schiefling am Wörthersee\nPLZ: 9220\nKoordinaten: 46.615602, 14.090629", "doc_type": "addresses"}
{"source": "OSM", "region": "Kärnten", "osm_type": "node", "osm_id": 5257520477, "name": null, "category": null, "address": "Auen-Seerosenweg 168, 9220 Schiefling am Wörthersee", "street": "Auen-Seerosenweg", "housenumber": "168", "postcode": "9220", "place": "Schiefling am Wörthersee", "lat": 46.6153263, "lon": 14.0908257, "tags": {"addr:city": "Schiefling am Wörthersee", "addr:housenumber": "168", "addr:postcode": "9220", "addr:street": "Auen-Seerosenweg"}, "content": "Adresse: Auen-Seerosenweg 168, 9220 Schiefling am Wörthersee\nOrt: Schiefling am Wörthersee\nPLZ: 9220\nKoordinaten: 46.615326, 14.090826", "doc_type": "addresses"}
{"source": "OSM", "region": "Kärnten", "osm_type": "node", "osm_id": 5257520478, "name": null, "category": null, "address": "Auen-Seerosenweg 167, 9220 Schiefling am Wörthersee", "street": "Auen-Seerosenweg", "housenumber": "167", "postcode": "9220", "place": "Schiefling am Wörthersee", "lat": 46.6152635, "lon": 14.090749, "tags": {"addr:city": "Schiefling am Wörthersee", "addr:housenumber": "167", "addr:postcode": "9220", "addr:street": "Auen-Seerosenweg"}, "content": "Adresse: Auen-Seerosenweg 167, 9220 Schiefling am Wörthersee\nOrt: Schiefling am Wörthersee\nPLZ: 9220\nKoordinaten: 46.615263, 14.090749", "doc_type": "addresses"}
{"source": "OSM", "region": "Kärnten", "osm_type": "node", "osm_id": 340517768, "name": "Postpartner 9535, Schieflinger Ortsladen", "category": "amenity:post_office", "address": "Keutschacher Straße 117, 9535 Schiefling am Wörthersee", "street": "Keutschacher Straße", "housenumber": "117", "postcode": "9535", "place": "Schiefling am Wörthersee", "lat": 46.6026052, "lon": 14.0966864, "tags": {"addr:city": "Schiefling am Wörthersee", "addr:housenumber": "117", "addr:postcode": "9535", "addr:street": "Keutschacher Straße", "amenity": "post_office", "name": "Postpartner 9535, Schieflinger Ortsladen"}, "content": "Postpartner 9535, Schieflinger Ortsladen\nKategorie: amenity:post_office\nAdresse: Keutschacher Straße 117, 9535 Schiefling am Wörthersee\nOrt: Schiefling am Wörthersee\nPLZ: 9535\nKoordinaten: 46.602605, 14.096686\nTags: amenity=post_office", "doc_type": "pois"}
{"source": "OSM", "region": "Kärnten", "osm_type": "node", "osm_id": 1794150080, "name": "Ferm", "category": "tourism:guest_house", "address": "Penkenstraße 6, 9535 Schiefling am Wörthersee", "street": "Penkenstraße", "housenumber": "6", "postcode": "9535", "place": "Schiefling am Wörthersee", "lat": 46.5850727, "lon": 14.1067966, "tags": {"addr:city": "Schiefling am Wörthersee", "addr:housenumber": "6", "addr:postcode": "9535", "addr:street": "Penkenstraße", "name": "Ferm", "operator": "Josef Christian Humnig", "phone": "+43 (0)4274 50122-0", "tourism": "guest_house", "website": "https://www.ferm.at/"}, "content": "Ferm\nKategorie: tourism:guest_house\nAdresse: Penkenstraße 6, 9535 Schiefling am Wörthersee\nOrt: Schiefling am Wörthersee\nPLZ: 9535\nKoordinaten: 46.585073, 14.106797\nTags: operator=Josef Christian Humnig, phone=+43 (0)4274 50122-0, website=https://www.ferm.at/", "doc_type": "pois"}
{"source": "OSM", "region": "Kärnten", "osm_type": "node", "osm_id": 1813757010, "name": "Waldpension Schiefling am See", "category": "tourism:guest_house", "address": "Schiefling-Keutschacher Straße 70, 9535 Schiefling am Wörthersee", "street": "Schiefling-Keutschacher Straße", "housenumber": "70", "postcode": "9535", "place": "Schiefling am Wörthersee", "lat": 46.6020312, "lon": 14.0823274, "tags": {"addr:city": "Schiefling am Wörthersee", "addr:housenumber": "70", "addr:postcode": "9535", "addr:street": "Schiefling-Keutschacher Straße", "name": "Waldpension Schiefling am See", "tourism": "guest_house"}, "content": "Waldpension Schiefling am See\nKategorie: tourism:guest_house\nAdresse: Schiefling-Keutschacher Straße 70, 9535 Schiefling am Wörthersee\nOrt: Schiefling am Wörthersee\nPLZ: 9535\nKoordinaten: 46.602031, 14.082327", "doc_type": "pois"}
{"source": "OSM", "region": "Kärnten", "osm_type": "node", "osm_id": 3428874817, "name": "Camping Village", "category": "amenity:restaurant", "address": "Auenstraße 47, 9535 Schiefling am Wörthersee", "street": "Auenstraße", "housenumber": "47", "postcode": "9535", "place": "Schiefling am Wörthersee", "lat": 46.6178306, "lon": 14.1040819, "tags": {"addr:city": "Schiefling am Wörthersee", "addr:housenumber": "47", "addr:postcode": "9535", "addr:street": "Auenstraße", "amenity": "restaurant", "name": "Camping Village", "phone": "+4342742898", "website": "https://campingvillage.at/de/camping-village"}, "content": "Camping Village\nKategorie: amenity:restaurant\nAdresse: Auenstraße 47, 9535 Schiefling am Wörthersee\nOrt: Schiefling am Wörthersee\nPLZ: 9535\nKoordinaten: 46.617831, 14.104082\nTags: amenity=restaurant, phone=+4342742898, website=https://campingvillage.at/de/camping-village", "doc_type": "pois"}
