{"source": "OSM", "region": "Kärnten", "osm_type": "node", "osm_id": 340520597, "name": "Postpartner 9470", "category": "amenity:post_office", "address": "Hauptstraße 23, 9470 St. Paul im Lavanttal", "street": "Hauptstraße", "housenumber": "23", "postcode": "9470", "place": "St. Paul im Lavanttal", "lat": 46.7006577, "lon": 14.8696236, "tags": {"addr:city": "St. Paul im Lavanttal", "addr:housenumber": "23", "addr:postcode": "9470", "addr:street": "Hauptstraße", "amenity": "post_office", "name": "Postpartner 9470", "operator": "Guetz"}, "content": "Postpartner 9470\nKategorie: amenity:post_office\nAdresse: Hauptstraße 23, 9470 St. Paul im Lavanttal\nOrt: St. Paul im Lavanttal\nPLZ: 9470\nKoordinaten: 46.700658, 14.869624\nTags: amenity=post_office, operator=Guetz", "doc_type": "addresses"}
{"source": "OSM", "region": "Kärnten", "osm_type": "node", "osm_id": 1701257504, "name": "Martinerwirth", "category": "amenity:restaurant", "address": "5, 9470 St. Paul im Lavanttal", "street": null, "housenumber": "5", "postcode": "9470", "place": "St. Paul im Lavanttal", "lat": 46.6865958, "lon": 14.8523931, "tags": {"addr:city": "St. Paul im Lavanttal", "addr:housenumber": "5", "addr:place": "St. Martin", "addr:postcode": "9470", "amenity": "restaurant", "name": "Martinerwirth"}, "content": "Martinerwirth\nKategorie: amenity:restaurant\nAdresse: 5, 9470 St. Paul im Lavanttal\nOrt: St. Paul im Lavanttal\nPLZ: 9470\nKoordinaten: 46.686596, 14.852393\nTags: amenity=restaurant", "doc_type": "addresses"}
{"source": "OSM", "region": "Kärnten", "osm_type": "node", "osm_id": 1805903991, "name": "Ferienwohnung Flößholzer", "category": "tourism:apartment", "address": "Granitztal-Weißenegg 61, 9470 St. Paul im Lavanttal", "street": "Granitztal-Weißenegg", "housenumber": "61", "postcode": "9470", "place": "St. Paul im Lavanttal", "lat": 46.6838573, "lon": 14.8472327, "tags": {"addr:city": "St. Paul im Lavanttal", "addr:housenumber": "61", "addr:postcode": "9470", "addr:street": "Granitztal-Weißenegg", "name": "Ferienwohnung Flößholzer", "tourism": "apartment"}, "content": "Ferienwohnung Flößholzer\nKategorie: tourism:apartment\nAdresse: Granitztal-Weißenegg 61, 9470 St. Paul im Lavanttal\nOrt: St. Paul im Lavanttal\nPLZ: 9470\nKoordinaten: 46.683857, 14.847233", "doc_type": "addresses"}
{"source": "OSM", "region": "Kärnten", "osm_type": "node", "osm_id": 2843966595, "name": "ADEG", "category": "shop:supermarket", "address": "Hauptstraße 41, 9470 St. Paul im Lavanttal", "street": "Hauptstraße", "housenumber": "41", "postcode": "9470", "place": "St. Paul im Lavanttal", "lat": 46.703117, "lon": 14.8683829, "tags": {"addr:city": "St. Paul im Lavanttal", "addr:housenumber": "41", "addr:postcode": "9470", "addr:street": "Hauptstraße", "brand": "ADEG", "name": "ADEG", "shop": "supermarket"}, "content": "ADEG\nKategorie: shop:supermarket\nAdresse: Hauptstraße 41, 9470 St. Paul im Lavanttal\nOrt: St. Paul im Lavanttal\nPLZ: 9470\nKoordinaten: 46.703117, 14.868383\nTags: shop=supermarket, brand=ADEG", "doc_type": "addresses"}
{"source": "OSM", "region": "Kärnten", "osm_type": "node", "osm_id": 3760207503, "name": "Sternweiß", "category": "amenity:cafe", "address": "Lobisserplatz 1, 9470 St. Paul im Lavanttal", "street": "Lobisserplatz", "housenumber": "1", "postcode": "9470", "place": "St. Paul im Lavanttal", "lat": 46.7009463, "lon": 14.8690394, "tags": {"addr:city": "St. Paul im Lavanttal", "addr:housenumber": "1", "addr:postcode": "9470", "addr:street": "Lobisserplatz", "amenity": "cafe", "name": "Sternweiß", "shop": "pastry", "website": "https://www.sternweiss.at/"}, "content": "Sternweiß\nKategorie: amenity:cafe\nAdresse: Lobisserplatz 1, 9470 St. Paul im Lavanttal\nOrt: St. Paul im Lavanttal\nPLZ: 9470\nKoordinaten: 46.700946, 14.869039\nTags: amenity=cafe, shop=pastry, website=https://www.sternweiss.at/", "doc_type": "addresses"}
{"source": "OSM", "region": "Kärnten", "osm_type": "node", "osm_id": 4497993994, "name": "Unser Lagerhaus, Lagerhaus Tankstelle", "category": "shop:doityourself", "address": "Bahnhofstraße 21, 9470 St. Paul im Lavanttal", "street": "Bahnhofstraße", "housenumber": "21", "postcode": "9470", "place": "St. Paul im Lavanttal", "lat": 46.7069146, "lon": 14.8667251, "tags": {"addr:city": "St. Paul im Lavanttal", "addr:housenumber": "21", "addr:postcode": "9470", "addr:street": "Bahnhofstraße", "name": "Unser Lagerhaus, Lagerhaus Tankstelle", "operator": "Unser Lagerhaus Warenhandelsges. m.b.H.", "shop": "doityourself"}, "content": "Unser Lagerhaus, Lagerhaus Tankstelle\nKategorie: shop:doityourself\nAdresse: Bahnhofstraße 21, 9470 St. Paul im Lavanttal\nOrt: St. Paul im Lavanttal\nPLZ: 9470\nKoordinaten: 46.706915, 14.866725\nTags: shop=doityourself, operator=Unser Lagerhaus Warenhandelsges. m.b.H.", "doc_type": "addresses"}
{"source": "OSM", "region": "Kärnten", "osm_type": "node", "osm_id": 4546199491, "name": "Billa", "category": "shop:supermarket", "address": "Bahnhofstraße 4, 9470 St. Paul im Lavanttal", "street": "Bahnhofstraße", "housenumber": "4", "postcode": "9470", "place": "St. Paul im Lavanttal", "lat": 46.7042326, "lon": 14.8690344, "tags": {"addr:city": "St. Paul im Lavanttal", "addr:housenumber": "4", "addr:postcode": "9470", "addr:street": "Bahnhofstraße", "brand": "Billa", "name": "Billa", "shop": "supermarket"}, "content": "Billa\nKategorie: shop:supermarket\nAdresse: Bahnhofstraße 4, 9470 St. Paul im Lavanttal\nOrt: St. Paul im Lavanttal\nPLZ: 9470\nKoordinaten: 46.704233, 14.869034\nTags: shop=supermarket, brand=Billa", "doc_type": "addresses"}
{"source": "OSM", "region": "Kärnten", "osm_type": "node", "osm_id": 5135779186, "name": "Polizeiinspektion St. Paul im Lavanttal", "category": "amenity:police", "address": "Hauptstraße 19, 9470 St. Paul im Lavanttal", "street": "Hauptstraße", "housenumber": "19", "postcode": "9470", "place": "St. Paul im Lavanttal", "lat": 46.7001552, "lon": 14.8702432, "tags": {"addr:city": "St. Paul im Lavanttal", "addr:housenumber": "19", "addr:postcode": "9470", "addr:street": "Hauptstraße", "amenity": "police", "name": "Polizeiinspektion St. Paul im Lavanttal", "phone": "+43 59133 2168100"}, "content": "Polizeiinspektion St. Paul im Lavanttal\nKategorie: amenity:police\nAdresse: Hauptstraße 19, 9470 St. Paul im Lavanttal\nOrt: St. Paul im Lavanttal\nPLZ: 9470\nKoordinaten: 46.700155, 14.870243\nTags: amenity=police, phone=+43 59133 2168100", "doc_type": "addresses"}
{"source": "OSM", "region": "Kärnten", "osm_type": "node", "osm_id": 340520597, "name": "Postpartner 9470", "category": "amenity:post_office", "address": "Hauptstraße 23, 9470 St. Paul im Lavanttal", "street": "Hauptstraße", "housenumber": "23", "postcode": "9470", "place": "St. Paul im Lavanttal", "lat": 46.7006577, "lon": 14.8696236, "tags": {"addr:city": "St. Paul im Lavanttal", "addr:housenumber": "23", "addr:postcode": "9470", "addr:street": "Hauptstraße", "amenity": "post_office", "name": "Postpartner 9470", "operator": "Guetz"}, "content": "Postpartner 9470\nKategorie: amenity:post_office\nAdresse: Hauptstraße 23, 9470 St. Paul im Lavanttal\nOrt: St. Paul im Lavanttal\nPLZ: 9470\nKoordinaten: 46.700658, 14.869624\nTags: amenity=post_office, operator=Guetz", "doc_type": "pois"}
{"source": "OSM", "region": "Kärnten", "osm_type": "node", "osm_id": 1701257504, "name": "Martinerwirth", "category": "amenity:restaurant", "address": "5, 9470 St. Paul im Lavanttal", "street": null, "housenumber": "5", "postcode": "9470", "place": "St. Paul im Lavanttal", "lat": 46.6865958, "lon": 14.8523931, "tags": {"addr:city": "St. Paul im Lavanttal", "addr:housenumber": "5", "addr:place": "St. Martin", "addr:postcode": "9470", "amenity": "restaurant", "name": "Martinerwirth"}, "content": "Martinerwirth\nKategorie: amenity:restaurant\nAdresse: 5, 9470 St. Paul im Lavanttal\nOrt: St. Paul im Lavanttal\nPLZ: 9470\nKoordinaten: 46.686596, 14.852393\nTags: amenity=restaurant", "doc_type": "pois"}
{"source": "OSM", "region": "Kärnten", "osm_type": "node", "osm_id": 1805903991, "name": "Ferienwohnung Flößholzer", "category": "tourism:apartment", "address": "Granitztal-Weißenegg 61, 9470 St. Paul im Lavanttal", "street": "Granitztal-Weißenegg", "housenumber": "61", "postcode": "9470", "place": "St. Paul im Lavanttal", "lat": 46.6838573, "lon": 14.8472327, "tags": {"addr:city": "St. Paul im Lavanttal", "addr:housenumber": "61", "addr:postcode": "9470", "addr:street": "Granitztal-Weißenegg", "name": "Ferienwohnung Flößholzer", "tourism": "apartment"}, "content": "Ferienwohnung Flößholzer\nKategorie: tourism:apartment\nAdresse: Granitztal-Weißenegg 61, 9470 St. Paul im Lavanttal\nOrt: St. Paul im Lavanttal\nPLZ: 9470\nKoordinaten: 46.683857, 14.847233", "doc_type": "pois"}
{"source": "OSM", "region": "Kärnten", "osm_type": "node", "osm_id": 2843966595, "name": "ADEG", "category": "shop:supermarket", "address": "Hauptstraße 41, 9470 St. Paul im Lavanttal", "street": "Hauptstraße", "housenumber": "41", "postcode": "9470", "place": "St. Paul im Lavanttal", "lat": 46.703117, "lon": 14.8683829, "tags": {"addr:city": "St. Paul im Lavanttal", "addr:housenumber": "41", "addr:postcode": "9470", "addr:street": "Hauptstraße", "brand": "ADEG", "name": "ADEG", "shop": "supermarket"}, "content": "ADEG\nKategorie: shop:supermarket\nAdresse: Hauptstraße 41, 9470 St. Paul im Lavanttal\nOrt: St. Paul im Lavanttal\nPLZ: 9470\nKoordinaten: 46.703117, 14.868383\nTags: shop=supermarket, brand=ADEG", "doc_type": "pois"}
{"source": "OSM", "region": "Kärnten", "osm_type": "node", "osm_id": 3760207503, "name": "Sternweiß", "category": "amenity:cafe", "address": "Lobisserplatz 1, 9470 St. Paul im Lavanttal", "street": "Lobisserplatz", "housenumber": "1", "postcode": "9470", "place": "St. Paul im Lavanttal", "lat": 46.7009463, "lon": 14.8690394, "tags": {"addr:city": "St. Paul im Lavanttal", "addr:housenumber": "1", "addr:postcode": "9470", "addr:street": "Lobisserplatz", "amenity": "cafe", "name": "Sternweiß", "shop": "pastry", "website": "https://www.sternweiss.at/"}, "content": "Sternweiß\nKategorie: amenity:cafe\nAdresse: Lobisserplatz 1, 9470 St. Paul im Lavanttal\nOrt: St. Paul im Lavanttal\nPLZ: 9470\nKoordinaten: 46.700946, 14.869039\nTags: amenity=cafe, shop=pastry, website=https://www.sternweiss.at/", "doc_type": "pois"}
{"source": "OSM", "region": "Kärnten", "osm_type": "node", "osm_id": 4497993994, "name": "Unser Lagerhaus, Lagerhaus Tankstelle", "category": "shop:doityourself", "address": "Bahnhofstraße 21, 9470 St. Paul im Lavanttal", "street": "Bahnhofstraße", "housenumber": "21", "postcode": "9470", "place": "St. Paul im Lavanttal", "lat": 46.7069146, "lon": 14.8667251, "tags": {"addr:city": "St. Paul im Lavanttal", "addr:housenumber": "21", "addr:postcode": "9470", "addr:street": "Bahnhofstraße", "name": "Unser Lagerhaus, Lagerhaus Tankstelle", "operator": "Unser Lagerhaus Warenhandelsges. m.b.H.", "shop": "doityourself"}, "content": "Unser Lagerhaus, Lagerhaus Tankstelle\nKategorie: shop:doityourself\nAdresse: Bahnhofstraße 21, 9470 St. Paul im Lavanttal\nOrt: St. Paul im Lavanttal\nPLZ: 9470\nKoordinaten: 46.706915, 14.866725\nTags: shop=doityourself, operator=Unser Lagerhaus Warenhandelsges. m.b.H.", "doc_type": "pois"}
{"source": "OSM", "region": "Kärnten", "osm_type": "node", "osm_id": 4546199491, "name": "Billa", "category": "shop:supermarket", "address": "Bahnhofstraße 4, 9470 St. Paul im Lavanttal", "street": "Bahnhofstraße", "housenumber": "4", "postcode": "9470", "place": "St. Paul im Lavanttal", "lat": 46.7042326, "lon": 14.8690344, "tags": {"addr:city": "St. Paul im Lavanttal", "addr:housenumber": "4", "addr:postcode": "9470", "addr:street": "Bahnhofstraße", "brand": "Billa", "name": "Billa", "shop": "supermarket"}, "content": "Billa\nKategorie: shop:supermarket\nAdresse: Bahnhofstraße 4, 9470 St. Paul im Lavanttal\nOrt: St. Paul im Lavanttal\nPLZ: 9470\nKoordinaten: 46.704233, 14.869034\nTags: shop=supermarket, brand=Billa", "doc_type": "pois"}
{"source": "OSM", "region": "Kärnten", "osm_type": "node", "osm_id": 5135779186, "name": "Polizeiinspektion St. Paul im Lavanttal", "category": "amenity:police", "address": "Hauptstraße 19, 9470 St. Paul im Lavanttal", "street": "Hauptstraße", "housenumber": "19", "postcode": "9470", "place": "St. Paul im Lavanttal", "lat": 46.7001552, "lon": 14.8702432, "tags": {"addr:city": "St. Paul im Lavanttal", "addr:housenumber": "19", "addr:postcode": "9470", "addr:street": "Hauptstraße", "amenity": "police", "name": "Polizeiinspektion St. Paul im Lavanttal", "phone": "+43 59133 2168100"}, "content": "Polizeiinspektion St. Paul im Lavanttal\nKategorie: amenity:police\nAdresse: Hauptstraße 19, 9470 St. Paul im Lavanttal\nOrt: St. Paul im Lavanttal\nPLZ: 9470\nKoordinaten: 46.700155, 14.870243\nTags: amenity=police, phone=+43 59133 2168100", "doc_type": "pois"}
