{"source": "OSM", "region": "Kärnten", "osm_type": "node", "osm_id": 1430152555, "name": "Polizeiinspektion Seeboden am Millstättersee", "category": "amenity:police", "address": "Hauptplatz 9, 9871 Seeboden am Millstätter See", "street": "Hauptplatz", "housenumber": "9", "postcode": "9871", "place": "Seeboden am Millstätter See", "lat": 46.8189056, "lon": 13.5183247, "tags": {"addr:city": "Seeboden am Millstätter See", "addr:housenumber": "9", "addr:postcode": "9871", "addr:street": "Hauptplatz", "amenity": "police", "name": "Polizeiinspektion Seeboden am Millstättersee"}, "content": "Polizeiinspektion Seeboden am Millstättersee\nKategorie: amenity:police\nAdresse: Hauptplatz 9, 9871 Seeboden am Millstätter See\nOrt: Seeboden am Millstätter See\nPLZ: 9871\nKoordinaten: 46.818906, 13.518325\nTags: amenity=police", "doc_type": "addresses"}
{"source": "OSM", "region": "Kärnten", "osm_type": "node", "osm_id": 1858200918, "name": "Min Garten", "category": "amenity:restaurant", "address": "Hauptstraße 104, 9871 Seeboden am Millstätter See", "street": "Hauptstraße", "housenumber": "104", "postcode": "9871", "place": "Seeboden am Millstätter See", "lat": 46.8189744, "lon": 13.520526, "tags": {"addr:city": "Seeboden am Millstätter See", "addr:housenumber": "104", "addr:postcode": "9871", "addr:street": "Hauptstraße", "amenity": "restaurant", "name": "Min Garten"}, "content": "Min Garten\nKategorie: amenity:restaurant\nAdresse: Hauptstraße 104, 9871 Seeboden am Millstätter See\nOrt: Seeboden am Millstätter See\nPLZ: 9871\nKoordinaten: 46.818974, 13.520526\nTags: amenity=restaurant", "doc_type": "addresses"}
{"source": "OSM", "region": "Kärnten", "osm_type": "node", "osm_id": 2163110196, "name": "Ferienwohnung Krista", "category": "tourism:apartment", "address": "Dullhöhe 11, 9871 Seeboden am Millstätter See", "street": "Dullhöhe", "housenumber": "11", "postcode": "9871", "place": "Seeboden am Millstätter See", "lat": 46.823223, "lon": 13.5136798, "tags": {"addr:city": "Seeboden am Millstätter See", "addr:housenumber": "11", "addr:postcode": "9871", "addr:street": "Dullhöhe", "name": "Ferienwohnung Krista", "phone": "+43 4762 81587", "tourism": "apartment", "website": "https://www.krista-ferien.at/"}, "content": "Ferienwohnung Krista\nKategorie: tourism:apartment\nAdresse: Dullhöhe 11, 9871 Seeboden am Millstätter See\nOrt: Seeboden am Millstätter See\nPLZ: 9871\nKoordinaten: 46.823223, 13.513680\nTags: phone=+43 4762 81587, website=https://www.krista-ferien.at/", "doc_type": "addresses"}
{"source": "OSM", "region": "Kärnten", "osm_type": "node", "osm_id": 2403615840, "name": "Pension Kärnten", "category": "tourism:hotel", "address": "Treffling 34, 9871 Seeboden am Millstätter See", "street": "Treffling", "housenumber": "34", "postcode": "9871", "place": "Seeboden am Millstätter See", "lat": 46.8387084, "lon": 13.5242395, "tags": {"addr:city": "Seeboden am Millstätter See", "addr:housenumber": "34", "addr:postcode": "9871", "addr:street": "Treffling", "name": "Pension Kärnten", "phone": "+436643456175", "tourism": "hotel", "website": "https://www.bbkaernten.at/"}, "content": "Pension Kärnten\nKategorie: tourism:hotel\nAdresse: Treffling 34, 9871 Seeboden am Millstätter See\nOrt: Seeboden am Millstätter See\nPLZ: 9871\nKoordinaten: 46.838708, 13.524240\nTags: phone=+436643456175, website=https://www.bbkaernten.at/", "doc_type": "addresses"}
{"source": "OSM", "region": "Kärnten", "osm_type": "node", "osm_id": 4773693526, "name": null, "category": null, "address": "Hauptplatz 6, 9871 Seeboden am Millstätter See", "street": "Hauptplatz", "housenumber": "6", "postcode": "9871", "place": "Seeboden am Millstätter See", "lat": 46.8191523, "lon": 13.518, "tags": {"addr:city": "Seeboden am Millstätter See", "addr:housenumber": "6", "addr:postcode": "9871", "addr:street": "Hauptplatz"}, "content": "Adresse: Hauptplatz 6, 9871 Seeboden am Millstätter See\nOrt: Seeboden am Millstätter See\nPLZ: 9871\nKoordinaten: 46.819152, 13.518000", "doc_type": "addresses"}
{"source": "OSM", "region": "Kärnten", "osm_type": "node", "osm_id": 4924969933, "name": null, "category": null, "address": "Hauptplatz 7, 9871 Seeboden am Millstätter See", "street": "Hauptplatz", "housenumber": "7", "postcode": "9871", "place": "Seeboden am Millstätter See", "lat": 46.8189556, "lon": 13.5180748, "tags": {"addr:city": "Seeboden am Millstätter See", "addr:housenumber": "7", "addr:postcode": "9871", "addr:street": "Hauptplatz"}, "content": "Adresse: Hauptplatz 7, 9871 Seeboden am Millstätter See\nOrt: Seeboden am Millstätter See\nPLZ: 9871\nKoordinaten: 46.818956, 13.518075", "doc_type": "addresses"}
{"source": "OSM", "region": "Kärnten", "osm_type": "node", "osm_id": 5618851222, "name": null, "category": null, "address": "Fichtenweg 39, 9871 Seeboden am Millstätter See", "street": "Fichtenweg", "housenumber": "39", "postcode": "9871", "place": "Seeboden am Millstätter See", "lat": 46.823683, "lon": 13.5264578, "tags": {"addr:city": "Seeboden am Millstätter See", "addr:housenumber": "39", "addr:postcode": "9871", "addr:street": "Fichtenweg"}, "content": "Adresse: Fichtenweg 39, 9871 Seeboden am Millstätter See\nOrt: Seeboden am Millstätter See\nPLZ: 9871\nKoordinaten: 46.823683, 13.526458", "doc_type": "addresses"}
{"source": "OSM", "region": "Kärnten", "osm_type": "node", "osm_id": 5618851285, "name": null, "category": null, "address": "Fichtenweg 28, 9871 Seeboden am Millstätter See", "street": "Fichtenweg", "housenumber": "28", "postcode": "9871", "place": "Seeboden am Millstätter See", "lat": 46.8229837, "lon": 13.5270694, "tags": {"addr:city": "Seeboden am Millstätter See", "addr:housenumber": "28", "addr:postcode": "9871", "addr:street": "Fichtenweg"}, "content": "Adresse: Fichtenweg 28, 9871 Seeboden am Millstätter See\nOrt: Seeboden am Millstätter See\nPLZ: 9871\nKoordinaten: 46.822984, 13.527069", "doc_type": "addresses"}
{"source": "OSM", "region": "Kärnten", "osm_type": "node", "osm_id": 5618851286, "name": null, "category": null, "address": "Fichtenweg 26, 9871 Seeboden am Millstätter See", "street": "Fichtenweg", "housenumber": "26", "postcode": "9871", "place": "Seeboden am Millstätter See", "lat": 46.8230259, "lon": 13.5269111, "tags": {"addr:city": "Seeboden am Millstätter See", "addr:housenumber": "26", "addr:postcode": "9871", "addr:street": "Fichtenweg"}, "content": "Adresse: Fichtenweg 26, 9871 Seeboden am Millstätter See\nOrt: Seeboden am Millstätter See\nPLZ: 9871\nKoordinaten: 46.823026, 13.526911", "doc_type": "addresses"}
{"source": "OSM", "region": "Kärnten", "osm_type": "node", "osm_id": 5618851302, "name": null, "category": null, "address": "Techendorfer Straße 28, 9871 Seeboden am Millstätter See", "street": "Techendorfer Straße", "housenumber": "28", "postcode": "9871", "place": "Seeboden am Millstätter See", "lat": 46.8203188, "lon": 13.5262164, "tags": {"addr:city": "Seeboden am Millstätter See", "addr:housenumber": "28", "addr:postcode": "9871", "addr:street": "Techendorfer Straße"}, "content": "Adresse: Techendorfer Straße 28, 9871 Seeboden am Millstätter See\nOrt: Seeboden am Millstätter See\nPLZ: 9871\nKoordinaten: 46.820319, 13.526216", "doc_type": "addresses"}
{"source": "OSM", "region": "Kärnten", "osm_type": "node", "osm_id": 5618851304, "name": null, "category": null, "address": "Techendorfer Straße 26, 9871 Seeboden am Millstätter See", "street": "Techendorfer Straße", "housenumber": "26", "postcode": "9871", "place": "Seeboden am Millstätter See", "lat": 46.8204032, "lon": 13.5261011, "tags": {"addr:city": "Seeboden am Millstätter See", "addr:housenumber": "26", "addr:postcode": "9871", "addr:street": "Techendorfer Straße"}, "content": "Adresse: Techendorfer Straße 26, 9871 Seeboden am Millstätter See\nOrt: Seeboden am Millstätter See\nPLZ: 9871\nKoordinaten: 46.820403, 13.526101", "doc_type": "addresses"}
{"source": "OSM", "region": "Kärnten", "osm_type": "node", "osm_id": 5618851344, "name": "Hotel Klein", "category": "tourism:hotel", "address": "Goldeckweg 17, 9871 Seeboden am Millstätter See", "street": "Goldeckweg", "housenumber": "17", "postcode": "9871", "place": "Seeboden am Millstätter See", "lat": 46.8198175, "lon": 13.5237875, "tags": {"addr:city": "Seeboden am Millstätter See", "addr:housenumber": "17", "addr:postcode": "9871", "addr:street": "Goldeckweg", "name": "Hotel Klein", "tourism": "hotel"}, "content": "Hotel Klein\nKategorie: tourism:hotel\nAdresse: Goldeckweg 17, 9871 Seeboden am Millstätter See\nOrt: Seeboden am Millstätter See\nPLZ: 9871\nKoordinaten: 46.819817, 13.523787", "doc_type": "addresses"}
{"source": "OSM", "region": "Kärnten", "osm_type": "node", "osm_id": 5618857679, "name": null, "category": null, "address": "Margeritenweg 21, 9871 Seeboden am Millstätter See", "street": "Margeritenweg", "housenumber": "21", "postcode": "9871", "place": "Seeboden am Millstätter See", "lat": 46.8242024, "lon": 13.50912, "tags": {"addr:city": "Seeboden am Millstätter See", "addr:housenumber": "21", "addr:postcode": "9871", "addr:street": "Margeritenweg"}, "content": "Adresse: Margeritenweg 21, 9871 Seeboden am Millstätter See\nOrt: Seeboden am Millstätter See\nPLZ: 9871\nKoordinaten: 46.824202, 13.509120", "doc_type": "addresses"}
{"source": "OSM", "region": "Kärnten", "osm_type": "node", "osm_id": 5618857680, "name": null, "category": null, "address": "Margeritenweg 23, 9871 Seeboden am Millstätter See", "street": "Margeritenweg", "housenumber": "23", "postcode": "9871", "place": "Seeboden am Millstätter See", "lat": 46.824362, "lon": 13.509281, "tags": {"addr:city": "Seeboden am Millstätter See", "addr:housenumber": "23", "addr:postcode": "9871", "addr:street": "Margeritenweg"}, "content": "Adresse: Margeritenweg 23, 9871 Seeboden am Millstätter See\nOrt: Seeboden am Millstätter See\nPLZ: 9871\nKoordinaten: 46.824362, 13.509281", "doc_type": "addresses"}
{"source": "OSM", "region": "Kärnten", "osm_type": "node", "osm_id": 5618857681, "name": null, "category": null, "address": "Dullhöhenweg 45, 9871 Seeboden am Millstätter See", "street": "Dullhöhenweg", "housenumber": "45", "postcode": "9871", "place": "Seeboden am Millstätter See", "lat": 46.8249255, "lon": 13.509517, "tags": {"addr:city": "Seeboden am Millstätter See", "addr:housenumber": "45", "addr:postcode": "9871", "addr:street": "Dullhöhenweg"}, "content": "Adresse: Dullhöhenweg 45, 9871 Seeboden am Millstätter See\nOrt: Seeboden am Millstätter See\nPLZ: 9871\nKoordinaten: 46.824925, 13.509517", "doc_type": "addresses"}
{"source": "OSM", "region": "Kärnten", "osm_type": "node", "osm_id": 5618857682, "name": null, "category": null, "address": "Dobrastraße 46, 9871 Seeboden am Millstätter See", "street": "Dobrastraße", "housenumber": "46", "postcode": "9871", "place": "Seeboden am Millstätter See", "lat": 46.8249732, "lon": 13.5092112, "tags": {"addr:city": "Seeboden am Millstätter See", "addr:housenumber": "46", "addr:postcode": "9871", "addr:street": "Dobrastraße"}, "content": "Adresse: Dobrastraße 46, 9871 Seeboden am Millstätter See\nOrt: Seeboden am Millstätter See\nPLZ: 9871\nKoordinaten: 46.824973, 13.509211", "doc_type": "addresses"}
{"source": "OSM", "region": "Kärnten", "osm_type": "node", "osm_id": 5618857683, "name": null, "category": null, "address": "Dobrastraße 44, 9871 Seeboden am Millstätter See", "street": "Dobrastraße", "housenumber": "44", "postcode": "9871", "place": "Seeboden am Millstätter See", "lat": 46.8250392, "lon": 13.508935, "tags": {"addr:city": "Seeboden am Millstätter See", "addr:housenumber": "44", "addr:postcode": "9871", "addr:street": "Dobrastraße"}, "content": "Adresse: Dobrastraße 44, 9871 Seeboden am Millstätter See\nOrt: Seeboden am Millstätter See\nPLZ: 9871\nKoordinaten: 46.825039, 13.508935", "doc_type": "addresses"}
{"source": "OSM", "region": "Kärnten", "osm_type": "node", "osm_id": 5618889424, "name": null, "category": null, "address": "Seebacher Straße 6, 9871 Seeboden am Millstätter See", "street": "Seebacher Straße", "housenumber": "6", "postcode": "9871", "place": "Seeboden am Millstätter See", "lat": 46.8177051, "lon": 13.4988552, "tags": {"addr:city": "Seeboden am Millstätter See", "addr:housenumber": "6", "addr:postcode": "9871", "addr:street": "Seebacher Straße"}, "content": "Adresse: Seebacher Straße 6, 9871 Seeboden am Millstätter See\nOrt: Seeboden am Millstätter See\nPLZ: 9871\nKoordinaten: 46.817705, 13.498855", "doc_type": "addresses"}
{"source": "OSM", "region": "Kärnten", "osm_type": "node", "osm_id": 5618889425, "name": null, "category": null, "address": "Seutterweg 12, 9871 Seeboden am Millstätter See", "street": "Seutterweg", "housenumber": "12", "postcode": "9871", "place": "Seeboden am Millstätter See", "lat": 46.8183439, "lon": 13.499212, "tags": {"addr:city": "Seeboden am Millstätter See", "addr:housenumber": "12", "addr:postcode": "9871", "addr:street": "Seutterweg"}, "content": "Adresse: Seutterweg 12, 9871 Seeboden am Millstätter See\nOrt: Seeboden am Millstätter See\nPLZ: 9871\nKoordinaten: 46.818344, 13.499212", "doc_type": "addresses"}
{"source": "OSM", "region": "Kärnten", "osm_type": "node", "osm_id": 5618889426, "name": null, "category": null, "address": "Seutterweg 14, 9871 Seeboden am Millstätter See", "street": "Seutterweg", "housenumber": "14", "postcode": "9871", "place": "Seeboden am Millstätter See", "lat": 46.8181254, "lon": 13.4992093, "tags": {"addr:city": "Seeboden am Millstätter See", "addr:housenumber": "14", "addr:postcode": "9871", "addr:street": "Seutterweg"}, "content": "Adresse: Seutterweg 14, 9871 Seeboden am Millstätter See\nOrt: Seeboden am Millstätter See\nPLZ: 9871\nKoordinaten: 46.818125, 13.499209", "doc_type": "addresses"}
{"source": "OSM", "region": "Kärnten", "osm_type": "node", "osm_id": 5618899256, "name": null, "category": null, "address": "20, 9871 Seeboden am Millstätter See", "street": null, "housenumber": "20", "postcode": "9871", "place": "Seeboden am Millstätter See", "lat": 46.837934, "lon": 13.5119525, "tags": {"addr:city": "Seeboden am Millstätter See", "addr:housenumber": "20", "addr:place": "Kolm", "addr:postcode": "9871"}, "content": "Adresse: 20, 9871 Seeboden am Millstätter See\nOrt: Seeboden am Millstätter See\nPLZ: 9871\nKoordinaten: 46.837934, 13.511952", "doc_type": "addresses"}
{"source": "OSM", "region": "Kärnten", "osm_type": "node", "osm_id": 5618899258, "name": null, "category": null, "address": "12, 9871 Seeboden am Millstätter See", "street": null, "housenumber": "12", "postcode": "9871", "place": "Seeboden am Millstätter See", "lat": 46.8378294, "lon": 13.5120732, "tags": {"addr:city": "Seeboden am Millstätter See", "addr:housenumber": "12", "addr:place": "Kolm", "addr:postcode": "9871"}, "content": "Adresse: 12, 9871 Seeboden am Millstätter See\nOrt: Seeboden am Millstätter See\nPLZ: 9871\nKoordinaten: 46.837829, 13.512073", "doc_type": "addresses"}
{"source": "OSM", "region": "Kärnten", "osm_type": "node", "osm_id": 5618899299, "name": null, "category": null, "address": "17, 9871 Seeboden am Millstätter See", "street": null, "housenumber": "17", "postcode": "9871", "place": "Seeboden am Millstätter See", "lat": 46.8332238, "lon": 13.5155949, "tags": {"addr:city": "Seeboden am Millstätter See", "addr:housenumber": "17", "addr:place": "Unterhaus", "addr:postcode": "9871"}, "content": "Adresse: 17, 9871 Seeboden am Millstätter See\nOrt: Seeboden am Millstätter See\nPLZ: 9871\nKoordinaten: 46.833224, 13.515595", "doc_type": "addresses"}
{"source": "OSM", "region": "Kärnten", "osm_type": "node", "osm_id": 5618916919, "name": null, "category": null, "address": "Auf der Ertlhöhe 12, 9871 Seeboden am Millstätter See", "street": "Auf der Ertlhöhe", "housenumber": "12", "postcode": "9871", "place": "Seeboden am Millstätter See", "lat": 46.8238243, "lon": 13.5202298, "tags": {"addr:city": "Seeboden am Millstätter See", "addr:housenumber": "12", "addr:postcode": "9871", "addr:street": "Auf der Ertlhöhe"}, "content": "Adresse: Auf der Ertlhöhe 12, 9871 Seeboden am Millstätter See\nOrt: Seeboden am Millstätter See\nPLZ: 9871\nKoordinaten: 46.823824, 13.520230", "doc_type": "addresses"}
{"source": "OSM", "region": "Kärnten", "osm_type": "node", "osm_id": 5618916920, "name": null, "category": null, "address": "Auf der Ertlhöhe 10, 9871 Seeboden am Millstätter See", "street": "Auf der Ertlhöhe", "housenumber": "10", "postcode": "9871", "place": "Seeboden am Millstätter See", "lat": 46.8238298, "lon": 13.5200849, "tags": {"addr:city": "Seeboden am Millstätter See", "addr:housenumber": "10", "addr:postcode": "9871", "addr:street": "Auf der Ertlhöhe"}, "content": "Adresse: Auf der Ertlhöhe 10, 9871 Seeboden am Millstätter See\nOrt: Seeboden am Millstätter See\nPLZ: 9871\nKoordinaten: 46.823830, 13.520085", "doc_type": "addresses"}
{"source": "OSM", "region": "Kärnten", "osm_type": "node", "osm_id": 5618918462, "name": "Spar", "category": "shop:supermarket", "address": "Hauptstraße 28, 9871 Seeboden am Millstätter See", "street": "Hauptstraße", "housenumber": "28", "postcode": "9871", "place": "Seeboden am Millstätter See", "lat": 46.8163413, "lon": 13.5094231, "tags": {"addr:city": "Seeboden am Millstätter See", "addr:housenumber": "28", "addr:postcode": "9871", "addr:street": "Hauptstraße", "brand": "Spar", "name": "Spar", "shop": "supermarket"}, "content": "Spar\nKategorie: shop:supermarket\nAdresse: Hauptstraße 28, 9871 Seeboden am Millstätter See\nOrt: Seeboden am Millstätter See\nPLZ: 9871\nKoordinaten: 46.816341, 13.509423\nTags: shop=supermarket, brand=Spar", "doc_type": "addresses"}
{"source": "OSM", "region": "Kärnten", "osm_type": "node", "osm_id": 5618918475, "name": "ADEG", "category": "shop:supermarket", "address": "Hauptstraße 77, 9871 Seeboden am Millstätter See", "street": "Hauptstraße", "housenumber": "77", "postcode": "9871", "place": "Seeboden am Millstätter See", "lat": 46.8184595, "lon": 13.5169467, "tags": {"addr:city": "Seeboden am Millstätter See", "addr:housenumber": "77", "addr:postcode": "9871", "addr:street": "Hauptstraße", "brand": "ADEG", "name": "ADEG", "shop": "supermarket", "website": "https://www.adeg.at/haller"}, "content": "ADEG\nKategorie: shop:supermarket\nAdresse: Hauptstraße 77, 9871 Seeboden am Millstätter See\nOrt: Seeboden am Millstätter See\nPLZ: 9871\nKoordinaten: 46.818460, 13.516947\nTags: shop=supermarket, brand=ADEG, website=https://www.adeg.at/haller", "doc_type": "addresses"}
{"source": "OSM", "region": "Kärnten", "osm_type": "node", "osm_id": 5618918479, "name": null, "category": null, "address": "Hauptplatz 3, 9871 Seeboden am Millstätter See", "street": "Hauptplatz", "housenumber": "3", "postcode": "9871", "place": "Seeboden am Millstätter See", "lat": 46.8193405, "lon": 13.5188591, "tags": {"addr:city": "Seeboden am Millstätter See", "addr:housenumber": "3", "addr:postcode": "9871", "addr:street": "Hauptplatz"}, "content": "Adresse: Hauptplatz 3, 9871 Seeboden am Millstätter See\nOrt: Seeboden am Millstätter See\nPLZ: 9871\nKoordinaten: 46.819341, 13.518859", "doc_type": "addresses"}
{"source": "OSM", "region": "Kärnten", "osm_type": "node", "osm_id": 5618918480, "name": null, "category": null, "address": "Hauptplatz 4, 9871 Seeboden am Millstätter See", "street": "Hauptplatz", "housenumber": "4", "postcode": "9871", "place": "Seeboden am Millstätter See", "lat": 46.8193167, "lon": 13.5186687, "tags": {"addr:city": "Seeboden am Millstätter See", "addr:housenumber": "4", "addr:postcode": "9871", "addr:street": "Hauptplatz"}, "content": "Adresse: Hauptplatz 4, 9871 Seeboden am Millstätter See\nOrt: Seeboden am Millstätter See\nPLZ: 9871\nKoordinaten: 46.819317, 13.518669", "doc_type": "addresses"}
{"source": "OSM", "region": "Kärnten", "osm_type": "node", "osm_id": 5618918483, "name": null, "category": null, "address": "Prof.-Otto-Eder-Platz 1, 9871 Seeboden am Millstätter See", "street": "Prof.-Otto-Eder-Platz", "housenumber": "1", "postcode": "9871", "place": "Seeboden am Millstätter See", "lat": 46.8193387, "lon": 13.5195243, "tags": {"addr:city": "Seeboden am Millstätter See", "addr:housenumber": "1", "addr:postcode": "9871", "addr:street": "Prof.-Otto-Eder-Platz"}, "content": "Adresse: Prof.-Otto-Eder-Platz 1, 9871 Seeboden am Millstätter See\nOrt: Seeboden am Millstätter See\nPLZ: 9871\nKoordinaten: 46.819339, 13.519524", "doc_type": "addresses"}
{"source": "OSM", "region": "Kärnten", "osm_type": "node", "osm_id": 5618918504, "name": null, "category": null, "address": "Poststeig 9, 9871 Seeboden am Millstätter See", "street": "Poststeig", "housenumber": "9", "postcode": "9871", "place": "Seeboden am Millstätter See", "lat": 46.8187642, "lon": 13.5151014, "tags": {"addr:city": "Seeboden am Millstätter See", "addr:housenumber": "9", "addr:postcode": "9871", "addr:street": "Poststeig"}, "content": "Adresse: Poststeig 9, 9871 Seeboden am Millstätter See\nOrt: Seeboden am Millstätter See\nPLZ: 9871\nKoordinaten: 46.818764, 13.515101", "doc_type": "addresses"}
{"source": "OSM", "region": "Kärnten", "osm_type": "node", "osm_id": 5618918505, "name": null, "category": null, "address": "Poststeig 7, 9871 Seeboden am Millstätter See", "street": "Poststeig", "housenumber": "7", "postcode": "9871", "place": "Seeboden am Millstätter See", "lat": 46.8186779, "lon": 13.5152274, "tags": {"addr:city": "Seeboden am Millstätter See", "addr:housenumber": "7", "addr:postcode": "9871", "addr:street": "Poststeig"}, "content": "Adresse: Poststeig 7, 9871 Seeboden am Millstätter See\nOrt: Seeboden am Millstätter See\nPLZ: 9871\nKoordinaten: 46.818678, 13.515227", "doc_type": "addresses"}
{"source": "OSM", "region": "Kärnten", "osm_type": "node", "osm_id": 5618918508, "name": null, "category": null, "address": "Trefflinger Straße 11, 9871 Seeboden am Millstätter See", "street": "Trefflinger Straße", "housenumber": "11", "postcode": "9871", "place": "Seeboden am Millstätter See", "lat": 46.8188064, "lon": 13.5158658, "tags": {"addr:city": "Seeboden am Millstätter See", "addr:housenumber": "11", "addr:postcode": "9871", "addr:street": "Trefflinger Straße"}, "content": "Adresse: Trefflinger Straße 11, 9871 Seeboden am Millstätter See\nOrt: Seeboden am Millstätter See\nPLZ: 9871\nKoordinaten: 46.818806, 13.515866", "doc_type": "addresses"}
{"source": "OSM", "region": "Kärnten", "osm_type": "node", "osm_id": 5618918509, "name": null, "category": null, "address": "Trefflinger Straße 9, 9871 Seeboden am Millstätter See", "street": "Trefflinger Straße", "housenumber": "9", "postcode": "9871", "place": "Seeboden am Millstätter See", "lat": 46.8187477, "lon": 13.5160187, "tags": {"addr:city": "Seeboden am Millstätter See", "addr:housenumber": "9", "addr:postcode": "9871", "addr:street": "Trefflinger Straße"}, "content": "Adresse: Trefflinger Straße 9, 9871 Seeboden am Millstätter See\nOrt: Seeboden am Millstätter See\nPLZ: 9871\nKoordinaten: 46.818748, 13.516019", "doc_type": "addresses"}
{"source": "OSM", "region": "Kärnten", "osm_type": "node", "osm_id": 5618918512, "name": null, "category": null, "address": "Trefflinger Straße 5, 9871 Seeboden am Millstätter See", "street": "Trefflinger Straße", "housenumber": "5", "postcode": "9871", "place": "Seeboden am Millstätter See", "lat": 46.8183145, "lon": 13.5163915, "tags": {"addr:city": "Seeboden am Millstätter See", "addr:housenumber": "5", "addr:postcode": "9871", "addr:street": "Trefflinger Straße"}, "content": "Adresse: Trefflinger Straße 5, 9871 Seeboden am Millstätter See\nOrt: Seeboden am Millstätter See\nPLZ: 9871\nKoordinaten: 46.818314, 13.516391", "doc_type": "addresses"}
{"source": "OSM", "region": "Kärnten", "osm_type": "node", "osm_id": 5618918514, "name": null, "category": null, "address": "Hauptstraße 75, 9871 Seeboden am Millstätter See", "street": "Hauptstraße", "housenumber": "75", "postcode": "9871", "place": "Seeboden am Millstätter See", "lat": 46.818197, "lon": 13.5164827, "tags": {"addr:city": "Seeboden am Millstätter See", "addr:housenumber": "75", "addr:postcode": "9871", "addr:street": "Hauptstraße"}, "content": "Adresse: Hauptstraße 75, 9871 Seeboden am Millstätter See\nOrt: Seeboden am Millstätter See\nPLZ: 9871\nKoordinaten: 46.818197, 13.516483", "doc_type": "addresses"}
{"source": "OSM", "region": "Kärnten", "osm_type": "node", "osm_id": 5618918515, "name": null, "category": null, "address": "Hauptstraße 73, 9871 Seeboden am Millstätter See", "street": "Hauptstraße", "housenumber": "73", "postcode": "9871", "place": "Seeboden am Millstätter See", "lat": 46.8181328, "lon": 13.5163727, "tags": {"addr:city": "Seeboden am Millstätter See", "addr:housenumber": "73", "addr:postcode": "9871", "addr:street": "Hauptstraße"}, "content": "Adresse: Hauptstraße 73, 9871 Seeboden am Millstätter See\nOrt: Seeboden am Millstätter See\nPLZ: 9871\nKoordinaten: 46.818133, 13.516373", "doc_type": "addresses"}
{"source": "OSM", "region": "Kärnten", "osm_type": "node", "osm_id": 5618918516, "name": null, "category": null, "address": "Hauptstraße 71, 9871 Seeboden am Millstätter See", "street": "Hauptstraße", "housenumber": "71", "postcode": "9871", "place": "Seeboden am Millstätter See", "lat": 46.8180832, "lon": 13.5162145, "tags": {"addr:city": "Seeboden am Millstätter See", "addr:housenumber": "71", "addr:postcode": "9871", "addr:street": "Hauptstraße"}, "content": "Adresse: Hauptstraße 71, 9871 Seeboden am Millstätter See\nOrt: Seeboden am Millstätter See\nPLZ: 9871\nKoordinaten: 46.818083, 13.516215", "doc_type": "addresses"}
{"source": "OSM", "region": "Kärnten", "osm_type": "node", "osm_id": 5622068223, "name": null, "category": null, "address": "14, 9871 Seeboden am Millstätter See", "street": null, "housenumber": "14", "postcode": "9871", "place": "Seeboden am Millstätter See", "lat": 46.8590241, "lon": 13.5137837, "tags": {"addr:city": "Seeboden am Millstätter See", "addr:housenumber": "14", "addr:place": "Trasischk", "addr:postcode": "9871"}, "content": "Adresse: 14, 9871 Seeboden am Millstätter See\nOrt: Seeboden am Millstätter See\nPLZ: 9871\nKoordinaten: 46.859024, 13.513784", "doc_type": "addresses"}
{"source": "OSM", "region": "Kärnten", "osm_type": "node", "osm_id": 5622068224, "name": null, "category": null, "address": "5, 9871 Seeboden am Millstätter See", "street": null, "housenumber": "5", "postcode": "9871", "place": "Seeboden am Millstätter See", "lat": 46.859092, "lon": 13.5139547, "tags": {"addr:city": "Seeboden am Millstätter See", "addr:housenumber": "5", "addr:place": "Trasischk", "addr:postcode": "9871"}, "content": "Adresse: 5, 9871 Seeboden am Millstätter See\nOrt: Seeboden am Millstätter See\nPLZ: 9871\nKoordinaten: 46.859092, 13.513955", "doc_type": "addresses"}
{"source": "OSM", "region": "Kärnten", "osm_type": "node", "osm_id": 5622112733, "name": null, "category": null, "address": "Bootsweg 16, 9871 Seeboden am Millstätter See", "street": "Bootsweg", "housenumber": "16", "postcode": "9871", "place": "Seeboden am Millstätter See", "lat": 46.8164184, "lon": 13.525965, "tags": {"addr:city": "Seeboden am Millstätter See", "addr:housenumber": "16", "addr:postcode": "9871", "addr:street": "Bootsweg"}, "content": "Adresse: Bootsweg 16, 9871 Seeboden am Millstätter See\nOrt: Seeboden am Millstätter See\nPLZ: 9871\nKoordinaten: 46.816418, 13.525965", "doc_type": "addresses"}
{"source": "OSM", "region": "Kärnten", "osm_type": "node", "osm_id": 5622112741, "name": null, "category": null, "address": "49, 9872 Seeboden am Millstätter See", "street": null, "housenumber": "49", "postcode": "9872", "place": "Seeboden am Millstätter See", "lat": 46.8158347, "lon": 13.5510403, "tags": {"addr:city": "Seeboden am Millstätter See", "addr:housenumber": "49", "addr:place": "Tangern", "addr:postcode": "9872"}, "content": "Adresse: 49, 9872 Seeboden am Millstätter See\nOrt: Seeboden am Millstätter See\nPLZ: 9872\nKoordinaten: 46.815835, 13.551040", "doc_type": "addresses"}
{"source": "OSM", "region": "Kärnten", "osm_type": "node", "osm_id": 5622136448, "name": null, "category": null, "address": "13, 9871 Seeboden am Millstätter See", "street": null, "housenumber": "13", "postcode": "9871", "place": "Seeboden am Millstätter See", "lat": 46.8269148, "lon": 13.5322219, "tags": {"addr:city": "Seeboden am Millstätter See", "addr:housenumber": "13", "addr:place": "Liedweg", "addr:postcode": "9871"}, "content": "Adresse: 13, 9871 Seeboden am Millstätter See\nOrt: Seeboden am Millstätter See\nPLZ: 9871\nKoordinaten: 46.826915, 13.532222", "doc_type": "addresses"}
{"source": "OSM", "region": "Kärnten", "osm_type": "node", "osm_id": 5622140131, "name": null, "category": null, "address": "Schluchtweg 33, 9871 Seeboden am Millstätter See", "street": "Schluchtweg", "housenumber": "33", "postcode": "9871", "place": "Seeboden am Millstätter See", "lat": 46.8182172, "lon": 13.5300118, "tags": {"addr:city": "Seeboden am Millstätter See", "addr:housenumber": "33", "addr:postcode": "9871", "addr:street": "Schluchtweg"}, "content": "Adresse: Schluchtweg 33, 9871 Seeboden am Millstätter See\nOrt: Seeboden am Millstätter See\nPLZ: 9871\nKoordinaten: 46.818217, 13.530012", "doc_type": "addresses"}
{"source": "OSM", "region": "Kärnten", "osm_type": "node", "osm_id": 5622140132, "name": null, "category": null, "address": "Schluchtweg 31, 9871 Seeboden am Millstätter See", "street": "Schluchtweg", "housenumber": "31", "postcode": "9871", "place": "Seeboden am Millstätter See", "lat": 46.8181144, "lon": 13.5298508, "tags": {"addr:city": "Seeboden am Millstätter See", "addr:housenumber": "31", "addr:postcode": "9871", "addr:street": "Schluchtweg"}, "content": "Adresse: Schluchtweg 31, 9871 Seeboden am Millstätter See\nOrt: Seeboden am Millstätter See\nPLZ: 9871\nKoordinaten: 46.818114, 13.529851", "doc_type": "addresses"}
{"source": "OSM", "region": "Kärnten", "osm_type": "node", "osm_id": 1430152555, "name": "Polizeiinspektion Seeboden am Millstättersee", "category": "amenity:police", "address": "Hauptplatz 9, 9871 Seeboden am Millstätter See", "street": "Hauptplatz", "housenumber": "9", "postcode": "9871", "place": "Seeboden am Millstätter See", "lat": 46.8189056, "lon": 13.5183247, "tags": {"addr:city": "Seeboden am Millstätter See", "addr:housenumber": "9", "addr:postcode": "9871", "addr:street": "Hauptplatz", "amenity": "police", "name": "Polizeiinspektion Seeboden am Millstättersee"}, "content": "Polizeiinspektion Seeboden am Millstättersee\nKategorie: amenity:police\nAdresse: Hauptplatz 9, 9871 Seeboden am Millstätter See\nOrt: Seeboden am Millstätter See\nPLZ: 9871\nKoordinaten: 46.818906, 13.518325\nTags: amenity=police", "doc_type": "pois"}
{"source": "OSM", "region": "Kärnten", "osm_type": "node", "osm_id": 1858200918, "name": "Min Garten", "category": "amenity:restaurant", "address": "Hauptstraße 104, 9871 Seeboden am Millstätter See", "street": "Hauptstraße", "housenumber": "104", "postcode": "9871", "place": "Seeboden am Millstätter See", "lat": 46.8189744, "lon": 13.520526, "tags": {"addr:city": "Seeboden am Millstätter See", "addr:housenumber": "104", "addr:postcode": "9871", "addr:street": "Hauptstraße", "amenity": "restaurant", "name": "Min Garten"}, "content": "Min Garten\nKategorie: amenity:restaurant\nAdresse: Hauptstraße 104, 9871 Seeboden am Millstätter See\nOrt: Seeboden am Millstätter See\nPLZ: 9871\nKoordinaten: 46.818974, 13.520526\nTags: amenity=restaurant", "doc_type": "pois"}
{"source": "OSM", "region": "Kärnten", "osm_type": "node", "osm_id": 2163110196, "name": "Ferienwohnung Krista", "category": "tourism:apartment", "address": "Dullhöhe 11, 9871 Seeboden am Millstätter See", "street": "Dullhöhe", "housenumber": "11", "postcode": "9871", "place": "Seeboden am Millstätter See", "lat": 46.823223, "lon": 13.5136798, "tags": {"addr:city": "Seeboden am Millstätter See", "addr:housenumber": "11", "addr:postcode": "9871", "addr:street": "Dullhöhe", "name": "Ferienwohnung Krista", "phone": "+43 4762 81587", "tourism": "apartment", "website": "https://www.krista-ferien.at/"}, "content": "Ferienwohnung Krista\nKategorie: tourism:apartment\nAdresse: Dullhöhe 11, 9871 Seeboden am Millstätter See\nOrt: Seeboden am Millstätter See\nPLZ: 9871\nKoordinaten: 46.823223, 13.513680\nTags: phone=+43 4762 81587, website=https://www.krista-ferien.at/", "doc_type": "pois"}
{"source": "OSM", "region": "Kärnten", "osm_type": "node", "osm_id": 2403615840, "name": "Pension Kärnten", "category": "tourism:hotel", "address": "Treffling 34, 9871 Seeboden am Millstätter See", "street": "Treffling", "housenumber": "34", "postcode": "9871", "place": "Seeboden am Millstätter See", "lat": 46.8387084, "lon": 13.5242395, "tags": {"addr:city": "Seeboden am Millstätter See", "addr:housenumber": "34", "addr:postcode": "9871", "addr:street": "Treffling", "name": "Pension Kärnten", "phone": "+436643456175", "tourism": "hotel", "website": "https://www.bbkaernten.at/"}, "content": "Pension Kärnten\nKategorie: tourism:hotel\nAdresse: Treffling 34, 9871 Seeboden am Millstätter See\nOrt: Seeboden am Millstätter See\nPLZ: 9871\nKoordinaten: 46.838708, 13.524240\nTags: phone=+436643456175, website=https://www.bbkaernten.at/", "doc_type": "pois"}
{"source": "OSM", "region": "Kärnten", "osm_type": "node", "osm_id": 5618851344, "name": "Hotel Klein", "category": "tourism:hotel", "address": "Goldeckweg 17, 9871 Seeboden am Millstätter See", "street": "Goldeckweg", "housenumber": "17", "postcode": "9871", "place": "Seeboden am Millstätter See", "lat": 46.8198175, "lon": 13.5237875, "tags": {"addr:city": "Seeboden am Millstätter See", "addr:housenumber": "17", "addr:postcode": "9871", "addr:street": "Goldeckweg", "name": "Hotel Klein", "tourism": "hotel"}, "content": "Hotel Klein\nKategorie: tourism:hotel\nAdresse: Goldeckweg 17, 9871 Seeboden am Millstätter See\nOrt: Seeboden am Millstätter See\nPLZ: 9871\nKoordinaten: 46.819817, 13.523787", "doc_type": "pois"}
{"source": "OSM", "region": "Kärnten", "osm_type": "node", "osm_id": 5618918462, "name": "Spar", "category": "shop:supermarket", "address": "Hauptstraße 28, 9871 Seeboden am Millstätter See", "street": "Hauptstraße", "housenumber": "28", "postcode": "9871", "place": "Seeboden am Millstätter See", "lat": 46.8163413, "lon": 13.5094231, "tags": {"addr:city": "Seeboden am Millstätter See", "addr:housenumber": "28", "addr:postcode": "9871", "addr:street": "Hauptstraße", "brand": "Spar", "name": "Spar", "shop": "supermarket"}, "content": "Spar\nKategorie: shop:supermarket\nAdresse: Hauptstraße 28, 9871 Seeboden am Millstätter See\nOrt: Seeboden am Millstätter See\nPLZ: 9871\nKoordinaten: 46.816341, 13.509423\nTags: shop=supermarket, brand=Spar", "doc_type": "pois"}
{"source": "OSM", "region": "Kärnten", "osm_type": "node", "osm_id": 5618918475, "name": "ADEG", "category": "shop:supermarket", "address": "Hauptstraße 77, 9871 Seeboden am Millstätter See", "street": "Hauptstraße", "housenumber": "77", "postcode": "9871", "place": "Seeboden am Millstätter See", "lat": 46.8184595, "lon": 13.5169467, "tags": {"addr:city": "Seeboden am Millstätter See", "addr:housenumber": "77", "addr:postcode": "9871", "addr:street": "Hauptstraße", "brand": "ADEG", "name": "ADEG", "shop": "supermarket", "website": "https://www.adeg.at/haller"}, "content": "ADEG\nKategorie: shop:supermarket\nAdresse: Hauptstraße 77, 9871 Seeboden am Millstätter See\nOrt: Seeboden am Millstätter See\nPLZ: 9871\nKoordinaten: 46.818460, 13.516947\nTags: shop=supermarket, brand=ADEG, website=https://www.adeg.at/haller", "doc_type": "pois"}
