{"source": "OSM", "region": "Kärnten", "osm_type": "node", "osm_id": 4069382491, "name": "Ferienhaus Höllerl", "category": "tourism:chalet", "address": "Steinerberg 16, 9122 St. Kanzian", "street": "Steinerberg", "housenumber": "16", "postcode": "9122", "place": "St. Kanzian", "lat": 46.6006323, "lon": 14.5490418, "tags": {"addr:city": "St. Kanzian", "addr:housenumber": "16", "addr:postcode": "9122", "addr:street": "Steinerberg", "name": "Ferienhaus Höllerl", "tourism": "chalet"}, "content": "Ferienhaus Höllerl\nKategorie: tourism:chalet\nAdresse: Steinerberg 16, 9122 St. Kanzian\nOrt: St. Kanzian\nPLZ: 9122\nKoordinaten: 46.600632, 14.549042", "doc_type": "addresses"}
{"source": "OSM", "region": "Kärnten", "osm_type": "node", "osm_id": 4296906687, "name": "Loving Hut", "category": "amenity:restaurant", "address": "Am See XII 7, 9122 St. Kanzian", "street": "Am See XII", "housenumber": "7", "postcode": "9122", "place": "St. Kanzian", "lat": 46.6094416, "lon": 14.5899134, "tags": {"addr:city": "St. Kanzian", "addr:housenumber": "7", "addr:postcode": "9122", "addr:street": "Am See XII", "amenity": "restaurant", "brand": "Loving Hut", "name": "Loving Hut", "phone": "+43 4239 4015", "website": "https://www.lovinghut.at/"}, "content": "Loving Hut\nKategorie: amenity:restaurant\nAdresse: Am See XII 7, 9122 St. Kanzian\nOrt: St. Kanzian\nPLZ: 9122\nKoordinaten: 46.609442, 14.589913\nTags: amenity=restaurant, brand=Loving Hut, phone=+43 4239 4015, website=https://www.lovinghut.at/", "doc_type": "addresses"}
{"source": "OSM", "region": "Kärnten", "osm_type": "node", "osm_id": 4069382491, "name": "Ferienhaus Höllerl", "category": "tourism:chalet", "address": "Steinerberg 16, 9122 St. Kanzian", "street": "Steinerberg", "housenumber": "16", "postcode": "9122", "place": "St. Kanzian", "lat": 46.6006323, "lon": 14.5490418, "tags": {"addr:city": "St. Kanzian", "addr:housenumber": "16", "addr:postcode": "9122", "addr:street": "Steinerberg", "name": "Ferienhaus Höllerl", "tourism": "chalet"}, "content": "Ferienhaus Höllerl\nKategorie: tourism:chalet\nAdresse: Steinerberg 16, 9122 St. Kanzian\nOrt: St. Kanzian\nPLZ: 9122\nKoordinaten: 46.600632, 14.549042", "doc_type": "pois"}
{"source": "OSM", "region": "Kärnten", "osm_type": "node", "osm_id": 4296906687, "name": "Loving Hut", "category": "amenity:restaurant", "address": "Am See XII 7, 9122 St. Kanzian", "street": "Am See XII", "housenumber": "7", "postcode": "9122", "place": "St. Kanzian", "lat": 46.6094416, "lon": 14.5899134, "tags": {"addr:city": "St. Kanzian", "addr:housenumber": "7", "addr:postcode": "9122", "addr:street": "Am See XII", "amenity": "restaurant", "brand": "Loving Hut", "name": "Loving Hut", "phone": "+43 4239 4015", "website": "https://www.lovinghut.at/"}, "content": "Loving Hut\nKategorie: amenity:restaurant\nAdresse: Am See XII 7, 9122 St. Kanzian\nOrt: St. Kanzian\nPLZ: 9122\nKoordinaten: 46.609442, 14.589913\nTags: amenity=restaurant, brand=Loving Hut, phone=+43 4239 4015, website=https://www.lovinghut.at/", "doc_type": "pois"}
