{"source": "OSM", "region": "Kärnten", "osm_type": "node", "osm_id": 1426826179, "name": "Felsenkeller", "category": "amenity:restaurant", "address": "Feldkirchner Straße 141, 9020 Klagenfurt", "street": "Feldkirchner Straße", "housenumber": "141", "postcode": "9020", "place": "Klagenfurt", "lat": 46.6403448, "lon": 14.2892191, "tags": {"addr:city": "Klagenfurt", "addr:housenumber": "141", "addr:postcode": "9020", "addr:street": "Feldkirchner Straße", "amenity": "restaurant", "name": "Felsenkeller", "phone": "+43 463 420130", "website": "https://www.felsen-keller.at"}, "content": "Felsenkeller\nKategorie: amenity:restaurant\nAdresse: Feldkirchner Straße 141, 9020 Klagenfurt\nOrt: Klagenfurt\nPLZ: 9020\nKoordinaten: 46.640345, 14.289219\nTags: amenity=restaurant, phone=+43 463 420130, website=https://www.felsen-keller.at", "doc_type": "addresses"}
{"source": "OSM", "region": "Kärnten", "osm_type": "node", "osm_id": 1445292381, "name": "Fleisch Boutique", "category": "shop:butcher", "address": "Schlachthofstraße (Schlachthof), 9020 Klagenfurt", "street": "Schlachthofstraße (Schlachthof)", "housenumber": null, "postcode": "9020", "place": "Klagenfurt", "lat": 46.6665156, "lon": 14.6363997, "tags": {"addr:city": "Klagenfurt", "addr:postcode": "9020", "addr:street": "Schlachthofstraße (Schlachthof)", "name": "Fleisch Boutique", "shop": "butcher"}, "content": "Fleisch Boutique\nKategorie: shop:butcher\nAdresse: Schlachthofstraße (Schlachthof), 9020 Klagenfurt\nOrt: Klagenfurt\nPLZ: 9020\nKoordinaten: 46.666516, 14.636400\nTags: shop=butcher", "doc_type": "addresses"}
{"source": "OSM", "region": "Kärnten", "osm_type": "node", "osm_id": 1445293057, "name": "Schlachthofrestaurant", "category": "amenity:restaurant", "address": "Schlachthofstraße 5, 9020 Klagenfurt", "street": "Schlachthofstraße", "housenumber": "5", "postcode": "9020", "place": "Klagenfurt", "lat": 46.6666086, "lon": 14.6363328, "tags": {"addr:city": "Klagenfurt", "addr:housenumber": "5", "addr:postcode": "9020", "addr:street": "Schlachthofstraße", "amenity": "restaurant", "name": "Schlachthofrestaurant"}, "content": "Schlachthofrestaurant\nKategorie: amenity:restaurant\nAdresse: Schlachthofstraße 5, 9020 Klagenfurt\nOrt: Klagenfurt\nPLZ: 9020\nKoordinaten: 46.666609, 14.636333\nTags: amenity=restaurant", "doc_type": "addresses"}
{"source": "OSM", "region": "Kärnten", "osm_type": "node", "osm_id": 3967903014, "name": "Dr.med. Erian Irene", "category": "amenity:doctors", "address": "Dr. Alfred-Leopold-Gasse 5, 9020 Klagenfurt", "street": "Dr. Alfred-Leopold-Gasse", "housenumber": "5", "postcode": "9020", "place": "Klagenfurt", "lat": 46.6253542, "lon": 14.2718496, "tags": {"addr:city": "Klagenfurt", "addr:housenumber": "5", "addr:postcode": "9020", "addr:street": "Dr. Alfred-Leopold-Gasse", "amenity": "doctors", "healthcare": "doctor", "name": "Dr.med. Erian Irene", "phone": "0463 22112"}, "content": "Dr.med. Erian Irene\nKategorie: amenity:doctors\nAdresse: Dr. Alfred-Leopold-Gasse 5, 9020 Klagenfurt\nOrt: Klagenfurt\nPLZ: 9020\nKoordinaten: 46.625354, 14.271850\nTags: amenity=doctors, healthcare=doctor, phone=0463 22112", "doc_type": "addresses"}
{"source": "OSM", "region": "Kärnten", "osm_type": "node", "osm_id": 1426826179, "name": "Felsenkeller", "category": "amenity:restaurant", "address": "Feldkirchner Straße 141, 9020 Klagenfurt", "street": "Feldkirchner Straße", "housenumber": "141", "postcode": "9020", "place": "Klagenfurt", "lat": 46.6403448, "lon": 14.2892191, "tags": {"addr:city": "Klagenfurt", "addr:housenumber": "141", "addr:postcode": "9020", "addr:street": "Feldkirchner Straße", "amenity": "restaurant", "name": "Felsenkeller", "phone": "+43 463 420130", "website": "https://www.felsen-keller.at"}, "content": "Felsenkeller\nKategorie: amenity:restaurant\nAdresse: Feldkirchner Straße 141, 9020 Klagenfurt\nOrt: Klagenfurt\nPLZ: 9020\nKoordinaten: 46.640345, 14.289219\nTags: amenity=restaurant, phone=+43 463 420130, website=https://www.felsen-keller.at", "doc_type": "pois"}
{"source": "OSM", "region": "Kärnten", "osm_type": "node", "osm_id": 1445292381, "name": "Fleisch Boutique", "category": "shop:butcher", "address": "Schlachthofstraße (Schlachthof), 9020 Klagenfurt", "street": "Schlachthofstraße (Schlachthof)", "housenumber": null, "postcode": "9020", "place": "Klagenfurt", "lat": 46.6665156, "lon": 14.6363997, "tags": {"addr:city": "Klagenfurt", "addr:postcode": "9020", "addr:street": "Schlachthofstraße (Schlachthof)", "name": "Fleisch Boutique", "shop": "butcher"}, "content": "Fleisch Boutique\nKategorie: shop:butcher\nAdresse: Schlachthofstraße (Schlachthof), 9020 Klagenfurt\nOrt: Klagenfurt\nPLZ: 9020\nKoordinaten: 46.666516, 14.636400\nTags: shop=butcher", "doc_type": "pois"}
{"source": "OSM", "region": "Kärnten", "osm_type": "node", "osm_id": 1445293057, "name": "Schlachthofrestaurant", "category": "amenity:restaurant", "address": "Schlachthofstraße 5, 9020 Klagenfurt", "street": "Schlachthofstraße", "housenumber": "5", "postcode": "9020", "place": "Klagenfurt", "lat": 46.6666086, "lon": 14.6363328, "tags": {"addr:city": "Klagenfurt", "addr:housenumber": "5", "addr:postcode": "9020", "addr:street": "Schlachthofstraße", "amenity": "restaurant", "name": "Schlachthofrestaurant"}, "content": "Schlachthofrestaurant\nKategorie: amenity:restaurant\nAdresse: Schlachthofstraße 5, 9020 Klagenfurt\nOrt: Klagenfurt\nPLZ: 9020\nKoordinaten: 46.666609, 14.636333\nTags: amenity=restaurant", "doc_type": "pois"}
{"source": "OSM", "region": "Kärnten", "osm_type": "node", "osm_id": 3967903014, "name": "Dr.med. Erian Irene", "category": "amenity:doctors", "address": "Dr. Alfred-Leopold-Gasse 5, 9020 Klagenfurt", "street": "Dr. Alfred-Leopold-Gasse", "housenumber": "5", "postcode": "9020", "place": "Klagenfurt", "lat": 46.6253542, "lon": 14.2718496, "tags": {"addr:city": "Klagenfurt", "addr:housenumber": "5", "addr:postcode": "9020", "addr:street": "Dr. Alfred-Leopold-Gasse", "amenity": "doctors", "healthcare": "doctor", "name": "Dr.med. Erian Irene", "phone": "0463 22112"}, "content": "Dr.med. Erian Irene\nKategorie: amenity:doctors\nAdresse: Dr. Alfred-Leopold-Gasse 5, 9020 Klagenfurt\nOrt: Klagenfurt\nPLZ: 9020\nKoordinaten: 46.625354, 14.271850\nTags: amenity=doctors, healthcare=doctor, phone=0463 22112", "doc_type": "pois"}
