{"source": "OSM", "region": "Kärnten", "osm_type": "node", "osm_id": 278208509, "name": "Polizeiinspektion St. Kanzian am Klopeiner See", "category": "amenity:police", "address": "Klopeiner Straße 1a, 9122 St. Kanzian am Klopeiner See", "street": "Klopeiner Straße", "housenumber": "1a", "postcode": "9122", "place": "St. Kanzian am Klopeiner See", "lat": 46.6154809, "lon": 14.5750915, "tags": {"addr:city": "St. Kanzian am Klopeiner See", "addr:housenumber": "1a", "addr:postcode": "9122", "addr:street": "Klopeiner Straße", "amenity": "police", "name": "Polizeiinspektion St. Kanzian am Klopeiner See", "phone": "+43 59133 2154100", "website": "https://www.polizei.gv.at/ktn/lpd/dst/dienststellen.aspx"}, "content": "Polizeiinspektion St. Kanzian am Klopeiner See\nKategorie: amenity:police\nAdresse: Klopeiner Straße 1a, 9122 St. Kanzian am Klopeiner See\nOrt: St. Kanzian am Klopeiner See\nPLZ: 9122\nKoordinaten: 46.615481, 14.575091\nTags: amenity=police, phone=+43 59133 2154100, website=https://www.polizei.gv.at/ktn/lpd/dst/dienststellen.aspx", "doc_type": "addresses"}
{"source": "OSM", "region": "Kärnten", "osm_type": "node", "osm_id": 308051201, "name": "Gasthof Menüwirt", "category": "amenity:restaurant", "address": "Schulstraße 3, 9122 St. Kanzian am Klopeiner See", "street": "Schulstraße", "housenumber": "3", "postcode": "9122", "place": "St. Kanzian am Klopeiner See", "lat": 46.6127872, "lon": 14.5762307, "tags": {"addr:city": "St. Kanzian am Klopeiner See", "addr:housenumber": "3", "addr:postcode": "9122", "addr:street": "Schulstraße", "amenity": "restaurant", "name": "Gasthof Menüwirt", "phone": "+43 4239 2248", "website": "http://www.menuewirt.at/de/"}, "content": "Gasthof Menüwirt\nKategorie: amenity:restaurant\nAdresse: Schulstraße 3, 9122 St. Kanzian am Klopeiner See\nOrt: St. Kanzian am Klopeiner See\nPLZ: 9122\nKoordinaten: 46.612787, 14.576231\nTags: amenity=restaurant, phone=+43 4239 2248, website=http://www.menuewirt.at/de/", "doc_type": "addresses"}
{"source": "OSM", "region": "Kärnten", "osm_type": "node", "osm_id": 340515967, "name": "Postpartner 9122, Sabrinas Welt", "category": "amenity:post_office", "address": "Klopeiner Straße 12, 9122 St. Kanzian am Klopeiner See", "street": "Klopeiner Straße", "housenumber": "12", "postcode": "9122", "place": "St. Kanzian am Klopeiner See", "lat": 46.6144011, "lon": 14.5754401, "tags": {"addr:city": "St. Kanzian am Klopeiner See", "addr:housenumber": "12", "addr:postcode": "9122", "addr:street": "Klopeiner Straße", "amenity": "post_office", "name": "Postpartner 9122, Sabrinas Welt"}, "content": "Postpartner 9122, Sabrinas Welt\nKategorie: amenity:post_office\nAdresse: Klopeiner Straße 12, 9122 St. Kanzian am Klopeiner See\nOrt: St. Kanzian am Klopeiner See\nPLZ: 9122\nKoordinaten: 46.614401, 14.575440\nTags: amenity=post_office", "doc_type": "addresses"}
{"source": "OSM", "region": "Kärnten", "osm_type": "node", "osm_id": 1579774861, "name": null, "category": null, "address": "21, 9122 St. Kanzian am Klopeiner See", "street": null, "housenumber": "21", "postcode": "9122", "place": "St. Kanzian am Klopeiner See", "lat": 46.5744462, "lon": 14.5389798, "tags": {"addr:city": "St. Kanzian am Klopeiner See", "addr:housenumber": "21", "addr:place": "Horzach II", "addr:postcode": "9122"}, "content": "Adresse: 21, 9122 St. Kanzian am Klopeiner See\nOrt: St. Kanzian am Klopeiner See\nPLZ: 9122\nKoordinaten: 46.574446, 14.538980", "doc_type": "addresses"}
{"source": "OSM", "region": "Kärnten", "osm_type": "node", "osm_id": 1579774869, "name": null, "category": null, "address": "2, 9122 St. Kanzian am Klopeiner See", "street": null, "housenumber": "2", "postcode": "9122", "place": "St. Kanzian am Klopeiner See", "lat": 46.5757139, "lon": 14.5414236, "tags": {"addr:city": "St. Kanzian am Klopeiner See", "addr:housenumber": "2", "addr:place": "Horzach II", "addr:postcode": "9122"}, "content": "Adresse: 2, 9122 St. Kanzian am Klopeiner See\nOrt: St. Kanzian am Klopeiner See\nPLZ: 9122\nKoordinaten: 46.575714, 14.541424", "doc_type": "addresses"}
{"source": "OSM", "region": "Kärnten", "osm_type": "node", "osm_id": 1579774874, "name": null, "category": null, "address": "1, 9122 St. Kanzian am Klopeiner See", "street": null, "housenumber": "1", "postcode": "9122", "place": "St. Kanzian am Klopeiner See", "lat": 46.5756538, "lon": 14.54191, "tags": {"addr:city": "St. Kanzian am Klopeiner See", "addr:housenumber": "1", "addr:place": "Horzach II", "addr:postcode": "9122"}, "content": "Adresse: 1, 9122 St. Kanzian am Klopeiner See\nOrt: St. Kanzian am Klopeiner See\nPLZ: 9122\nKoordinaten: 46.575654, 14.541910", "doc_type": "addresses"}
{"source": "OSM", "region": "Kärnten", "osm_type": "node", "osm_id": 1579774895, "name": null, "category": null, "address": "8, 9122 St. Kanzian am Klopeiner See", "street": null, "housenumber": "8", "postcode": "9122", "place": "St. Kanzian am Klopeiner See", "lat": 46.574595, "lon": 14.5395108, "tags": {"addr:city": "St. Kanzian am Klopeiner See", "addr:housenumber": "8", "addr:place": "Horzach II", "addr:postcode": "9122"}, "content": "Adresse: 8, 9122 St. Kanzian am Klopeiner See\nOrt: St. Kanzian am Klopeiner See\nPLZ: 9122\nKoordinaten: 46.574595, 14.539511", "doc_type": "addresses"}
{"source": "OSM", "region": "Kärnten", "osm_type": "node", "osm_id": 1579774900, "name": null, "category": null, "address": "4, 9122 St. Kanzian am Klopeiner See", "street": null, "housenumber": "4", "postcode": "9122", "place": "St. Kanzian am Klopeiner See", "lat": 46.575779, "lon": 14.5407271, "tags": {"addr:city": "St. Kanzian am Klopeiner See", "addr:housenumber": "4", "addr:place": "Horzach II", "addr:postcode": "9122"}, "content": "Adresse: 4, 9122 St. Kanzian am Klopeiner See\nOrt: St. Kanzian am Klopeiner See\nPLZ: 9122\nKoordinaten: 46.575779, 14.540727", "doc_type": "addresses"}
{"source": "OSM", "region": "Kärnten", "osm_type": "node", "osm_id": 1579774904, "name": null, "category": null, "address": "9, 9122 St. Kanzian am Klopeiner See", "street": null, "housenumber": "9", "postcode": "9122", "place": "St. Kanzian am Klopeiner See", "lat": 46.5737238, "lon": 14.5389636, "tags": {"addr:city": "St. Kanzian am Klopeiner See", "addr:housenumber": "9", "addr:place": "Horzach II", "addr:postcode": "9122"}, "content": "Adresse: 9, 9122 St. Kanzian am Klopeiner See\nOrt: St. Kanzian am Klopeiner See\nPLZ: 9122\nKoordinaten: 46.573724, 14.538964", "doc_type": "addresses"}
{"source": "OSM", "region": "Kärnten", "osm_type": "node", "osm_id": 1579774910, "name": null, "category": null, "address": "19, 9122 St. Kanzian am Klopeiner See", "street": null, "housenumber": "19", "postcode": "9122", "place": "St. Kanzian am Klopeiner See", "lat": 46.5746642, "lon": 14.5388054, "tags": {"addr:city": "St. Kanzian am Klopeiner See", "addr:housenumber": "19", "addr:place": "Horzach II", "addr:postcode": "9122"}, "content": "Adresse: 19, 9122 St. Kanzian am Klopeiner See\nOrt: St. Kanzian am Klopeiner See\nPLZ: 9122\nKoordinaten: 46.574664, 14.538805", "doc_type": "addresses"}
{"source": "OSM", "region": "Kärnten", "osm_type": "node", "osm_id": 1579774915, "name": null, "category": null, "address": "7, 9122 St. Kanzian am Klopeiner See", "street": null, "housenumber": "7", "postcode": "9122", "place": "St. Kanzian am Klopeiner See", "lat": 46.573084, "lon": 14.5376572, "tags": {"addr:city": "St. Kanzian am Klopeiner See", "addr:housenumber": "7", "addr:place": "Horzach II", "addr:postcode": "9122"}, "content": "Adresse: 7, 9122 St. Kanzian am Klopeiner See\nOrt: St. Kanzian am Klopeiner See\nPLZ: 9122\nKoordinaten: 46.573084, 14.537657", "doc_type": "addresses"}
{"source": "OSM", "region": "Kärnten", "osm_type": "node", "osm_id": 1579774920, "name": null, "category": null, "address": "17, 9122 St. Kanzian am Klopeiner See", "street": null, "housenumber": "17", "postcode": "9122", "place": "St. Kanzian am Klopeiner See", "lat": 46.5751113, "lon": 14.540829, "tags": {"addr:city": "St. Kanzian am Klopeiner See", "addr:housenumber": "17", "addr:place": "Horzach II", "addr:postcode": "9122"}, "content": "Adresse: 17, 9122 St. Kanzian am Klopeiner See\nOrt: St. Kanzian am Klopeiner See\nPLZ: 9122\nKoordinaten: 46.575111, 14.540829", "doc_type": "addresses"}
{"source": "OSM", "region": "Kärnten", "osm_type": "node", "osm_id": 1579774940, "name": null, "category": null, "address": "6, 9122 St. Kanzian am Klopeiner See", "street": null, "housenumber": "6", "postcode": "9122", "place": "St. Kanzian am Klopeiner See", "lat": 46.5751795, "lon": 14.54018, "tags": {"addr:city": "St. Kanzian am Klopeiner See", "addr:housenumber": "6", "addr:place": "Horzach II", "addr:postcode": "9122"}, "content": "Adresse: 6, 9122 St. Kanzian am Klopeiner See\nOrt: St. Kanzian am Klopeiner See\nPLZ: 9122\nKoordinaten: 46.575179, 14.540180", "doc_type": "addresses"}
{"source": "OSM", "region": "Kärnten", "osm_type": "node", "osm_id": 1579774946, "name": null, "category": null, "address": "20, 9122 St. Kanzian am Klopeiner See", "street": null, "housenumber": "20", "postcode": "9122", "place": "St. Kanzian am Klopeiner See", "lat": 46.5731458, "lon": 14.5373743, "tags": {"addr:city": "St. Kanzian am Klopeiner See", "addr:housenumber": "20", "addr:place": "Horzach II", "addr:postcode": "9122"}, "content": "Adresse: 20, 9122 St. Kanzian am Klopeiner See\nOrt: St. Kanzian am Klopeiner See\nPLZ: 9122\nKoordinaten: 46.573146, 14.537374", "doc_type": "addresses"}
{"source": "OSM", "region": "Kärnten", "osm_type": "node", "osm_id": 1579774952, "name": null, "category": null, "address": "12, 9122 St. Kanzian am Klopeiner See", "street": null, "housenumber": "12", "postcode": "9122", "place": "St. Kanzian am Klopeiner See", "lat": 46.573238, "lon": 14.5368378, "tags": {"addr:city": "St. Kanzian am Klopeiner See", "addr:housenumber": "12", "addr:place": "Horzach II", "addr:postcode": "9122"}, "content": "Adresse: 12, 9122 St. Kanzian am Klopeiner See\nOrt: St. Kanzian am Klopeiner See\nPLZ: 9122\nKoordinaten: 46.573238, 14.536838", "doc_type": "addresses"}
{"source": "OSM", "region": "Kärnten", "osm_type": "node", "osm_id": 1579774958, "name": null, "category": null, "address": "5, 9122 St. Kanzian am Klopeiner See", "street": null, "housenumber": "5", "postcode": "9122", "place": "St. Kanzian am Klopeiner See", "lat": 46.5753677, "lon": 14.5401276, "tags": {"addr:city": "St. Kanzian am Klopeiner See", "addr:housenumber": "5", "addr:place": "Horzach II", "addr:postcode": "9122"}, "content": "Adresse: 5, 9122 St. Kanzian am Klopeiner See\nOrt: St. Kanzian am Klopeiner See\nPLZ: 9122\nKoordinaten: 46.575368, 14.540128", "doc_type": "addresses"}
{"source": "OSM", "region": "Kärnten", "osm_type": "node", "osm_id": 1579774961, "name": null, "category": null, "address": "10, 9122 St. Kanzian am Klopeiner See", "street": null, "housenumber": "10", "postcode": "9122", "place": "St. Kanzian am Klopeiner See", "lat": 46.5736253, "lon": 14.5392652, "tags": {"addr:city": "St. Kanzian am Klopeiner See", "addr:housenumber": "10", "addr:place": "Horzach II", "addr:postcode": "9122"}, "content": "Adresse: 10, 9122 St. Kanzian am Klopeiner See\nOrt: St. Kanzian am Klopeiner See\nPLZ: 9122\nKoordinaten: 46.573625, 14.539265", "doc_type": "addresses"}
{"source": "OSM", "region": "Kärnten", "osm_type": "node", "osm_id": 1579817095, "name": null, "category": null, "address": "44, 9122 St. Kanzian am Klopeiner See", "street": null, "housenumber": "44", "postcode": "9122", "place": "St. Kanzian am Klopeiner See", "lat": 46.5802592, "lon": 14.5433618, "tags": {"addr:city": "St. Kanzian am Klopeiner See", "addr:housenumber": "44", "addr:place": "St. Veit im Jauntal", "addr:postcode": "9122"}, "content": "Adresse: 44, 9122 St. Kanzian am Klopeiner See\nOrt: St. Kanzian am Klopeiner See\nPLZ: 9122\nKoordinaten: 46.580259, 14.543362", "doc_type": "addresses"}
{"source": "OSM", "region": "Kärnten", "osm_type": "node", "osm_id": 1579854515, "name": null, "category": null, "address": "31, 9122 St. Kanzian am Klopeiner See", "street": null, "housenumber": "31", "postcode": "9122", "place": "St. Kanzian am Klopeiner See", "lat": 46.5814737, "lon": 14.5401399, "tags": {"addr:city": "St. Kanzian am Klopeiner See", "addr:housenumber": "31", "addr:place": "St. Veit im Jauntal", "addr:postcode": "9122"}, "content": "Adresse: 31, 9122 St. Kanzian am Klopeiner See\nOrt: St. Kanzian am Klopeiner See\nPLZ: 9122\nKoordinaten: 46.581474, 14.540140", "doc_type": "addresses"}
{"source": "OSM", "region": "Kärnten", "osm_type": "node", "osm_id": 1579854530, "name": null, "category": null, "address": "47, 9122 St. Kanzian am Klopeiner See", "street": null, "housenumber": "47", "postcode": "9122", "place": "St. Kanzian am Klopeiner See", "lat": 46.5827945, "lon": 14.5407498, "tags": {"addr:city": "St. Kanzian am Klopeiner See", "addr:housenumber": "47", "addr:place": "St. Veit im Jauntal", "addr:postcode": "9122"}, "content": "Adresse: 47, 9122 St. Kanzian am Klopeiner See\nOrt: St. Kanzian am Klopeiner See\nPLZ: 9122\nKoordinaten: 46.582794, 14.540750", "doc_type": "addresses"}
{"source": "OSM", "region": "Kärnten", "osm_type": "node", "osm_id": 1579854539, "name": null, "category": null, "address": "25, 9122 St. Kanzian am Klopeiner See", "street": null, "housenumber": "25", "postcode": "9122", "place": "St. Kanzian am Klopeiner See", "lat": 46.5825607, "lon": 14.5399273, "tags": {"addr:city": "St. Kanzian am Klopeiner See", "addr:housenumber": "25", "addr:place": "St. Veit im Jauntal", "addr:postcode": "9122"}, "content": "Adresse: 25, 9122 St. Kanzian am Klopeiner See\nOrt: St. Kanzian am Klopeiner See\nPLZ: 9122\nKoordinaten: 46.582561, 14.539927", "doc_type": "addresses"}
{"source": "OSM", "region": "Kärnten", "osm_type": "node", "osm_id": 1579854542, "name": null, "category": null, "address": "36, 9122 St. Kanzian am Klopeiner See", "street": null, "housenumber": "36", "postcode": "9122", "place": "St. Kanzian am Klopeiner See", "lat": 46.5801883, "lon": 14.5406645, "tags": {"addr:city": "St. Kanzian am Klopeiner See", "addr:housenumber": "36", "addr:place": "St. Veit im Jauntal", "addr:postcode": "9122"}, "content": "Adresse: 36, 9122 St. Kanzian am Klopeiner See\nOrt: St. Kanzian am Klopeiner See\nPLZ: 9122\nKoordinaten: 46.580188, 14.540665", "doc_type": "addresses"}
{"source": "OSM", "region": "Kärnten", "osm_type": "node", "osm_id": 1579854544, "name": null, "category": null, "address": "30, 9122 St. Kanzian am Klopeiner See", "street": null, "housenumber": "30", "postcode": "9122", "place": "St. Kanzian am Klopeiner See", "lat": 46.5811768, "lon": 14.5441508, "tags": {"addr:city": "St. Kanzian am Klopeiner See", "addr:housenumber": "30", "addr:place": "St. Veit im Jauntal", "addr:postcode": "9122"}, "content": "Adresse: 30, 9122 St. Kanzian am Klopeiner See\nOrt: St. Kanzian am Klopeiner See\nPLZ: 9122\nKoordinaten: 46.581177, 14.544151", "doc_type": "addresses"}
{"source": "OSM", "region": "Kärnten", "osm_type": "node", "osm_id": 1579854555, "name": null, "category": null, "address": "53, 9122 St. Kanzian am Klopeiner See", "street": null, "housenumber": "53", "postcode": "9122", "place": "St. Kanzian am Klopeiner See", "lat": 46.5867436, "lon": 14.5408704, "tags": {"addr:city": "St. Kanzian am Klopeiner See", "addr:housenumber": "53", "addr:place": "St. Veit im Jauntal", "addr:postcode": "9122"}, "content": "Adresse: 53, 9122 St. Kanzian am Klopeiner See\nOrt: St. Kanzian am Klopeiner See\nPLZ: 9122\nKoordinaten: 46.586744, 14.540870", "doc_type": "addresses"}
{"source": "OSM", "region": "Kärnten", "osm_type": "node", "osm_id": 1579854560, "name": null, "category": null, "address": "33, 9122 St. Kanzian am Klopeiner See", "street": null, "housenumber": "33", "postcode": "9122", "place": "St. Kanzian am Klopeiner See", "lat": 46.5836846, "lon": 14.5425563, "tags": {"addr:city": "St. Kanzian am Klopeiner See", "addr:housenumber": "33", "addr:place": "St. Veit im Jauntal", "addr:postcode": "9122"}, "content": "Adresse: 33, 9122 St. Kanzian am Klopeiner See\nOrt: St. Kanzian am Klopeiner See\nPLZ: 9122\nKoordinaten: 46.583685, 14.542556", "doc_type": "addresses"}
{"source": "OSM", "region": "Kärnten", "osm_type": "node", "osm_id": 1579854565, "name": null, "category": null, "address": "23, 9122 St. Kanzian am Klopeiner See", "street": null, "housenumber": "23", "postcode": "9122", "place": "St. Kanzian am Klopeiner See", "lat": 46.5817182, "lon": 14.539756, "tags": {"addr:city": "St. Kanzian am Klopeiner See", "addr:housenumber": "23", "addr:place": "St. Veit im Jauntal", "addr:postcode": "9122"}, "content": "Adresse: 23, 9122 St. Kanzian am Klopeiner See\nOrt: St. Kanzian am Klopeiner See\nPLZ: 9122\nKoordinaten: 46.581718, 14.539756", "doc_type": "addresses"}
{"source": "OSM", "region": "Kärnten", "osm_type": "node", "osm_id": 1579854568, "name": null, "category": null, "address": "11, 9122 St. Kanzian am Klopeiner See", "street": null, "housenumber": "11", "postcode": "9122", "place": "St. Kanzian am Klopeiner See", "lat": 46.5851984, "lon": 14.5402683, "tags": {"addr:city": "St. Kanzian am Klopeiner See", "addr:housenumber": "11", "addr:place": "St. Veit im Jauntal", "addr:postcode": "9122"}, "content": "Adresse: 11, 9122 St. Kanzian am Klopeiner See\nOrt: St. Kanzian am Klopeiner See\nPLZ: 9122\nKoordinaten: 46.585198, 14.540268", "doc_type": "addresses"}
{"source": "OSM", "region": "Kärnten", "osm_type": "node", "osm_id": 1579854570, "name": null, "category": null, "address": "49, 9122 St. Kanzian am Klopeiner See", "street": null, "housenumber": "49", "postcode": "9122", "place": "St. Kanzian am Klopeiner See", "lat": 46.5865732, "lon": 14.5391565, "tags": {"addr:city": "St. Kanzian am Klopeiner See", "addr:housenumber": "49", "addr:place": "St. Veit im Jauntal", "addr:postcode": "9122"}, "content": "Adresse: 49, 9122 St. Kanzian am Klopeiner See\nOrt: St. Kanzian am Klopeiner See\nPLZ: 9122\nKoordinaten: 46.586573, 14.539157", "doc_type": "addresses"}
{"source": "OSM", "region": "Kärnten", "osm_type": "node", "osm_id": 1579854579, "name": null, "category": null, "address": "29, 9122 St. Kanzian am Klopeiner See", "street": null, "housenumber": "29", "postcode": "9122", "place": "St. Kanzian am Klopeiner See", "lat": 46.5824623, "lon": 14.5387657, "tags": {"addr:city": "St. Kanzian am Klopeiner See", "addr:housenumber": "29", "addr:place": "St. Veit im Jauntal", "addr:postcode": "9122"}, "content": "Adresse: 29, 9122 St. Kanzian am Klopeiner See\nOrt: St. Kanzian am Klopeiner See\nPLZ: 9122\nKoordinaten: 46.582462, 14.538766", "doc_type": "addresses"}
{"source": "OSM", "region": "Kärnten", "osm_type": "node", "osm_id": 1579854582, "name": null, "category": null, "address": "14, 9122 St. Kanzian am Klopeiner See", "street": null, "housenumber": "14", "postcode": "9122", "place": "St. Kanzian am Klopeiner See", "lat": 46.5830221, "lon": 14.5391234, "tags": {"addr:city": "St. Kanzian am Klopeiner See", "addr:housenumber": "14", "addr:place": "St. Veit im Jauntal", "addr:postcode": "9122"}, "content": "Adresse: 14, 9122 St. Kanzian am Klopeiner See\nOrt: St. Kanzian am Klopeiner See\nPLZ: 9122\nKoordinaten: 46.583022, 14.539123", "doc_type": "addresses"}
{"source": "OSM", "region": "Kärnten", "osm_type": "node", "osm_id": 1579854584, "name": null, "category": null, "address": "52, 9122 St. Kanzian am Klopeiner See", "street": null, "housenumber": "52", "postcode": "9122", "place": "St. Kanzian am Klopeiner See", "lat": 46.5864754, "lon": 14.5403193, "tags": {"addr:city": "St. Kanzian am Klopeiner See", "addr:housenumber": "52", "addr:place": "St. Veit im Jauntal", "addr:postcode": "9122"}, "content": "Adresse: 52, 9122 St. Kanzian am Klopeiner See\nOrt: St. Kanzian am Klopeiner See\nPLZ: 9122\nKoordinaten: 46.586475, 14.540319", "doc_type": "addresses"}
{"source": "OSM", "region": "Kärnten", "osm_type": "node", "osm_id": 1579854586, "name": null, "category": null, "address": "60, 9122 St. Kanzian am Klopeiner See", "street": null, "housenumber": "60", "postcode": "9122", "place": "St. Kanzian am Klopeiner See", "lat": 46.5861952, "lon": 14.5402013, "tags": {"addr:city": "St. Kanzian am Klopeiner See", "addr:housenumber": "60", "addr:place": "St. Veit im Jauntal", "addr:postcode": "9122"}, "content": "Adresse: 60, 9122 St. Kanzian am Klopeiner See\nOrt: St. Kanzian am Klopeiner See\nPLZ: 9122\nKoordinaten: 46.586195, 14.540201", "doc_type": "addresses"}
{"source": "OSM", "region": "Kärnten", "osm_type": "node", "osm_id": 1579854603, "name": null, "category": null, "address": "48, 9122 St. Kanzian am Klopeiner See", "street": null, "housenumber": "48", "postcode": "9122", "place": "St. Kanzian am Klopeiner See", "lat": 46.5861501, "lon": 14.5407846, "tags": {"addr:city": "St. Kanzian am Klopeiner See", "addr:housenumber": "48", "addr:place": "St. Veit im Jauntal", "addr:postcode": "9122"}, "content": "Adresse: 48, 9122 St. Kanzian am Klopeiner See\nOrt: St. Kanzian am Klopeiner See\nPLZ: 9122\nKoordinaten: 46.586150, 14.540785", "doc_type": "addresses"}
{"source": "OSM", "region": "Kärnten", "osm_type": "node", "osm_id": 1579854605, "name": null, "category": null, "address": "38, 9122 St. Kanzian am Klopeiner See", "street": null, "housenumber": "38", "postcode": "9122", "place": "St. Kanzian am Klopeiner See", "lat": 46.5801595, "lon": 14.5409876, "tags": {"addr:city": "St. Kanzian am Klopeiner See", "addr:housenumber": "38", "addr:place": "St. Veit im Jauntal", "addr:postcode": "9122"}, "content": "Adresse: 38, 9122 St. Kanzian am Klopeiner See\nOrt: St. Kanzian am Klopeiner See\nPLZ: 9122\nKoordinaten: 46.580160, 14.540988", "doc_type": "addresses"}
{"source": "OSM", "region": "Kärnten", "osm_type": "node", "osm_id": 1579854621, "name": null, "category": null, "address": "7, 9122 St. Kanzian am Klopeiner See", "street": null, "housenumber": "7", "postcode": "9122", "place": "St. Kanzian am Klopeiner See", "lat": 46.5830528, "lon": 14.5407854, "tags": {"addr:city": "St. Kanzian am Klopeiner See", "addr:housenumber": "7", "addr:place": "St. Veit im Jauntal", "addr:postcode": "9122"}, "content": "Adresse: 7, 9122 St. Kanzian am Klopeiner See\nOrt: St. Kanzian am Klopeiner See\nPLZ: 9122\nKoordinaten: 46.583053, 14.540785", "doc_type": "addresses"}
{"source": "OSM", "region": "Kärnten", "osm_type": "node", "osm_id": 1579854624, "name": null, "category": null, "address": "39, 9122 St. Kanzian am Klopeiner See", "street": null, "housenumber": "39", "postcode": "9122", "place": "St. Kanzian am Klopeiner See", "lat": 46.5803579, "lon": 14.5401198, "tags": {"addr:city": "St. Kanzian am Klopeiner See", "addr:housenumber": "39", "addr:place": "St. Veit im Jauntal", "addr:postcode": "9122"}, "content": "Adresse: 39, 9122 St. Kanzian am Klopeiner See\nOrt: St. Kanzian am Klopeiner See\nPLZ: 9122\nKoordinaten: 46.580358, 14.540120", "doc_type": "addresses"}
{"source": "OSM", "region": "Kärnten", "osm_type": "node", "osm_id": 1579854625, "name": null, "category": null, "address": "37, 9122 St. Kanzian am Klopeiner See", "street": null, "housenumber": "37", "postcode": "9122", "place": "St. Kanzian am Klopeiner See", "lat": 46.58235, "lon": 14.5401708, "tags": {"addr:city": "St. Kanzian am Klopeiner See", "addr:housenumber": "37", "addr:place": "St. Veit im Jauntal", "addr:postcode": "9122"}, "content": "Adresse: 37, 9122 St. Kanzian am Klopeiner See\nOrt: St. Kanzian am Klopeiner See\nPLZ: 9122\nKoordinaten: 46.582350, 14.540171", "doc_type": "addresses"}
{"source": "OSM", "region": "Kärnten", "osm_type": "node", "osm_id": 1579854626, "name": null, "category": null, "address": "42, 9122 St. Kanzian am Klopeiner See", "street": null, "housenumber": "42", "postcode": "9122", "place": "St. Kanzian am Klopeiner See", "lat": 46.5838403, "lon": 14.5397252, "tags": {"addr:city": "St. Kanzian am Klopeiner See", "addr:housenumber": "42", "addr:place": "St. Veit im Jauntal", "addr:postcode": "9122"}, "content": "Adresse: 42, 9122 St. Kanzian am Klopeiner See\nOrt: St. Kanzian am Klopeiner See\nPLZ: 9122\nKoordinaten: 46.583840, 14.539725", "doc_type": "addresses"}
{"source": "OSM", "region": "Kärnten", "osm_type": "node", "osm_id": 1579854640, "name": null, "category": null, "address": "27, 9122 St. Kanzian am Klopeiner See", "street": null, "housenumber": "27", "postcode": "9122", "place": "St. Kanzian am Klopeiner See", "lat": 46.5826218, "lon": 14.5385368, "tags": {"addr:city": "St. Kanzian am Klopeiner See", "addr:housenumber": "27", "addr:place": "St. Veit im Jauntal", "addr:postcode": "9122"}, "content": "Adresse: 27, 9122 St. Kanzian am Klopeiner See\nOrt: St. Kanzian am Klopeiner See\nPLZ: 9122\nKoordinaten: 46.582622, 14.538537", "doc_type": "addresses"}
{"source": "OSM", "region": "Kärnten", "osm_type": "node", "osm_id": 1579854642, "name": null, "category": null, "address": "68, 9122 St. Kanzian am Klopeiner See", "street": null, "housenumber": "68", "postcode": "9122", "place": "St. Kanzian am Klopeiner See", "lat": 46.5833491, "lon": 14.5388739, "tags": {"addr:city": "St. Kanzian am Klopeiner See", "addr:housenumber": "68", "addr:place": "St. Veit im Jauntal", "addr:postcode": "9122"}, "content": "Adresse: 68, 9122 St. Kanzian am Klopeiner See\nOrt: St. Kanzian am Klopeiner See\nPLZ: 9122\nKoordinaten: 46.583349, 14.538874", "doc_type": "addresses"}
{"source": "OSM", "region": "Kärnten", "osm_type": "node", "osm_id": 1579854645, "name": null, "category": null, "address": "57, 9122 St. Kanzian am Klopeiner See", "street": null, "housenumber": "57", "postcode": "9122", "place": "St. Kanzian am Klopeiner See", "lat": 46.581219, "lon": 14.5405447, "tags": {"addr:city": "St. Kanzian am Klopeiner See", "addr:housenumber": "57", "addr:place": "St. Veit im Jauntal", "addr:postcode": "9122"}, "content": "Adresse: 57, 9122 St. Kanzian am Klopeiner See\nOrt: St. Kanzian am Klopeiner See\nPLZ: 9122\nKoordinaten: 46.581219, 14.540545", "doc_type": "addresses"}
{"source": "OSM", "region": "Kärnten", "osm_type": "node", "osm_id": 1579854647, "name": null, "category": null, "address": "22, 9122 St. Kanzian am Klopeiner See", "street": null, "housenumber": "22", "postcode": "9122", "place": "St. Kanzian am Klopeiner See", "lat": 46.5805884, "lon": 14.5411819, "tags": {"addr:city": "St. Kanzian am Klopeiner See", "addr:housenumber": "22", "addr:place": "St. Veit im Jauntal", "addr:postcode": "9122"}, "content": "Adresse: 22, 9122 St. Kanzian am Klopeiner See\nOrt: St. Kanzian am Klopeiner See\nPLZ: 9122\nKoordinaten: 46.580588, 14.541182", "doc_type": "addresses"}
{"source": "OSM", "region": "Kärnten", "osm_type": "node", "osm_id": 1579854657, "name": null, "category": null, "address": "62, 9122 St. Kanzian am Klopeiner See", "street": null, "housenumber": "62", "postcode": "9122", "place": "St. Kanzian am Klopeiner See", "lat": 46.58312, "lon": 14.5412481, "tags": {"addr:city": "St. Kanzian am Klopeiner See", "addr:housenumber": "62", "addr:place": "St. Veit im Jauntal", "addr:postcode": "9122"}, "content": "Adresse: 62, 9122 St. Kanzian am Klopeiner See\nOrt: St. Kanzian am Klopeiner See\nPLZ: 9122\nKoordinaten: 46.583120, 14.541248", "doc_type": "addresses"}
{"source": "OSM", "region": "Kärnten", "osm_type": "node", "osm_id": 1579854668, "name": null, "category": null, "address": "6, 9122 St. Kanzian am Klopeiner See", "street": null, "housenumber": "6", "postcode": "9122", "place": "St. Kanzian am Klopeiner See", "lat": 46.5802328, "lon": 14.5394317, "tags": {"addr:city": "St. Kanzian am Klopeiner See", "addr:housenumber": "6", "addr:place": "St. Veit im Jauntal", "addr:postcode": "9122"}, "content": "Adresse: 6, 9122 St. Kanzian am Klopeiner See\nOrt: St. Kanzian am Klopeiner See\nPLZ: 9122\nKoordinaten: 46.580233, 14.539432", "doc_type": "addresses"}
{"source": "OSM", "region": "Kärnten", "osm_type": "node", "osm_id": 1579854675, "name": null, "category": null, "address": "8, 9122 St. Kanzian am Klopeiner See", "street": null, "housenumber": "8", "postcode": "9122", "place": "St. Kanzian am Klopeiner See", "lat": 46.5821509, "lon": 14.5400133, "tags": {"addr:city": "St. Kanzian am Klopeiner See", "addr:housenumber": "8", "addr:place": "St. Veit im Jauntal", "addr:postcode": "9122"}, "content": "Adresse: 8, 9122 St. Kanzian am Klopeiner See\nOrt: St. Kanzian am Klopeiner See\nPLZ: 9122\nKoordinaten: 46.582151, 14.540013", "doc_type": "addresses"}
{"source": "OSM", "region": "Kärnten", "osm_type": "node", "osm_id": 1579854677, "name": null, "category": null, "address": "50, 9122 St. Kanzian am Klopeiner See", "street": null, "housenumber": "50", "postcode": "9122", "place": "St. Kanzian am Klopeiner See", "lat": 46.5869391, "lon": 14.53987, "tags": {"addr:city": "St. Kanzian am Klopeiner See", "addr:housenumber": "50", "addr:place": "St. Veit im Jauntal", "addr:postcode": "9122"}, "content": "Adresse: 50, 9122 St. Kanzian am Klopeiner See\nOrt: St. Kanzian am Klopeiner See\nPLZ: 9122\nKoordinaten: 46.586939, 14.539870", "doc_type": "addresses"}
{"source": "OSM", "region": "Kärnten", "osm_type": "node", "osm_id": 1579854679, "name": null, "category": null, "address": "59, 9122 St. Kanzian am Klopeiner See", "street": null, "housenumber": "59", "postcode": "9122", "place": "St. Kanzian am Klopeiner See", "lat": 46.5864469, "lon": 14.5407646, "tags": {"addr:city": "St. Kanzian am Klopeiner See", "addr:housenumber": "59", "addr:place": "St. Veit im Jauntal", "addr:postcode": "9122"}, "content": "Adresse: 59, 9122 St. Kanzian am Klopeiner See\nOrt: St. Kanzian am Klopeiner See\nPLZ: 9122\nKoordinaten: 46.586447, 14.540765", "doc_type": "addresses"}
{"source": "OSM", "region": "Kärnten", "osm_type": "node", "osm_id": 1579854682, "name": null, "category": null, "address": "20, 9122 St. Kanzian am Klopeiner See", "street": null, "housenumber": "20", "postcode": "9122", "place": "St. Kanzian am Klopeiner See", "lat": 46.5863049, "lon": 14.5393363, "tags": {"addr:city": "St. Kanzian am Klopeiner See", "addr:housenumber": "20", "addr:place": "St. Veit im Jauntal", "addr:postcode": "9122"}, "content": "Adresse: 20, 9122 St. Kanzian am Klopeiner See\nOrt: St. Kanzian am Klopeiner See\nPLZ: 9122\nKoordinaten: 46.586305, 14.539336", "doc_type": "addresses"}
{"source": "OSM", "region": "Kärnten", "osm_type": "node", "osm_id": 1579854696, "name": null, "category": null, "address": "3, 9122 St. Kanzian am Klopeiner See", "street": null, "housenumber": "3", "postcode": "9122", "place": "St. Kanzian am Klopeiner See", "lat": 46.5808829, "lon": 14.543892, "tags": {"addr:city": "St. Kanzian am Klopeiner See", "addr:housenumber": "3", "addr:place": "St. Veit im Jauntal", "addr:postcode": "9122"}, "content": "Adresse: 3, 9122 St. Kanzian am Klopeiner See\nOrt: St. Kanzian am Klopeiner See\nPLZ: 9122\nKoordinaten: 46.580883, 14.543892", "doc_type": "addresses"}
{"source": "OSM", "region": "Kärnten", "osm_type": "node", "osm_id": 1579862492, "name": null, "category": null, "address": "61, 9122 St. Kanzian am Klopeiner See", "street": null, "housenumber": "61", "postcode": "9122", "place": "St. Kanzian am Klopeiner See", "lat": 46.5882505, "lon": 14.5407404, "tags": {"addr:city": "St. Kanzian am Klopeiner See", "addr:housenumber": "61", "addr:place": "St. Veit im Jauntal", "addr:postcode": "9122"}, "content": "Adresse: 61, 9122 St. Kanzian am Klopeiner See\nOrt: St. Kanzian am Klopeiner See\nPLZ: 9122\nKoordinaten: 46.588251, 14.540740", "doc_type": "addresses"}
{"source": "OSM", "region": "Kärnten", "osm_type": "node", "osm_id": 1579862494, "name": null, "category": null, "address": "64, 9122 St. Kanzian am Klopeiner See", "street": null, "housenumber": "64", "postcode": "9122", "place": "St. Kanzian am Klopeiner See", "lat": 46.587493, "lon": 14.5410984, "tags": {"addr:city": "St. Kanzian am Klopeiner See", "addr:housenumber": "64", "addr:place": "St. Veit im Jauntal", "addr:postcode": "9122"}, "content": "Adresse: 64, 9122 St. Kanzian am Klopeiner See\nOrt: St. Kanzian am Klopeiner See\nPLZ: 9122\nKoordinaten: 46.587493, 14.541098", "doc_type": "addresses"}
{"source": "OSM", "region": "Kärnten", "osm_type": "node", "osm_id": 1579862495, "name": null, "category": null, "address": "46, 9122 St. Kanzian am Klopeiner See", "street": null, "housenumber": "46", "postcode": "9122", "place": "St. Kanzian am Klopeiner See", "lat": 46.5879262, "lon": 14.5401478, "tags": {"addr:city": "St. Kanzian am Klopeiner See", "addr:housenumber": "46", "addr:place": "St. Veit im Jauntal", "addr:postcode": "9122"}, "content": "Adresse: 46, 9122 St. Kanzian am Klopeiner See\nOrt: St. Kanzian am Klopeiner See\nPLZ: 9122\nKoordinaten: 46.587926, 14.540148", "doc_type": "addresses"}
{"source": "OSM", "region": "Kärnten", "osm_type": "node", "osm_id": 1579862498, "name": null, "category": null, "address": "21, 9122 St. Kanzian am Klopeiner See", "street": null, "housenumber": "21", "postcode": "9122", "place": "St. Kanzian am Klopeiner See", "lat": 46.5894924, "lon": 14.5411883, "tags": {"addr:city": "St. Kanzian am Klopeiner See", "addr:housenumber": "21", "addr:place": "St. Veit im Jauntal", "addr:postcode": "9122"}, "content": "Adresse: 21, 9122 St. Kanzian am Klopeiner See\nOrt: St. Kanzian am Klopeiner See\nPLZ: 9122\nKoordinaten: 46.589492, 14.541188", "doc_type": "addresses"}
{"source": "OSM", "region": "Kärnten", "osm_type": "node", "osm_id": 1579862501, "name": null, "category": null, "address": "35, 9122 St. Kanzian am Klopeiner See", "street": null, "housenumber": "35", "postcode": "9122", "place": "St. Kanzian am Klopeiner See", "lat": 46.5876082, "lon": 14.5404051, "tags": {"addr:city": "St. Kanzian am Klopeiner See", "addr:housenumber": "35", "addr:place": "St. Veit im Jauntal", "addr:postcode": "9122"}, "content": "Adresse: 35, 9122 St. Kanzian am Klopeiner See\nOrt: St. Kanzian am Klopeiner See\nPLZ: 9122\nKoordinaten: 46.587608, 14.540405", "doc_type": "addresses"}
{"source": "OSM", "region": "Kärnten", "osm_type": "node", "osm_id": 1579862521, "name": null, "category": null, "address": "17, 9122 St. Kanzian am Klopeiner See", "street": null, "housenumber": "17", "postcode": "9122", "place": "St. Kanzian am Klopeiner See", "lat": 46.5890317, "lon": 14.5409993, "tags": {"addr:city": "St. Kanzian am Klopeiner See", "addr:housenumber": "17", "addr:place": "St. Veit im Jauntal", "addr:postcode": "9122"}, "content": "Adresse: 17, 9122 St. Kanzian am Klopeiner See\nOrt: St. Kanzian am Klopeiner See\nPLZ: 9122\nKoordinaten: 46.589032, 14.540999", "doc_type": "addresses"}
{"source": "OSM", "region": "Kärnten", "osm_type": "node", "osm_id": 1579862523, "name": null, "category": null, "address": "55, 9122 St. Kanzian am Klopeiner See", "street": null, "housenumber": "55", "postcode": "9122", "place": "St. Kanzian am Klopeiner See", "lat": 46.5879529, "lon": 14.5409295, "tags": {"addr:city": "St. Kanzian am Klopeiner See", "addr:housenumber": "55", "addr:place": "St. Veit im Jauntal", "addr:postcode": "9122"}, "content": "Adresse: 55, 9122 St. Kanzian am Klopeiner See\nOrt: St. Kanzian am Klopeiner See\nPLZ: 9122\nKoordinaten: 46.587953, 14.540930", "doc_type": "addresses"}
{"source": "OSM", "region": "Kärnten", "osm_type": "node", "osm_id": 2423332083, "name": "Mochoritsch Eck", "category": "amenity:restaurant", "address": "Westuferstraße 16, 9122 St. Kanzian am Klopeiner See", "street": "Westuferstraße", "housenumber": "16", "postcode": "9122", "place": "St. Kanzian am Klopeiner See", "lat": 46.6070848, "lon": 14.5740545, "tags": {"addr:city": "St. Kanzian am Klopeiner See", "addr:housenumber": "16", "addr:postcode": "9122", "addr:street": "Westuferstraße", "amenity": "restaurant", "name": "Mochoritsch Eck", "phone": "+43 4239 20 278"}, "content": "Mochoritsch Eck\nKategorie: amenity:restaurant\nAdresse: Westuferstraße 16, 9122 St. Kanzian am Klopeiner See\nOrt: St. Kanzian am Klopeiner See\nPLZ: 9122\nKoordinaten: 46.607085, 14.574055\nTags: amenity=restaurant, phone=+43 4239 20 278", "doc_type": "addresses"}
{"source": "OSM", "region": "Kärnten", "osm_type": "node", "osm_id": 2426499329, "name": "Turmöl", "category": "amenity:fuel", "address": "Klopeiner Straße 6, 9122 St. Kanzian am Klopeiner See", "street": "Klopeiner Straße", "housenumber": "6", "postcode": "9122", "place": "St. Kanzian am Klopeiner See", "lat": 46.6150212, "lon": 14.5751891, "tags": {"addr:city": "St. Kanzian am Klopeiner See", "addr:housenumber": "6", "addr:postcode": "9122", "addr:street": "Klopeiner Straße", "amenity": "fuel", "brand": "Turmöl", "name": "Turmöl", "operator": "Doppler Gruppe", "phone": "+43 4239 2450", "website": "https://www.turmöl.at"}, "content": "Turmöl\nKategorie: amenity:fuel\nAdresse: Klopeiner Straße 6, 9122 St. Kanzian am Klopeiner See\nOrt: St. Kanzian am Klopeiner See\nPLZ: 9122\nKoordinaten: 46.615021, 14.575189\nTags: amenity=fuel, operator=Doppler Gruppe, brand=Turmöl, phone=+43 4239 2450, website=https://www.turmöl.at", "doc_type": "addresses"}
{"source": "OSM", "region": "Kärnten", "osm_type": "node", "osm_id": 2426499338, "name": "Kanzianus", "category": "amenity:pharmacy", "address": "Klopeiner Straße 2, 9122 St. Kanzian am Klopeiner See", "street": "Klopeiner Straße", "housenumber": "2", "postcode": "9122", "place": "St. Kanzian am Klopeiner See", "lat": 46.6151218, "lon": 14.574568, "tags": {"addr:city": "St. Kanzian am Klopeiner See", "addr:housenumber": "2", "addr:postcode": "9122", "addr:street": "Klopeiner Straße", "amenity": "pharmacy", "healthcare": "pharmacy", "name": "Kanzianus"}, "content": "Kanzianus\nKategorie: amenity:pharmacy\nAdresse: Klopeiner Straße 2, 9122 St. Kanzian am Klopeiner See\nOrt: St. Kanzian am Klopeiner See\nPLZ: 9122\nKoordinaten: 46.615122, 14.574568\nTags: amenity=pharmacy, healthcare=pharmacy", "doc_type": "addresses"}
{"source": "OSM", "region": "Kärnten", "osm_type": "node", "osm_id": 5499847030, "name": null, "category": null, "address": "67, 9122 St. Kanzian am Klopeiner See", "street": null, "housenumber": "67", "postcode": "9122", "place": "St. Kanzian am Klopeiner See", "lat": 46.5827866, "lon": 14.5464664, "tags": {"addr:city": "St. Kanzian am Klopeiner See", "addr:housenumber": "67", "addr:place": "St. Veit im Jauntal", "addr:postcode": "9122"}, "content": "Adresse: 67, 9122 St. Kanzian am Klopeiner See\nOrt: St. Kanzian am Klopeiner See\nPLZ: 9122\nKoordinaten: 46.582787, 14.546466", "doc_type": "addresses"}
{"source": "OSM", "region": "Kärnten", "osm_type": "node", "osm_id": 5499847031, "name": null, "category": null, "address": "66, 9122 St. Kanzian am Klopeiner See", "street": null, "housenumber": "66", "postcode": "9122", "place": "St. Kanzian am Klopeiner See", "lat": 46.5831358, "lon": 14.5462757, "tags": {"addr:city": "St. Kanzian am Klopeiner See", "addr:housenumber": "66", "addr:place": "St. Veit im Jauntal", "addr:postcode": "9122"}, "content": "Adresse: 66, 9122 St. Kanzian am Klopeiner See\nOrt: St. Kanzian am Klopeiner See\nPLZ: 9122\nKoordinaten: 46.583136, 14.546276", "doc_type": "addresses"}
{"source": "OSM", "region": "Kärnten", "osm_type": "node", "osm_id": 5499847032, "name": null, "category": null, "address": "24, 9122 St. Kanzian am Klopeiner See", "street": null, "housenumber": "24", "postcode": "9122", "place": "St. Kanzian am Klopeiner See", "lat": 46.5832019, "lon": 14.5454148, "tags": {"addr:city": "St. Kanzian am Klopeiner See", "addr:housenumber": "24", "addr:place": "St. Veit im Jauntal", "addr:postcode": "9122"}, "content": "Adresse: 24, 9122 St. Kanzian am Klopeiner See\nOrt: St. Kanzian am Klopeiner See\nPLZ: 9122\nKoordinaten: 46.583202, 14.545415", "doc_type": "addresses"}
{"source": "OSM", "region": "Kärnten", "osm_type": "node", "osm_id": 5499847033, "name": null, "category": null, "address": "40, 9122 St. Kanzian am Klopeiner See", "street": null, "housenumber": "40", "postcode": "9122", "place": "St. Kanzian am Klopeiner See", "lat": 46.5831174, "lon": 14.5456857, "tags": {"addr:city": "St. Kanzian am Klopeiner See", "addr:housenumber": "40", "addr:place": "St. Veit im Jauntal", "addr:postcode": "9122"}, "content": "Adresse: 40, 9122 St. Kanzian am Klopeiner See\nOrt: St. Kanzian am Klopeiner See\nPLZ: 9122\nKoordinaten: 46.583117, 14.545686", "doc_type": "addresses"}
{"source": "OSM", "region": "Kärnten", "osm_type": "node", "osm_id": 5499847132, "name": null, "category": null, "address": "19, 9122 St. Kanzian am Klopeiner See", "street": null, "housenumber": "19", "postcode": "9122", "place": "St. Kanzian am Klopeiner See", "lat": 46.5914358, "lon": 14.5426261, "tags": {"addr:city": "St. Kanzian am Klopeiner See", "addr:housenumber": "19", "addr:place": "St. Veit im Jauntal", "addr:postcode": "9122"}, "content": "Adresse: 19, 9122 St. Kanzian am Klopeiner See\nOrt: St. Kanzian am Klopeiner See\nPLZ: 9122\nKoordinaten: 46.591436, 14.542626", "doc_type": "addresses"}
{"source": "OSM", "region": "Kärnten", "osm_type": "node", "osm_id": 5499847137, "name": null, "category": null, "address": "18, 9122 St. Kanzian am Klopeiner See", "street": null, "housenumber": "18", "postcode": "9122", "place": "St. Kanzian am Klopeiner See", "lat": 46.5908257, "lon": 14.5429909, "tags": {"addr:city": "St. Kanzian am Klopeiner See", "addr:housenumber": "18", "addr:place": "St. Veit im Jauntal", "addr:postcode": "9122"}, "content": "Adresse: 18, 9122 St. Kanzian am Klopeiner See\nOrt: St. Kanzian am Klopeiner See\nPLZ: 9122\nKoordinaten: 46.590826, 14.542991", "doc_type": "addresses"}
{"source": "OSM", "region": "Kärnten", "osm_type": "node", "osm_id": 5499847138, "name": null, "category": null, "address": "51, 9122 St. Kanzian am Klopeiner See", "street": null, "housenumber": "51", "postcode": "9122", "place": "St. Kanzian am Klopeiner See", "lat": 46.5889975, "lon": 14.543753, "tags": {"addr:city": "St. Kanzian am Klopeiner See", "addr:housenumber": "51", "addr:place": "St. Veit im Jauntal", "addr:postcode": "9122"}, "content": "Adresse: 51, 9122 St. Kanzian am Klopeiner See\nOrt: St. Kanzian am Klopeiner See\nPLZ: 9122\nKoordinaten: 46.588997, 14.543753", "doc_type": "addresses"}
{"source": "OSM", "region": "Kärnten", "osm_type": "node", "osm_id": 5499847139, "name": null, "category": null, "address": "28, 9122 St. Kanzian am Klopeiner See", "street": null, "housenumber": "28", "postcode": "9122", "place": "St. Kanzian am Klopeiner See", "lat": 46.5888221, "lon": 14.5434254, "tags": {"addr:city": "St. Kanzian am Klopeiner See", "addr:housenumber": "28", "addr:place": "St. Veit im Jauntal", "addr:postcode": "9122"}, "content": "Adresse: 28, 9122 St. Kanzian am Klopeiner See\nOrt: St. Kanzian am Klopeiner See\nPLZ: 9122\nKoordinaten: 46.588822, 14.543425", "doc_type": "addresses"}
{"source": "OSM", "region": "Kärnten", "osm_type": "node", "osm_id": 5499847140, "name": null, "category": null, "address": "54, 9122 St. Kanzian am Klopeiner See", "street": null, "housenumber": "54", "postcode": "9122", "place": "St. Kanzian am Klopeiner See", "lat": 46.5885437, "lon": 14.5429695, "tags": {"addr:city": "St. Kanzian am Klopeiner See", "addr:housenumber": "54", "addr:place": "St. Veit im Jauntal", "addr:postcode": "9122"}, "content": "Adresse: 54, 9122 St. Kanzian am Klopeiner See\nOrt: St. Kanzian am Klopeiner See\nPLZ: 9122\nKoordinaten: 46.588544, 14.542969", "doc_type": "addresses"}
{"source": "OSM", "region": "Kärnten", "osm_type": "node", "osm_id": 5499847141, "name": null, "category": null, "address": "43, 9122 St. Kanzian am Klopeiner See", "street": null, "housenumber": "43", "postcode": "9122", "place": "St. Kanzian am Klopeiner See", "lat": 46.5885972, "lon": 14.5425403, "tags": {"addr:city": "St. Kanzian am Klopeiner See", "addr:housenumber": "43", "addr:place": "St. Veit im Jauntal", "addr:postcode": "9122"}, "content": "Adresse: 43, 9122 St. Kanzian am Klopeiner See\nOrt: St. Kanzian am Klopeiner See\nPLZ: 9122\nKoordinaten: 46.588597, 14.542540", "doc_type": "addresses"}
{"source": "OSM", "region": "Kärnten", "osm_type": "node", "osm_id": 5499847142, "name": null, "category": null, "address": "45, 9122 St. Kanzian am Klopeiner See", "street": null, "housenumber": "45", "postcode": "9122", "place": "St. Kanzian am Klopeiner See", "lat": 46.5886838, "lon": 14.5418885, "tags": {"addr:city": "St. Kanzian am Klopeiner See", "addr:housenumber": "45", "addr:place": "St. Veit im Jauntal", "addr:postcode": "9122"}, "content": "Adresse: 45, 9122 St. Kanzian am Klopeiner See\nOrt: St. Kanzian am Klopeiner See\nPLZ: 9122\nKoordinaten: 46.588684, 14.541889", "doc_type": "addresses"}
{"source": "OSM", "region": "Kärnten", "osm_type": "node", "osm_id": 5499847223, "name": null, "category": null, "address": "13, 9122 St. Kanzian am Klopeiner See", "street": null, "housenumber": "13", "postcode": "9122", "place": "St. Kanzian am Klopeiner See", "lat": 46.5883207, "lon": 14.5404965, "tags": {"addr:city": "St. Kanzian am Klopeiner See", "addr:housenumber": "13", "addr:place": "St. Veit im Jauntal", "addr:postcode": "9122"}, "content": "Adresse: 13, 9122 St. Kanzian am Klopeiner See\nOrt: St. Kanzian am Klopeiner See\nPLZ: 9122\nKoordinaten: 46.588321, 14.540496", "doc_type": "addresses"}
{"source": "OSM", "region": "Kärnten", "osm_type": "node", "osm_id": 5499847312, "name": null, "category": null, "address": "32, 9122 St. Kanzian am Klopeiner See", "street": null, "housenumber": "32", "postcode": "9122", "place": "St. Kanzian am Klopeiner See", "lat": 46.5826909, "lon": 14.5398742, "tags": {"addr:city": "St. Kanzian am Klopeiner See", "addr:housenumber": "32", "addr:place": "St. Veit im Jauntal", "addr:postcode": "9122"}, "content": "Adresse: 32, 9122 St. Kanzian am Klopeiner See\nOrt: St. Kanzian am Klopeiner See\nPLZ: 9122\nKoordinaten: 46.582691, 14.539874", "doc_type": "addresses"}
{"source": "OSM", "region": "Kärnten", "osm_type": "node", "osm_id": 5499847315, "name": null, "category": null, "address": "39a, 9122 St. Kanzian am Klopeiner See", "street": null, "housenumber": "39a", "postcode": "9122", "place": "St. Kanzian am Klopeiner See", "lat": 46.5801837, "lon": 14.5400298, "tags": {"addr:city": "St. Kanzian am Klopeiner See", "addr:housenumber": "39a", "addr:place": "St. Veit im Jauntal", "addr:postcode": "9122"}, "content": "Adresse: 39a, 9122 St. Kanzian am Klopeiner See\nOrt: St. Kanzian am Klopeiner See\nPLZ: 9122\nKoordinaten: 46.580184, 14.540030", "doc_type": "addresses"}
{"source": "OSM", "region": "Kärnten", "osm_type": "node", "osm_id": 5499847390, "name": null, "category": null, "address": "18, 9122 St. Kanzian am Klopeiner See", "street": null, "housenumber": "18", "postcode": "9122", "place": "St. Kanzian am Klopeiner See", "lat": 46.5750897, "lon": 14.5398702, "tags": {"addr:city": "St. Kanzian am Klopeiner See", "addr:housenumber": "18", "addr:place": "Horzach II", "addr:postcode": "9122"}, "content": "Adresse: 18, 9122 St. Kanzian am Klopeiner See\nOrt: St. Kanzian am Klopeiner See\nPLZ: 9122\nKoordinaten: 46.575090, 14.539870", "doc_type": "addresses"}
{"source": "OSM", "region": "Kärnten", "osm_type": "node", "osm_id": 5499847403, "name": null, "category": null, "address": "22, 9122 St. Kanzian am Klopeiner See", "street": null, "housenumber": "22", "postcode": "9122", "place": "St. Kanzian am Klopeiner See", "lat": 46.5747495, "lon": 14.5392962, "tags": {"addr:city": "St. Kanzian am Klopeiner See", "addr:housenumber": "22", "addr:place": "Horzach II", "addr:postcode": "9122"}, "content": "Adresse: 22, 9122 St. Kanzian am Klopeiner See\nOrt: St. Kanzian am Klopeiner See\nPLZ: 9122\nKoordinaten: 46.574750, 14.539296", "doc_type": "addresses"}
{"source": "OSM", "region": "Kärnten", "osm_type": "node", "osm_id": 5583169073, "name": null, "category": null, "address": "Birkenweg 1a, 9122 St. Kanzian am Klopeiner See", "street": "Birkenweg", "housenumber": "1a", "postcode": "9122", "place": "St. Kanzian am Klopeiner See", "lat": 46.6086193, "lon": 14.5746431, "tags": {"addr:city": "St. Kanzian am Klopeiner See", "addr:housenumber": "1a", "addr:postcode": "9122", "addr:street": "Birkenweg"}, "content": "Adresse: Birkenweg 1a, 9122 St. Kanzian am Klopeiner See\nOrt: St. Kanzian am Klopeiner See\nPLZ: 9122\nKoordinaten: 46.608619, 14.574643", "doc_type": "addresses"}
{"source": "OSM", "region": "Kärnten", "osm_type": "node", "osm_id": 5583173776, "name": null, "category": null, "address": "Kleinseeweg 22, 9122 St. Kanzian am Klopeiner See", "street": "Kleinseeweg", "housenumber": "22", "postcode": "9122", "place": "St. Kanzian am Klopeiner See", "lat": 46.608505, "lon": 14.5695536, "tags": {"addr:city": "St. Kanzian am Klopeiner See", "addr:housenumber": "22", "addr:postcode": "9122", "addr:street": "Kleinseeweg"}, "content": "Adresse: Kleinseeweg 22, 9122 St. Kanzian am Klopeiner See\nOrt: St. Kanzian am Klopeiner See\nPLZ: 9122\nKoordinaten: 46.608505, 14.569554", "doc_type": "addresses"}
{"source": "OSM", "region": "Kärnten", "osm_type": "node", "osm_id": 5583173777, "name": null, "category": null, "address": "Kleinseeweg 20, 9122 St. Kanzian am Klopeiner See", "street": "Kleinseeweg", "housenumber": "20", "postcode": "9122", "place": "St. Kanzian am Klopeiner See", "lat": 46.608337, "lon": 14.5693879, "tags": {"addr:city": "St. Kanzian am Klopeiner See", "addr:housenumber": "20", "addr:postcode": "9122", "addr:street": "Kleinseeweg"}, "content": "Adresse: Kleinseeweg 20, 9122 St. Kanzian am Klopeiner See\nOrt: St. Kanzian am Klopeiner See\nPLZ: 9122\nKoordinaten: 46.608337, 14.569388", "doc_type": "addresses"}
{"source": "OSM", "region": "Kärnten", "osm_type": "node", "osm_id": 5583341291, "name": null, "category": null, "address": "Kleinseeweg 27a, 9122 St. Kanzian am Klopeiner See", "street": "Kleinseeweg", "housenumber": "27a", "postcode": "9122", "place": "St. Kanzian am Klopeiner See", "lat": 46.6062666, "lon": 14.569328, "tags": {"addr:city": "St. Kanzian am Klopeiner See", "addr:housenumber": "27a", "addr:postcode": "9122", "addr:street": "Kleinseeweg"}, "content": "Adresse: Kleinseeweg 27a, 9122 St. Kanzian am Klopeiner See\nOrt: St. Kanzian am Klopeiner See\nPLZ: 9122\nKoordinaten: 46.606267, 14.569328", "doc_type": "addresses"}
{"source": "OSM", "region": "Kärnten", "osm_type": "node", "osm_id": 5583341315, "name": null, "category": null, "address": "Laubenweg 5, 9122 St. Kanzian am Klopeiner See", "street": "Laubenweg", "housenumber": "5", "postcode": "9122", "place": "St. Kanzian am Klopeiner See", "lat": 46.6061805, "lon": 14.5700576, "tags": {"addr:city": "St. Kanzian am Klopeiner See", "addr:housenumber": "5", "addr:postcode": "9122", "addr:street": "Laubenweg"}, "content": "Adresse: Laubenweg 5, 9122 St. Kanzian am Klopeiner See\nOrt: St. Kanzian am Klopeiner See\nPLZ: 9122\nKoordinaten: 46.606181, 14.570058", "doc_type": "addresses"}
{"source": "OSM", "region": "Kärnten", "osm_type": "node", "osm_id": 5583341687, "name": null, "category": null, "address": "Jägerweg 11, 9122 St. Kanzian am Klopeiner See", "street": "Jägerweg", "housenumber": "11", "postcode": "9122", "place": "St. Kanzian am Klopeiner See", "lat": 46.6106258, "lon": 14.5716442, "tags": {"addr:city": "St. Kanzian am Klopeiner See", "addr:housenumber": "11", "addr:postcode": "9122", "addr:street": "Jägerweg"}, "content": "Adresse: Jägerweg 11, 9122 St. Kanzian am Klopeiner See\nOrt: St. Kanzian am Klopeiner See\nPLZ: 9122\nKoordinaten: 46.610626, 14.571644", "doc_type": "addresses"}
{"source": "OSM", "region": "Kärnten", "osm_type": "node", "osm_id": 5584908382, "name": null, "category": null, "address": "Rosenweg 11, 9122 St. Kanzian am Klopeiner See", "street": "Rosenweg", "housenumber": "11", "postcode": "9122", "place": "St. Kanzian am Klopeiner See", "lat": 46.6052685, "lon": 14.5684391, "tags": {"addr:city": "St. Kanzian am Klopeiner See", "addr:housenumber": "11", "addr:postcode": "9122", "addr:street": "Rosenweg"}, "content": "Adresse: Rosenweg 11, 9122 St. Kanzian am Klopeiner See\nOrt: St. Kanzian am Klopeiner See\nPLZ: 9122\nKoordinaten: 46.605269, 14.568439", "doc_type": "addresses"}
{"source": "OSM", "region": "Kärnten", "osm_type": "node", "osm_id": 5595108582, "name": null, "category": null, "address": "Kirchweg 8, 9122 St. Kanzian am Klopeiner See", "street": "Kirchweg", "housenumber": "8", "postcode": "9122", "place": "St. Kanzian am Klopeiner See", "lat": 46.6158639, "lon": 14.5761211, "tags": {"addr:city": "St. Kanzian am Klopeiner See", "addr:housenumber": "8", "addr:postcode": "9122", "addr:street": "Kirchweg"}, "content": "Adresse: Kirchweg 8, 9122 St. Kanzian am Klopeiner See\nOrt: St. Kanzian am Klopeiner See\nPLZ: 9122\nKoordinaten: 46.615864, 14.576121", "doc_type": "addresses"}
{"source": "OSM", "region": "Kärnten", "osm_type": "node", "osm_id": 5595108608, "name": null, "category": null, "address": "Höhenweg 8, 9122 St. Kanzian am Klopeiner See", "street": "Höhenweg", "housenumber": "8", "postcode": "9122", "place": "St. Kanzian am Klopeiner See", "lat": 46.6146029, "lon": 14.5725145, "tags": {"addr:city": "St. Kanzian am Klopeiner See", "addr:housenumber": "8", "addr:postcode": "9122", "addr:street": "Höhenweg"}, "content": "Adresse: Höhenweg 8, 9122 St. Kanzian am Klopeiner See\nOrt: St. Kanzian am Klopeiner See\nPLZ: 9122\nKoordinaten: 46.614603, 14.572515", "doc_type": "addresses"}
{"source": "OSM", "region": "Kärnten", "osm_type": "node", "osm_id": 5595108612, "name": null, "category": null, "address": "Höhenweg 4, 9122 St. Kanzian am Klopeiner See", "street": "Höhenweg", "housenumber": "4", "postcode": "9122", "place": "St. Kanzian am Klopeiner See", "lat": 46.6146761, "lon": 14.5730867, "tags": {"addr:city": "St. Kanzian am Klopeiner See", "addr:housenumber": "4", "addr:postcode": "9122", "addr:street": "Höhenweg"}, "content": "Adresse: Höhenweg 4, 9122 St. Kanzian am Klopeiner See\nOrt: St. Kanzian am Klopeiner See\nPLZ: 9122\nKoordinaten: 46.614676, 14.573087", "doc_type": "addresses"}
{"source": "OSM", "region": "Kärnten", "osm_type": "node", "osm_id": 5595109089, "name": null, "category": "leisure:pitch", "address": "Am See VI 10, 9122 St. Kanzian am Klopeiner See", "street": "Am See VI", "housenumber": "10", "postcode": "9122", "place": "St. Kanzian am Klopeiner See", "lat": 46.6078141, "lon": 14.5800093, "tags": {"addr:city": "St. Kanzian am Klopeiner See", "addr:housenumber": "10", "addr:postcode": "9122", "addr:street": "Am See VI", "leisure": "pitch"}, "content": "Kategorie: leisure:pitch\nAdresse: Am See VI 10, 9122 St. Kanzian am Klopeiner See\nOrt: St. Kanzian am Klopeiner See\nPLZ: 9122\nKoordinaten: 46.607814, 14.580009", "doc_type": "addresses"}
{"source": "OSM", "region": "Kärnten", "osm_type": "node", "osm_id": 5595109096, "name": null, "category": null, "address": "Am See VI 6, 9122 St. Kanzian am Klopeiner See", "street": "Am See VI", "housenumber": "6", "postcode": "9122", "place": "St. Kanzian am Klopeiner See", "lat": 46.6078796, "lon": 14.5794566, "tags": {"addr:city": "St. Kanzian am Klopeiner See", "addr:housenumber": "6", "addr:postcode": "9122", "addr:street": "Am See VI"}, "content": "Adresse: Am See VI 6, 9122 St. Kanzian am Klopeiner See\nOrt: St. Kanzian am Klopeiner See\nPLZ: 9122\nKoordinaten: 46.607880, 14.579457", "doc_type": "addresses"}
{"source": "OSM", "region": "Kärnten", "osm_type": "node", "osm_id": 5595109121, "name": "SeeVilla Dr. Sturm", "category": null, "address": "Am See IV 10a, 9122 St. Kanzian am Klopeiner See", "street": "Am See IV", "housenumber": "10a", "postcode": "9122", "place": "St. Kanzian am Klopeiner See", "lat": 46.6076696, "lon": 14.5764364, "tags": {"addr:city": "St. Kanzian am Klopeiner See", "addr:housenumber": "10a", "addr:postcode": "9122", "addr:street": "Am See IV", "name": "SeeVilla Dr. Sturm"}, "content": "SeeVilla Dr. Sturm\nAdresse: Am See IV 10a, 9122 St. Kanzian am Klopeiner See\nOrt: St. Kanzian am Klopeiner See\nPLZ: 9122\nKoordinaten: 46.607670, 14.576436", "doc_type": "addresses"}
{"source": "OSM", "region": "Kärnten", "osm_type": "node", "osm_id": 5595109122, "name": null, "category": null, "address": "Am See II 5, 9122 St. Kanzian am Klopeiner See", "street": "Am See II", "housenumber": "5", "postcode": "9122", "place": "St. Kanzian am Klopeiner See", "lat": 46.6082971, "lon": 14.5756511, "tags": {"addr:city": "St. Kanzian am Klopeiner See", "addr:housenumber": "5", "addr:postcode": "9122", "addr:street": "Am See II"}, "content": "Adresse: Am See II 5, 9122 St. Kanzian am Klopeiner See\nOrt: St. Kanzian am Klopeiner See\nPLZ: 9122\nKoordinaten: 46.608297, 14.575651", "doc_type": "addresses"}
{"source": "OSM", "region": "Kärnten", "osm_type": "node", "osm_id": 5595109124, "name": null, "category": null, "address": "Bachweg 4, 9122 St. Kanzian am Klopeiner See", "street": "Bachweg", "housenumber": "4", "postcode": "9122", "place": "St. Kanzian am Klopeiner See", "lat": 46.6092237, "lon": 14.5719831, "tags": {"addr:city": "St. Kanzian am Klopeiner See", "addr:housenumber": "4", "addr:postcode": "9122", "addr:street": "Bachweg"}, "content": "Adresse: Bachweg 4, 9122 St. Kanzian am Klopeiner See\nOrt: St. Kanzian am Klopeiner See\nPLZ: 9122\nKoordinaten: 46.609224, 14.571983", "doc_type": "addresses"}
{"source": "OSM", "region": "Kärnten", "osm_type": "node", "osm_id": 5595280148, "name": null, "category": null, "address": "Am See VIII 2, 9122 St. Kanzian am Klopeiner See", "street": "Am See VIII", "housenumber": "2", "postcode": "9122", "place": "St. Kanzian am Klopeiner See", "lat": 46.6081653, "lon": 14.5828695, "tags": {"addr:city": "St. Kanzian am Klopeiner See", "addr:housenumber": "2", "addr:postcode": "9122", "addr:street": "Am See VIII"}, "content": "Adresse: Am See VIII 2, 9122 St. Kanzian am Klopeiner See\nOrt: St. Kanzian am Klopeiner See\nPLZ: 9122\nKoordinaten: 46.608165, 14.582869", "doc_type": "addresses"}
{"source": "OSM", "region": "Kärnten", "osm_type": "node", "osm_id": 5595280407, "name": null, "category": null, "address": "Beerenweg 9, 9122 St. Kanzian am Klopeiner See", "street": "Beerenweg", "housenumber": "9", "postcode": "9122", "place": "St. Kanzian am Klopeiner See", "lat": 46.6121929, "lon": 14.5792875, "tags": {"addr:city": "St. Kanzian am Klopeiner See", "addr:housenumber": "9", "addr:postcode": "9122", "addr:street": "Beerenweg"}, "content": "Adresse: Beerenweg 9, 9122 St. Kanzian am Klopeiner See\nOrt: St. Kanzian am Klopeiner See\nPLZ: 9122\nKoordinaten: 46.612193, 14.579287", "doc_type": "addresses"}
{"source": "OSM", "region": "Kärnten", "osm_type": "node", "osm_id": 5595280408, "name": null, "category": null, "address": "Akazienweg 3, 9122 St. Kanzian am Klopeiner See", "street": "Akazienweg", "housenumber": "3", "postcode": "9122", "place": "St. Kanzian am Klopeiner See", "lat": 46.6124517, "lon": 14.5778472, "tags": {"addr:city": "St. Kanzian am Klopeiner See", "addr:housenumber": "3", "addr:postcode": "9122", "addr:street": "Akazienweg"}, "content": "Adresse: Akazienweg 3, 9122 St. Kanzian am Klopeiner See\nOrt: St. Kanzian am Klopeiner See\nPLZ: 9122\nKoordinaten: 46.612452, 14.577847", "doc_type": "addresses"}
{"source": "OSM", "region": "Kärnten", "osm_type": "node", "osm_id": 5596288550, "name": null, "category": null, "address": "Hildegardweg 23, 9122 St. Kanzian am Klopeiner See", "street": "Hildegardweg", "housenumber": "23", "postcode": "9122", "place": "St. Kanzian am Klopeiner See", "lat": 46.6125161, "lon": 14.5426449, "tags": {"addr:city": "St. Kanzian am Klopeiner See", "addr:housenumber": "23", "addr:postcode": "9122", "addr:street": "Hildegardweg"}, "content": "Adresse: Hildegardweg 23, 9122 St. Kanzian am Klopeiner See\nOrt: St. Kanzian am Klopeiner See\nPLZ: 9122\nKoordinaten: 46.612516, 14.542645", "doc_type": "addresses"}
{"source": "OSM", "region": "Kärnten", "osm_type": "node", "osm_id": 5596288599, "name": null, "category": null, "address": "Auenweg 1, 9122 St. Kanzian am Klopeiner See", "street": "Auenweg", "housenumber": "1", "postcode": "9122", "place": "St. Kanzian am Klopeiner See", "lat": 46.6150878, "lon": 14.5409458, "tags": {"addr:city": "St. Kanzian am Klopeiner See", "addr:housenumber": "1", "addr:postcode": "9122", "addr:street": "Auenweg"}, "content": "Adresse: Auenweg 1, 9122 St. Kanzian am Klopeiner See\nOrt: St. Kanzian am Klopeiner See\nPLZ: 9122\nKoordinaten: 46.615088, 14.540946", "doc_type": "addresses"}
{"source": "OSM", "region": "Kärnten", "osm_type": "node", "osm_id": 5597285094, "name": null, "category": null, "address": "Am See XI 4a, 9122 St. Kanzian am Klopeiner See", "street": "Am See XI", "housenumber": "4a", "postcode": "9122", "place": "St. Kanzian am Klopeiner See", "lat": 46.6088651, "lon": 14.5877206, "tags": {"addr:city": "St. Kanzian am Klopeiner See", "addr:housenumber": "4a", "addr:postcode": "9122", "addr:street": "Am See XI"}, "content": "Adresse: Am See XI 4a, 9122 St. Kanzian am Klopeiner See\nOrt: St. Kanzian am Klopeiner See\nPLZ: 9122\nKoordinaten: 46.608865, 14.587721", "doc_type": "addresses"}
{"source": "OSM", "region": "Kärnten", "osm_type": "node", "osm_id": 5597285118, "name": null, "category": null, "address": "Am See XII 7a, 9122 St. Kanzian am Klopeiner See", "street": "Am See XII", "housenumber": "7a", "postcode": "9122", "place": "St. Kanzian am Klopeiner See", "lat": 46.6097086, "lon": 14.589939, "tags": {"addr:city": "St. Kanzian am Klopeiner See", "addr:housenumber": "7a", "addr:postcode": "9122", "addr:street": "Am See XII"}, "content": "Adresse: Am See XII 7a, 9122 St. Kanzian am Klopeiner See\nOrt: St. Kanzian am Klopeiner See\nPLZ: 9122\nKoordinaten: 46.609709, 14.589939", "doc_type": "addresses"}
{"source": "OSM", "region": "Kärnten", "osm_type": "node", "osm_id": 5597285459, "name": null, "category": null, "address": "Am See XI 8, 9122 St. Kanzian am Klopeiner See", "street": "Am See XI", "housenumber": "8", "postcode": "9122", "place": "St. Kanzian am Klopeiner See", "lat": 46.609197, "lon": 14.5884783, "tags": {"addr:city": "St. Kanzian am Klopeiner See", "addr:housenumber": "8", "addr:postcode": "9122", "addr:street": "Am See XI"}, "content": "Adresse: Am See XI 8, 9122 St. Kanzian am Klopeiner See\nOrt: St. Kanzian am Klopeiner See\nPLZ: 9122\nKoordinaten: 46.609197, 14.588478", "doc_type": "addresses"}
{"source": "OSM", "region": "Kärnten", "osm_type": "node", "osm_id": 5597285464, "name": null, "category": null, "address": "12a, 9122 St. Kanzian am Klopeiner See", "street": null, "housenumber": "12a", "postcode": "9122", "place": "St. Kanzian am Klopeiner See", "lat": 46.6088336, "lon": 14.5568544, "tags": {"addr:city": "St. Kanzian am Klopeiner See", "addr:housenumber": "12a", "addr:place": "Littermoos", "addr:postcode": "9122"}, "content": "Adresse: 12a, 9122 St. Kanzian am Klopeiner See\nOrt: St. Kanzian am Klopeiner See\nPLZ: 9122\nKoordinaten: 46.608834, 14.556854", "doc_type": "addresses"}
{"source": "OSM", "region": "Kärnten", "osm_type": "node", "osm_id": 5597285465, "name": null, "category": null, "address": "12, 9122 St. Kanzian am Klopeiner See", "street": null, "housenumber": "12", "postcode": "9122", "place": "St. Kanzian am Klopeiner See", "lat": 46.6088336, "lon": 14.5567558, "tags": {"addr:city": "St. Kanzian am Klopeiner See", "addr:housenumber": "12", "addr:place": "Littermoos", "addr:postcode": "9122"}, "content": "Adresse: 12, 9122 St. Kanzian am Klopeiner See\nOrt: St. Kanzian am Klopeiner See\nPLZ: 9122\nKoordinaten: 46.608834, 14.556756", "doc_type": "addresses"}
{"source": "OSM", "region": "Kärnten", "osm_type": "node", "osm_id": 5603095210, "name": null, "category": null, "address": "1, 9122 St. Kanzian am Klopeiner See", "street": null, "housenumber": "1", "postcode": "9122", "place": "St. Kanzian am Klopeiner See", "lat": 46.6328662, "lon": 14.5861933, "tags": {"addr:city": "St. Kanzian am Klopeiner See", "addr:housenumber": "1", "addr:place": "Brenndorf", "addr:postcode": "9122"}, "content": "Adresse: 1, 9122 St. Kanzian am Klopeiner See\nOrt: St. Kanzian am Klopeiner See\nPLZ: 9122\nKoordinaten: 46.632866, 14.586193", "doc_type": "addresses"}
{"source": "OSM", "region": "Kärnten", "osm_type": "node", "osm_id": 5603095211, "name": null, "category": null, "address": "12a, 9122 St. Kanzian am Klopeiner See", "street": null, "housenumber": "12a", "postcode": "9122", "place": "St. Kanzian am Klopeiner See", "lat": 46.6327051, "lon": 14.5870663, "tags": {"addr:city": "St. Kanzian am Klopeiner See", "addr:housenumber": "12a", "addr:place": "Brenndorf", "addr:postcode": "9122"}, "content": "Adresse: 12a, 9122 St. Kanzian am Klopeiner See\nOrt: St. Kanzian am Klopeiner See\nPLZ: 9122\nKoordinaten: 46.632705, 14.587066", "doc_type": "addresses"}
{"source": "OSM", "region": "Kärnten", "osm_type": "node", "osm_id": 5610229115, "name": null, "category": null, "address": "3, 9122 St. Kanzian am Klopeiner See", "street": null, "housenumber": "3", "postcode": "9122", "place": "St. Kanzian am Klopeiner See", "lat": 46.6341682, "lon": 14.5861745, "tags": {"addr:city": "St. Kanzian am Klopeiner See", "addr:housenumber": "3", "addr:place": "Brenndorf", "addr:postcode": "9122"}, "content": "Adresse: 3, 9122 St. Kanzian am Klopeiner See\nOrt: St. Kanzian am Klopeiner See\nPLZ: 9122\nKoordinaten: 46.634168, 14.586175", "doc_type": "addresses"}
{"source": "OSM", "region": "Kärnten", "osm_type": "node", "osm_id": 5610275935, "name": null, "category": null, "address": "Ostuferstraße 8, 9122 St. Kanzian am Klopeiner See", "street": "Ostuferstraße", "housenumber": "8", "postcode": "9122", "place": "St. Kanzian am Klopeiner See", "lat": 46.6086911, "lon": 14.5963308, "tags": {"addr:city": "St. Kanzian am Klopeiner See", "addr:housenumber": "8", "addr:postcode": "9122", "addr:street": "Ostuferstraße"}, "content": "Adresse: Ostuferstraße 8, 9122 St. Kanzian am Klopeiner See\nOrt: St. Kanzian am Klopeiner See\nPLZ: 9122\nKoordinaten: 46.608691, 14.596331", "doc_type": "addresses"}
{"source": "OSM", "region": "Kärnten", "osm_type": "node", "osm_id": 5611546305, "name": null, "category": null, "address": "8, 9122 St. Kanzian am Klopeiner See", "street": null, "housenumber": "8", "postcode": "9122", "place": "St. Kanzian am Klopeiner See", "lat": 46.6198444, "lon": 14.5626814, "tags": {"addr:city": "St. Kanzian am Klopeiner See", "addr:housenumber": "8", "addr:place": "Piskertschach", "addr:postcode": "9122"}, "content": "Adresse: 8, 9122 St. Kanzian am Klopeiner See\nOrt: St. Kanzian am Klopeiner See\nPLZ: 9122\nKoordinaten: 46.619844, 14.562681", "doc_type": "addresses"}
{"source": "OSM", "region": "Kärnten", "osm_type": "node", "osm_id": 5616730207, "name": "Zum Poldi", "category": "amenity:cafe", "address": "Ostuferstraße 12, 9122 St. Kanzian am Klopeiner See", "street": "Ostuferstraße", "housenumber": "12", "postcode": "9122", "place": "St. Kanzian am Klopeiner See", "lat": 46.6076243, "lon": 14.5970485, "tags": {"addr:city": "St. Kanzian am Klopeiner See", "addr:housenumber": "12", "addr:postcode": "9122", "addr:street": "Ostuferstraße", "amenity": "cafe", "name": "Zum Poldi"}, "content": "Zum Poldi\nKategorie: amenity:cafe\nAdresse: Ostuferstraße 12, 9122 St. Kanzian am Klopeiner See\nOrt: St. Kanzian am Klopeiner See\nPLZ: 9122\nKoordinaten: 46.607624, 14.597048\nTags: amenity=cafe", "doc_type": "addresses"}
{"source": "OSM", "region": "Kärnten", "osm_type": "node", "osm_id": 5618430558, "name": null, "category": null, "address": "Beerenweg 14, 9122 St. Kanzian am Klopeiner See", "street": "Beerenweg", "housenumber": "14", "postcode": "9122", "place": "St. Kanzian am Klopeiner See", "lat": 46.6121661, "lon": 14.5835508, "tags": {"addr:city": "St. Kanzian am Klopeiner See", "addr:housenumber": "14", "addr:postcode": "9122", "addr:street": "Beerenweg"}, "content": "Adresse: Beerenweg 14, 9122 St. Kanzian am Klopeiner See\nOrt: St. Kanzian am Klopeiner See\nPLZ: 9122\nKoordinaten: 46.612166, 14.583551", "doc_type": "addresses"}
{"source": "OSM", "region": "Kärnten", "osm_type": "node", "osm_id": 5618430588, "name": null, "category": null, "address": "Hauptstraße 33, 9122 St. Kanzian am Klopeiner See", "street": "Hauptstraße", "housenumber": "33", "postcode": "9122", "place": "St. Kanzian am Klopeiner See", "lat": 46.6135253, "lon": 14.583388, "tags": {"addr:city": "St. Kanzian am Klopeiner See", "addr:housenumber": "33", "addr:postcode": "9122", "addr:street": "Hauptstraße"}, "content": "Adresse: Hauptstraße 33, 9122 St. Kanzian am Klopeiner See\nOrt: St. Kanzian am Klopeiner See\nPLZ: 9122\nKoordinaten: 46.613525, 14.583388", "doc_type": "addresses"}
{"source": "OSM", "region": "Kärnten", "osm_type": "node", "osm_id": 5626581492, "name": null, "category": null, "address": "Römerweg 9, 9122 St. Kanzian am Klopeiner See", "street": "Römerweg", "housenumber": "9", "postcode": "9122", "place": "St. Kanzian am Klopeiner See", "lat": 46.6126323, "lon": 14.587169, "tags": {"addr:city": "St. Kanzian am Klopeiner See", "addr:housenumber": "9", "addr:postcode": "9122", "addr:street": "Römerweg"}, "content": "Adresse: Römerweg 9, 9122 St. Kanzian am Klopeiner See\nOrt: St. Kanzian am Klopeiner See\nPLZ: 9122\nKoordinaten: 46.612632, 14.587169", "doc_type": "addresses"}
{"source": "OSM", "region": "Kärnten", "osm_type": "node", "osm_id": 5633753949, "name": null, "category": null, "address": "2, 9122 St. Kanzian am Klopeiner See", "street": null, "housenumber": "2", "postcode": "9122", "place": "St. Kanzian am Klopeiner See", "lat": 46.6011996, "lon": 14.5285985, "tags": {"addr:city": "St. Kanzian am Klopeiner See", "addr:housenumber": "2", "addr:place": "Saager", "addr:postcode": "9122"}, "content": "Adresse: 2, 9122 St. Kanzian am Klopeiner See\nOrt: St. Kanzian am Klopeiner See\nPLZ: 9122\nKoordinaten: 46.601200, 14.528598", "doc_type": "addresses"}
{"source": "OSM", "region": "Kärnten", "osm_type": "node", "osm_id": 278208509, "name": "Polizeiinspektion St. Kanzian am Klopeiner See", "category": "amenity:police", "address": "Klopeiner Straße 1a, 9122 St. Kanzian am Klopeiner See", "street": "Klopeiner Straße", "housenumber": "1a", "postcode": "9122", "place": "St. Kanzian am Klopeiner See", "lat": 46.6154809, "lon": 14.5750915, "tags": {"addr:city": "St. Kanzian am Klopeiner See", "addr:housenumber": "1a", "addr:postcode": "9122", "addr:street": "Klopeiner Straße", "amenity": "police", "name": "Polizeiinspektion St. Kanzian am Klopeiner See", "phone": "+43 59133 2154100", "website": "https://www.polizei.gv.at/ktn/lpd/dst/dienststellen.aspx"}, "content": "Polizeiinspektion St. Kanzian am Klopeiner See\nKategorie: amenity:police\nAdresse: Klopeiner Straße 1a, 9122 St. Kanzian am Klopeiner See\nOrt: St. Kanzian am Klopeiner See\nPLZ: 9122\nKoordinaten: 46.615481, 14.575091\nTags: amenity=police, phone=+43 59133 2154100, website=https://www.polizei.gv.at/ktn/lpd/dst/dienststellen.aspx", "doc_type": "pois"}
{"source": "OSM", "region": "Kärnten", "osm_type": "node", "osm_id": 308051201, "name": "Gasthof Menüwirt", "category": "amenity:restaurant", "address": "Schulstraße 3, 9122 St. Kanzian am Klopeiner See", "street": "Schulstraße", "housenumber": "3", "postcode": "9122", "place": "St. Kanzian am Klopeiner See", "lat": 46.6127872, "lon": 14.5762307, "tags": {"addr:city": "St. Kanzian am Klopeiner See", "addr:housenumber": "3", "addr:postcode": "9122", "addr:street": "Schulstraße", "amenity": "restaurant", "name": "Gasthof Menüwirt", "phone": "+43 4239 2248", "website": "http://www.menuewirt.at/de/"}, "content": "Gasthof Menüwirt\nKategorie: amenity:restaurant\nAdresse: Schulstraße 3, 9122 St. Kanzian am Klopeiner See\nOrt: St. Kanzian am Klopeiner See\nPLZ: 9122\nKoordinaten: 46.612787, 14.576231\nTags: amenity=restaurant, phone=+43 4239 2248, website=http://www.menuewirt.at/de/", "doc_type": "pois"}
{"source": "OSM", "region": "Kärnten", "osm_type": "node", "osm_id": 340515967, "name": "Postpartner 9122, Sabrinas Welt", "category": "amenity:post_office", "address": "Klopeiner Straße 12, 9122 St. Kanzian am Klopeiner See", "street": "Klopeiner Straße", "housenumber": "12", "postcode": "9122", "place": "St. Kanzian am Klopeiner See", "lat": 46.6144011, "lon": 14.5754401, "tags": {"addr:city": "St. Kanzian am Klopeiner See", "addr:housenumber": "12", "addr:postcode": "9122", "addr:street": "Klopeiner Straße", "amenity": "post_office", "name": "Postpartner 9122, Sabrinas Welt"}, "content": "Postpartner 9122, Sabrinas Welt\nKategorie: amenity:post_office\nAdresse: Klopeiner Straße 12, 9122 St. Kanzian am Klopeiner See\nOrt: St. Kanzian am Klopeiner See\nPLZ: 9122\nKoordinaten: 46.614401, 14.575440\nTags: amenity=post_office", "doc_type": "pois"}
{"source": "OSM", "region": "Kärnten", "osm_type": "node", "osm_id": 2423332083, "name": "Mochoritsch Eck", "category": "amenity:restaurant", "address": "Westuferstraße 16, 9122 St. Kanzian am Klopeiner See", "street": "Westuferstraße", "housenumber": "16", "postcode": "9122", "place": "St. Kanzian am Klopeiner See", "lat": 46.6070848, "lon": 14.5740545, "tags": {"addr:city": "St. Kanzian am Klopeiner See", "addr:housenumber": "16", "addr:postcode": "9122", "addr:street": "Westuferstraße", "amenity": "restaurant", "name": "Mochoritsch Eck", "phone": "+43 4239 20 278"}, "content": "Mochoritsch Eck\nKategorie: amenity:restaurant\nAdresse: Westuferstraße 16, 9122 St. Kanzian am Klopeiner See\nOrt: St. Kanzian am Klopeiner See\nPLZ: 9122\nKoordinaten: 46.607085, 14.574055\nTags: amenity=restaurant, phone=+43 4239 20 278", "doc_type": "pois"}
{"source": "OSM", "region": "Kärnten", "osm_type": "node", "osm_id": 2426499329, "name": "Turmöl", "category": "amenity:fuel", "address": "Klopeiner Straße 6, 9122 St. Kanzian am Klopeiner See", "street": "Klopeiner Straße", "housenumber": "6", "postcode": "9122", "place": "St. Kanzian am Klopeiner See", "lat": 46.6150212, "lon": 14.5751891, "tags": {"addr:city": "St. Kanzian am Klopeiner See", "addr:housenumber": "6", "addr:postcode": "9122", "addr:street": "Klopeiner Straße", "amenity": "fuel", "brand": "Turmöl", "name": "Turmöl", "operator": "Doppler Gruppe", "phone": "+43 4239 2450", "website": "https://www.turmöl.at"}, "content": "Turmöl\nKategorie: amenity:fuel\nAdresse: Klopeiner Straße 6, 9122 St. Kanzian am Klopeiner See\nOrt: St. Kanzian am Klopeiner See\nPLZ: 9122\nKoordinaten: 46.615021, 14.575189\nTags: amenity=fuel, operator=Doppler Gruppe, brand=Turmöl, phone=+43 4239 2450, website=https://www.turmöl.at", "doc_type": "pois"}
{"source": "OSM", "region": "Kärnten", "osm_type": "node", "osm_id": 2426499338, "name": "Kanzianus", "category": "amenity:pharmacy", "address": "Klopeiner Straße 2, 9122 St. Kanzian am Klopeiner See", "street": "Klopeiner Straße", "housenumber": "2", "postcode": "9122", "place": "St. Kanzian am Klopeiner See", "lat": 46.6151218, "lon": 14.574568, "tags": {"addr:city": "St. Kanzian am Klopeiner See", "addr:housenumber": "2", "addr:postcode": "9122", "addr:street": "Klopeiner Straße", "amenity": "pharmacy", "healthcare": "pharmacy", "name": "Kanzianus"}, "content": "Kanzianus\nKategorie: amenity:pharmacy\nAdresse: Klopeiner Straße 2, 9122 St. Kanzian am Klopeiner See\nOrt: St. Kanzian am Klopeiner See\nPLZ: 9122\nKoordinaten: 46.615122, 14.574568\nTags: amenity=pharmacy, healthcare=pharmacy", "doc_type": "pois"}
{"source": "OSM", "region": "Kärnten", "osm_type": "node", "osm_id": 5595109089, "name": null, "category": "leisure:pitch", "address": "Am See VI 10, 9122 St. Kanzian am Klopeiner See", "street": "Am See VI", "housenumber": "10", "postcode": "9122", "place": "St. Kanzian am Klopeiner See", "lat": 46.6078141, "lon": 14.5800093, "tags": {"addr:city": "St. Kanzian am Klopeiner See", "addr:housenumber": "10", "addr:postcode": "9122", "addr:street": "Am See VI", "leisure": "pitch"}, "content": "Kategorie: leisure:pitch\nAdresse: Am See VI 10, 9122 St. Kanzian am Klopeiner See\nOrt: St. Kanzian am Klopeiner See\nPLZ: 9122\nKoordinaten: 46.607814, 14.580009", "doc_type": "pois"}
{"source": "OSM", "region": "Kärnten", "osm_type": "node", "osm_id": 5616730207, "name": "Zum Poldi", "category": "amenity:cafe", "address": "Ostuferstraße 12, 9122 St. Kanzian am Klopeiner See", "street": "Ostuferstraße", "housenumber": "12", "postcode": "9122", "place": "St. Kanzian am Klopeiner See", "lat": 46.6076243, "lon": 14.5970485, "tags": {"addr:city": "St. Kanzian am Klopeiner See", "addr:housenumber": "12", "addr:postcode": "9122", "addr:street": "Ostuferstraße", "amenity": "cafe", "name": "Zum Poldi"}, "content": "Zum Poldi\nKategorie: amenity:cafe\nAdresse: Ostuferstraße 12, 9122 St. Kanzian am Klopeiner See\nOrt: St. Kanzian am Klopeiner See\nPLZ: 9122\nKoordinaten: 46.607624, 14.597048\nTags: amenity=cafe", "doc_type": "pois"}
