{"source": "OSM", "region": "Kärnten", "osm_type": "node", "osm_id": 1507707883, "name": "FeWo Perdacher", "category": "tourism:hotel", "address": "Raunacher Straße 16, 9081 Reifnitz", "street": "Raunacher Straße", "housenumber": "16", "postcode": "9081", "place": "Reifnitz", "lat": 46.6027087, "lon": 14.1819275, "tags": {"addr:city": "Reifnitz", "addr:housenumber": "16", "addr:postcode": "9081", "addr:street": "Raunacher Straße", "name": "FeWo Perdacher", "operator": "Silvia Perdacher", "phone": "+43 650 419 2000", "tourism": "hotel", "website": "www.perdacher.com"}, "content": "FeWo Perdacher\nKategorie: tourism:hotel\nAdresse: Raunacher Straße 16, 9081 Reifnitz\nOrt: Reifnitz\nPLZ: 9081\nKoordinaten: 46.602709, 14.181928\nTags: operator=Silvia Perdacher, phone=+43 650 419 2000, website=www.perdacher.com", "doc_type": "addresses"}
{"source": "OSM", "region": "Kärnten", "osm_type": "node", "osm_id": 1507713153, "name": "Appartements Perdacher", "category": "tourism:apartment", "address": "Raunacher Straße 16, 9081 Reifnitz", "street": "Raunacher Straße", "housenumber": "16", "postcode": "9081", "place": "Reifnitz", "lat": 46.6027418, "lon": 14.1817483, "tags": {"addr:city": "Reifnitz", "addr:housenumber": "16", "addr:postcode": "9081", "addr:street": "Raunacher Straße", "name": "Appartements Perdacher", "operator": "WEG Perdacher", "phone": "+43 650 419 4000", "tourism": "apartment", "website": "www.perdacher.com"}, "content": "Appartements Perdacher\nKategorie: tourism:apartment\nAdresse: Raunacher Straße 16, 9081 Reifnitz\nOrt: Reifnitz\nPLZ: 9081\nKoordinaten: 46.602742, 14.181748\nTags: operator=WEG Perdacher, phone=+43 650 419 4000, website=www.perdacher.com", "doc_type": "addresses"}
{"source": "OSM", "region": "Kärnten", "osm_type": "node", "osm_id": 5372645888, "name": "Pension Haus Waldesruh", "category": "tourism:guest_house", "address": "Aussichtsweg 8, 9081 Reifnitz", "street": "Aussichtsweg", "housenumber": "8", "postcode": "9081", "place": "Reifnitz", "lat": 46.6003785, "lon": 14.1789669, "tags": {"addr:city": "Reifnitz", "addr:housenumber": "8", "addr:postcode": "9081", "addr:street": "Aussichtsweg", "name": "Pension Haus Waldesruh", "operator": "Fam. Zwander", "phone": "+43 4273  2483", "tourism": "guest_house", "website": "http://www.zwander.at"}, "content": "Pension Haus Waldesruh\nKategorie: tourism:guest_house\nAdresse: Aussichtsweg 8, 9081 Reifnitz\nOrt: Reifnitz\nPLZ: 9081\nKoordinaten: 46.600378, 14.178967\nTags: operator=Fam. Zwander, phone=+43 4273  2483, website=http://www.zwander.at", "doc_type": "addresses"}
{"source": "OSM", "region": "Kärnten", "osm_type": "node", "osm_id": 539449945, "name": "Arzt, Dr. Schulz, Privatarzt", "category": "amenity:doctors", "address": "Reifnitz", "street": null, "housenumber": null, "postcode": null, "place": "Reifnitz", "lat": 46.6000383, "lon": 14.1735984, "tags": {"addr:city": "Reifnitz", "amenity": "doctors", "healthcare": "doctor", "name": "Arzt, Dr. Schulz, Privatarzt"}, "content": "Arzt, Dr. Schulz, Privatarzt\nKategorie: amenity:doctors\nAdresse: Reifnitz\nOrt: Reifnitz\nKoordinaten: 46.600038, 14.173598\nTags: amenity=doctors, healthcare=doctor", "doc_type": "pois"}
{"source": "OSM", "region": "Kärnten", "osm_type": "node", "osm_id": 1507707883, "name": "FeWo Perdacher", "category": "tourism:hotel", "address": "Raunacher Straße 16, 9081 Reifnitz", "street": "Raunacher Straße", "housenumber": "16", "postcode": "9081", "place": "Reifnitz", "lat": 46.6027087, "lon": 14.1819275, "tags": {"addr:city": "Reifnitz", "addr:housenumber": "16", "addr:postcode": "9081", "addr:street": "Raunacher Straße", "name": "FeWo Perdacher", "operator": "Silvia Perdacher", "phone": "+43 650 419 2000", "tourism": "hotel", "website": "www.perdacher.com"}, "content": "FeWo Perdacher\nKategorie: tourism:hotel\nAdresse: Raunacher Straße 16, 9081 Reifnitz\nOrt: Reifnitz\nPLZ: 9081\nKoordinaten: 46.602709, 14.181928\nTags: operator=Silvia Perdacher, phone=+43 650 419 2000, website=www.perdacher.com", "doc_type": "pois"}
{"source": "OSM", "region": "Kärnten", "osm_type": "node", "osm_id": 1507713153, "name": "Appartements Perdacher", "category": "tourism:apartment", "address": "Raunacher Straße 16, 9081 Reifnitz", "street": "Raunacher Straße", "housenumber": "16", "postcode": "9081", "place": "Reifnitz", "lat": 46.6027418, "lon": 14.1817483, "tags": {"addr:city": "Reifnitz", "addr:housenumber": "16", "addr:postcode": "9081", "addr:street": "Raunacher Straße", "name": "Appartements Perdacher", "operator": "WEG Perdacher", "phone": "+43 650 419 4000", "tourism": "apartment", "website": "www.perdacher.com"}, "content": "Appartements Perdacher\nKategorie: tourism:apartment\nAdresse: Raunacher Straße 16, 9081 Reifnitz\nOrt: Reifnitz\nPLZ: 9081\nKoordinaten: 46.602742, 14.181748\nTags: operator=WEG Perdacher, phone=+43 650 419 4000, website=www.perdacher.com", "doc_type": "pois"}
{"source": "OSM", "region": "Kärnten", "osm_type": "node", "osm_id": 5372645888, "name": "Pension Haus Waldesruh", "category": "tourism:guest_house", "address": "Aussichtsweg 8, 9081 Reifnitz", "street": "Aussichtsweg", "housenumber": "8", "postcode": "9081", "place": "Reifnitz", "lat": 46.6003785, "lon": 14.1789669, "tags": {"addr:city": "Reifnitz", "addr:housenumber": "8", "addr:postcode": "9081", "addr:street": "Aussichtsweg", "name": "Pension Haus Waldesruh", "operator": "Fam. Zwander", "phone": "+43 4273  2483", "tourism": "guest_house", "website": "http://www.zwander.at"}, "content": "Pension Haus Waldesruh\nKategorie: tourism:guest_house\nAdresse: Aussichtsweg 8, 9081 Reifnitz\nOrt: Reifnitz\nPLZ: 9081\nKoordinaten: 46.600378, 14.178967\nTags: operator=Fam. Zwander, phone=+43 4273  2483, website=http://www.zwander.at", "doc_type": "pois"}
