{"source": "OSM", "region": "Kärnten", "osm_type": "node", "osm_id": 340515957, "name": "Post Filiale 9330", "category": "amenity:post_office", "address": "Hauptplatz 8, 9330 Treibach-Althofen", "street": "Hauptplatz", "housenumber": "8", "postcode": "9330", "place": "Treibach-Althofen", "lat": 46.8716384, "lon": 14.4698805, "tags": {"addr:city": "Treibach-Althofen", "addr:housenumber": "8", "addr:postcode": "9330", "addr:street": "Hauptplatz", "amenity": "post_office", "name": "Post Filiale 9330", "operator": "Österreichische Post AG", "website": "https://www.post.at"}, "content": "Post Filiale 9330\nKategorie: amenity:post_office\nAdresse: Hauptplatz 8, 9330 Treibach-Althofen\nOrt: Treibach-Althofen\nPLZ: 9330\nKoordinaten: 46.871638, 14.469881\nTags: amenity=post_office, operator=Österreichische Post AG, website=https://www.post.at", "doc_type": "addresses"}
{"source": "OSM", "region": "Kärnten", "osm_type": "node", "osm_id": 3351561682, "name": "Kurzentrum Althofen", "category": "amenity:clinic", "address": "Moorweg 30, 9330 Treibach-Althofen", "street": "Moorweg", "housenumber": "30", "postcode": "9330", "place": "Treibach-Althofen", "lat": 46.873357, "lon": 14.4933675, "tags": {"addr:city": "Treibach-Althofen", "addr:housenumber": "30", "addr:postcode": "9330", "addr:street": "Moorweg", "amenity": "clinic", "healthcare": "clinic", "name": "Kurzentrum Althofen", "operator": "Humanomed", "website": "https://www.humanomed.at/humanomed-zentrum-althofen/"}, "content": "Kurzentrum Althofen\nKategorie: amenity:clinic\nAdresse: Moorweg 30, 9330 Treibach-Althofen\nOrt: Treibach-Althofen\nPLZ: 9330\nKoordinaten: 46.873357, 14.493367\nTags: amenity=clinic, healthcare=clinic, operator=Humanomed, website=https://www.humanomed.at/humanomed-zentrum-althofen/", "doc_type": "addresses"}
{"source": "OSM", "region": "Kärnten", "osm_type": "node", "osm_id": 340515957, "name": "Post Filiale 9330", "category": "amenity:post_office", "address": "Hauptplatz 8, 9330 Treibach-Althofen", "street": "Hauptplatz", "housenumber": "8", "postcode": "9330", "place": "Treibach-Althofen", "lat": 46.8716384, "lon": 14.4698805, "tags": {"addr:city": "Treibach-Althofen", "addr:housenumber": "8", "addr:postcode": "9330", "addr:street": "Hauptplatz", "amenity": "post_office", "name": "Post Filiale 9330", "operator": "Österreichische Post AG", "website": "https://www.post.at"}, "content": "Post Filiale 9330\nKategorie: amenity:post_office\nAdresse: Hauptplatz 8, 9330 Treibach-Althofen\nOrt: Treibach-Althofen\nPLZ: 9330\nKoordinaten: 46.871638, 14.469881\nTags: amenity=post_office, operator=Österreichische Post AG, website=https://www.post.at", "doc_type": "pois"}
{"source": "OSM", "region": "Kärnten", "osm_type": "node", "osm_id": 3351561682, "name": "Kurzentrum Althofen", "category": "amenity:clinic", "address": "Moorweg 30, 9330 Treibach-Althofen", "street": "Moorweg", "housenumber": "30", "postcode": "9330", "place": "Treibach-Althofen", "lat": 46.873357, "lon": 14.4933675, "tags": {"addr:city": "Treibach-Althofen", "addr:housenumber": "30", "addr:postcode": "9330", "addr:street": "Moorweg", "amenity": "clinic", "healthcare": "clinic", "name": "Kurzentrum Althofen", "operator": "Humanomed", "website": "https://www.humanomed.at/humanomed-zentrum-althofen/"}, "content": "Kurzentrum Althofen\nKategorie: amenity:clinic\nAdresse: Moorweg 30, 9330 Treibach-Althofen\nOrt: Treibach-Althofen\nPLZ: 9330\nKoordinaten: 46.873357, 14.493367\nTags: amenity=clinic, healthcare=clinic, operator=Humanomed, website=https://www.humanomed.at/humanomed-zentrum-althofen/", "doc_type": "pois"}
