{"source": "OSM", "region": "Kärnten", "osm_type": "node", "osm_id": 340517991, "name": "Postpartner 9155, ADEG Glawischnig", "category": "amenity:post_office", "address": "6, 9155 Neuhaus", "street": null, "housenumber": "6", "postcode": "9155", "place": "Neuhaus", "lat": 46.642414, "lon": 14.8871274, "tags": {"addr:city": "Neuhaus", "addr:housenumber": "6", "addr:place": "Neuhaus", "addr:postcode": "9155", "amenity": "post_office", "name": "Postpartner 9155, ADEG Glawischnig"}, "content": "Postpartner 9155, ADEG Glawischnig\nKategorie: amenity:post_office\nAdresse: 6, 9155 Neuhaus\nOrt: Neuhaus\nPLZ: 9155\nKoordinaten: 46.642414, 14.887127\nTags: amenity=post_office", "doc_type": "addresses"}
{"source": "OSM", "region": "Kärnten", "osm_type": "node", "osm_id": 3220812150, "name": "Gasthof Hartl", "category": "amenity:restaurant", "address": "3, 9155 Neuhaus", "street": null, "housenumber": "3", "postcode": "9155", "place": "Neuhaus", "lat": 46.6422464, "lon": 14.8874734, "tags": {"addr:city": "Neuhaus", "addr:housenumber": "3", "addr:place": "Neuhaus", "addr:postcode": "9155", "amenity": "restaurant", "name": "Gasthof Hartl"}, "content": "Gasthof Hartl\nKategorie: amenity:restaurant\nAdresse: 3, 9155 Neuhaus\nOrt: Neuhaus\nPLZ: 9155\nKoordinaten: 46.642246, 14.887473\nTags: amenity=restaurant", "doc_type": "addresses"}
{"source": "OSM", "region": "Kärnten", "osm_type": "node", "osm_id": 5513885384, "name": null, "category": null, "address": "14, 9155 Neuhaus", "street": null, "housenumber": "14", "postcode": "9155", "place": "Neuhaus", "lat": 46.634975, "lon": 14.8817714, "tags": {"addr:city": "Neuhaus", "addr:housenumber": "14", "addr:place": "Kogelnigberg", "addr:postcode": "9155"}, "content": "Adresse: 14, 9155 Neuhaus\nOrt: Neuhaus\nPLZ: 9155\nKoordinaten: 46.634975, 14.881771", "doc_type": "addresses"}
{"source": "OSM", "region": "Kärnten", "osm_type": "node", "osm_id": 5513885385, "name": null, "category": null, "address": "20, 9155 Neuhaus", "street": null, "housenumber": "20", "postcode": "9155", "place": "Neuhaus", "lat": 46.6328108, "lon": 14.8732833, "tags": {"addr:city": "Neuhaus", "addr:housenumber": "20", "addr:place": "Kogelnigberg", "addr:postcode": "9155"}, "content": "Adresse: 20, 9155 Neuhaus\nOrt: Neuhaus\nPLZ: 9155\nKoordinaten: 46.632811, 14.873283", "doc_type": "addresses"}
{"source": "OSM", "region": "Kärnten", "osm_type": "node", "osm_id": 5513885386, "name": null, "category": null, "address": "21, 9155 Neuhaus", "street": null, "housenumber": "21", "postcode": "9155", "place": "Neuhaus", "lat": 46.6338991, "lon": 14.8720875, "tags": {"addr:city": "Neuhaus", "addr:housenumber": "21", "addr:place": "Kogelnigberg", "addr:postcode": "9155"}, "content": "Adresse: 21, 9155 Neuhaus\nOrt: Neuhaus\nPLZ: 9155\nKoordinaten: 46.633899, 14.872087", "doc_type": "addresses"}
{"source": "OSM", "region": "Kärnten", "osm_type": "node", "osm_id": 5513885387, "name": null, "category": null, "address": "22, 9155 Neuhaus", "street": null, "housenumber": "22", "postcode": "9155", "place": "Neuhaus", "lat": 46.6333819, "lon": 14.8739365, "tags": {"addr:city": "Neuhaus", "addr:housenumber": "22", "addr:place": "Kogelnigberg", "addr:postcode": "9155"}, "content": "Adresse: 22, 9155 Neuhaus\nOrt: Neuhaus\nPLZ: 9155\nKoordinaten: 46.633382, 14.873936", "doc_type": "addresses"}
{"source": "OSM", "region": "Kärnten", "osm_type": "node", "osm_id": 5513885388, "name": null, "category": null, "address": "4, 9155 Neuhaus", "street": null, "housenumber": "4", "postcode": "9155", "place": "Neuhaus", "lat": 46.6380288, "lon": 14.8708936, "tags": {"addr:city": "Neuhaus", "addr:housenumber": "4", "addr:place": "Heiligenstadt", "addr:postcode": "9155"}, "content": "Adresse: 4, 9155 Neuhaus\nOrt: Neuhaus\nPLZ: 9155\nKoordinaten: 46.638029, 14.870894", "doc_type": "addresses"}
{"source": "OSM", "region": "Kärnten", "osm_type": "node", "osm_id": 5513885389, "name": null, "category": null, "address": "3, 9155 Neuhaus", "street": null, "housenumber": "3", "postcode": "9155", "place": "Neuhaus", "lat": 46.637622, "lon": 14.8761281, "tags": {"addr:city": "Neuhaus", "addr:housenumber": "3", "addr:place": "Heiligenstadt", "addr:postcode": "9155"}, "content": "Adresse: 3, 9155 Neuhaus\nOrt: Neuhaus\nPLZ: 9155\nKoordinaten: 46.637622, 14.876128", "doc_type": "addresses"}
{"source": "OSM", "region": "Kärnten", "osm_type": "node", "osm_id": 5513885390, "name": null, "category": null, "address": "8, 9155 Neuhaus", "street": null, "housenumber": "8", "postcode": "9155", "place": "Neuhaus", "lat": 46.6350118, "lon": 14.8746308, "tags": {"addr:city": "Neuhaus", "addr:housenumber": "8", "addr:place": "Kogelnigberg", "addr:postcode": "9155"}, "content": "Adresse: 8, 9155 Neuhaus\nOrt: Neuhaus\nPLZ: 9155\nKoordinaten: 46.635012, 14.874631", "doc_type": "addresses"}
{"source": "OSM", "region": "Kärnten", "osm_type": "node", "osm_id": 5513885391, "name": null, "category": null, "address": "11, 9155 Neuhaus", "street": null, "housenumber": "11", "postcode": "9155", "place": "Neuhaus", "lat": 46.6352324, "lon": 14.8619647, "tags": {"addr:city": "Neuhaus", "addr:housenumber": "11", "addr:place": "Heiligenstadt", "addr:postcode": "9155"}, "content": "Adresse: 11, 9155 Neuhaus\nOrt: Neuhaus\nPLZ: 9155\nKoordinaten: 46.635232, 14.861965", "doc_type": "addresses"}
{"source": "OSM", "region": "Kärnten", "osm_type": "node", "osm_id": 5513885392, "name": null, "category": null, "address": "5, 9155 Neuhaus", "street": null, "housenumber": "5", "postcode": "9155", "place": "Neuhaus", "lat": 46.635274, "lon": 14.8631015, "tags": {"addr:city": "Neuhaus", "addr:housenumber": "5", "addr:place": "Heiligenstadt", "addr:postcode": "9155"}, "content": "Adresse: 5, 9155 Neuhaus\nOrt: Neuhaus\nPLZ: 9155\nKoordinaten: 46.635274, 14.863102", "doc_type": "addresses"}
{"source": "OSM", "region": "Kärnten", "osm_type": "node", "osm_id": 5513885395, "name": null, "category": null, "address": "6, 9155 Neuhaus", "street": null, "housenumber": "6", "postcode": "9155", "place": "Neuhaus", "lat": 46.6329873, "lon": 14.8578027, "tags": {"addr:city": "Neuhaus", "addr:housenumber": "6", "addr:place": "Heiligenstadt", "addr:postcode": "9155"}, "content": "Adresse: 6, 9155 Neuhaus\nOrt: Neuhaus\nPLZ: 9155\nKoordinaten: 46.632987, 14.857803", "doc_type": "addresses"}
{"source": "OSM", "region": "Kärnten", "osm_type": "node", "osm_id": 5513885396, "name": null, "category": null, "address": "12, 9155 Neuhaus", "street": null, "housenumber": "12", "postcode": "9155", "place": "Neuhaus", "lat": 46.6329052, "lon": 14.8588789, "tags": {"addr:city": "Neuhaus", "addr:housenumber": "12", "addr:place": "Heiligenstadt", "addr:postcode": "9155"}, "content": "Adresse: 12, 9155 Neuhaus\nOrt: Neuhaus\nPLZ: 9155\nKoordinaten: 46.632905, 14.858879", "doc_type": "addresses"}
{"source": "OSM", "region": "Kärnten", "osm_type": "node", "osm_id": 5513885397, "name": null, "category": null, "address": "16, 9155 Neuhaus", "street": null, "housenumber": "16", "postcode": "9155", "place": "Neuhaus", "lat": 46.6423101, "lon": 14.8577385, "tags": {"addr:city": "Neuhaus", "addr:housenumber": "16", "addr:place": "Unterdorf", "addr:postcode": "9155"}, "content": "Adresse: 16, 9155 Neuhaus\nOrt: Neuhaus\nPLZ: 9155\nKoordinaten: 46.642310, 14.857738", "doc_type": "addresses"}
{"source": "OSM", "region": "Kärnten", "osm_type": "node", "osm_id": 5513885398, "name": null, "category": null, "address": "12, 9155 Neuhaus", "street": null, "housenumber": "12", "postcode": "9155", "place": "Neuhaus", "lat": 46.6424069, "lon": 14.8571924, "tags": {"addr:city": "Neuhaus", "addr:housenumber": "12", "addr:place": "Unterdorf", "addr:postcode": "9155"}, "content": "Adresse: 12, 9155 Neuhaus\nOrt: Neuhaus\nPLZ: 9155\nKoordinaten: 46.642407, 14.857192", "doc_type": "addresses"}
{"source": "OSM", "region": "Kärnten", "osm_type": "node", "osm_id": 5513885399, "name": null, "category": null, "address": "15, 9155 Neuhaus", "street": null, "housenumber": "15", "postcode": "9155", "place": "Neuhaus", "lat": 46.642712, "lon": 14.8576921, "tags": {"addr:city": "Neuhaus", "addr:housenumber": "15", "addr:place": "Unterdorf", "addr:postcode": "9155"}, "content": "Adresse: 15, 9155 Neuhaus\nOrt: Neuhaus\nPLZ: 9155\nKoordinaten: 46.642712, 14.857692", "doc_type": "addresses"}
{"source": "OSM", "region": "Kärnten", "osm_type": "node", "osm_id": 5513885400, "name": null, "category": null, "address": "5, 9155 Neuhaus", "street": null, "housenumber": "5", "postcode": "9155", "place": "Neuhaus", "lat": 46.6425613, "lon": 14.8591841, "tags": {"addr:city": "Neuhaus", "addr:housenumber": "5", "addr:place": "Unterdorf", "addr:postcode": "9155"}, "content": "Adresse: 5, 9155 Neuhaus\nOrt: Neuhaus\nPLZ: 9155\nKoordinaten: 46.642561, 14.859184", "doc_type": "addresses"}
{"source": "OSM", "region": "Kärnten", "osm_type": "node", "osm_id": 5513885401, "name": null, "category": null, "address": "13, 9155 Neuhaus", "street": null, "housenumber": "13", "postcode": "9155", "place": "Neuhaus", "lat": 46.6420798, "lon": 14.8588628, "tags": {"addr:city": "Neuhaus", "addr:housenumber": "13", "addr:place": "Unterdorf", "addr:postcode": "9155"}, "content": "Adresse: 13, 9155 Neuhaus\nOrt: Neuhaus\nPLZ: 9155\nKoordinaten: 46.642080, 14.858863", "doc_type": "addresses"}
{"source": "OSM", "region": "Kärnten", "osm_type": "node", "osm_id": 5513885402, "name": null, "category": null, "address": "14, 9155 Neuhaus", "street": null, "housenumber": "14", "postcode": "9155", "place": "Neuhaus", "lat": 46.641918, "lon": 14.8585237, "tags": {"addr:city": "Neuhaus", "addr:housenumber": "14", "addr:place": "Unterdorf", "addr:postcode": "9155"}, "content": "Adresse: 14, 9155 Neuhaus\nOrt: Neuhaus\nPLZ: 9155\nKoordinaten: 46.641918, 14.858524", "doc_type": "addresses"}
{"source": "OSM", "region": "Kärnten", "osm_type": "node", "osm_id": 5513885403, "name": null, "category": null, "address": "11a, 9155 Neuhaus", "street": null, "housenumber": "11a", "postcode": "9155", "place": "Neuhaus", "lat": 46.6417416, "lon": 14.8584595, "tags": {"addr:city": "Neuhaus", "addr:housenumber": "11a", "addr:place": "Unterdorf", "addr:postcode": "9155"}, "content": "Adresse: 11a, 9155 Neuhaus\nOrt: Neuhaus\nPLZ: 9155\nKoordinaten: 46.641742, 14.858460", "doc_type": "addresses"}
{"source": "OSM", "region": "Kärnten", "osm_type": "node", "osm_id": 5513885404, "name": null, "category": null, "address": "4, 9155 Neuhaus", "street": null, "housenumber": "4", "postcode": "9155", "place": "Neuhaus", "lat": 46.6419867, "lon": 14.8596642, "tags": {"addr:city": "Neuhaus", "addr:housenumber": "4", "addr:place": "Unterdorf", "addr:postcode": "9155"}, "content": "Adresse: 4, 9155 Neuhaus\nOrt: Neuhaus\nPLZ: 9155\nKoordinaten: 46.641987, 14.859664", "doc_type": "addresses"}
{"source": "OSM", "region": "Kärnten", "osm_type": "node", "osm_id": 5513885405, "name": null, "category": null, "address": "11, 9155 Neuhaus", "street": null, "housenumber": "11", "postcode": "9155", "place": "Neuhaus", "lat": 46.6416325, "lon": 14.8594786, "tags": {"addr:city": "Neuhaus", "addr:housenumber": "11", "addr:place": "Unterdorf", "addr:postcode": "9155"}, "content": "Adresse: 11, 9155 Neuhaus\nOrt: Neuhaus\nPLZ: 9155\nKoordinaten: 46.641633, 14.859479", "doc_type": "addresses"}
{"source": "OSM", "region": "Kärnten", "osm_type": "node", "osm_id": 5513887181, "name": null, "category": null, "address": "19, 9155 Neuhaus", "street": null, "housenumber": "19", "postcode": "9155", "place": "Neuhaus", "lat": 46.641371, "lon": 14.8459357, "tags": {"addr:city": "Neuhaus", "addr:housenumber": "19", "addr:place": "Oberdorf", "addr:postcode": "9155"}, "content": "Adresse: 19, 9155 Neuhaus\nOrt: Neuhaus\nPLZ: 9155\nKoordinaten: 46.641371, 14.845936", "doc_type": "addresses"}
{"source": "OSM", "region": "Kärnten", "osm_type": "node", "osm_id": 5513887199, "name": null, "category": null, "address": "74, 9155 Neuhaus", "street": null, "housenumber": "74", "postcode": "9155", "place": "Neuhaus", "lat": 46.6491766, "lon": 14.8530677, "tags": {"addr:city": "Neuhaus", "addr:housenumber": "74", "addr:place": "Schwabegg", "addr:postcode": "9155"}, "content": "Adresse: 74, 9155 Neuhaus\nOrt: Neuhaus\nPLZ: 9155\nKoordinaten: 46.649177, 14.853068", "doc_type": "addresses"}
{"source": "OSM", "region": "Kärnten", "osm_type": "node", "osm_id": 5513887201, "name": null, "category": null, "address": "51, 9155 Neuhaus", "street": null, "housenumber": "51", "postcode": "9155", "place": "Neuhaus", "lat": 46.6503144, "lon": 14.8527244, "tags": {"addr:city": "Neuhaus", "addr:housenumber": "51", "addr:place": "Schwabegg", "addr:postcode": "9155"}, "content": "Adresse: 51, 9155 Neuhaus\nOrt: Neuhaus\nPLZ: 9155\nKoordinaten: 46.650314, 14.852724", "doc_type": "addresses"}
{"source": "OSM", "region": "Kärnten", "osm_type": "node", "osm_id": 5513887202, "name": null, "category": null, "address": "55, 9155 Neuhaus", "street": null, "housenumber": "55", "postcode": "9155", "place": "Neuhaus", "lat": 46.6505188, "lon": 14.8538589, "tags": {"addr:city": "Neuhaus", "addr:housenumber": "55", "addr:place": "Schwabegg", "addr:postcode": "9155"}, "content": "Adresse: 55, 9155 Neuhaus\nOrt: Neuhaus\nPLZ: 9155\nKoordinaten: 46.650519, 14.853859", "doc_type": "addresses"}
{"source": "OSM", "region": "Kärnten", "osm_type": "node", "osm_id": 5513887634, "name": null, "category": null, "address": "27, 9155 Neuhaus", "street": null, "housenumber": "27", "postcode": "9155", "place": "Neuhaus", "lat": 46.6501837, "lon": 14.8498705, "tags": {"addr:city": "Neuhaus", "addr:housenumber": "27", "addr:place": "Schwabegg", "addr:postcode": "9155"}, "content": "Adresse: 27, 9155 Neuhaus\nOrt: Neuhaus\nPLZ: 9155\nKoordinaten: 46.650184, 14.849870", "doc_type": "addresses"}
{"source": "OSM", "region": "Kärnten", "osm_type": "node", "osm_id": 5513887649, "name": null, "category": null, "address": "16, 9155 Neuhaus", "street": null, "housenumber": "16", "postcode": "9155", "place": "Neuhaus", "lat": 46.6502702, "lon": 14.8468047, "tags": {"addr:city": "Neuhaus", "addr:housenumber": "16", "addr:place": "Schwabegg", "addr:postcode": "9155"}, "content": "Adresse: 16, 9155 Neuhaus\nOrt: Neuhaus\nPLZ: 9155\nKoordinaten: 46.650270, 14.846805", "doc_type": "addresses"}
{"source": "OSM", "region": "Kärnten", "osm_type": "node", "osm_id": 5516148180, "name": null, "category": null, "address": "6, 9155 Neuhaus", "street": null, "housenumber": "6", "postcode": "9155", "place": "Neuhaus", "lat": 46.62828, "lon": 14.8965007, "tags": {"addr:city": "Neuhaus", "addr:housenumber": "6", "addr:place": "Graditschach", "addr:postcode": "9155"}, "content": "Adresse: 6, 9155 Neuhaus\nOrt: Neuhaus\nPLZ: 9155\nKoordinaten: 46.628280, 14.896501", "doc_type": "addresses"}
{"source": "OSM", "region": "Kärnten", "osm_type": "node", "osm_id": 5516152271, "name": "ADEG Kaufhaus Glawischnig", "category": "shop:supermarket", "address": "6, 9155 Neuhaus", "street": null, "housenumber": "6", "postcode": "9155", "place": "Neuhaus", "lat": 46.6423973, "lon": 14.8871827, "tags": {"addr:city": "Neuhaus", "addr:housenumber": "6", "addr:place": "Neuhaus", "addr:postcode": "9155", "name": "ADEG Kaufhaus Glawischnig", "operator": "Schuler-Glawischnig", "shop": "supermarket"}, "content": "ADEG Kaufhaus Glawischnig\nKategorie: shop:supermarket\nAdresse: 6, 9155 Neuhaus\nOrt: Neuhaus\nPLZ: 9155\nKoordinaten: 46.642397, 14.887183\nTags: shop=supermarket, operator=Schuler-Glawischnig", "doc_type": "addresses"}
{"source": "OSM", "region": "Kärnten", "osm_type": "node", "osm_id": 5516152502, "name": null, "category": null, "address": "2, 9155 Neuhaus", "street": null, "housenumber": "2", "postcode": "9155", "place": "Neuhaus", "lat": 46.6269832, "lon": 14.8879364, "tags": {"addr:city": "Neuhaus", "addr:housenumber": "2", "addr:place": "Wesnitzen", "addr:postcode": "9155"}, "content": "Adresse: 2, 9155 Neuhaus\nOrt: Neuhaus\nPLZ: 9155\nKoordinaten: 46.626983, 14.887936", "doc_type": "addresses"}
{"source": "OSM", "region": "Kärnten", "osm_type": "node", "osm_id": 5516152503, "name": null, "category": null, "address": "1, 9155 Neuhaus", "street": null, "housenumber": "1", "postcode": "9155", "place": "Neuhaus", "lat": 46.6275911, "lon": 14.88821, "tags": {"addr:city": "Neuhaus", "addr:housenumber": "1", "addr:place": "Wesnitzen", "addr:postcode": "9155"}, "content": "Adresse: 1, 9155 Neuhaus\nOrt: Neuhaus\nPLZ: 9155\nKoordinaten: 46.627591, 14.888210", "doc_type": "addresses"}
{"source": "OSM", "region": "Kärnten", "osm_type": "node", "osm_id": 5516152796, "name": null, "category": null, "address": "8, 9155 Neuhaus", "street": null, "housenumber": "8", "postcode": "9155", "place": "Neuhaus", "lat": 46.6287714, "lon": 14.8479904, "tags": {"addr:city": "Neuhaus", "addr:housenumber": "8", "addr:place": "Heiligenstadt", "addr:postcode": "9155"}, "content": "Adresse: 8, 9155 Neuhaus\nOrt: Neuhaus\nPLZ: 9155\nKoordinaten: 46.628771, 14.847990", "doc_type": "addresses"}
{"source": "OSM", "region": "Kärnten", "osm_type": "node", "osm_id": 5518164442, "name": null, "category": null, "address": "13, 9155 Neuhaus", "street": null, "housenumber": "13", "postcode": "9155", "place": "Neuhaus", "lat": 46.646538, "lon": 14.9046063, "tags": {"addr:city": "Neuhaus", "addr:housenumber": "13", "addr:place": "Pudlach", "addr:postcode": "9155"}, "content": "Adresse: 13, 9155 Neuhaus\nOrt: Neuhaus\nPLZ: 9155\nKoordinaten: 46.646538, 14.904606", "doc_type": "addresses"}
{"source": "OSM", "region": "Kärnten", "osm_type": "node", "osm_id": 5518164798, "name": null, "category": null, "address": "34, 9155 Neuhaus", "street": null, "housenumber": "34", "postcode": "9155", "place": "Neuhaus", "lat": 46.6449323, "lon": 14.8938426, "tags": {"addr:city": "Neuhaus", "addr:housenumber": "34", "addr:place": "Motschula", "addr:postcode": "9155"}, "content": "Adresse: 34, 9155 Neuhaus\nOrt: Neuhaus\nPLZ: 9155\nKoordinaten: 46.644932, 14.893843", "doc_type": "addresses"}
{"source": "OSM", "region": "Kärnten", "osm_type": "node", "osm_id": 5518164799, "name": null, "category": null, "address": "1, 9155 Neuhaus", "street": null, "housenumber": "1", "postcode": "9155", "place": "Neuhaus", "lat": 46.6448292, "lon": 14.8946929, "tags": {"addr:city": "Neuhaus", "addr:housenumber": "1", "addr:place": "Motschula", "addr:postcode": "9155"}, "content": "Adresse: 1, 9155 Neuhaus\nOrt: Neuhaus\nPLZ: 9155\nKoordinaten: 46.644829, 14.894693", "doc_type": "addresses"}
{"source": "OSM", "region": "Kärnten", "osm_type": "node", "osm_id": 5518164800, "name": null, "category": null, "address": "37, 9155 Neuhaus", "street": null, "housenumber": "37", "postcode": "9155", "place": "Neuhaus", "lat": 46.6418424, "lon": 14.8973697, "tags": {"addr:city": "Neuhaus", "addr:housenumber": "37", "addr:place": "Motschula", "addr:postcode": "9155"}, "content": "Adresse: 37, 9155 Neuhaus\nOrt: Neuhaus\nPLZ: 9155\nKoordinaten: 46.641842, 14.897370", "doc_type": "addresses"}
{"source": "OSM", "region": "Kärnten", "osm_type": "node", "osm_id": 5518164801, "name": null, "category": null, "address": "2, 9155 Neuhaus", "street": null, "housenumber": "2", "postcode": "9155", "place": "Neuhaus", "lat": 46.642196, "lon": 14.8973966, "tags": {"addr:city": "Neuhaus", "addr:housenumber": "2", "addr:place": "Motschula", "addr:postcode": "9155"}, "content": "Adresse: 2, 9155 Neuhaus\nOrt: Neuhaus\nPLZ: 9155\nKoordinaten: 46.642196, 14.897397", "doc_type": "addresses"}
{"source": "OSM", "region": "Kärnten", "osm_type": "node", "osm_id": 5518164802, "name": null, "category": null, "address": "8, 9155 Neuhaus", "street": null, "housenumber": "8", "postcode": "9155", "place": "Neuhaus", "lat": 46.6431609, "lon": 14.8954332, "tags": {"addr:city": "Neuhaus", "addr:housenumber": "8", "addr:place": "Motschula", "addr:postcode": "9155"}, "content": "Adresse: 8, 9155 Neuhaus\nOrt: Neuhaus\nPLZ: 9155\nKoordinaten: 46.643161, 14.895433", "doc_type": "addresses"}
{"source": "OSM", "region": "Kärnten", "osm_type": "node", "osm_id": 5518164900, "name": null, "category": null, "address": "12, 9155 Neuhaus", "street": null, "housenumber": "12", "postcode": "9155", "place": "Neuhaus", "lat": 46.6260364, "lon": 14.9224082, "tags": {"addr:city": "Neuhaus", "addr:housenumber": "12", "addr:place": "Illmitzen", "addr:postcode": "9155"}, "content": "Adresse: 12, 9155 Neuhaus\nOrt: Neuhaus\nPLZ: 9155\nKoordinaten: 46.626036, 14.922408", "doc_type": "addresses"}
{"source": "OSM", "region": "Kärnten", "osm_type": "node", "osm_id": 340517991, "name": "Postpartner 9155, ADEG Glawischnig", "category": "amenity:post_office", "address": "6, 9155 Neuhaus", "street": null, "housenumber": "6", "postcode": "9155", "place": "Neuhaus", "lat": 46.642414, "lon": 14.8871274, "tags": {"addr:city": "Neuhaus", "addr:housenumber": "6", "addr:place": "Neuhaus", "addr:postcode": "9155", "amenity": "post_office", "name": "Postpartner 9155, ADEG Glawischnig"}, "content": "Postpartner 9155, ADEG Glawischnig\nKategorie: amenity:post_office\nAdresse: 6, 9155 Neuhaus\nOrt: Neuhaus\nPLZ: 9155\nKoordinaten: 46.642414, 14.887127\nTags: amenity=post_office", "doc_type": "pois"}
{"source": "OSM", "region": "Kärnten", "osm_type": "node", "osm_id": 3220812150, "name": "Gasthof Hartl", "category": "amenity:restaurant", "address": "3, 9155 Neuhaus", "street": null, "housenumber": "3", "postcode": "9155", "place": "Neuhaus", "lat": 46.6422464, "lon": 14.8874734, "tags": {"addr:city": "Neuhaus", "addr:housenumber": "3", "addr:place": "Neuhaus", "addr:postcode": "9155", "amenity": "restaurant", "name": "Gasthof Hartl"}, "content": "Gasthof Hartl\nKategorie: amenity:restaurant\nAdresse: 3, 9155 Neuhaus\nOrt: Neuhaus\nPLZ: 9155\nKoordinaten: 46.642246, 14.887473\nTags: amenity=restaurant", "doc_type": "pois"}
{"source": "OSM", "region": "Kärnten", "osm_type": "node", "osm_id": 5516152271, "name": "ADEG Kaufhaus Glawischnig", "category": "shop:supermarket", "address": "6, 9155 Neuhaus", "street": null, "housenumber": "6", "postcode": "9155", "place": "Neuhaus", "lat": 46.6423973, "lon": 14.8871827, "tags": {"addr:city": "Neuhaus", "addr:housenumber": "6", "addr:place": "Neuhaus", "addr:postcode": "9155", "name": "ADEG Kaufhaus Glawischnig", "operator": "Schuler-Glawischnig", "shop": "supermarket"}, "content": "ADEG Kaufhaus Glawischnig\nKategorie: shop:supermarket\nAdresse: 6, 9155 Neuhaus\nOrt: Neuhaus\nPLZ: 9155\nKoordinaten: 46.642397, 14.887183\nTags: shop=supermarket, operator=Schuler-Glawischnig", "doc_type": "pois"}
