{"source": "OSM", "region": "Kärnten", "osm_type": "node", "osm_id": 474595022, "name": "Wackendorfer Alm", "category": "tourism:alpine_hut", "address": "39, 9142 Globasnitz", "street": null, "housenumber": "39", "postcode": "9142", "place": "Globasnitz", "lat": 46.5231418, "lon": 14.7241233, "tags": {"addr:city": "Globasnitz", "addr:housenumber": "39", "addr:place": "Wackendorf", "addr:postcode": "9142", "name": "Wackendorfer Alm", "operator": "private", "tourism": "alpine_hut"}, "content": "Wackendorfer Alm\nKategorie: tourism:alpine_hut\nAdresse: 39, 9142 Globasnitz\nOrt: Globasnitz\nPLZ: 9142\nKoordinaten: 46.523142, 14.724123\nTags: operator=private", "doc_type": "addresses"}
{"source": "OSM", "region": "Kärnten", "osm_type": "node", "osm_id": 1494443229, "name": "Jausenstation Hemmastubn", "category": "amenity:restaurant", "address": "15, 9142 Globasnitz", "street": null, "housenumber": "15", "postcode": "9142", "place": "Globasnitz", "lat": 46.5510048, "lon": 14.6687093, "tags": {"addr:city": "Globasnitz", "addr:housenumber": "15", "addr:place": "Slovenjach", "addr:postcode": "9142", "amenity": "restaurant", "name": "Jausenstation Hemmastubn"}, "content": "Jausenstation Hemmastubn\nKategorie: amenity:restaurant\nAdresse: 15, 9142 Globasnitz\nOrt: Globasnitz\nPLZ: 9142\nKoordinaten: 46.551005, 14.668709\nTags: amenity=restaurant", "doc_type": "addresses"}
{"source": "OSM", "region": "Kärnten", "osm_type": "node", "osm_id": 4519518950, "name": "Dr. Bakondy", "category": "amenity:doctors", "address": "150, 9142 Globasnitz", "street": null, "housenumber": "150", "postcode": "9142", "place": "Globasnitz", "lat": 46.5598694, "lon": 14.7025654, "tags": {"addr:city": "Globasnitz", "addr:housenumber": "150", "addr:place": "Globasnitz", "addr:postcode": "9142", "amenity": "doctors", "name": "Dr. Bakondy"}, "content": "Dr. Bakondy\nKategorie: amenity:doctors\nAdresse: 150, 9142 Globasnitz\nOrt: Globasnitz\nPLZ: 9142\nKoordinaten: 46.559869, 14.702565\nTags: amenity=doctors", "doc_type": "addresses"}
{"source": "OSM", "region": "Kärnten", "osm_type": "node", "osm_id": 4519603454, "name": null, "category": "craft:carpenter", "address": "108, 9142 Globasnitz", "street": null, "housenumber": "108", "postcode": "9142", "place": "Globasnitz", "lat": 46.5696693, "lon": 14.6978441, "tags": {"addr:city": "Globasnitz", "addr:housenumber": "108", "addr:place": "St. Stefan", "addr:postcode": "9142", "craft": "carpenter"}, "content": "Kategorie: craft:carpenter\nAdresse: 108, 9142 Globasnitz\nOrt: Globasnitz\nPLZ: 9142\nKoordinaten: 46.569669, 14.697844", "doc_type": "addresses"}
{"source": "OSM", "region": "Kärnten", "osm_type": "node", "osm_id": 5526603667, "name": null, "category": null, "address": "18, 9142 Globasnitz", "street": null, "housenumber": "18", "postcode": "9142", "place": "Globasnitz", "lat": 46.567609, "lon": 14.6894959, "tags": {"addr:city": "Globasnitz", "addr:housenumber": "18", "addr:place": "Tschepitschach", "addr:postcode": "9142"}, "content": "Adresse: 18, 9142 Globasnitz\nOrt: Globasnitz\nPLZ: 9142\nKoordinaten: 46.567609, 14.689496", "doc_type": "addresses"}
{"source": "OSM", "region": "Kärnten", "osm_type": "node", "osm_id": 5526603668, "name": null, "category": null, "address": "20, 9142 Globasnitz", "street": null, "housenumber": "20", "postcode": "9142", "place": "Globasnitz", "lat": 46.5673287, "lon": 14.6904507, "tags": {"addr:city": "Globasnitz", "addr:housenumber": "20", "addr:place": "Tschepitschach", "addr:postcode": "9142"}, "content": "Adresse: 20, 9142 Globasnitz\nOrt: Globasnitz\nPLZ: 9142\nKoordinaten: 46.567329, 14.690451", "doc_type": "addresses"}
{"source": "OSM", "region": "Kärnten", "osm_type": "node", "osm_id": 5526603669, "name": null, "category": null, "address": "24, 9142 Globasnitz", "street": null, "housenumber": "24", "postcode": "9142", "place": "Globasnitz", "lat": 46.5670115, "lon": 14.6897185, "tags": {"addr:city": "Globasnitz", "addr:housenumber": "24", "addr:place": "Tschepitschach", "addr:postcode": "9142"}, "content": "Adresse: 24, 9142 Globasnitz\nOrt: Globasnitz\nPLZ: 9142\nKoordinaten: 46.567011, 14.689718", "doc_type": "addresses"}
{"source": "OSM", "region": "Kärnten", "osm_type": "node", "osm_id": 5526603670, "name": null, "category": null, "address": "19, 9142 Globasnitz", "street": null, "housenumber": "19", "postcode": "9142", "place": "Globasnitz", "lat": 46.5671517, "lon": 14.6901852, "tags": {"addr:city": "Globasnitz", "addr:housenumber": "19", "addr:place": "Tschepitschach", "addr:postcode": "9142"}, "content": "Adresse: 19, 9142 Globasnitz\nOrt: Globasnitz\nPLZ: 9142\nKoordinaten: 46.567152, 14.690185", "doc_type": "addresses"}
{"source": "OSM", "region": "Kärnten", "osm_type": "node", "osm_id": 5526603671, "name": null, "category": null, "address": "11, 9142 Globasnitz", "street": null, "housenumber": "11", "postcode": "9142", "place": "Globasnitz", "lat": 46.5678284, "lon": 14.6896809, "tags": {"addr:city": "Globasnitz", "addr:housenumber": "11", "addr:place": "Tschepitschach", "addr:postcode": "9142"}, "content": "Adresse: 11, 9142 Globasnitz\nOrt: Globasnitz\nPLZ: 9142\nKoordinaten: 46.567828, 14.689681", "doc_type": "addresses"}
{"source": "OSM", "region": "Kärnten", "osm_type": "node", "osm_id": 5526603672, "name": null, "category": null, "address": "17, 9142 Globasnitz", "street": null, "housenumber": "17", "postcode": "9142", "place": "Globasnitz", "lat": 46.5675334, "lon": 14.6899277, "tags": {"addr:city": "Globasnitz", "addr:housenumber": "17", "addr:place": "Tschepitschach", "addr:postcode": "9142"}, "content": "Adresse: 17, 9142 Globasnitz\nOrt: Globasnitz\nPLZ: 9142\nKoordinaten: 46.567533, 14.689928", "doc_type": "addresses"}
{"source": "OSM", "region": "Kärnten", "osm_type": "node", "osm_id": 5526603673, "name": null, "category": null, "address": "15, 9142 Globasnitz", "street": null, "housenumber": "15", "postcode": "9142", "place": "Globasnitz", "lat": 46.5673361, "lon": 14.6895763, "tags": {"addr:city": "Globasnitz", "addr:housenumber": "15", "addr:place": "Tschepitschach", "addr:postcode": "9142"}, "content": "Adresse: 15, 9142 Globasnitz\nOrt: Globasnitz\nPLZ: 9142\nKoordinaten: 46.567336, 14.689576", "doc_type": "addresses"}
{"source": "OSM", "region": "Kärnten", "osm_type": "node", "osm_id": 5526603674, "name": null, "category": null, "address": "12, 9142 Globasnitz", "street": null, "housenumber": "12", "postcode": "9142", "place": "Globasnitz", "lat": 46.5672476, "lon": 14.6892866, "tags": {"addr:city": "Globasnitz", "addr:housenumber": "12", "addr:place": "Tschepitschach", "addr:postcode": "9142"}, "content": "Adresse: 12, 9142 Globasnitz\nOrt: Globasnitz\nPLZ: 9142\nKoordinaten: 46.567248, 14.689287", "doc_type": "addresses"}
{"source": "OSM", "region": "Kärnten", "osm_type": "node", "osm_id": 5526603675, "name": null, "category": null, "address": "14, 9142 Globasnitz", "street": null, "housenumber": "14", "postcode": "9142", "place": "Globasnitz", "lat": 46.5676182, "lon": 14.6890506, "tags": {"addr:city": "Globasnitz", "addr:housenumber": "14", "addr:place": "Tschepitschach", "addr:postcode": "9142"}, "content": "Adresse: 14, 9142 Globasnitz\nOrt: Globasnitz\nPLZ: 9142\nKoordinaten: 46.567618, 14.689051", "doc_type": "addresses"}
{"source": "OSM", "region": "Kärnten", "osm_type": "node", "osm_id": 5526603676, "name": null, "category": null, "address": "3, 9142 Globasnitz", "street": null, "housenumber": "3", "postcode": "9142", "place": "Globasnitz", "lat": 46.5679741, "lon": 14.6891257, "tags": {"addr:city": "Globasnitz", "addr:housenumber": "3", "addr:place": "Tschepitschach", "addr:postcode": "9142"}, "content": "Adresse: 3, 9142 Globasnitz\nOrt: Globasnitz\nPLZ: 9142\nKoordinaten: 46.567974, 14.689126", "doc_type": "addresses"}
{"source": "OSM", "region": "Kärnten", "osm_type": "node", "osm_id": 5526603677, "name": null, "category": null, "address": "26, 9142 Globasnitz", "street": null, "housenumber": "26", "postcode": "9142", "place": "Globasnitz", "lat": 46.5679409, "lon": 14.6884015, "tags": {"addr:city": "Globasnitz", "addr:housenumber": "26", "addr:place": "Tschepitschach", "addr:postcode": "9142"}, "content": "Adresse: 26, 9142 Globasnitz\nOrt: Globasnitz\nPLZ: 9142\nKoordinaten: 46.567941, 14.688401", "doc_type": "addresses"}
{"source": "OSM", "region": "Kärnten", "osm_type": "node", "osm_id": 5526603678, "name": null, "category": null, "address": "1, 9142 Globasnitz", "street": null, "housenumber": "1", "postcode": "9142", "place": "Globasnitz", "lat": 46.5677676, "lon": 14.6879616, "tags": {"addr:city": "Globasnitz", "addr:housenumber": "1", "addr:place": "Tschepitschach", "addr:postcode": "9142"}, "content": "Adresse: 1, 9142 Globasnitz\nOrt: Globasnitz\nPLZ: 9142\nKoordinaten: 46.567768, 14.687962", "doc_type": "addresses"}
{"source": "OSM", "region": "Kärnten", "osm_type": "node", "osm_id": 5526603679, "name": null, "category": null, "address": "8, 9142 Globasnitz", "street": null, "housenumber": "8", "postcode": "9142", "place": "Globasnitz", "lat": 46.5676035, "lon": 14.6883586, "tags": {"addr:city": "Globasnitz", "addr:housenumber": "8", "addr:place": "Tschepitschach", "addr:postcode": "9142"}, "content": "Adresse: 8, 9142 Globasnitz\nOrt: Globasnitz\nPLZ: 9142\nKoordinaten: 46.567603, 14.688359", "doc_type": "addresses"}
{"source": "OSM", "region": "Kärnten", "osm_type": "node", "osm_id": 5526603680, "name": null, "category": null, "address": "2, 9142 Globasnitz", "street": null, "housenumber": "2", "postcode": "9142", "place": "Globasnitz", "lat": 46.5669691, "lon": 14.6866339, "tags": {"addr:city": "Globasnitz", "addr:housenumber": "2", "addr:place": "Tschepitschach", "addr:postcode": "9142"}, "content": "Adresse: 2, 9142 Globasnitz\nOrt: Globasnitz\nPLZ: 9142\nKoordinaten: 46.566969, 14.686634", "doc_type": "addresses"}
{"source": "OSM", "region": "Kärnten", "osm_type": "node", "osm_id": 5526603681, "name": null, "category": null, "address": "4, 9142 Globasnitz", "street": null, "housenumber": "4", "postcode": "9142", "place": "Globasnitz", "lat": 46.5669839, "lon": 14.6870202, "tags": {"addr:city": "Globasnitz", "addr:housenumber": "4", "addr:place": "Tschepitschach", "addr:postcode": "9142"}, "content": "Adresse: 4, 9142 Globasnitz\nOrt: Globasnitz\nPLZ: 9142\nKoordinaten: 46.566984, 14.687020", "doc_type": "addresses"}
{"source": "OSM", "region": "Kärnten", "osm_type": "node", "osm_id": 5526604086, "name": null, "category": null, "address": "67, 9142 Globasnitz", "street": null, "housenumber": "67", "postcode": "9142", "place": "Globasnitz", "lat": 46.553898, "lon": 14.6941039, "tags": {"addr:city": "Globasnitz", "addr:housenumber": "67", "addr:place": "Globasnitz", "addr:postcode": "9142"}, "content": "Adresse: 67, 9142 Globasnitz\nOrt: Globasnitz\nPLZ: 9142\nKoordinaten: 46.553898, 14.694104", "doc_type": "addresses"}
{"source": "OSM", "region": "Kärnten", "osm_type": "node", "osm_id": 5526604211, "name": null, "category": null, "address": "91, 9142 Globasnitz", "street": null, "housenumber": "91", "postcode": "9142", "place": "Globasnitz", "lat": 46.5761517, "lon": 14.7063374, "tags": {"addr:city": "Globasnitz", "addr:housenumber": "91", "addr:place": "St. Stefan", "addr:postcode": "9142"}, "content": "Adresse: 91, 9142 Globasnitz\nOrt: Globasnitz\nPLZ: 9142\nKoordinaten: 46.576152, 14.706337", "doc_type": "addresses"}
{"source": "OSM", "region": "Kärnten", "osm_type": "node", "osm_id": 5526604216, "name": "Gärtnerei Breznik", "category": "shop:garden_centre", "address": "88, 9142 Globasnitz", "street": null, "housenumber": "88", "postcode": "9142", "place": "Globasnitz", "lat": 46.5733366, "lon": 14.7099458, "tags": {"addr:city": "Globasnitz", "addr:housenumber": "88", "addr:place": "St. Stefan", "addr:postcode": "9142", "name": "Gärtnerei Breznik", "shop": "garden_centre", "website": "https://gaertnerei-breznik.at/"}, "content": "Gärtnerei Breznik\nKategorie: shop:garden_centre\nAdresse: 88, 9142 Globasnitz\nOrt: Globasnitz\nPLZ: 9142\nKoordinaten: 46.573337, 14.709946\nTags: shop=garden_centre, website=https://gaertnerei-breznik.at/", "doc_type": "addresses"}
{"source": "OSM", "region": "Kärnten", "osm_type": "node", "osm_id": 5526604235, "name": null, "category": null, "address": "38, 9142 Globasnitz", "street": null, "housenumber": "38", "postcode": "9142", "place": "Globasnitz", "lat": 46.5722133, "lon": 14.7095883, "tags": {"addr:city": "Globasnitz", "addr:housenumber": "38", "addr:place": "St. Stefan", "addr:postcode": "9142"}, "content": "Adresse: 38, 9142 Globasnitz\nOrt: Globasnitz\nPLZ: 9142\nKoordinaten: 46.572213, 14.709588", "doc_type": "addresses"}
{"source": "OSM", "region": "Kärnten", "osm_type": "node", "osm_id": 5526604248, "name": null, "category": null, "address": "113, 9142 Globasnitz", "street": null, "housenumber": "113", "postcode": "9142", "place": "Globasnitz", "lat": 46.5748813, "lon": 14.7133085, "tags": {"addr:city": "Globasnitz", "addr:housenumber": "113", "addr:place": "St. Stefan", "addr:postcode": "9142"}, "content": "Adresse: 113, 9142 Globasnitz\nOrt: Globasnitz\nPLZ: 9142\nKoordinaten: 46.574881, 14.713309", "doc_type": "addresses"}
{"source": "OSM", "region": "Kärnten", "osm_type": "node", "osm_id": 5526604249, "name": null, "category": null, "address": "112, 9142 Globasnitz", "street": null, "housenumber": "112", "postcode": "9142", "place": "Globasnitz", "lat": 46.5751339, "lon": 14.712308, "tags": {"addr:city": "Globasnitz", "addr:housenumber": "112", "addr:place": "St. Stefan", "addr:postcode": "9142"}, "content": "Adresse: 112, 9142 Globasnitz\nOrt: Globasnitz\nPLZ: 9142\nKoordinaten: 46.575134, 14.712308", "doc_type": "addresses"}
{"source": "OSM", "region": "Kärnten", "osm_type": "node", "osm_id": 5526604659, "name": null, "category": null, "address": "19, 9143 Globasnitz", "street": null, "housenumber": "19", "postcode": "9143", "place": "Globasnitz", "lat": 46.5773906, "lon": 14.7224012, "tags": {"addr:city": "Globasnitz", "addr:housenumber": "19", "addr:place": "Traundorf", "addr:postcode": "9143"}, "content": "Adresse: 19, 9143 Globasnitz\nOrt: Globasnitz\nPLZ: 9143\nKoordinaten: 46.577391, 14.722401", "doc_type": "addresses"}
{"source": "OSM", "region": "Kärnten", "osm_type": "node", "osm_id": 5526604690, "name": null, "category": null, "address": "17, 9142 Globasnitz", "street": null, "housenumber": "17", "postcode": "9142", "place": "Globasnitz", "lat": 46.5533667, "lon": 14.7232448, "tags": {"addr:city": "Globasnitz", "addr:housenumber": "17", "addr:place": "Wackendorf", "addr:postcode": "9142"}, "content": "Adresse: 17, 9142 Globasnitz\nOrt: Globasnitz\nPLZ: 9142\nKoordinaten: 46.553367, 14.723245", "doc_type": "addresses"}
{"source": "OSM", "region": "Kärnten", "osm_type": "node", "osm_id": 5526604693, "name": null, "category": null, "address": "37, 9142 Globasnitz", "street": null, "housenumber": "37", "postcode": "9142", "place": "Globasnitz", "lat": 46.5558079, "lon": 14.7235116, "tags": {"addr:city": "Globasnitz", "addr:housenumber": "37", "addr:place": "Wackendorf", "addr:postcode": "9142"}, "content": "Adresse: 37, 9142 Globasnitz\nOrt: Globasnitz\nPLZ: 9142\nKoordinaten: 46.555808, 14.723512", "doc_type": "addresses"}
{"source": "OSM", "region": "Kärnten", "osm_type": "node", "osm_id": 5528269075, "name": null, "category": null, "address": "21, 9142 Globasnitz", "street": null, "housenumber": "21", "postcode": "9142", "place": "Globasnitz", "lat": 46.5614137, "lon": 14.6708545, "tags": {"addr:city": "Globasnitz", "addr:housenumber": "21", "addr:place": "Jaunstein", "addr:postcode": "9142"}, "content": "Adresse: 21, 9142 Globasnitz\nOrt: Globasnitz\nPLZ: 9142\nKoordinaten: 46.561414, 14.670855", "doc_type": "addresses"}
{"source": "OSM", "region": "Kärnten", "osm_type": "node", "osm_id": 5528269112, "name": null, "category": null, "address": "56, 9142 Globasnitz", "street": null, "housenumber": "56", "postcode": "9142", "place": "Globasnitz", "lat": 46.5606917, "lon": 14.670715, "tags": {"addr:city": "Globasnitz", "addr:housenumber": "56", "addr:place": "Jaunstein", "addr:postcode": "9142"}, "content": "Adresse: 56, 9142 Globasnitz\nOrt: Globasnitz\nPLZ: 9142\nKoordinaten: 46.560692, 14.670715", "doc_type": "addresses"}
{"source": "OSM", "region": "Kärnten", "osm_type": "node", "osm_id": 5528269176, "name": null, "category": null, "address": "26, 9142 Globasnitz", "street": null, "housenumber": "26", "postcode": "9142", "place": "Globasnitz", "lat": 46.5592605, "lon": 14.6712649, "tags": {"addr:city": "Globasnitz", "addr:housenumber": "26", "addr:place": "Jaunstein", "addr:postcode": "9142"}, "content": "Adresse: 26, 9142 Globasnitz\nOrt: Globasnitz\nPLZ: 9142\nKoordinaten: 46.559261, 14.671265", "doc_type": "addresses"}
{"source": "OSM", "region": "Kärnten", "osm_type": "node", "osm_id": 5528269335, "name": null, "category": null, "address": "20, 9142 Globasnitz", "street": null, "housenumber": "20", "postcode": "9142", "place": "Globasnitz", "lat": 46.5586445, "lon": 14.6754009, "tags": {"addr:city": "Globasnitz", "addr:housenumber": "20", "addr:place": "Jaunstein", "addr:postcode": "9142"}, "content": "Adresse: 20, 9142 Globasnitz\nOrt: Globasnitz\nPLZ: 9142\nKoordinaten: 46.558644, 14.675401", "doc_type": "addresses"}
{"source": "OSM", "region": "Kärnten", "osm_type": "node", "osm_id": 474595022, "name": "Wackendorfer Alm", "category": "tourism:alpine_hut", "address": "39, 9142 Globasnitz", "street": null, "housenumber": "39", "postcode": "9142", "place": "Globasnitz", "lat": 46.5231418, "lon": 14.7241233, "tags": {"addr:city": "Globasnitz", "addr:housenumber": "39", "addr:place": "Wackendorf", "addr:postcode": "9142", "name": "Wackendorfer Alm", "operator": "private", "tourism": "alpine_hut"}, "content": "Wackendorfer Alm\nKategorie: tourism:alpine_hut\nAdresse: 39, 9142 Globasnitz\nOrt: Globasnitz\nPLZ: 9142\nKoordinaten: 46.523142, 14.724123\nTags: operator=private", "doc_type": "pois"}
{"source": "OSM", "region": "Kärnten", "osm_type": "node", "osm_id": 1494443229, "name": "Jausenstation Hemmastubn", "category": "amenity:restaurant", "address": "15, 9142 Globasnitz", "street": null, "housenumber": "15", "postcode": "9142", "place": "Globasnitz", "lat": 46.5510048, "lon": 14.6687093, "tags": {"addr:city": "Globasnitz", "addr:housenumber": "15", "addr:place": "Slovenjach", "addr:postcode": "9142", "amenity": "restaurant", "name": "Jausenstation Hemmastubn"}, "content": "Jausenstation Hemmastubn\nKategorie: amenity:restaurant\nAdresse: 15, 9142 Globasnitz\nOrt: Globasnitz\nPLZ: 9142\nKoordinaten: 46.551005, 14.668709\nTags: amenity=restaurant", "doc_type": "pois"}
{"source": "OSM", "region": "Kärnten", "osm_type": "node", "osm_id": 4519518950, "name": "Dr. Bakondy", "category": "amenity:doctors", "address": "150, 9142 Globasnitz", "street": null, "housenumber": "150", "postcode": "9142", "place": "Globasnitz", "lat": 46.5598694, "lon": 14.7025654, "tags": {"addr:city": "Globasnitz", "addr:housenumber": "150", "addr:place": "Globasnitz", "addr:postcode": "9142", "amenity": "doctors", "name": "Dr. Bakondy"}, "content": "Dr. Bakondy\nKategorie: amenity:doctors\nAdresse: 150, 9142 Globasnitz\nOrt: Globasnitz\nPLZ: 9142\nKoordinaten: 46.559869, 14.702565\nTags: amenity=doctors", "doc_type": "pois"}
{"source": "OSM", "region": "Kärnten", "osm_type": "node", "osm_id": 4519603454, "name": null, "category": "craft:carpenter", "address": "108, 9142 Globasnitz", "street": null, "housenumber": "108", "postcode": "9142", "place": "Globasnitz", "lat": 46.5696693, "lon": 14.6978441, "tags": {"addr:city": "Globasnitz", "addr:housenumber": "108", "addr:place": "St. Stefan", "addr:postcode": "9142", "craft": "carpenter"}, "content": "Kategorie: craft:carpenter\nAdresse: 108, 9142 Globasnitz\nOrt: Globasnitz\nPLZ: 9142\nKoordinaten: 46.569669, 14.697844", "doc_type": "pois"}
{"source": "OSM", "region": "Kärnten", "osm_type": "node", "osm_id": 5526604216, "name": "Gärtnerei Breznik", "category": "shop:garden_centre", "address": "88, 9142 Globasnitz", "street": null, "housenumber": "88", "postcode": "9142", "place": "Globasnitz", "lat": 46.5733366, "lon": 14.7099458, "tags": {"addr:city": "Globasnitz", "addr:housenumber": "88", "addr:place": "St. Stefan", "addr:postcode": "9142", "name": "Gärtnerei Breznik", "shop": "garden_centre", "website": "https://gaertnerei-breznik.at/"}, "content": "Gärtnerei Breznik\nKategorie: shop:garden_centre\nAdresse: 88, 9142 Globasnitz\nOrt: Globasnitz\nPLZ: 9142\nKoordinaten: 46.573337, 14.709946\nTags: shop=garden_centre, website=https://gaertnerei-breznik.at/", "doc_type": "pois"}
