{"source": "OSM", "region": "Kärnten", "osm_type": "node", "osm_id": 1601664187, "name": "Gasthaus – Gostišče – Trattoria Ogris", "category": "amenity:restaurant", "address": "Ludmannsdorf 13, 9072 Ludmannsdorf", "street": "Ludmannsdorf", "housenumber": "13", "postcode": "9072", "place": "Ludmannsdorf", "lat": 46.5415666, "lon": 14.1360648, "tags": {"addr:city": "Ludmannsdorf", "addr:housenumber": "13", "addr:postcode": "9072", "addr:street": "Ludmannsdorf", "amenity": "restaurant", "name": "Gasthaus – Gostišče – Trattoria Ogris", "phone": "+43 4228 2249", "website": "https://www.gasthaus-ogris.at/"}, "content": "Gasthaus – Gostišče – Trattoria Ogris\nKategorie: amenity:restaurant\nAdresse: Ludmannsdorf 13, 9072 Ludmannsdorf\nOrt: Ludmannsdorf\nPLZ: 9072\nKoordinaten: 46.541567, 14.136065\nTags: amenity=restaurant, phone=+43 4228 2249, website=https://www.gasthaus-ogris.at/", "doc_type": "addresses"}
{"source": "OSM", "region": "Kärnten", "osm_type": "node", "osm_id": 4994530655, "name": null, "category": null, "address": "Franzendorf 48a, 9072 Ludmannsdorf", "street": "Franzendorf", "housenumber": "48a", "postcode": "9072", "place": "Ludmannsdorf", "lat": 46.5417856, "lon": 14.1306385, "tags": {"addr:city": "Ludmannsdorf", "addr:housenumber": "48a", "addr:postcode": "9072", "addr:street": "Franzendorf"}, "content": "Adresse: Franzendorf 48a, 9072 Ludmannsdorf\nOrt: Ludmannsdorf\nPLZ: 9072\nKoordinaten: 46.541786, 14.130638", "doc_type": "addresses"}
{"source": "OSM", "region": "Kärnten", "osm_type": "node", "osm_id": 4994530656, "name": null, "category": null, "address": "Franzendorf 48, 9072 Ludmannsdorf", "street": "Franzendorf", "housenumber": "48", "postcode": "9072", "place": "Ludmannsdorf", "lat": 46.5417957, "lon": 14.1304722, "tags": {"addr:city": "Ludmannsdorf", "addr:housenumber": "48", "addr:postcode": "9072", "addr:street": "Franzendorf"}, "content": "Adresse: Franzendorf 48, 9072 Ludmannsdorf\nOrt: Ludmannsdorf\nPLZ: 9072\nKoordinaten: 46.541796, 14.130472", "doc_type": "addresses"}
{"source": "OSM", "region": "Kärnten", "osm_type": "node", "osm_id": 4994530657, "name": null, "category": null, "address": "Ludmannsdorf 8, 9072 Ludmannsdorf", "street": "Ludmannsdorf", "housenumber": "8", "postcode": "9072", "place": "Ludmannsdorf", "lat": 46.5417885, "lon": 14.1346756, "tags": {"addr:city": "Ludmannsdorf", "addr:housenumber": "8", "addr:postcode": "9072", "addr:street": "Ludmannsdorf"}, "content": "Adresse: Ludmannsdorf 8, 9072 Ludmannsdorf\nOrt: Ludmannsdorf\nPLZ: 9072\nKoordinaten: 46.541789, 14.134676", "doc_type": "addresses"}
{"source": "OSM", "region": "Kärnten", "osm_type": "node", "osm_id": 4994530658, "name": null, "category": null, "address": "Ludmannsdorf 7, 9072 Ludmannsdorf", "street": "Ludmannsdorf", "housenumber": "7", "postcode": "9072", "place": "Ludmannsdorf", "lat": 46.5416872, "lon": 14.1337224, "tags": {"addr:city": "Ludmannsdorf", "addr:housenumber": "7", "addr:postcode": "9072", "addr:street": "Ludmannsdorf"}, "content": "Adresse: Ludmannsdorf 7, 9072 Ludmannsdorf\nOrt: Ludmannsdorf\nPLZ: 9072\nKoordinaten: 46.541687, 14.133722", "doc_type": "addresses"}
{"source": "OSM", "region": "Kärnten", "osm_type": "node", "osm_id": 4994530659, "name": null, "category": null, "address": "Ludmannsdorf 6, 9072 Ludmannsdorf", "street": "Ludmannsdorf", "housenumber": "6", "postcode": "9072", "place": "Ludmannsdorf", "lat": 46.5414377, "lon": 14.1339457, "tags": {"addr:city": "Ludmannsdorf", "addr:housenumber": "6", "addr:postcode": "9072", "addr:street": "Ludmannsdorf"}, "content": "Adresse: Ludmannsdorf 6, 9072 Ludmannsdorf\nOrt: Ludmannsdorf\nPLZ: 9072\nKoordinaten: 46.541438, 14.133946", "doc_type": "addresses"}
{"source": "OSM", "region": "Kärnten", "osm_type": "node", "osm_id": 5029629328, "name": null, "category": null, "address": "Wellersdorf 10, 9072 Ludmannsdorf", "street": "Wellersdorf", "housenumber": "10", "postcode": "9072", "place": "Ludmannsdorf", "lat": 46.54348, "lon": 14.1858337, "tags": {"addr:city": "Ludmannsdorf", "addr:housenumber": "10", "addr:postcode": "9072", "addr:street": "Wellersdorf"}, "content": "Adresse: Wellersdorf 10, 9072 Ludmannsdorf\nOrt: Ludmannsdorf\nPLZ: 9072\nKoordinaten: 46.543480, 14.185834", "doc_type": "addresses"}
{"source": "OSM", "region": "Kärnten", "osm_type": "node", "osm_id": 5029629329, "name": null, "category": null, "address": "Wellersdorf 7, 9072 Ludmannsdorf", "street": "Wellersdorf", "housenumber": "7", "postcode": "9072", "place": "Ludmannsdorf", "lat": 46.5431275, "lon": 14.1861272, "tags": {"addr:city": "Ludmannsdorf", "addr:housenumber": "7", "addr:postcode": "9072", "addr:street": "Wellersdorf"}, "content": "Adresse: Wellersdorf 7, 9072 Ludmannsdorf\nOrt: Ludmannsdorf\nPLZ: 9072\nKoordinaten: 46.543127, 14.186127", "doc_type": "addresses"}
{"source": "OSM", "region": "Kärnten", "osm_type": "node", "osm_id": 5029629330, "name": null, "category": null, "address": "Wellersdorf 6, 9072 Ludmannsdorf", "street": "Wellersdorf", "housenumber": "6", "postcode": "9072", "place": "Ludmannsdorf", "lat": 46.5430137, "lon": 14.1871058, "tags": {"addr:city": "Ludmannsdorf", "addr:housenumber": "6", "addr:postcode": "9072", "addr:street": "Wellersdorf"}, "content": "Adresse: Wellersdorf 6, 9072 Ludmannsdorf\nOrt: Ludmannsdorf\nPLZ: 9072\nKoordinaten: 46.543014, 14.187106", "doc_type": "addresses"}
{"source": "OSM", "region": "Kärnten", "osm_type": "node", "osm_id": 5029629331, "name": null, "category": null, "address": "Wellersdorf 3, 9072 Ludmannsdorf", "street": "Wellersdorf", "housenumber": "3", "postcode": "9072", "place": "Ludmannsdorf", "lat": 46.5439543, "lon": 14.1858765, "tags": {"addr:city": "Ludmannsdorf", "addr:housenumber": "3", "addr:postcode": "9072", "addr:street": "Wellersdorf"}, "content": "Adresse: Wellersdorf 3, 9072 Ludmannsdorf\nOrt: Ludmannsdorf\nPLZ: 9072\nKoordinaten: 46.543954, 14.185876", "doc_type": "addresses"}
{"source": "OSM", "region": "Kärnten", "osm_type": "node", "osm_id": 5029629332, "name": null, "category": null, "address": "Wellersdorf 2, 9072 Ludmannsdorf", "street": "Wellersdorf", "housenumber": "2", "postcode": "9072", "place": "Ludmannsdorf", "lat": 46.5443375, "lon": 14.185456, "tags": {"addr:city": "Ludmannsdorf", "addr:housenumber": "2", "addr:postcode": "9072", "addr:street": "Wellersdorf"}, "content": "Adresse: Wellersdorf 2, 9072 Ludmannsdorf\nOrt: Ludmannsdorf\nPLZ: 9072\nKoordinaten: 46.544337, 14.185456", "doc_type": "addresses"}
{"source": "OSM", "region": "Kärnten", "osm_type": "node", "osm_id": 5029629333, "name": null, "category": null, "address": "Wellersdorf 1, 9072 Ludmannsdorf", "street": "Wellersdorf", "housenumber": "1", "postcode": "9072", "place": "Ludmannsdorf", "lat": 46.544135, "lon": 14.1852092, "tags": {"addr:city": "Ludmannsdorf", "addr:housenumber": "1", "addr:postcode": "9072", "addr:street": "Wellersdorf"}, "content": "Adresse: Wellersdorf 1, 9072 Ludmannsdorf\nOrt: Ludmannsdorf\nPLZ: 9072\nKoordinaten: 46.544135, 14.185209", "doc_type": "addresses"}
{"source": "OSM", "region": "Kärnten", "osm_type": "node", "osm_id": 5029629334, "name": null, "category": null, "address": "Wellersdorf 34, 9072 Ludmannsdorf", "street": "Wellersdorf", "housenumber": "34", "postcode": "9072", "place": "Ludmannsdorf", "lat": 46.5436791, "lon": 14.1855618, "tags": {"addr:city": "Ludmannsdorf", "addr:housenumber": "34", "addr:postcode": "9072", "addr:street": "Wellersdorf"}, "content": "Adresse: Wellersdorf 34, 9072 Ludmannsdorf\nOrt: Ludmannsdorf\nPLZ: 9072\nKoordinaten: 46.543679, 14.185562", "doc_type": "addresses"}
{"source": "OSM", "region": "Kärnten", "osm_type": "node", "osm_id": 5029629335, "name": null, "category": null, "address": "Wellersdorf 24, 9072 Ludmannsdorf", "street": "Wellersdorf", "housenumber": "24", "postcode": "9072", "place": "Ludmannsdorf", "lat": 46.5424412, "lon": 14.1854643, "tags": {"addr:city": "Ludmannsdorf", "addr:housenumber": "24", "addr:postcode": "9072", "addr:street": "Wellersdorf"}, "content": "Adresse: Wellersdorf 24, 9072 Ludmannsdorf\nOrt: Ludmannsdorf\nPLZ: 9072\nKoordinaten: 46.542441, 14.185464", "doc_type": "addresses"}
{"source": "OSM", "region": "Kärnten", "osm_type": "node", "osm_id": 5029629336, "name": null, "category": null, "address": "Wellersdorf 19, 9072 Ludmannsdorf", "street": "Wellersdorf", "housenumber": "19", "postcode": "9072", "place": "Ludmannsdorf", "lat": 46.5442132, "lon": 14.1900564, "tags": {"addr:city": "Ludmannsdorf", "addr:housenumber": "19", "addr:postcode": "9072", "addr:street": "Wellersdorf"}, "content": "Adresse: Wellersdorf 19, 9072 Ludmannsdorf\nOrt: Ludmannsdorf\nPLZ: 9072\nKoordinaten: 46.544213, 14.190056", "doc_type": "addresses"}
{"source": "OSM", "region": "Kärnten", "osm_type": "node", "osm_id": 5029629337, "name": null, "category": null, "address": "Wellersdorf 16, 9072 Ludmannsdorf", "street": "Wellersdorf", "housenumber": "16", "postcode": "9072", "place": "Ludmannsdorf", "lat": 46.5444582, "lon": 14.1897734, "tags": {"addr:city": "Ludmannsdorf", "addr:housenumber": "16", "addr:postcode": "9072", "addr:street": "Wellersdorf"}, "content": "Adresse: Wellersdorf 16, 9072 Ludmannsdorf\nOrt: Ludmannsdorf\nPLZ: 9072\nKoordinaten: 46.544458, 14.189773", "doc_type": "addresses"}
{"source": "OSM", "region": "Kärnten", "osm_type": "node", "osm_id": 5029629338, "name": null, "category": null, "address": "Wellersdorf 15, 9072 Ludmannsdorf", "street": "Wellersdorf", "housenumber": "15", "postcode": "9072", "place": "Ludmannsdorf", "lat": 46.543291, "lon": 14.1843569, "tags": {"addr:city": "Ludmannsdorf", "addr:housenumber": "15", "addr:postcode": "9072", "addr:street": "Wellersdorf"}, "content": "Adresse: Wellersdorf 15, 9072 Ludmannsdorf\nOrt: Ludmannsdorf\nPLZ: 9072\nKoordinaten: 46.543291, 14.184357", "doc_type": "addresses"}
{"source": "OSM", "region": "Kärnten", "osm_type": "node", "osm_id": 5108552188, "name": null, "category": null, "address": "Muschkau 7, 9072 Ludmannsdorf", "street": "Muschkau", "housenumber": "7", "postcode": "9072", "place": "Ludmannsdorf", "lat": 46.5477205, "lon": 14.1768232, "tags": {"addr:city": "Ludmannsdorf", "addr:housenumber": "7", "addr:postcode": "9072", "addr:street": "Muschkau"}, "content": "Adresse: Muschkau 7, 9072 Ludmannsdorf\nOrt: Ludmannsdorf\nPLZ: 9072\nKoordinaten: 46.547720, 14.176823", "doc_type": "addresses"}
{"source": "OSM", "region": "Kärnten", "osm_type": "node", "osm_id": 5108552189, "name": null, "category": null, "address": "Muschkau 3a, 9072 Ludmannsdorf", "street": "Muschkau", "housenumber": "3a", "postcode": "9072", "place": "Ludmannsdorf", "lat": 46.546785, "lon": 14.1719212, "tags": {"addr:city": "Ludmannsdorf", "addr:housenumber": "3a", "addr:postcode": "9072", "addr:street": "Muschkau"}, "content": "Adresse: Muschkau 3a, 9072 Ludmannsdorf\nOrt: Ludmannsdorf\nPLZ: 9072\nKoordinaten: 46.546785, 14.171921", "doc_type": "addresses"}
{"source": "OSM", "region": "Kärnten", "osm_type": "node", "osm_id": 5108552190, "name": null, "category": null, "address": "Muschkau 2a, 9072 Ludmannsdorf", "street": "Muschkau", "housenumber": "2a", "postcode": "9072", "place": "Ludmannsdorf", "lat": 46.5478417, "lon": 14.1761742, "tags": {"addr:city": "Ludmannsdorf", "addr:housenumber": "2a", "addr:postcode": "9072", "addr:street": "Muschkau"}, "content": "Adresse: Muschkau 2a, 9072 Ludmannsdorf\nOrt: Ludmannsdorf\nPLZ: 9072\nKoordinaten: 46.547842, 14.176174", "doc_type": "addresses"}
{"source": "OSM", "region": "Kärnten", "osm_type": "node", "osm_id": 5108552191, "name": null, "category": null, "address": "Muschkau 2, 9072 Ludmannsdorf", "street": "Muschkau", "housenumber": "2", "postcode": "9072", "place": "Ludmannsdorf", "lat": 46.5477241, "lon": 14.1761769, "tags": {"addr:city": "Ludmannsdorf", "addr:housenumber": "2", "addr:postcode": "9072", "addr:street": "Muschkau"}, "content": "Adresse: Muschkau 2, 9072 Ludmannsdorf\nOrt: Ludmannsdorf\nPLZ: 9072\nKoordinaten: 46.547724, 14.176177", "doc_type": "addresses"}
{"source": "OSM", "region": "Kärnten", "osm_type": "node", "osm_id": 5108552192, "name": null, "category": null, "address": "Niederdörfl 1, 9072 Ludmannsdorf", "street": "Niederdörfl", "housenumber": "1", "postcode": "9072", "place": "Ludmannsdorf", "lat": 46.5364557, "lon": 14.1797614, "tags": {"addr:city": "Ludmannsdorf", "addr:housenumber": "1", "addr:postcode": "9072", "addr:street": "Niederdörfl"}, "content": "Adresse: Niederdörfl 1, 9072 Ludmannsdorf\nOrt: Ludmannsdorf\nPLZ: 9072\nKoordinaten: 46.536456, 14.179761", "doc_type": "addresses"}
{"source": "OSM", "region": "Kärnten", "osm_type": "node", "osm_id": 5129638122, "name": null, "category": null, "address": "Edling 11, 9072 Ludmannsdorf", "street": "Edling", "housenumber": "11", "postcode": "9072", "place": "Ludmannsdorf", "lat": 46.5411486, "lon": 14.1425405, "tags": {"addr:city": "Ludmannsdorf", "addr:housenumber": "11", "addr:postcode": "9072", "addr:street": "Edling"}, "content": "Adresse: Edling 11, 9072 Ludmannsdorf\nOrt: Ludmannsdorf\nPLZ: 9072\nKoordinaten: 46.541149, 14.142541", "doc_type": "addresses"}
{"source": "OSM", "region": "Kärnten", "osm_type": "node", "osm_id": 5135111997, "name": null, "category": null, "address": "Edling 49, 9072 Ludmannsdorf", "street": "Edling", "housenumber": "49", "postcode": "9072", "place": "Ludmannsdorf", "lat": 46.5433548, "lon": 14.1485835, "tags": {"addr:city": "Ludmannsdorf", "addr:housenumber": "49", "addr:postcode": "9072", "addr:street": "Edling"}, "content": "Adresse: Edling 49, 9072 Ludmannsdorf\nOrt: Ludmannsdorf\nPLZ: 9072\nKoordinaten: 46.543355, 14.148584", "doc_type": "addresses"}
{"source": "OSM", "region": "Kärnten", "osm_type": "node", "osm_id": 5135111998, "name": null, "category": null, "address": "Edling 48, 9072 Ludmannsdorf", "street": "Edling", "housenumber": "48", "postcode": "9072", "place": "Ludmannsdorf", "lat": 46.5385996, "lon": 14.1475086, "tags": {"addr:city": "Ludmannsdorf", "addr:housenumber": "48", "addr:postcode": "9072", "addr:street": "Edling"}, "content": "Adresse: Edling 48, 9072 Ludmannsdorf\nOrt: Ludmannsdorf\nPLZ: 9072\nKoordinaten: 46.538600, 14.147509", "doc_type": "addresses"}
{"source": "OSM", "region": "Kärnten", "osm_type": "node", "osm_id": 5135111999, "name": null, "category": null, "address": "Edling 45, 9072 Ludmannsdorf", "street": "Edling", "housenumber": "45", "postcode": "9072", "place": "Ludmannsdorf", "lat": 46.5428769, "lon": 14.1500269, "tags": {"addr:city": "Ludmannsdorf", "addr:housenumber": "45", "addr:postcode": "9072", "addr:street": "Edling"}, "content": "Adresse: Edling 45, 9072 Ludmannsdorf\nOrt: Ludmannsdorf\nPLZ: 9072\nKoordinaten: 46.542877, 14.150027", "doc_type": "addresses"}
{"source": "OSM", "region": "Kärnten", "osm_type": "node", "osm_id": 5135112002, "name": null, "category": null, "address": "Edling 42, 9072 Ludmannsdorf", "street": "Edling", "housenumber": "42", "postcode": "9072", "place": "Ludmannsdorf", "lat": 46.5431561, "lon": 14.150248, "tags": {"addr:city": "Ludmannsdorf", "addr:housenumber": "42", "addr:postcode": "9072", "addr:street": "Edling"}, "content": "Adresse: Edling 42, 9072 Ludmannsdorf\nOrt: Ludmannsdorf\nPLZ: 9072\nKoordinaten: 46.543156, 14.150248", "doc_type": "addresses"}
{"source": "OSM", "region": "Kärnten", "osm_type": "node", "osm_id": 5135112003, "name": null, "category": null, "address": "Edling 41, 9072 Ludmannsdorf", "street": "Edling", "housenumber": "41", "postcode": "9072", "place": "Ludmannsdorf", "lat": 46.5433818, "lon": 14.1499225, "tags": {"addr:city": "Ludmannsdorf", "addr:housenumber": "41", "addr:postcode": "9072", "addr:street": "Edling"}, "content": "Adresse: Edling 41, 9072 Ludmannsdorf\nOrt: Ludmannsdorf\nPLZ: 9072\nKoordinaten: 46.543382, 14.149923", "doc_type": "addresses"}
{"source": "OSM", "region": "Kärnten", "osm_type": "node", "osm_id": 5135112018, "name": null, "category": null, "address": "Edling 25, 9072 Ludmannsdorf", "street": "Edling", "housenumber": "25", "postcode": "9072", "place": "Ludmannsdorf", "lat": 46.5437839, "lon": 14.1495635, "tags": {"addr:city": "Ludmannsdorf", "addr:housenumber": "25", "addr:postcode": "9072", "addr:street": "Edling"}, "content": "Adresse: Edling 25, 9072 Ludmannsdorf\nOrt: Ludmannsdorf\nPLZ: 9072\nKoordinaten: 46.543784, 14.149563", "doc_type": "addresses"}
{"source": "OSM", "region": "Kärnten", "osm_type": "node", "osm_id": 5135112020, "name": null, "category": null, "address": "Edling 21, 9072 Ludmannsdorf", "street": "Edling", "housenumber": "21", "postcode": "9072", "place": "Ludmannsdorf", "lat": 46.5383848, "lon": 14.1510657, "tags": {"addr:city": "Ludmannsdorf", "addr:housenumber": "21", "addr:postcode": "9072", "addr:street": "Edling"}, "content": "Adresse: Edling 21, 9072 Ludmannsdorf\nOrt: Ludmannsdorf\nPLZ: 9072\nKoordinaten: 46.538385, 14.151066", "doc_type": "addresses"}
{"source": "OSM", "region": "Kärnten", "osm_type": "node", "osm_id": 5135112023, "name": null, "category": null, "address": "Edling 9a, 9072 Ludmannsdorf", "street": "Edling", "housenumber": "9a", "postcode": "9072", "place": "Ludmannsdorf", "lat": 46.5428041, "lon": 14.1483471, "tags": {"addr:city": "Ludmannsdorf", "addr:housenumber": "9a", "addr:postcode": "9072", "addr:street": "Edling"}, "content": "Adresse: Edling 9a, 9072 Ludmannsdorf\nOrt: Ludmannsdorf\nPLZ: 9072\nKoordinaten: 46.542804, 14.148347", "doc_type": "addresses"}
{"source": "OSM", "region": "Kärnten", "osm_type": "node", "osm_id": 5135112024, "name": null, "category": null, "address": "Edling 9, 9072 Ludmannsdorf", "street": "Edling", "housenumber": "9", "postcode": "9072", "place": "Ludmannsdorf", "lat": 46.5429552, "lon": 14.148608, "tags": {"addr:city": "Ludmannsdorf", "addr:housenumber": "9", "addr:postcode": "9072", "addr:street": "Edling"}, "content": "Adresse: Edling 9, 9072 Ludmannsdorf\nOrt: Ludmannsdorf\nPLZ: 9072\nKoordinaten: 46.542955, 14.148608", "doc_type": "addresses"}
{"source": "OSM", "region": "Kärnten", "osm_type": "node", "osm_id": 5135112025, "name": null, "category": null, "address": "Edling 8, 9072 Ludmannsdorf", "street": "Edling", "housenumber": "8", "postcode": "9072", "place": "Ludmannsdorf", "lat": 46.5412147, "lon": 14.1484603, "tags": {"addr:city": "Ludmannsdorf", "addr:housenumber": "8", "addr:postcode": "9072", "addr:street": "Edling"}, "content": "Adresse: Edling 8, 9072 Ludmannsdorf\nOrt: Ludmannsdorf\nPLZ: 9072\nKoordinaten: 46.541215, 14.148460", "doc_type": "addresses"}
{"source": "OSM", "region": "Kärnten", "osm_type": "node", "osm_id": 5135112026, "name": null, "category": null, "address": "Edling 7a, 9072 Ludmannsdorf", "street": "Edling", "housenumber": "7a", "postcode": "9072", "place": "Ludmannsdorf", "lat": 46.5410506, "lon": 14.1474931, "tags": {"addr:city": "Ludmannsdorf", "addr:housenumber": "7a", "addr:postcode": "9072", "addr:street": "Edling"}, "content": "Adresse: Edling 7a, 9072 Ludmannsdorf\nOrt: Ludmannsdorf\nPLZ: 9072\nKoordinaten: 46.541051, 14.147493", "doc_type": "addresses"}
{"source": "OSM", "region": "Kärnten", "osm_type": "node", "osm_id": 5135112027, "name": null, "category": null, "address": "Edling 7, 9072 Ludmannsdorf", "street": "Edling", "housenumber": "7", "postcode": "9072", "place": "Ludmannsdorf", "lat": 46.5413397, "lon": 14.147328, "tags": {"addr:city": "Ludmannsdorf", "addr:housenumber": "7", "addr:postcode": "9072", "addr:street": "Edling"}, "content": "Adresse: Edling 7, 9072 Ludmannsdorf\nOrt: Ludmannsdorf\nPLZ: 9072\nKoordinaten: 46.541340, 14.147328", "doc_type": "addresses"}
{"source": "OSM", "region": "Kärnten", "osm_type": "node", "osm_id": 5135112028, "name": null, "category": null, "address": "Edling 6, 9072 Ludmannsdorf", "street": "Edling", "housenumber": "6", "postcode": "9072", "place": "Ludmannsdorf", "lat": 46.5409836, "lon": 14.1480658, "tags": {"addr:city": "Ludmannsdorf", "addr:housenumber": "6", "addr:postcode": "9072", "addr:street": "Edling"}, "content": "Adresse: Edling 6, 9072 Ludmannsdorf\nOrt: Ludmannsdorf\nPLZ: 9072\nKoordinaten: 46.540984, 14.148066", "doc_type": "addresses"}
{"source": "OSM", "region": "Kärnten", "osm_type": "node", "osm_id": 5135112029, "name": null, "category": null, "address": "Edling 5a, 9072 Ludmannsdorf", "street": "Edling", "housenumber": "5a", "postcode": "9072", "place": "Ludmannsdorf", "lat": 46.5407661, "lon": 14.1482842, "tags": {"addr:city": "Ludmannsdorf", "addr:housenumber": "5a", "addr:postcode": "9072", "addr:street": "Edling"}, "content": "Adresse: Edling 5a, 9072 Ludmannsdorf\nOrt: Ludmannsdorf\nPLZ: 9072\nKoordinaten: 46.540766, 14.148284", "doc_type": "addresses"}
{"source": "OSM", "region": "Kärnten", "osm_type": "node", "osm_id": 5135112031, "name": null, "category": null, "address": "Edling 4a, 9072 Ludmannsdorf", "street": "Edling", "housenumber": "4a", "postcode": "9072", "place": "Ludmannsdorf", "lat": 46.5399026, "lon": 14.1482713, "tags": {"addr:city": "Ludmannsdorf", "addr:housenumber": "4a", "addr:postcode": "9072", "addr:street": "Edling"}, "content": "Adresse: Edling 4a, 9072 Ludmannsdorf\nOrt: Ludmannsdorf\nPLZ: 9072\nKoordinaten: 46.539903, 14.148271", "doc_type": "addresses"}
{"source": "OSM", "region": "Kärnten", "osm_type": "node", "osm_id": 5135112032, "name": null, "category": null, "address": "Edling 4, 9072 Ludmannsdorf", "street": "Edling", "housenumber": "4", "postcode": "9072", "place": "Ludmannsdorf", "lat": 46.5400712, "lon": 14.1485997, "tags": {"addr:city": "Ludmannsdorf", "addr:housenumber": "4", "addr:postcode": "9072", "addr:street": "Edling"}, "content": "Adresse: Edling 4, 9072 Ludmannsdorf\nOrt: Ludmannsdorf\nPLZ: 9072\nKoordinaten: 46.540071, 14.148600", "doc_type": "addresses"}
{"source": "OSM", "region": "Kärnten", "osm_type": "node", "osm_id": 5135112033, "name": null, "category": null, "address": "Edling 3, 9072 Ludmannsdorf", "street": "Edling", "housenumber": "3", "postcode": "9072", "place": "Ludmannsdorf", "lat": 46.5395864, "lon": 14.1484621, "tags": {"addr:city": "Ludmannsdorf", "addr:housenumber": "3", "addr:postcode": "9072", "addr:street": "Edling"}, "content": "Adresse: Edling 3, 9072 Ludmannsdorf\nOrt: Ludmannsdorf\nPLZ: 9072\nKoordinaten: 46.539586, 14.148462", "doc_type": "addresses"}
{"source": "OSM", "region": "Kärnten", "osm_type": "node", "osm_id": 5135112034, "name": null, "category": null, "address": "Edling 2, 9072 Ludmannsdorf", "street": "Edling", "housenumber": "2", "postcode": "9072", "place": "Ludmannsdorf", "lat": 46.5400952, "lon": 14.1490173, "tags": {"addr:city": "Ludmannsdorf", "addr:housenumber": "2", "addr:postcode": "9072", "addr:street": "Edling"}, "content": "Adresse: Edling 2, 9072 Ludmannsdorf\nOrt: Ludmannsdorf\nPLZ: 9072\nKoordinaten: 46.540095, 14.149017", "doc_type": "addresses"}
{"source": "OSM", "region": "Kärnten", "osm_type": "node", "osm_id": 5135112035, "name": null, "category": null, "address": "Edling 1, 9072 Ludmannsdorf", "street": "Edling", "housenumber": "1", "postcode": "9072", "place": "Ludmannsdorf", "lat": 46.5403005, "lon": 14.1518847, "tags": {"addr:city": "Ludmannsdorf", "addr:housenumber": "1", "addr:postcode": "9072", "addr:street": "Edling"}, "content": "Adresse: Edling 1, 9072 Ludmannsdorf\nOrt: Ludmannsdorf\nPLZ: 9072\nKoordinaten: 46.540301, 14.151885", "doc_type": "addresses"}
{"source": "OSM", "region": "Kärnten", "osm_type": "node", "osm_id": 5136159353, "name": null, "category": null, "address": "Moschenitzen 11, 9072 Ludmannsdorf", "street": "Moschenitzen", "housenumber": "11", "postcode": "9072", "place": "Ludmannsdorf", "lat": 46.5407674, "lon": 14.1568771, "tags": {"addr:city": "Ludmannsdorf", "addr:housenumber": "11", "addr:postcode": "9072", "addr:street": "Moschenitzen"}, "content": "Adresse: Moschenitzen 11, 9072 Ludmannsdorf\nOrt: Ludmannsdorf\nPLZ: 9072\nKoordinaten: 46.540767, 14.156877", "doc_type": "addresses"}
{"source": "OSM", "region": "Kärnten", "osm_type": "node", "osm_id": 5136159354, "name": null, "category": null, "address": "Moschenitzen 8, 9072 Ludmannsdorf", "street": "Moschenitzen", "housenumber": "8", "postcode": "9072", "place": "Ludmannsdorf", "lat": 46.5401467, "lon": 14.1532163, "tags": {"addr:city": "Ludmannsdorf", "addr:housenumber": "8", "addr:postcode": "9072", "addr:street": "Moschenitzen"}, "content": "Adresse: Moschenitzen 8, 9072 Ludmannsdorf\nOrt: Ludmannsdorf\nPLZ: 9072\nKoordinaten: 46.540147, 14.153216", "doc_type": "addresses"}
{"source": "OSM", "region": "Kärnten", "osm_type": "node", "osm_id": 5136159355, "name": null, "category": null, "address": "Moschenitzen 6a, 9072 Ludmannsdorf", "street": "Moschenitzen", "housenumber": "6a", "postcode": "9072", "place": "Ludmannsdorf", "lat": 46.539797, "lon": 14.152915, "tags": {"addr:city": "Ludmannsdorf", "addr:housenumber": "6a", "addr:postcode": "9072", "addr:street": "Moschenitzen"}, "content": "Adresse: Moschenitzen 6a, 9072 Ludmannsdorf\nOrt: Ludmannsdorf\nPLZ: 9072\nKoordinaten: 46.539797, 14.152915", "doc_type": "addresses"}
{"source": "OSM", "region": "Kärnten", "osm_type": "node", "osm_id": 5136159356, "name": null, "category": null, "address": "Moschenitzen 6, 9072 Ludmannsdorf", "street": "Moschenitzen", "housenumber": "6", "postcode": "9072", "place": "Ludmannsdorf", "lat": 46.5399224, "lon": 14.1531347, "tags": {"addr:city": "Ludmannsdorf", "addr:housenumber": "6", "addr:postcode": "9072", "addr:street": "Moschenitzen"}, "content": "Adresse: Moschenitzen 6, 9072 Ludmannsdorf\nOrt: Ludmannsdorf\nPLZ: 9072\nKoordinaten: 46.539922, 14.153135", "doc_type": "addresses"}
{"source": "OSM", "region": "Kärnten", "osm_type": "node", "osm_id": 5136159357, "name": null, "category": null, "address": "Moschenitzen 4, 9072 Ludmannsdorf", "street": "Moschenitzen", "housenumber": "4", "postcode": "9072", "place": "Ludmannsdorf", "lat": 46.5395385, "lon": 14.1527248, "tags": {"addr:city": "Ludmannsdorf", "addr:housenumber": "4", "addr:postcode": "9072", "addr:street": "Moschenitzen"}, "content": "Adresse: Moschenitzen 4, 9072 Ludmannsdorf\nOrt: Ludmannsdorf\nPLZ: 9072\nKoordinaten: 46.539538, 14.152725", "doc_type": "addresses"}
{"source": "OSM", "region": "Kärnten", "osm_type": "node", "osm_id": 5136275028, "name": null, "category": null, "address": "Fellersdorf 10, 9072 Ludmannsdorf", "street": "Fellersdorf", "housenumber": "10", "postcode": "9072", "place": "Ludmannsdorf", "lat": 46.5464469, "lon": 14.1565048, "tags": {"addr:city": "Ludmannsdorf", "addr:housenumber": "10", "addr:postcode": "9072", "addr:street": "Fellersdorf"}, "content": "Adresse: Fellersdorf 10, 9072 Ludmannsdorf\nOrt: Ludmannsdorf\nPLZ: 9072\nKoordinaten: 46.546447, 14.156505", "doc_type": "addresses"}
{"source": "OSM", "region": "Kärnten", "osm_type": "node", "osm_id": 5136275029, "name": null, "category": null, "address": "Fellersdorf 8, 9072 Ludmannsdorf", "street": "Fellersdorf", "housenumber": "8", "postcode": "9072", "place": "Ludmannsdorf", "lat": 46.5459874, "lon": 14.1570357, "tags": {"addr:city": "Ludmannsdorf", "addr:housenumber": "8", "addr:postcode": "9072", "addr:street": "Fellersdorf"}, "content": "Adresse: Fellersdorf 8, 9072 Ludmannsdorf\nOrt: Ludmannsdorf\nPLZ: 9072\nKoordinaten: 46.545987, 14.157036", "doc_type": "addresses"}
{"source": "OSM", "region": "Kärnten", "osm_type": "node", "osm_id": 5136275031, "name": null, "category": null, "address": "Fellersdorf 7, 9072 Ludmannsdorf", "street": "Fellersdorf", "housenumber": "7", "postcode": "9072", "place": "Ludmannsdorf", "lat": 46.5445855, "lon": 14.1589018, "tags": {"addr:city": "Ludmannsdorf", "addr:housenumber": "7", "addr:postcode": "9072", "addr:street": "Fellersdorf"}, "content": "Adresse: Fellersdorf 7, 9072 Ludmannsdorf\nOrt: Ludmannsdorf\nPLZ: 9072\nKoordinaten: 46.544585, 14.158902", "doc_type": "addresses"}
{"source": "OSM", "region": "Kärnten", "osm_type": "node", "osm_id": 5136275032, "name": null, "category": null, "address": "Fellersdorf 3, 9072 Ludmannsdorf", "street": "Fellersdorf", "housenumber": "3", "postcode": "9072", "place": "Ludmannsdorf", "lat": 46.5454689, "lon": 14.1574027, "tags": {"addr:city": "Ludmannsdorf", "addr:housenumber": "3", "addr:postcode": "9072", "addr:street": "Fellersdorf"}, "content": "Adresse: Fellersdorf 3, 9072 Ludmannsdorf\nOrt: Ludmannsdorf\nPLZ: 9072\nKoordinaten: 46.545469, 14.157403", "doc_type": "addresses"}
{"source": "OSM", "region": "Kärnten", "osm_type": "node", "osm_id": 5136275033, "name": null, "category": null, "address": "Fellersdorf 2a, 9072 Ludmannsdorf", "street": "Fellersdorf", "housenumber": "2a", "postcode": "9072", "place": "Ludmannsdorf", "lat": 46.5457514, "lon": 14.1581501, "tags": {"addr:city": "Ludmannsdorf", "addr:housenumber": "2a", "addr:postcode": "9072", "addr:street": "Fellersdorf"}, "content": "Adresse: Fellersdorf 2a, 9072 Ludmannsdorf\nOrt: Ludmannsdorf\nPLZ: 9072\nKoordinaten: 46.545751, 14.158150", "doc_type": "addresses"}
{"source": "OSM", "region": "Kärnten", "osm_type": "node", "osm_id": 5136275034, "name": null, "category": null, "address": "Fellersdorf 2, 9072 Ludmannsdorf", "street": "Fellersdorf", "housenumber": "2", "postcode": "9072", "place": "Ludmannsdorf", "lat": 46.5458327, "lon": 14.1576829, "tags": {"addr:city": "Ludmannsdorf", "addr:housenumber": "2", "addr:postcode": "9072", "addr:street": "Fellersdorf"}, "content": "Adresse: Fellersdorf 2, 9072 Ludmannsdorf\nOrt: Ludmannsdorf\nPLZ: 9072\nKoordinaten: 46.545833, 14.157683", "doc_type": "addresses"}
{"source": "OSM", "region": "Kärnten", "osm_type": "node", "osm_id": 5136275035, "name": null, "category": null, "address": "Fellersdorf 14, 9072 Ludmannsdorf", "street": "Fellersdorf", "housenumber": "14", "postcode": "9072", "place": "Ludmannsdorf", "lat": 46.5463542, "lon": 14.1568815, "tags": {"addr:city": "Ludmannsdorf", "addr:housenumber": "14", "addr:postcode": "9072", "addr:street": "Fellersdorf"}, "content": "Adresse: Fellersdorf 14, 9072 Ludmannsdorf\nOrt: Ludmannsdorf\nPLZ: 9072\nKoordinaten: 46.546354, 14.156882", "doc_type": "addresses"}
{"source": "OSM", "region": "Kärnten", "osm_type": "node", "osm_id": 5136275036, "name": null, "category": null, "address": "Fellersdorf 13, 9072 Ludmannsdorf", "street": "Fellersdorf", "housenumber": "13", "postcode": "9072", "place": "Ludmannsdorf", "lat": 46.5463452, "lon": 14.156894, "tags": {"addr:city": "Ludmannsdorf", "addr:housenumber": "13", "addr:postcode": "9072", "addr:street": "Fellersdorf"}, "content": "Adresse: Fellersdorf 13, 9072 Ludmannsdorf\nOrt: Ludmannsdorf\nPLZ: 9072\nKoordinaten: 46.546345, 14.156894", "doc_type": "addresses"}
{"source": "OSM", "region": "Kärnten", "osm_type": "node", "osm_id": 5136275037, "name": null, "category": null, "address": "Fellersdorf 11, 9072 Ludmannsdorf", "street": "Fellersdorf", "housenumber": "11", "postcode": "9072", "place": "Ludmannsdorf", "lat": 46.5464649, "lon": 14.156508, "tags": {"addr:city": "Ludmannsdorf", "addr:housenumber": "11", "addr:postcode": "9072", "addr:street": "Fellersdorf"}, "content": "Adresse: Fellersdorf 11, 9072 Ludmannsdorf\nOrt: Ludmannsdorf\nPLZ: 9072\nKoordinaten: 46.546465, 14.156508", "doc_type": "addresses"}
{"source": "OSM", "region": "Kärnten", "osm_type": "node", "osm_id": 5139290633, "name": null, "category": null, "address": "Moschenitzen 13, 9072 Ludmannsdorf", "street": "Moschenitzen", "housenumber": "13", "postcode": "9072", "place": "Ludmannsdorf", "lat": 46.5394798, "lon": 14.1545877, "tags": {"addr:city": "Ludmannsdorf", "addr:housenumber": "13", "addr:postcode": "9072", "addr:street": "Moschenitzen"}, "content": "Adresse: Moschenitzen 13, 9072 Ludmannsdorf\nOrt: Ludmannsdorf\nPLZ: 9072\nKoordinaten: 46.539480, 14.154588", "doc_type": "addresses"}
{"source": "OSM", "region": "Kärnten", "osm_type": "node", "osm_id": 5139290643, "name": null, "category": null, "address": "Bach 17, 9072 Ludmannsdorf", "street": "Bach", "housenumber": "17", "postcode": "9072", "place": "Ludmannsdorf", "lat": 46.5465293, "lon": 14.1512646, "tags": {"addr:city": "Ludmannsdorf", "addr:housenumber": "17", "addr:postcode": "9072", "addr:street": "Bach"}, "content": "Adresse: Bach 17, 9072 Ludmannsdorf\nOrt: Ludmannsdorf\nPLZ: 9072\nKoordinaten: 46.546529, 14.151265", "doc_type": "addresses"}
{"source": "OSM", "region": "Kärnten", "osm_type": "node", "osm_id": 5139290650, "name": null, "category": null, "address": "Bach 9, 9072 Ludmannsdorf", "street": "Bach", "housenumber": "9", "postcode": "9072", "place": "Ludmannsdorf", "lat": 46.5479426, "lon": 14.1561622, "tags": {"addr:city": "Ludmannsdorf", "addr:housenumber": "9", "addr:postcode": "9072", "addr:street": "Bach"}, "content": "Adresse: Bach 9, 9072 Ludmannsdorf\nOrt: Ludmannsdorf\nPLZ: 9072\nKoordinaten: 46.547943, 14.156162", "doc_type": "addresses"}
{"source": "OSM", "region": "Kärnten", "osm_type": "node", "osm_id": 5139290652, "name": null, "category": null, "address": "Bach 5, 9072 Ludmannsdorf", "street": "Bach", "housenumber": "5", "postcode": "9072", "place": "Ludmannsdorf", "lat": 46.5471416, "lon": 14.1536989, "tags": {"addr:city": "Ludmannsdorf", "addr:housenumber": "5", "addr:postcode": "9072", "addr:street": "Bach"}, "content": "Adresse: Bach 5, 9072 Ludmannsdorf\nOrt: Ludmannsdorf\nPLZ: 9072\nKoordinaten: 46.547142, 14.153699", "doc_type": "addresses"}
{"source": "OSM", "region": "Kärnten", "osm_type": "node", "osm_id": 5139290654, "name": null, "category": null, "address": "Bach 4, 9072 Ludmannsdorf", "street": "Bach", "housenumber": "4", "postcode": "9072", "place": "Ludmannsdorf", "lat": 46.5471133, "lon": 14.1538941, "tags": {"addr:city": "Ludmannsdorf", "addr:housenumber": "4", "addr:postcode": "9072", "addr:street": "Bach"}, "content": "Adresse: Bach 4, 9072 Ludmannsdorf\nOrt: Ludmannsdorf\nPLZ: 9072\nKoordinaten: 46.547113, 14.153894", "doc_type": "addresses"}
{"source": "OSM", "region": "Kärnten", "osm_type": "node", "osm_id": 5139290658, "name": null, "category": null, "address": "Bach 1, 9072 Ludmannsdorf", "street": "Bach", "housenumber": "1", "postcode": "9072", "place": "Ludmannsdorf", "lat": 46.5465899, "lon": 14.1522427, "tags": {"addr:city": "Ludmannsdorf", "addr:housenumber": "1", "addr:postcode": "9072", "addr:street": "Bach"}, "content": "Adresse: Bach 1, 9072 Ludmannsdorf\nOrt: Ludmannsdorf\nPLZ: 9072\nKoordinaten: 46.546590, 14.152243", "doc_type": "addresses"}
{"source": "OSM", "region": "Kärnten", "osm_type": "node", "osm_id": 5146186031, "name": null, "category": null, "address": "Großkleinberg 13, 9072 Ludmannsdorf", "street": "Großkleinberg", "housenumber": "13", "postcode": "9072", "place": "Ludmannsdorf", "lat": 46.5488935, "lon": 14.1552768, "tags": {"addr:city": "Ludmannsdorf", "addr:housenumber": "13", "addr:postcode": "9072", "addr:street": "Großkleinberg"}, "content": "Adresse: Großkleinberg 13, 9072 Ludmannsdorf\nOrt: Ludmannsdorf\nPLZ: 9072\nKoordinaten: 46.548893, 14.155277", "doc_type": "addresses"}
{"source": "OSM", "region": "Kärnten", "osm_type": "node", "osm_id": 5146186032, "name": null, "category": null, "address": "Großkleinberg 12, 9072 Ludmannsdorf", "street": "Großkleinberg", "housenumber": "12", "postcode": "9072", "place": "Ludmannsdorf", "lat": 46.5482308, "lon": 14.153611, "tags": {"addr:city": "Ludmannsdorf", "addr:housenumber": "12", "addr:postcode": "9072", "addr:street": "Großkleinberg"}, "content": "Adresse: Großkleinberg 12, 9072 Ludmannsdorf\nOrt: Ludmannsdorf\nPLZ: 9072\nKoordinaten: 46.548231, 14.153611", "doc_type": "addresses"}
{"source": "OSM", "region": "Kärnten", "osm_type": "node", "osm_id": 5146186033, "name": null, "category": null, "address": "Großkleinberg 8a, 9072 Ludmannsdorf", "street": "Großkleinberg", "housenumber": "8a", "postcode": "9072", "place": "Ludmannsdorf", "lat": 46.5496485, "lon": 14.1553795, "tags": {"addr:city": "Ludmannsdorf", "addr:housenumber": "8a", "addr:postcode": "9072", "addr:street": "Großkleinberg"}, "content": "Adresse: Großkleinberg 8a, 9072 Ludmannsdorf\nOrt: Ludmannsdorf\nPLZ: 9072\nKoordinaten: 46.549649, 14.155380", "doc_type": "addresses"}
{"source": "OSM", "region": "Kärnten", "osm_type": "node", "osm_id": 5146186034, "name": null, "category": null, "address": "Großkleinberg 8, 9072 Ludmannsdorf", "street": "Großkleinberg", "housenumber": "8", "postcode": "9072", "place": "Ludmannsdorf", "lat": 46.5492546, "lon": 14.1551128, "tags": {"addr:city": "Ludmannsdorf", "addr:housenumber": "8", "addr:postcode": "9072", "addr:street": "Großkleinberg"}, "content": "Adresse: Großkleinberg 8, 9072 Ludmannsdorf\nOrt: Ludmannsdorf\nPLZ: 9072\nKoordinaten: 46.549255, 14.155113", "doc_type": "addresses"}
{"source": "OSM", "region": "Kärnten", "osm_type": "node", "osm_id": 5146186035, "name": null, "category": null, "address": "Großkleinberg 7, 9072 Ludmannsdorf", "street": "Großkleinberg", "housenumber": "7", "postcode": "9072", "place": "Ludmannsdorf", "lat": 46.5495712, "lon": 14.1485589, "tags": {"addr:city": "Ludmannsdorf", "addr:housenumber": "7", "addr:postcode": "9072", "addr:street": "Großkleinberg"}, "content": "Adresse: Großkleinberg 7, 9072 Ludmannsdorf\nOrt: Ludmannsdorf\nPLZ: 9072\nKoordinaten: 46.549571, 14.148559", "doc_type": "addresses"}
{"source": "OSM", "region": "Kärnten", "osm_type": "node", "osm_id": 5146186036, "name": null, "category": null, "address": "Großkleinberg 6, 9072 Ludmannsdorf", "street": "Großkleinberg", "housenumber": "6", "postcode": "9072", "place": "Ludmannsdorf", "lat": 46.5512038, "lon": 14.1517388, "tags": {"addr:city": "Ludmannsdorf", "addr:housenumber": "6", "addr:postcode": "9072", "addr:street": "Großkleinberg"}, "content": "Adresse: Großkleinberg 6, 9072 Ludmannsdorf\nOrt: Ludmannsdorf\nPLZ: 9072\nKoordinaten: 46.551204, 14.151739", "doc_type": "addresses"}
{"source": "OSM", "region": "Kärnten", "osm_type": "node", "osm_id": 5146186037, "name": null, "category": null, "address": "Großkleinberg 5, 9072 Ludmannsdorf", "street": "Großkleinberg", "housenumber": "5", "postcode": "9072", "place": "Ludmannsdorf", "lat": 46.551377, "lon": 14.1551969, "tags": {"addr:city": "Ludmannsdorf", "addr:housenumber": "5", "addr:postcode": "9072", "addr:street": "Großkleinberg"}, "content": "Adresse: Großkleinberg 5, 9072 Ludmannsdorf\nOrt: Ludmannsdorf\nPLZ: 9072\nKoordinaten: 46.551377, 14.155197", "doc_type": "addresses"}
{"source": "OSM", "region": "Kärnten", "osm_type": "node", "osm_id": 5146186038, "name": null, "category": null, "address": "Großkleinberg 4, 9072 Ludmannsdorf", "street": "Großkleinberg", "housenumber": "4", "postcode": "9072", "place": "Ludmannsdorf", "lat": 46.5514999, "lon": 14.155616, "tags": {"addr:city": "Ludmannsdorf", "addr:housenumber": "4", "addr:postcode": "9072", "addr:street": "Großkleinberg"}, "content": "Adresse: Großkleinberg 4, 9072 Ludmannsdorf\nOrt: Ludmannsdorf\nPLZ: 9072\nKoordinaten: 46.551500, 14.155616", "doc_type": "addresses"}
{"source": "OSM", "region": "Kärnten", "osm_type": "node", "osm_id": 5146186039, "name": null, "category": null, "address": "Großkleinberg 2a, 9072 Ludmannsdorf", "street": "Großkleinberg", "housenumber": "2a", "postcode": "9072", "place": "Ludmannsdorf", "lat": 46.5537278, "lon": 14.1486324, "tags": {"addr:city": "Ludmannsdorf", "addr:housenumber": "2a", "addr:postcode": "9072", "addr:street": "Großkleinberg"}, "content": "Adresse: Großkleinberg 2a, 9072 Ludmannsdorf\nOrt: Ludmannsdorf\nPLZ: 9072\nKoordinaten: 46.553728, 14.148632", "doc_type": "addresses"}
{"source": "OSM", "region": "Kärnten", "osm_type": "node", "osm_id": 5146186040, "name": null, "category": null, "address": "Großkleinberg 1, 9072 Ludmannsdorf", "street": "Großkleinberg", "housenumber": "1", "postcode": "9072", "place": "Ludmannsdorf", "lat": 46.5537449, "lon": 14.148693, "tags": {"addr:city": "Ludmannsdorf", "addr:housenumber": "1", "addr:postcode": "9072", "addr:street": "Großkleinberg"}, "content": "Adresse: Großkleinberg 1, 9072 Ludmannsdorf\nOrt: Ludmannsdorf\nPLZ: 9072\nKoordinaten: 46.553745, 14.148693", "doc_type": "addresses"}
{"source": "OSM", "region": "Kärnten", "osm_type": "node", "osm_id": 5146186041, "name": null, "category": null, "address": "Großkleinberg 22, 9072 Ludmannsdorf", "street": "Großkleinberg", "housenumber": "22", "postcode": "9072", "place": "Ludmannsdorf", "lat": 46.5484158, "lon": 14.1541483, "tags": {"addr:city": "Ludmannsdorf", "addr:housenumber": "22", "addr:postcode": "9072", "addr:street": "Großkleinberg"}, "content": "Adresse: Großkleinberg 22, 9072 Ludmannsdorf\nOrt: Ludmannsdorf\nPLZ: 9072\nKoordinaten: 46.548416, 14.154148", "doc_type": "addresses"}
{"source": "OSM", "region": "Kärnten", "osm_type": "node", "osm_id": 5146186042, "name": null, "category": null, "address": "Großkleinberg 18, 9072 Ludmannsdorf", "street": "Großkleinberg", "housenumber": "18", "postcode": "9072", "place": "Ludmannsdorf", "lat": 46.548562, "lon": 14.1538376, "tags": {"addr:city": "Ludmannsdorf", "addr:housenumber": "18", "addr:postcode": "9072", "addr:street": "Großkleinberg"}, "content": "Adresse: Großkleinberg 18, 9072 Ludmannsdorf\nOrt: Ludmannsdorf\nPLZ: 9072\nKoordinaten: 46.548562, 14.153838", "doc_type": "addresses"}
{"source": "OSM", "region": "Kärnten", "osm_type": "node", "osm_id": 5148569992, "name": null, "category": null, "address": "Zedras 45, 9072 Ludmannsdorf", "street": "Zedras", "housenumber": "45", "postcode": "9072", "place": "Ludmannsdorf", "lat": 46.5576317, "lon": 14.1659377, "tags": {"addr:city": "Ludmannsdorf", "addr:housenumber": "45", "addr:postcode": "9072", "addr:street": "Zedras"}, "content": "Adresse: Zedras 45, 9072 Ludmannsdorf\nOrt: Ludmannsdorf\nPLZ: 9072\nKoordinaten: 46.557632, 14.165938", "doc_type": "addresses"}
{"source": "OSM", "region": "Kärnten", "osm_type": "node", "osm_id": 5148569994, "name": null, "category": null, "address": "9a, 9072 Ludmannsdorf", "street": null, "housenumber": "9a", "postcode": "9072", "place": "Ludmannsdorf", "lat": 46.5598553, "lon": 14.1683268, "tags": {"addr:city": "Ludmannsdorf", "addr:housenumber": "9a", "addr:place": "Fellersdorf", "addr:postcode": "9072"}, "content": "Adresse: 9a, 9072 Ludmannsdorf\nOrt: Ludmannsdorf\nPLZ: 9072\nKoordinaten: 46.559855, 14.168327", "doc_type": "addresses"}
{"source": "OSM", "region": "Kärnten", "osm_type": "node", "osm_id": 5148570001, "name": null, "category": null, "address": "Zedras 31, 9072 Ludmannsdorf", "street": "Zedras", "housenumber": "31", "postcode": "9072", "place": "Ludmannsdorf", "lat": 46.5554662, "lon": 14.1632391, "tags": {"addr:city": "Ludmannsdorf", "addr:housenumber": "31", "addr:postcode": "9072", "addr:street": "Zedras"}, "content": "Adresse: Zedras 31, 9072 Ludmannsdorf\nOrt: Ludmannsdorf\nPLZ: 9072\nKoordinaten: 46.555466, 14.163239", "doc_type": "addresses"}
{"source": "OSM", "region": "Kärnten", "osm_type": "node", "osm_id": 5148570014, "name": null, "category": null, "address": "Zedras 15, 9072 Ludmannsdorf", "street": "Zedras", "housenumber": "15", "postcode": "9072", "place": "Ludmannsdorf", "lat": 46.5563313, "lon": 14.1617917, "tags": {"addr:city": "Ludmannsdorf", "addr:housenumber": "15", "addr:postcode": "9072", "addr:street": "Zedras"}, "content": "Adresse: Zedras 15, 9072 Ludmannsdorf\nOrt: Ludmannsdorf\nPLZ: 9072\nKoordinaten: 46.556331, 14.161792", "doc_type": "addresses"}
{"source": "OSM", "region": "Kärnten", "osm_type": "node", "osm_id": 5148570016, "name": null, "category": null, "address": "Zedras 13, 9072 Ludmannsdorf", "street": "Zedras", "housenumber": "13", "postcode": "9072", "place": "Ludmannsdorf", "lat": 46.5532129, "lon": 14.1675602, "tags": {"addr:city": "Ludmannsdorf", "addr:housenumber": "13", "addr:postcode": "9072", "addr:street": "Zedras"}, "content": "Adresse: Zedras 13, 9072 Ludmannsdorf\nOrt: Ludmannsdorf\nPLZ: 9072\nKoordinaten: 46.553213, 14.167560", "doc_type": "addresses"}
{"source": "OSM", "region": "Kärnten", "osm_type": "node", "osm_id": 5148570019, "name": null, "category": null, "address": "Zedras 8, 9072 Ludmannsdorf", "street": "Zedras", "housenumber": "8", "postcode": "9072", "place": "Ludmannsdorf", "lat": 46.5558168, "lon": 14.1582891, "tags": {"addr:city": "Ludmannsdorf", "addr:housenumber": "8", "addr:postcode": "9072", "addr:street": "Zedras"}, "content": "Adresse: Zedras 8, 9072 Ludmannsdorf\nOrt: Ludmannsdorf\nPLZ: 9072\nKoordinaten: 46.555817, 14.158289", "doc_type": "addresses"}
{"source": "OSM", "region": "Kärnten", "osm_type": "node", "osm_id": 5148570020, "name": null, "category": null, "address": "Zedras 5, 9072 Ludmannsdorf", "street": "Zedras", "housenumber": "5", "postcode": "9072", "place": "Ludmannsdorf", "lat": 46.5561021, "lon": 14.1626359, "tags": {"addr:city": "Ludmannsdorf", "addr:housenumber": "5", "addr:postcode": "9072", "addr:street": "Zedras"}, "content": "Adresse: Zedras 5, 9072 Ludmannsdorf\nOrt: Ludmannsdorf\nPLZ: 9072\nKoordinaten: 46.556102, 14.162636", "doc_type": "addresses"}
{"source": "OSM", "region": "Kärnten", "osm_type": "node", "osm_id": 5148570021, "name": null, "category": null, "address": "Zedras 4a, 9072 Ludmannsdorf", "street": "Zedras", "housenumber": "4a", "postcode": "9072", "place": "Ludmannsdorf", "lat": 46.5576177, "lon": 14.164289, "tags": {"addr:city": "Ludmannsdorf", "addr:housenumber": "4a", "addr:postcode": "9072", "addr:street": "Zedras"}, "content": "Adresse: Zedras 4a, 9072 Ludmannsdorf\nOrt: Ludmannsdorf\nPLZ: 9072\nKoordinaten: 46.557618, 14.164289", "doc_type": "addresses"}
{"source": "OSM", "region": "Kärnten", "osm_type": "node", "osm_id": 5148570022, "name": null, "category": null, "address": "Zedras 3, 9072 Ludmannsdorf", "street": "Zedras", "housenumber": "3", "postcode": "9072", "place": "Ludmannsdorf", "lat": 46.5564149, "lon": 14.1639186, "tags": {"addr:city": "Ludmannsdorf", "addr:housenumber": "3", "addr:postcode": "9072", "addr:street": "Zedras"}, "content": "Adresse: Zedras 3, 9072 Ludmannsdorf\nOrt: Ludmannsdorf\nPLZ: 9072\nKoordinaten: 46.556415, 14.163919", "doc_type": "addresses"}
{"source": "OSM", "region": "Kärnten", "osm_type": "node", "osm_id": 5148570024, "name": null, "category": null, "address": "Zedras 1b, 9072 Ludmannsdorf", "street": "Zedras", "housenumber": "1b", "postcode": "9072", "place": "Ludmannsdorf", "lat": 46.5536294, "lon": 14.1659627, "tags": {"addr:city": "Ludmannsdorf", "addr:housenumber": "1b", "addr:postcode": "9072", "addr:street": "Zedras"}, "content": "Adresse: Zedras 1b, 9072 Ludmannsdorf\nOrt: Ludmannsdorf\nPLZ: 9072\nKoordinaten: 46.553629, 14.165963", "doc_type": "addresses"}
{"source": "OSM", "region": "Kärnten", "osm_type": "node", "osm_id": 5148570025, "name": null, "category": null, "address": "Zedras 1a, 9072 Ludmannsdorf", "street": "Zedras", "housenumber": "1a", "postcode": "9072", "place": "Ludmannsdorf", "lat": 46.5537888, "lon": 14.1662785, "tags": {"addr:city": "Ludmannsdorf", "addr:housenumber": "1a", "addr:postcode": "9072", "addr:street": "Zedras"}, "content": "Adresse: Zedras 1a, 9072 Ludmannsdorf\nOrt: Ludmannsdorf\nPLZ: 9072\nKoordinaten: 46.553789, 14.166279", "doc_type": "addresses"}
{"source": "OSM", "region": "Kärnten", "osm_type": "node", "osm_id": 5148570026, "name": null, "category": null, "address": "Zedras 1, 9072 Ludmannsdorf", "street": "Zedras", "housenumber": "1", "postcode": "9072", "place": "Ludmannsdorf", "lat": 46.5540666, "lon": 14.1664518, "tags": {"addr:city": "Ludmannsdorf", "addr:housenumber": "1", "addr:postcode": "9072", "addr:street": "Zedras"}, "content": "Adresse: Zedras 1, 9072 Ludmannsdorf\nOrt: Ludmannsdorf\nPLZ: 9072\nKoordinaten: 46.554067, 14.166452", "doc_type": "addresses"}
{"source": "OSM", "region": "Kärnten", "osm_type": "node", "osm_id": 5150510851, "name": null, "category": null, "address": "Pugrad 67, 9072 Ludmannsdorf", "street": "Pugrad", "housenumber": "67", "postcode": "9072", "place": "Ludmannsdorf", "lat": 46.5469265, "lon": 14.1409181, "tags": {"addr:city": "Ludmannsdorf", "addr:housenumber": "67", "addr:postcode": "9072", "addr:street": "Pugrad"}, "content": "Adresse: Pugrad 67, 9072 Ludmannsdorf\nOrt: Ludmannsdorf\nPLZ: 9072\nKoordinaten: 46.546926, 14.140918", "doc_type": "addresses"}
{"source": "OSM", "region": "Kärnten", "osm_type": "node", "osm_id": 5150510858, "name": null, "category": null, "address": "Pugrad 14, 9072 Ludmannsdorf", "street": "Pugrad", "housenumber": "14", "postcode": "9072", "place": "Ludmannsdorf", "lat": 46.5471293, "lon": 14.1389238, "tags": {"addr:city": "Ludmannsdorf", "addr:housenumber": "14", "addr:postcode": "9072", "addr:street": "Pugrad"}, "content": "Adresse: Pugrad 14, 9072 Ludmannsdorf\nOrt: Ludmannsdorf\nPLZ: 9072\nKoordinaten: 46.547129, 14.138924", "doc_type": "addresses"}
{"source": "OSM", "region": "Kärnten", "osm_type": "node", "osm_id": 5159496573, "name": null, "category": null, "address": "Franzendorf 8, 9072 Ludmannsdorf", "street": "Franzendorf", "housenumber": "8", "postcode": "9072", "place": "Ludmannsdorf", "lat": 46.5429585, "lon": 14.1231852, "tags": {"addr:city": "Ludmannsdorf", "addr:housenumber": "8", "addr:postcode": "9072", "addr:street": "Franzendorf"}, "content": "Adresse: Franzendorf 8, 9072 Ludmannsdorf\nOrt: Ludmannsdorf\nPLZ: 9072\nKoordinaten: 46.542958, 14.123185", "doc_type": "addresses"}
{"source": "OSM", "region": "Kärnten", "osm_type": "node", "osm_id": 5159496574, "name": null, "category": null, "address": "Franzendorf 6, 9072 Ludmannsdorf", "street": "Franzendorf", "housenumber": "6", "postcode": "9072", "place": "Ludmannsdorf", "lat": 46.5424872, "lon": 14.1234346, "tags": {"addr:city": "Ludmannsdorf", "addr:housenumber": "6", "addr:postcode": "9072", "addr:street": "Franzendorf"}, "content": "Adresse: Franzendorf 6, 9072 Ludmannsdorf\nOrt: Ludmannsdorf\nPLZ: 9072\nKoordinaten: 46.542487, 14.123435", "doc_type": "addresses"}
{"source": "OSM", "region": "Kärnten", "osm_type": "node", "osm_id": 5159496575, "name": null, "category": null, "address": "Franzendorf 5, 9072 Ludmannsdorf", "street": "Franzendorf", "housenumber": "5", "postcode": "9072", "place": "Ludmannsdorf", "lat": 46.5423692, "lon": 14.1239098, "tags": {"addr:city": "Ludmannsdorf", "addr:housenumber": "5", "addr:postcode": "9072", "addr:street": "Franzendorf"}, "content": "Adresse: Franzendorf 5, 9072 Ludmannsdorf\nOrt: Ludmannsdorf\nPLZ: 9072\nKoordinaten: 46.542369, 14.123910", "doc_type": "addresses"}
{"source": "OSM", "region": "Kärnten", "osm_type": "node", "osm_id": 5159496576, "name": null, "category": null, "address": "Franzendorf 4, 9072 Ludmannsdorf", "street": "Franzendorf", "housenumber": "4", "postcode": "9072", "place": "Ludmannsdorf", "lat": 46.5425823, "lon": 14.1247102, "tags": {"addr:city": "Ludmannsdorf", "addr:housenumber": "4", "addr:postcode": "9072", "addr:street": "Franzendorf"}, "content": "Adresse: Franzendorf 4, 9072 Ludmannsdorf\nOrt: Ludmannsdorf\nPLZ: 9072\nKoordinaten: 46.542582, 14.124710", "doc_type": "addresses"}
{"source": "OSM", "region": "Kärnten", "osm_type": "node", "osm_id": 5159496577, "name": null, "category": null, "address": "Franzendorf 3, 9072 Ludmannsdorf", "street": "Franzendorf", "housenumber": "3", "postcode": "9072", "place": "Ludmannsdorf", "lat": 46.5429828, "lon": 14.1245902, "tags": {"addr:city": "Ludmannsdorf", "addr:housenumber": "3", "addr:postcode": "9072", "addr:street": "Franzendorf"}, "content": "Adresse: Franzendorf 3, 9072 Ludmannsdorf\nOrt: Ludmannsdorf\nPLZ: 9072\nKoordinaten: 46.542983, 14.124590", "doc_type": "addresses"}
{"source": "OSM", "region": "Kärnten", "osm_type": "node", "osm_id": 5159496578, "name": null, "category": null, "address": "Franzendorf 9, 9072 Ludmannsdorf", "street": "Franzendorf", "housenumber": "9", "postcode": "9072", "place": "Ludmannsdorf", "lat": 46.5426395, "lon": 14.1229058, "tags": {"addr:city": "Ludmannsdorf", "addr:housenumber": "9", "addr:postcode": "9072", "addr:street": "Franzendorf"}, "content": "Adresse: Franzendorf 9, 9072 Ludmannsdorf\nOrt: Ludmannsdorf\nPLZ: 9072\nKoordinaten: 46.542639, 14.122906", "doc_type": "addresses"}
{"source": "OSM", "region": "Kärnten", "osm_type": "node", "osm_id": 5159717141, "name": null, "category": null, "address": "Franzendorf 27a, 9072 Ludmannsdorf", "street": "Franzendorf", "housenumber": "27a", "postcode": "9072", "place": "Ludmannsdorf", "lat": 46.5431361, "lon": 14.1126342, "tags": {"addr:city": "Ludmannsdorf", "addr:housenumber": "27a", "addr:postcode": "9072", "addr:street": "Franzendorf"}, "content": "Adresse: Franzendorf 27a, 9072 Ludmannsdorf\nOrt: Ludmannsdorf\nPLZ: 9072\nKoordinaten: 46.543136, 14.112634", "doc_type": "addresses"}
{"source": "OSM", "region": "Kärnten", "osm_type": "node", "osm_id": 5159717142, "name": null, "category": null, "address": "Franzendorf 27, 9072 Ludmannsdorf", "street": "Franzendorf", "housenumber": "27", "postcode": "9072", "place": "Ludmannsdorf", "lat": 46.5430023, "lon": 14.1132737, "tags": {"addr:city": "Ludmannsdorf", "addr:housenumber": "27", "addr:postcode": "9072", "addr:street": "Franzendorf"}, "content": "Adresse: Franzendorf 27, 9072 Ludmannsdorf\nOrt: Ludmannsdorf\nPLZ: 9072\nKoordinaten: 46.543002, 14.113274", "doc_type": "addresses"}
{"source": "OSM", "region": "Kärnten", "osm_type": "node", "osm_id": 5159717143, "name": null, "category": null, "address": "Franzendorf 11a, 9072 Ludmannsdorf", "street": "Franzendorf", "housenumber": "11a", "postcode": "9072", "place": "Ludmannsdorf", "lat": 46.5445987, "lon": 14.1131896, "tags": {"addr:city": "Ludmannsdorf", "addr:housenumber": "11a", "addr:postcode": "9072", "addr:street": "Franzendorf"}, "content": "Adresse: Franzendorf 11a, 9072 Ludmannsdorf\nOrt: Ludmannsdorf\nPLZ: 9072\nKoordinaten: 46.544599, 14.113190", "doc_type": "addresses"}
{"source": "OSM", "region": "Kärnten", "osm_type": "node", "osm_id": 5159717144, "name": null, "category": null, "address": "Franzendorf 11, 9072 Ludmannsdorf", "street": "Franzendorf", "housenumber": "11", "postcode": "9072", "place": "Ludmannsdorf", "lat": 46.5445337, "lon": 14.1134886, "tags": {"addr:city": "Ludmannsdorf", "addr:housenumber": "11", "addr:postcode": "9072", "addr:street": "Franzendorf"}, "content": "Adresse: Franzendorf 11, 9072 Ludmannsdorf\nOrt: Ludmannsdorf\nPLZ: 9072\nKoordinaten: 46.544534, 14.113489", "doc_type": "addresses"}
{"source": "OSM", "region": "Kärnten", "osm_type": "node", "osm_id": 5159833749, "name": null, "category": null, "address": "Selkach 4, 9072 Ludmannsdorf", "street": "Selkach", "housenumber": "4", "postcode": "9072", "place": "Ludmannsdorf", "lat": 46.5426927, "lon": 14.1067846, "tags": {"addr:city": "Ludmannsdorf", "addr:housenumber": "4", "addr:postcode": "9072", "addr:street": "Selkach"}, "content": "Adresse: Selkach 4, 9072 Ludmannsdorf\nOrt: Ludmannsdorf\nPLZ: 9072\nKoordinaten: 46.542693, 14.106785", "doc_type": "addresses"}
{"source": "OSM", "region": "Kärnten", "osm_type": "node", "osm_id": 5161800266, "name": null, "category": null, "address": "Selkach 11, 9072 Ludmannsdorf", "street": "Selkach", "housenumber": "11", "postcode": "9072", "place": "Ludmannsdorf", "lat": 46.5426817, "lon": 14.0939204, "tags": {"addr:city": "Ludmannsdorf", "addr:housenumber": "11", "addr:postcode": "9072", "addr:street": "Selkach"}, "content": "Adresse: Selkach 11, 9072 Ludmannsdorf\nOrt: Ludmannsdorf\nPLZ: 9072\nKoordinaten: 46.542682, 14.093920", "doc_type": "addresses"}
{"source": "OSM", "region": "Kärnten", "osm_type": "node", "osm_id": 5161800267, "name": null, "category": null, "address": "Selkach 7, 9072 Ludmannsdorf", "street": "Selkach", "housenumber": "7", "postcode": "9072", "place": "Ludmannsdorf", "lat": 46.5426219, "lon": 14.0952592, "tags": {"addr:city": "Ludmannsdorf", "addr:housenumber": "7", "addr:postcode": "9072", "addr:street": "Selkach"}, "content": "Adresse: Selkach 7, 9072 Ludmannsdorf\nOrt: Ludmannsdorf\nPLZ: 9072\nKoordinaten: 46.542622, 14.095259", "doc_type": "addresses"}
{"source": "OSM", "region": "Kärnten", "osm_type": "node", "osm_id": 5163933973, "name": null, "category": null, "address": "1, 9072 Ludmannsdorf", "street": null, "housenumber": "1", "postcode": "9072", "place": "Ludmannsdorf", "lat": 46.5506418, "lon": 14.1162244, "tags": {"addr:city": "Ludmannsdorf", "addr:housenumber": "1", "addr:place": "Oberdörfl", "addr:postcode": "9072"}, "content": "Adresse: 1, 9072 Ludmannsdorf\nOrt: Ludmannsdorf\nPLZ: 9072\nKoordinaten: 46.550642, 14.116224", "doc_type": "addresses"}
{"source": "OSM", "region": "Kärnten", "osm_type": "node", "osm_id": 5163933974, "name": null, "category": null, "address": "60, 9072 Ludmannsdorf", "street": null, "housenumber": "60", "postcode": "9072", "place": "Ludmannsdorf", "lat": 46.5526787, "lon": 14.1085858, "tags": {"addr:city": "Ludmannsdorf", "addr:housenumber": "60", "addr:place": "Oberdörfl", "addr:postcode": "9072"}, "content": "Adresse: 60, 9072 Ludmannsdorf\nOrt: Ludmannsdorf\nPLZ: 9072\nKoordinaten: 46.552679, 14.108586", "doc_type": "addresses"}
{"source": "OSM", "region": "Kärnten", "osm_type": "node", "osm_id": 5163933975, "name": null, "category": null, "address": "26, 9072 Ludmannsdorf", "street": null, "housenumber": "26", "postcode": "9072", "place": "Ludmannsdorf", "lat": 46.5527285, "lon": 14.1084061, "tags": {"addr:city": "Ludmannsdorf", "addr:housenumber": "26", "addr:place": "Oberdörfl", "addr:postcode": "9072"}, "content": "Adresse: 26, 9072 Ludmannsdorf\nOrt: Ludmannsdorf\nPLZ: 9072\nKoordinaten: 46.552729, 14.108406", "doc_type": "addresses"}
{"source": "OSM", "region": "Kärnten", "osm_type": "node", "osm_id": 1601664187, "name": "Gasthaus – Gostišče – Trattoria Ogris", "category": "amenity:restaurant", "address": "Ludmannsdorf 13, 9072 Ludmannsdorf", "street": "Ludmannsdorf", "housenumber": "13", "postcode": "9072", "place": "Ludmannsdorf", "lat": 46.5415666, "lon": 14.1360648, "tags": {"addr:city": "Ludmannsdorf", "addr:housenumber": "13", "addr:postcode": "9072", "addr:street": "Ludmannsdorf", "amenity": "restaurant", "name": "Gasthaus – Gostišče – Trattoria Ogris", "phone": "+43 4228 2249", "website": "https://www.gasthaus-ogris.at/"}, "content": "Gasthaus – Gostišče – Trattoria Ogris\nKategorie: amenity:restaurant\nAdresse: Ludmannsdorf 13, 9072 Ludmannsdorf\nOrt: Ludmannsdorf\nPLZ: 9072\nKoordinaten: 46.541567, 14.136065\nTags: amenity=restaurant, phone=+43 4228 2249, website=https://www.gasthaus-ogris.at/", "doc_type": "pois"}
