{"source": "OSM", "region": "Kärnten", "osm_type": "node", "osm_id": 4087148845, "name": null, "category": null, "address": "87, 9861 Eisentratten", "street": null, "housenumber": "87", "postcode": "9861", "place": "Eisentratten", "lat": 46.9254238, "lon": 13.5826118, "tags": {"addr:city": "Eisentratten", "addr:housenumber": "87", "addr:place": "Eisentratten", "addr:postcode": "9861"}, "content": "Adresse: 87, 9861 Eisentratten\nOrt: Eisentratten\nPLZ: 9861\nKoordinaten: 46.925424, 13.582612", "doc_type": "addresses"}
{"source": "OSM", "region": "Kärnten", "osm_type": "node", "osm_id": 4087148846, "name": null, "category": null, "address": "87, 9861 Eisentratten", "street": null, "housenumber": "87", "postcode": "9861", "place": "Eisentratten", "lat": 46.925513, "lon": 13.5828078, "tags": {"addr:city": "Eisentratten", "addr:housenumber": "87", "addr:place": "Eisentratten", "addr:postcode": "9861"}, "content": "Adresse: 87, 9861 Eisentratten\nOrt: Eisentratten\nPLZ: 9861\nKoordinaten: 46.925513, 13.582808", "doc_type": "addresses"}
{"source": "OSM", "region": "Kärnten", "osm_type": "node", "osm_id": 4087148847, "name": null, "category": null, "address": "88, 9861 Eisentratten", "street": null, "housenumber": "88", "postcode": "9861", "place": "Eisentratten", "lat": 46.9252673, "lon": 13.5823401, "tags": {"addr:city": "Eisentratten", "addr:housenumber": "88", "addr:place": "Eisentratten", "addr:postcode": "9861"}, "content": "Adresse: 88, 9861 Eisentratten\nOrt: Eisentratten\nPLZ: 9861\nKoordinaten: 46.925267, 13.582340", "doc_type": "addresses"}
{"source": "OSM", "region": "Kärnten", "osm_type": "node", "osm_id": 4087148848, "name": null, "category": null, "address": "88, 9861 Eisentratten", "street": null, "housenumber": "88", "postcode": "9861", "place": "Eisentratten", "lat": 46.9253683, "lon": 13.582203, "tags": {"addr:city": "Eisentratten", "addr:housenumber": "88", "addr:place": "Eisentratten", "addr:postcode": "9861"}, "content": "Adresse: 88, 9861 Eisentratten\nOrt: Eisentratten\nPLZ: 9861\nKoordinaten: 46.925368, 13.582203", "doc_type": "addresses"}
{"source": "OSM", "region": "Kärnten", "osm_type": "node", "osm_id": 4087148849, "name": null, "category": null, "address": "88, 9861 Eisentratten", "street": null, "housenumber": "88", "postcode": "9861", "place": "Eisentratten", "lat": 46.9254589, "lon": 13.5821253, "tags": {"addr:city": "Eisentratten", "addr:housenumber": "88", "addr:place": "Eisentratten", "addr:postcode": "9861"}, "content": "Adresse: 88, 9861 Eisentratten\nOrt: Eisentratten\nPLZ: 9861\nKoordinaten: 46.925459, 13.582125", "doc_type": "addresses"}
{"source": "OSM", "region": "Kärnten", "osm_type": "node", "osm_id": 4087148850, "name": null, "category": null, "address": "96, 9861 Eisentratten", "street": null, "housenumber": "96", "postcode": "9861", "place": "Eisentratten", "lat": 46.9249451, "lon": 13.5817118, "tags": {"addr:city": "Eisentratten", "addr:housenumber": "96", "addr:place": "Eisentratten", "addr:postcode": "9861"}, "content": "Adresse: 96, 9861 Eisentratten\nOrt: Eisentratten\nPLZ: 9861\nKoordinaten: 46.924945, 13.581712", "doc_type": "addresses"}
{"source": "OSM", "region": "Kärnten", "osm_type": "node", "osm_id": 4087148851, "name": null, "category": null, "address": "96, 9861 Eisentratten", "street": null, "housenumber": "96", "postcode": "9861", "place": "Eisentratten", "lat": 46.9250464, "lon": 13.5816105, "tags": {"addr:city": "Eisentratten", "addr:housenumber": "96", "addr:place": "Eisentratten", "addr:postcode": "9861"}, "content": "Adresse: 96, 9861 Eisentratten\nOrt: Eisentratten\nPLZ: 9861\nKoordinaten: 46.925046, 13.581611", "doc_type": "addresses"}
{"source": "OSM", "region": "Kärnten", "osm_type": "node", "osm_id": 4087148852, "name": null, "category": null, "address": "96, 9861 Eisentratten", "street": null, "housenumber": "96", "postcode": "9861", "place": "Eisentratten", "lat": 46.9251387, "lon": 13.5815153, "tags": {"addr:city": "Eisentratten", "addr:housenumber": "96", "addr:place": "Eisentratten", "addr:postcode": "9861"}, "content": "Adresse: 96, 9861 Eisentratten\nOrt: Eisentratten\nPLZ: 9861\nKoordinaten: 46.925139, 13.581515", "doc_type": "addresses"}
{"source": "OSM", "region": "Kärnten", "osm_type": "node", "osm_id": 4144601967, "name": null, "category": null, "address": "Vordernöring 2, 9861 Eisentratten", "street": "Vordernöring", "housenumber": "2", "postcode": "9861", "place": "Eisentratten", "lat": 46.9024789, "lon": 13.5848113, "tags": {"addr:city": "Eisentratten", "addr:housenumber": "2", "addr:postcode": "9861", "addr:street": "Vordernöring"}, "content": "Adresse: Vordernöring 2, 9861 Eisentratten\nOrt: Eisentratten\nPLZ: 9861\nKoordinaten: 46.902479, 13.584811", "doc_type": "addresses"}
