{"source": "OSM", "region": "Kärnten", "osm_type": "node", "osm_id": 307479127, "name": "Raiffeisenbank Feistritz im Rosental", "category": "amenity:bank", "address": "Hauptplatz 126, 9181 Feistritz im Rosental", "street": "Hauptplatz", "housenumber": "126", "postcode": "9181", "place": "Feistritz im Rosental", "lat": 46.5226488, "lon": 14.1689097, "tags": {"addr:city": "Feistritz im Rosental", "addr:housenumber": "126", "addr:postcode": "9181", "addr:street": "Hauptplatz", "amenity": "bank", "name": "Raiffeisenbank Feistritz im Rosental"}, "content": "Raiffeisenbank Feistritz im Rosental\nKategorie: amenity:bank\nAdresse: Hauptplatz 126, 9181 Feistritz im Rosental\nOrt: Feistritz im Rosental\nPLZ: 9181\nKoordinaten: 46.522649, 14.168910\nTags: amenity=bank", "doc_type": "addresses"}
{"source": "OSM", "region": "Kärnten", "osm_type": "node", "osm_id": 307479130, "name": "Marktgemeindeamt Feistritz im Rosental", "category": "amenity:townhall", "address": "Hauptplatz 126, 9181 Feistritz im Rosental", "street": "Hauptplatz", "housenumber": "126", "postcode": "9181", "place": "Feistritz im Rosental", "lat": 46.5227716, "lon": 14.1688096, "tags": {"addr:city": "Feistritz im Rosental", "addr:housenumber": "126", "addr:postcode": "9181", "addr:street": "Hauptplatz", "amenity": "townhall", "name": "Marktgemeindeamt Feistritz im Rosental"}, "content": "Marktgemeindeamt Feistritz im Rosental\nKategorie: amenity:townhall\nAdresse: Hauptplatz 126, 9181 Feistritz im Rosental\nOrt: Feistritz im Rosental\nPLZ: 9181\nKoordinaten: 46.522772, 14.168810\nTags: amenity=townhall", "doc_type": "addresses"}
{"source": "OSM", "region": "Kärnten", "osm_type": "node", "osm_id": 308643149, "name": "Kindergarten Feistritz", "category": "amenity:kindergarten", "address": "Hauptstraße 165, 9181 Feistritz im Rosental", "street": "Hauptstraße", "housenumber": "165", "postcode": "9181", "place": "Feistritz im Rosental", "lat": 46.5232358, "lon": 14.1685479, "tags": {"addr:city": "Feistritz im Rosental", "addr:housenumber": "165", "addr:postcode": "9181", "addr:street": "Hauptstraße", "amenity": "kindergarten", "name": "Kindergarten Feistritz", "operator": "Marktgemeinde Feistritz"}, "content": "Kindergarten Feistritz\nKategorie: amenity:kindergarten\nAdresse: Hauptstraße 165, 9181 Feistritz im Rosental\nOrt: Feistritz im Rosental\nPLZ: 9181\nKoordinaten: 46.523236, 14.168548\nTags: amenity=kindergarten, operator=Marktgemeinde Feistritz", "doc_type": "addresses"}
{"source": "OSM", "region": "Kärnten", "osm_type": "node", "osm_id": 389786089, "name": "Klagenfurter Hütte", "category": "tourism:alpine_hut", "address": "Bärental 19, 9181 Feistritz im Rosental", "street": "Bärental", "housenumber": "19", "postcode": "9181", "place": "Feistritz im Rosental", "lat": 46.4468626, "lon": 14.1830532, "tags": {"addr:city": "Feistritz im Rosental", "addr:housenumber": "19", "addr:postcode": "9181", "addr:street": "Bärental", "name": "Klagenfurter Hütte", "operator": "Österreichischer Alpenverein - Sektion Klagenfurt", "tourism": "alpine_hut", "website": "https://klagenfurter-huette.at/"}, "content": "Klagenfurter Hütte\nKategorie: tourism:alpine_hut\nAdresse: Bärental 19, 9181 Feistritz im Rosental\nOrt: Feistritz im Rosental\nPLZ: 9181\nKoordinaten: 46.446863, 14.183053\nTags: operator=Österreichischer Alpenverein - Sektion Klagenfurt, website=https://klagenfurter-huette.at/", "doc_type": "addresses"}
{"source": "OSM", "region": "Kärnten", "osm_type": "node", "osm_id": 4908976961, "name": "Polizeiinspektion Feistritz im Rosental", "category": "amenity:police", "address": "Hauptplatz 126, 9181 Feistritz im Rosental", "street": "Hauptplatz", "housenumber": "126", "postcode": "9181", "place": "Feistritz im Rosental", "lat": 46.5226764, "lon": 14.168833, "tags": {"addr:city": "Feistritz im Rosental", "addr:housenumber": "126", "addr:postcode": "9181", "addr:street": "Hauptplatz", "amenity": "police", "name": "Polizeiinspektion Feistritz im Rosental", "phone": "+43 59133 2104-100"}, "content": "Polizeiinspektion Feistritz im Rosental\nKategorie: amenity:police\nAdresse: Hauptplatz 126, 9181 Feistritz im Rosental\nOrt: Feistritz im Rosental\nPLZ: 9181\nKoordinaten: 46.522676, 14.168833\nTags: amenity=police, phone=+43 59133 2104-100", "doc_type": "addresses"}
{"source": "OSM", "region": "Kärnten", "osm_type": "node", "osm_id": 5178061509, "name": null, "category": null, "address": "Seeblickstraße 320, 9181 Feistritz im Rosental", "street": "Seeblickstraße", "housenumber": "320", "postcode": "9181", "place": "Feistritz im Rosental", "lat": 46.5244924, "lon": 14.1691628, "tags": {"addr:city": "Feistritz im Rosental", "addr:housenumber": "320", "addr:postcode": "9181", "addr:street": "Seeblickstraße"}, "content": "Adresse: Seeblickstraße 320, 9181 Feistritz im Rosental\nOrt: Feistritz im Rosental\nPLZ: 9181\nKoordinaten: 46.524492, 14.169163", "doc_type": "addresses"}
{"source": "OSM", "region": "Kärnten", "osm_type": "node", "osm_id": 5178061517, "name": null, "category": null, "address": "Seeblickstraße 209, 9181 Feistritz im Rosental", "street": "Seeblickstraße", "housenumber": "209", "postcode": "9181", "place": "Feistritz im Rosental", "lat": 46.5242101, "lon": 14.1694856, "tags": {"addr:city": "Feistritz im Rosental", "addr:housenumber": "209", "addr:postcode": "9181", "addr:street": "Seeblickstraße"}, "content": "Adresse: Seeblickstraße 209, 9181 Feistritz im Rosental\nOrt: Feistritz im Rosental\nPLZ: 9181\nKoordinaten: 46.524210, 14.169486", "doc_type": "addresses"}
{"source": "OSM", "region": "Kärnten", "osm_type": "node", "osm_id": 5178061531, "name": null, "category": null, "address": "Schulstraße 255, 9181 Feistritz im Rosental", "street": "Schulstraße", "housenumber": "255", "postcode": "9181", "place": "Feistritz im Rosental", "lat": 46.5230554, "lon": 14.1654876, "tags": {"addr:city": "Feistritz im Rosental", "addr:housenumber": "255", "addr:postcode": "9181", "addr:street": "Schulstraße"}, "content": "Adresse: Schulstraße 255, 9181 Feistritz im Rosental\nOrt: Feistritz im Rosental\nPLZ: 9181\nKoordinaten: 46.523055, 14.165488", "doc_type": "addresses"}
{"source": "OSM", "region": "Kärnten", "osm_type": "node", "osm_id": 5178061533, "name": null, "category": null, "address": "Schulstraße 254, 9181 Feistritz im Rosental", "street": "Schulstraße", "housenumber": "254", "postcode": "9181", "place": "Feistritz im Rosental", "lat": 46.5229657, "lon": 14.1656923, "tags": {"addr:city": "Feistritz im Rosental", "addr:housenumber": "254", "addr:postcode": "9181", "addr:street": "Schulstraße"}, "content": "Adresse: Schulstraße 254, 9181 Feistritz im Rosental\nOrt: Feistritz im Rosental\nPLZ: 9181\nKoordinaten: 46.522966, 14.165692", "doc_type": "addresses"}
{"source": "OSM", "region": "Kärnten", "osm_type": "node", "osm_id": 5178061534, "name": null, "category": null, "address": "Schulstraße 249, 9181 Feistritz im Rosental", "street": "Schulstraße", "housenumber": "249", "postcode": "9181", "place": "Feistritz im Rosental", "lat": 46.5226904, "lon": 14.1655664, "tags": {"addr:city": "Feistritz im Rosental", "addr:housenumber": "249", "addr:postcode": "9181", "addr:street": "Schulstraße"}, "content": "Adresse: Schulstraße 249, 9181 Feistritz im Rosental\nOrt: Feistritz im Rosental\nPLZ: 9181\nKoordinaten: 46.522690, 14.165566", "doc_type": "addresses"}
{"source": "OSM", "region": "Kärnten", "osm_type": "node", "osm_id": 5178061535, "name": null, "category": null, "address": "Schulstraße 248, 9181 Feistritz im Rosental", "street": "Schulstraße", "housenumber": "248", "postcode": "9181", "place": "Feistritz im Rosental", "lat": 46.5225991, "lon": 14.1657978, "tags": {"addr:city": "Feistritz im Rosental", "addr:housenumber": "248", "addr:postcode": "9181", "addr:street": "Schulstraße"}, "content": "Adresse: Schulstraße 248, 9181 Feistritz im Rosental\nOrt: Feistritz im Rosental\nPLZ: 9181\nKoordinaten: 46.522599, 14.165798", "doc_type": "addresses"}
{"source": "OSM", "region": "Kärnten", "osm_type": "node", "osm_id": 5178397843, "name": "Freiwillige Feuerwehr Feistritz im Rosental", "category": "amenity:fire_station", "address": "Florianiplatz, 9181 Feistritz im Rosental", "street": "Florianiplatz", "housenumber": null, "postcode": "9181", "place": "Feistritz im Rosental", "lat": 46.522735, "lon": 14.1686646, "tags": {"addr:city": "Feistritz im Rosental", "addr:postcode": "9181", "addr:street": "Florianiplatz", "amenity": "fire_station", "name": "Freiwillige Feuerwehr Feistritz im Rosental", "phone": "+43 4228 2222"}, "content": "Freiwillige Feuerwehr Feistritz im Rosental\nKategorie: amenity:fire_station\nAdresse: Florianiplatz, 9181 Feistritz im Rosental\nOrt: Feistritz im Rosental\nPLZ: 9181\nKoordinaten: 46.522735, 14.168665\nTags: amenity=fire_station, phone=+43 4228 2222", "doc_type": "addresses"}
{"source": "OSM", "region": "Kärnten", "osm_type": "node", "osm_id": 5180628992, "name": null, "category": null, "address": "Dr. Jelen Straße 75, 9181 Feistritz im Rosental", "street": "Dr. Jelen Straße", "housenumber": "75", "postcode": "9181", "place": "Feistritz im Rosental", "lat": 46.5229633, "lon": 14.1707407, "tags": {"addr:city": "Feistritz im Rosental", "addr:housenumber": "75", "addr:postcode": "9181", "addr:street": "Dr. Jelen Straße"}, "content": "Adresse: Dr. Jelen Straße 75, 9181 Feistritz im Rosental\nOrt: Feistritz im Rosental\nPLZ: 9181\nKoordinaten: 46.522963, 14.170741", "doc_type": "addresses"}
{"source": "OSM", "region": "Kärnten", "osm_type": "node", "osm_id": 5180628993, "name": null, "category": null, "address": "Hauptstraße 75, 9181 Feistritz im Rosental", "street": "Hauptstraße", "housenumber": "75", "postcode": "9181", "place": "Feistritz im Rosental", "lat": 46.5230276, "lon": 14.1706667, "tags": {"addr:city": "Feistritz im Rosental", "addr:housenumber": "75", "addr:postcode": "9181", "addr:street": "Hauptstraße"}, "content": "Adresse: Hauptstraße 75, 9181 Feistritz im Rosental\nOrt: Feistritz im Rosental\nPLZ: 9181\nKoordinaten: 46.523028, 14.170667", "doc_type": "addresses"}
{"source": "OSM", "region": "Kärnten", "osm_type": "node", "osm_id": 5180877598, "name": null, "category": null, "address": "Am Kraigherweg 24a, 9181 Feistritz im Rosental", "street": "Am Kraigherweg", "housenumber": "24a", "postcode": "9181", "place": "Feistritz im Rosental", "lat": 46.5209423, "lon": 14.1713945, "tags": {"addr:city": "Feistritz im Rosental", "addr:housenumber": "24a", "addr:postcode": "9181", "addr:street": "Am Kraigherweg"}, "content": "Adresse: Am Kraigherweg 24a, 9181 Feistritz im Rosental\nOrt: Feistritz im Rosental\nPLZ: 9181\nKoordinaten: 46.520942, 14.171394", "doc_type": "addresses"}
{"source": "OSM", "region": "Kärnten", "osm_type": "node", "osm_id": 5180877599, "name": null, "category": null, "address": "Am Kraigherweg 24, 9181 Feistritz im Rosental", "street": "Am Kraigherweg", "housenumber": "24", "postcode": "9181", "place": "Feistritz im Rosental", "lat": 46.5209917, "lon": 14.1710984, "tags": {"addr:city": "Feistritz im Rosental", "addr:housenumber": "24", "addr:postcode": "9181", "addr:street": "Am Kraigherweg"}, "content": "Adresse: Am Kraigherweg 24, 9181 Feistritz im Rosental\nOrt: Feistritz im Rosental\nPLZ: 9181\nKoordinaten: 46.520992, 14.171098", "doc_type": "addresses"}
{"source": "OSM", "region": "Kärnten", "osm_type": "node", "osm_id": 5181412772, "name": null, "category": null, "address": "Hauptstraße 296, 9181 Feistritz im Rosental", "street": "Hauptstraße", "housenumber": "296", "postcode": "9181", "place": "Feistritz im Rosental", "lat": 46.5213406, "lon": 14.1749065, "tags": {"addr:city": "Feistritz im Rosental", "addr:housenumber": "296", "addr:postcode": "9181", "addr:street": "Hauptstraße"}, "content": "Adresse: Hauptstraße 296, 9181 Feistritz im Rosental\nOrt: Feistritz im Rosental\nPLZ: 9181\nKoordinaten: 46.521341, 14.174907", "doc_type": "addresses"}
{"source": "OSM", "region": "Kärnten", "osm_type": "node", "osm_id": 5181412773, "name": null, "category": null, "address": "Hauptstraße 128, 9181 Feistritz im Rosental", "street": "Hauptstraße", "housenumber": "128", "postcode": "9181", "place": "Feistritz im Rosental", "lat": 46.5227324, "lon": 14.178929, "tags": {"addr:city": "Feistritz im Rosental", "addr:housenumber": "128", "addr:postcode": "9181", "addr:street": "Hauptstraße"}, "content": "Adresse: Hauptstraße 128, 9181 Feistritz im Rosental\nOrt: Feistritz im Rosental\nPLZ: 9181\nKoordinaten: 46.522732, 14.178929", "doc_type": "addresses"}
{"source": "OSM", "region": "Kärnten", "osm_type": "node", "osm_id": 5181412774, "name": null, "category": null, "address": "Hauptstraße 119, 9181 Feistritz im Rosental", "street": "Hauptstraße", "housenumber": "119", "postcode": "9181", "place": "Feistritz im Rosental", "lat": 46.5233085, "lon": 14.1790554, "tags": {"addr:city": "Feistritz im Rosental", "addr:housenumber": "119", "addr:postcode": "9181", "addr:street": "Hauptstraße"}, "content": "Adresse: Hauptstraße 119, 9181 Feistritz im Rosental\nOrt: Feistritz im Rosental\nPLZ: 9181\nKoordinaten: 46.523308, 14.179055", "doc_type": "addresses"}
{"source": "OSM", "region": "Kärnten", "osm_type": "node", "osm_id": 5181826913, "name": null, "category": null, "address": "Draustraße 243, 9181 Feistritz im Rosental", "street": "Draustraße", "housenumber": "243", "postcode": "9181", "place": "Feistritz im Rosental", "lat": 46.5247, "lon": 14.1788497, "tags": {"addr:city": "Feistritz im Rosental", "addr:housenumber": "243", "addr:postcode": "9181", "addr:street": "Draustraße"}, "content": "Adresse: Draustraße 243, 9181 Feistritz im Rosental\nOrt: Feistritz im Rosental\nPLZ: 9181\nKoordinaten: 46.524700, 14.178850", "doc_type": "addresses"}
{"source": "OSM", "region": "Kärnten", "osm_type": "node", "osm_id": 5184782858, "name": null, "category": null, "address": "Unterfeistritzer Straße 37b, 9181 Feistritz im Rosental", "street": "Unterfeistritzer Straße", "housenumber": "37b", "postcode": "9181", "place": "Feistritz im Rosental", "lat": 46.5265249, "lon": 14.1736042, "tags": {"addr:city": "Feistritz im Rosental", "addr:housenumber": "37b", "addr:postcode": "9181", "addr:street": "Unterfeistritzer Straße"}, "content": "Adresse: Unterfeistritzer Straße 37b, 9181 Feistritz im Rosental\nOrt: Feistritz im Rosental\nPLZ: 9181\nKoordinaten: 46.526525, 14.173604", "doc_type": "addresses"}
{"source": "OSM", "region": "Kärnten", "osm_type": "node", "osm_id": 5184782859, "name": null, "category": null, "address": "Unterfeistritzer Straße 37a, 9181 Feistritz im Rosental", "street": "Unterfeistritzer Straße", "housenumber": "37a", "postcode": "9181", "place": "Feistritz im Rosental", "lat": 46.5265976, "lon": 14.1733184, "tags": {"addr:city": "Feistritz im Rosental", "addr:housenumber": "37a", "addr:postcode": "9181", "addr:street": "Unterfeistritzer Straße"}, "content": "Adresse: Unterfeistritzer Straße 37a, 9181 Feistritz im Rosental\nOrt: Feistritz im Rosental\nPLZ: 9181\nKoordinaten: 46.526598, 14.173318", "doc_type": "addresses"}
{"source": "OSM", "region": "Kärnten", "osm_type": "node", "osm_id": 5184782860, "name": null, "category": null, "address": "Unterfeistritzer Straße 37, 9181 Feistritz im Rosental", "street": "Unterfeistritzer Straße", "housenumber": "37", "postcode": "9181", "place": "Feistritz im Rosental", "lat": 46.5267323, "lon": 14.1733211, "tags": {"addr:city": "Feistritz im Rosental", "addr:housenumber": "37", "addr:postcode": "9181", "addr:street": "Unterfeistritzer Straße"}, "content": "Adresse: Unterfeistritzer Straße 37, 9181 Feistritz im Rosental\nOrt: Feistritz im Rosental\nPLZ: 9181\nKoordinaten: 46.526732, 14.173321", "doc_type": "addresses"}
{"source": "OSM", "region": "Kärnten", "osm_type": "node", "osm_id": 5184783050, "name": null, "category": null, "address": "Salastraße 55, 9181 Feistritz im Rosental", "street": "Salastraße", "housenumber": "55", "postcode": "9181", "place": "Feistritz im Rosental", "lat": 46.5322668, "lon": 14.1830878, "tags": {"addr:city": "Feistritz im Rosental", "addr:housenumber": "55", "addr:postcode": "9181", "addr:street": "Salastraße"}, "content": "Adresse: Salastraße 55, 9181 Feistritz im Rosental\nOrt: Feistritz im Rosental\nPLZ: 9181\nKoordinaten: 46.532267, 14.183088", "doc_type": "addresses"}
{"source": "OSM", "region": "Kärnten", "osm_type": "node", "osm_id": 5185884199, "name": null, "category": null, "address": "4c, 9181 Feistritz im Rosental", "street": null, "housenumber": "4c", "postcode": "9181", "place": "Feistritz im Rosental", "lat": 46.5157724, "lon": 14.1664842, "tags": {"addr:city": "Feistritz im Rosental", "addr:housenumber": "4c", "addr:place": "Matschach", "addr:postcode": "9181"}, "content": "Adresse: 4c, 9181 Feistritz im Rosental\nOrt: Feistritz im Rosental\nPLZ: 9181\nKoordinaten: 46.515772, 14.166484", "doc_type": "addresses"}
{"source": "OSM", "region": "Kärnten", "osm_type": "node", "osm_id": 5189494415, "name": null, "category": null, "address": "Suetschach 36, 9181 Feistritz im Rosental", "street": "Suetschach", "housenumber": "36", "postcode": "9181", "place": "Feistritz im Rosental", "lat": 46.5237686, "lon": 14.1554024, "tags": {"addr:city": "Feistritz im Rosental", "addr:housenumber": "36", "addr:postcode": "9181", "addr:street": "Suetschach"}, "content": "Adresse: Suetschach 36, 9181 Feistritz im Rosental\nOrt: Feistritz im Rosental\nPLZ: 9181\nKoordinaten: 46.523769, 14.155402", "doc_type": "addresses"}
{"source": "OSM", "region": "Kärnten", "osm_type": "node", "osm_id": 5190546191, "name": null, "category": null, "address": "33, 9181 Feistritz im Rosental", "street": null, "housenumber": "33", "postcode": "9181", "place": "Feistritz im Rosental", "lat": 46.4744321, "lon": 14.1580386, "tags": {"addr:city": "Feistritz im Rosental", "addr:housenumber": "33", "addr:place": "Bärental", "addr:postcode": "9181"}, "content": "Adresse: 33, 9181 Feistritz im Rosental\nOrt: Feistritz im Rosental\nPLZ: 9181\nKoordinaten: 46.474432, 14.158039", "doc_type": "addresses"}
{"source": "OSM", "region": "Kärnten", "osm_type": "node", "osm_id": 5190546192, "name": null, "category": null, "address": "29, 9181 Feistritz im Rosental", "street": null, "housenumber": "29", "postcode": "9181", "place": "Feistritz im Rosental", "lat": 46.4751413, "lon": 14.1590834, "tags": {"addr:city": "Feistritz im Rosental", "addr:housenumber": "29", "addr:place": "Bärental", "addr:postcode": "9181"}, "content": "Adresse: 29, 9181 Feistritz im Rosental\nOrt: Feistritz im Rosental\nPLZ: 9181\nKoordinaten: 46.475141, 14.159083", "doc_type": "addresses"}
{"source": "OSM", "region": "Kärnten", "osm_type": "node", "osm_id": 5190546193, "name": null, "category": null, "address": "19a, 9181 Feistritz im Rosental", "street": null, "housenumber": "19a", "postcode": "9181", "place": "Feistritz im Rosental", "lat": 46.485116, "lon": 14.1635001, "tags": {"addr:city": "Feistritz im Rosental", "addr:housenumber": "19a", "addr:place": "Bärental", "addr:postcode": "9181"}, "content": "Adresse: 19a, 9181 Feistritz im Rosental\nOrt: Feistritz im Rosental\nPLZ: 9181\nKoordinaten: 46.485116, 14.163500", "doc_type": "addresses"}
{"source": "OSM", "region": "Kärnten", "osm_type": "node", "osm_id": 5190546195, "name": null, "category": null, "address": "9, 9181 Feistritz im Rosental", "street": null, "housenumber": "9", "postcode": "9181", "place": "Feistritz im Rosental", "lat": 46.4687356, "lon": 14.1545677, "tags": {"addr:city": "Feistritz im Rosental", "addr:housenumber": "9", "addr:place": "Bärental", "addr:postcode": "9181"}, "content": "Adresse: 9, 9181 Feistritz im Rosental\nOrt: Feistritz im Rosental\nPLZ: 9181\nKoordinaten: 46.468736, 14.154568", "doc_type": "addresses"}
{"source": "OSM", "region": "Kärnten", "osm_type": "node", "osm_id": 5190546196, "name": null, "category": null, "address": "5, 9181 Feistritz im Rosental", "street": null, "housenumber": "5", "postcode": "9181", "place": "Feistritz im Rosental", "lat": 46.4682066, "lon": 14.1568252, "tags": {"addr:city": "Feistritz im Rosental", "addr:housenumber": "5", "addr:place": "Bärental", "addr:postcode": "9181"}, "content": "Adresse: 5, 9181 Feistritz im Rosental\nOrt: Feistritz im Rosental\nPLZ: 9181\nKoordinaten: 46.468207, 14.156825", "doc_type": "addresses"}
{"source": "OSM", "region": "Kärnten", "osm_type": "node", "osm_id": 5194588143, "name": null, "category": null, "address": "18, 9181 Feistritz im Rosental", "street": null, "housenumber": "18", "postcode": "9181", "place": "Feistritz im Rosental", "lat": 46.5115725, "lon": 14.1586512, "tags": {"addr:city": "Feistritz im Rosental", "addr:housenumber": "18", "addr:place": "Matschach", "addr:postcode": "9181"}, "content": "Adresse: 18, 9181 Feistritz im Rosental\nOrt: Feistritz im Rosental\nPLZ: 9181\nKoordinaten: 46.511572, 14.158651", "doc_type": "addresses"}
{"source": "OSM", "region": "Kärnten", "osm_type": "node", "osm_id": 5194588151, "name": null, "category": null, "address": "12a, 9181 Feistritz im Rosental", "street": null, "housenumber": "12a", "postcode": "9181", "place": "Feistritz im Rosental", "lat": 46.5136023, "lon": 14.1517952, "tags": {"addr:city": "Feistritz im Rosental", "addr:housenumber": "12a", "addr:place": "Matschach", "addr:postcode": "9181"}, "content": "Adresse: 12a, 9181 Feistritz im Rosental\nOrt: Feistritz im Rosental\nPLZ: 9181\nKoordinaten: 46.513602, 14.151795", "doc_type": "addresses"}
{"source": "OSM", "region": "Kärnten", "osm_type": "node", "osm_id": 5194588153, "name": null, "category": null, "address": "11a, 9181 Feistritz im Rosental", "street": null, "housenumber": "11a", "postcode": "9181", "place": "Feistritz im Rosental", "lat": 46.5130482, "lon": 14.1523147, "tags": {"addr:city": "Feistritz im Rosental", "addr:housenumber": "11a", "addr:place": "Matschach", "addr:postcode": "9181"}, "content": "Adresse: 11a, 9181 Feistritz im Rosental\nOrt: Feistritz im Rosental\nPLZ: 9181\nKoordinaten: 46.513048, 14.152315", "doc_type": "addresses"}
{"source": "OSM", "region": "Kärnten", "osm_type": "node", "osm_id": 5194588154, "name": null, "category": null, "address": "11, 9181 Feistritz im Rosental", "street": null, "housenumber": "11", "postcode": "9181", "place": "Feistritz im Rosental", "lat": 46.5128771, "lon": 14.1523382, "tags": {"addr:city": "Feistritz im Rosental", "addr:housenumber": "11", "addr:place": "Matschach", "addr:postcode": "9181"}, "content": "Adresse: 11, 9181 Feistritz im Rosental\nOrt: Feistritz im Rosental\nPLZ: 9181\nKoordinaten: 46.512877, 14.152338", "doc_type": "addresses"}
{"source": "OSM", "region": "Kärnten", "osm_type": "node", "osm_id": 5194588155, "name": null, "category": null, "address": "Matschach 10, 9181 Feistritz im Rosental", "street": "Matschach", "housenumber": "10", "postcode": "9181", "place": "Feistritz im Rosental", "lat": 46.5127848, "lon": 14.1576922, "tags": {"addr:city": "Feistritz im Rosental", "addr:housenumber": "10", "addr:postcode": "9181", "addr:street": "Matschach"}, "content": "Adresse: Matschach 10, 9181 Feistritz im Rosental\nOrt: Feistritz im Rosental\nPLZ: 9181\nKoordinaten: 46.512785, 14.157692", "doc_type": "addresses"}
{"source": "OSM", "region": "Kärnten", "osm_type": "node", "osm_id": 5207353657, "name": null, "category": null, "address": "Ladinach 76, 9181 Feistritz im Rosental", "street": "Ladinach", "housenumber": "76", "postcode": "9181", "place": "Feistritz im Rosental", "lat": 46.5240152, "lon": 14.1396144, "tags": {"addr:city": "Feistritz im Rosental", "addr:housenumber": "76", "addr:postcode": "9181", "addr:street": "Ladinach"}, "content": "Adresse: Ladinach 76, 9181 Feistritz im Rosental\nOrt: Feistritz im Rosental\nPLZ: 9181\nKoordinaten: 46.524015, 14.139614", "doc_type": "addresses"}
{"source": "OSM", "region": "Kärnten", "osm_type": "node", "osm_id": 5207353658, "name": null, "category": null, "address": "Ladinach 272, 9181 Feistritz im Rosental", "street": "Ladinach", "housenumber": "272", "postcode": "9181", "place": "Feistritz im Rosental", "lat": 46.5231292, "lon": 14.1437929, "tags": {"addr:city": "Feistritz im Rosental", "addr:housenumber": "272", "addr:postcode": "9181", "addr:street": "Ladinach"}, "content": "Adresse: Ladinach 272, 9181 Feistritz im Rosental\nOrt: Feistritz im Rosental\nPLZ: 9181\nKoordinaten: 46.523129, 14.143793", "doc_type": "addresses"}
{"source": "OSM", "region": "Kärnten", "osm_type": "node", "osm_id": 5207353659, "name": null, "category": null, "address": "Ladinach 267, 9181 Feistritz im Rosental", "street": "Ladinach", "housenumber": "267", "postcode": "9181", "place": "Feistritz im Rosental", "lat": 46.5225813, "lon": 14.1407411, "tags": {"addr:city": "Feistritz im Rosental", "addr:housenumber": "267", "addr:postcode": "9181", "addr:street": "Ladinach"}, "content": "Adresse: Ladinach 267, 9181 Feistritz im Rosental\nOrt: Feistritz im Rosental\nPLZ: 9181\nKoordinaten: 46.522581, 14.140741", "doc_type": "addresses"}
{"source": "OSM", "region": "Kärnten", "osm_type": "node", "osm_id": 5207353660, "name": null, "category": null, "address": "Ladinach 253, 9181 Feistritz im Rosental", "street": "Ladinach", "housenumber": "253", "postcode": "9181", "place": "Feistritz im Rosental", "lat": 46.5213462, "lon": 14.1399302, "tags": {"addr:city": "Feistritz im Rosental", "addr:housenumber": "253", "addr:postcode": "9181", "addr:street": "Ladinach"}, "content": "Adresse: Ladinach 253, 9181 Feistritz im Rosental\nOrt: Feistritz im Rosental\nPLZ: 9181\nKoordinaten: 46.521346, 14.139930", "doc_type": "addresses"}
{"source": "OSM", "region": "Kärnten", "osm_type": "node", "osm_id": 5207353661, "name": null, "category": null, "address": "Ladinach 133, 9181 Feistritz im Rosental", "street": "Ladinach", "housenumber": "133", "postcode": "9181", "place": "Feistritz im Rosental", "lat": 46.5240219, "lon": 14.1397862, "tags": {"addr:city": "Feistritz im Rosental", "addr:housenumber": "133", "addr:postcode": "9181", "addr:street": "Ladinach"}, "content": "Adresse: Ladinach 133, 9181 Feistritz im Rosental\nOrt: Feistritz im Rosental\nPLZ: 9181\nKoordinaten: 46.524022, 14.139786", "doc_type": "addresses"}
{"source": "OSM", "region": "Kärnten", "osm_type": "node", "osm_id": 5209311083, "name": null, "category": null, "address": "Ladinach 244, 9181 Feistritz im Rosental", "street": "Ladinach", "housenumber": "244", "postcode": "9181", "place": "Feistritz im Rosental", "lat": 46.5286003, "lon": 14.1352827, "tags": {"addr:city": "Feistritz im Rosental", "addr:housenumber": "244", "addr:postcode": "9181", "addr:street": "Ladinach"}, "content": "Adresse: Ladinach 244, 9181 Feistritz im Rosental\nOrt: Feistritz im Rosental\nPLZ: 9181\nKoordinaten: 46.528600, 14.135283", "doc_type": "addresses"}
{"source": "OSM", "region": "Kärnten", "osm_type": "node", "osm_id": 5212321644, "name": null, "category": null, "address": "Hundsdorf 45, 9181 Feistritz im Rosental", "street": "Hundsdorf", "housenumber": "45", "postcode": "9181", "place": "Feistritz im Rosental", "lat": 46.5225333, "lon": 14.1999729, "tags": {"addr:city": "Feistritz im Rosental", "addr:housenumber": "45", "addr:postcode": "9181", "addr:street": "Hundsdorf"}, "content": "Adresse: Hundsdorf 45, 9181 Feistritz im Rosental\nOrt: Feistritz im Rosental\nPLZ: 9181\nKoordinaten: 46.522533, 14.199973", "doc_type": "addresses"}
{"source": "OSM", "region": "Kärnten", "osm_type": "node", "osm_id": 5212321645, "name": null, "category": null, "address": "Hundsdorf 38, 9181 Feistritz im Rosental", "street": "Hundsdorf", "housenumber": "38", "postcode": "9181", "place": "Feistritz im Rosental", "lat": 46.5231686, "lon": 14.1978184, "tags": {"addr:city": "Feistritz im Rosental", "addr:housenumber": "38", "addr:postcode": "9181", "addr:street": "Hundsdorf"}, "content": "Adresse: Hundsdorf 38, 9181 Feistritz im Rosental\nOrt: Feistritz im Rosental\nPLZ: 9181\nKoordinaten: 46.523169, 14.197818", "doc_type": "addresses"}
{"source": "OSM", "region": "Kärnten", "osm_type": "node", "osm_id": 5212321646, "name": null, "category": null, "address": "Hundsdorf 37, 9181 Feistritz im Rosental", "street": "Hundsdorf", "housenumber": "37", "postcode": "9181", "place": "Feistritz im Rosental", "lat": 46.5232664, "lon": 14.1969819, "tags": {"addr:city": "Feistritz im Rosental", "addr:housenumber": "37", "addr:postcode": "9181", "addr:street": "Hundsdorf"}, "content": "Adresse: Hundsdorf 37, 9181 Feistritz im Rosental\nOrt: Feistritz im Rosental\nPLZ: 9181\nKoordinaten: 46.523266, 14.196982", "doc_type": "addresses"}
{"source": "OSM", "region": "Kärnten", "osm_type": "node", "osm_id": 5212321647, "name": null, "category": null, "address": "Hundsdorf 36, 9181 Feistritz im Rosental", "street": "Hundsdorf", "housenumber": "36", "postcode": "9181", "place": "Feistritz im Rosental", "lat": 46.5233213, "lon": 14.1964705, "tags": {"addr:city": "Feistritz im Rosental", "addr:housenumber": "36", "addr:postcode": "9181", "addr:street": "Hundsdorf"}, "content": "Adresse: Hundsdorf 36, 9181 Feistritz im Rosental\nOrt: Feistritz im Rosental\nPLZ: 9181\nKoordinaten: 46.523321, 14.196471", "doc_type": "addresses"}
{"source": "OSM", "region": "Kärnten", "osm_type": "node", "osm_id": 5212321648, "name": null, "category": null, "address": "Hundsdorf 59, 9181 Feistritz im Rosental", "street": "Hundsdorf", "housenumber": "59", "postcode": "9181", "place": "Feistritz im Rosental", "lat": 46.5227186, "lon": 14.2001326, "tags": {"addr:city": "Feistritz im Rosental", "addr:housenumber": "59", "addr:postcode": "9181", "addr:street": "Hundsdorf"}, "content": "Adresse: Hundsdorf 59, 9181 Feistritz im Rosental\nOrt: Feistritz im Rosental\nPLZ: 9181\nKoordinaten: 46.522719, 14.200133", "doc_type": "addresses"}
{"source": "OSM", "region": "Kärnten", "osm_type": "node", "osm_id": 5213146364, "name": null, "category": null, "address": "Hundsdorf 3, 9181 Feistritz im Rosental", "street": "Hundsdorf", "housenumber": "3", "postcode": "9181", "place": "Feistritz im Rosental", "lat": 46.5278414, "lon": 14.1954846, "tags": {"addr:city": "Feistritz im Rosental", "addr:housenumber": "3", "addr:postcode": "9181", "addr:street": "Hundsdorf"}, "content": "Adresse: Hundsdorf 3, 9181 Feistritz im Rosental\nOrt: Feistritz im Rosental\nPLZ: 9181\nKoordinaten: 46.527841, 14.195485", "doc_type": "addresses"}
{"source": "OSM", "region": "Kärnten", "osm_type": "node", "osm_id": 5213146365, "name": null, "category": null, "address": "Hundsdorf 15, 9181 Feistritz im Rosental", "street": "Hundsdorf", "housenumber": "15", "postcode": "9181", "place": "Feistritz im Rosental", "lat": 46.5249987, "lon": 14.1946324, "tags": {"addr:city": "Feistritz im Rosental", "addr:housenumber": "15", "addr:postcode": "9181", "addr:street": "Hundsdorf"}, "content": "Adresse: Hundsdorf 15, 9181 Feistritz im Rosental\nOrt: Feistritz im Rosental\nPLZ: 9181\nKoordinaten: 46.524999, 14.194632", "doc_type": "addresses"}
{"source": "OSM", "region": "Kärnten", "osm_type": "node", "osm_id": 5215137000, "name": null, "category": null, "address": "Sankt Johann im Rosental 2, 9181 Feistritz im Rosental", "street": "Sankt Johann im Rosental", "housenumber": "2", "postcode": "9181", "place": "Feistritz im Rosental", "lat": 46.527147, "lon": 14.2062386, "tags": {"addr:city": "Feistritz im Rosental", "addr:housenumber": "2", "addr:postcode": "9181", "addr:street": "Sankt Johann im Rosental"}, "content": "Adresse: Sankt Johann im Rosental 2, 9181 Feistritz im Rosental\nOrt: Feistritz im Rosental\nPLZ: 9181\nKoordinaten: 46.527147, 14.206239", "doc_type": "addresses"}
{"source": "OSM", "region": "Kärnten", "osm_type": "node", "osm_id": 5215137001, "name": null, "category": null, "address": "Sankt Johann im Rosental 49, 9181 Feistritz im Rosental", "street": "Sankt Johann im Rosental", "housenumber": "49", "postcode": "9181", "place": "Feistritz im Rosental", "lat": 46.5271324, "lon": 14.2048648, "tags": {"addr:city": "Feistritz im Rosental", "addr:housenumber": "49", "addr:postcode": "9181", "addr:street": "Sankt Johann im Rosental"}, "content": "Adresse: Sankt Johann im Rosental 49, 9181 Feistritz im Rosental\nOrt: Feistritz im Rosental\nPLZ: 9181\nKoordinaten: 46.527132, 14.204865", "doc_type": "addresses"}
{"source": "OSM", "region": "Kärnten", "osm_type": "node", "osm_id": 5218846005, "name": null, "category": null, "address": "Sankt Johann im Rosental 36, 9181 Feistritz im Rosental", "street": "Sankt Johann im Rosental", "housenumber": "36", "postcode": "9181", "place": "Feistritz im Rosental", "lat": 46.5270471, "lon": 14.2128953, "tags": {"addr:city": "Feistritz im Rosental", "addr:housenumber": "36", "addr:postcode": "9181", "addr:street": "Sankt Johann im Rosental"}, "content": "Adresse: Sankt Johann im Rosental 36, 9181 Feistritz im Rosental\nOrt: Feistritz im Rosental\nPLZ: 9181\nKoordinaten: 46.527047, 14.212895", "doc_type": "addresses"}
{"source": "OSM", "region": "Kärnten", "osm_type": "node", "osm_id": 5218846006, "name": null, "category": null, "address": "Sankt Johann im Rosental 24, 9181 Feistritz im Rosental", "street": "Sankt Johann im Rosental", "housenumber": "24", "postcode": "9181", "place": "Feistritz im Rosental", "lat": 46.526254, "lon": 14.214264, "tags": {"addr:city": "Feistritz im Rosental", "addr:housenumber": "24", "addr:postcode": "9181", "addr:street": "Sankt Johann im Rosental"}, "content": "Adresse: Sankt Johann im Rosental 24, 9181 Feistritz im Rosental\nOrt: Feistritz im Rosental\nPLZ: 9181\nKoordinaten: 46.526254, 14.214264", "doc_type": "addresses"}
{"source": "OSM", "region": "Kärnten", "osm_type": "node", "osm_id": 5218846008, "name": null, "category": null, "address": "Sankt Johann im Rosental 73, 9181 Feistritz im Rosental", "street": "Sankt Johann im Rosental", "housenumber": "73", "postcode": "9181", "place": "Feistritz im Rosental", "lat": 46.5261839, "lon": 14.2140153, "tags": {"addr:city": "Feistritz im Rosental", "addr:housenumber": "73", "addr:postcode": "9181", "addr:street": "Sankt Johann im Rosental"}, "content": "Adresse: Sankt Johann im Rosental 73, 9181 Feistritz im Rosental\nOrt: Feistritz im Rosental\nPLZ: 9181\nKoordinaten: 46.526184, 14.214015", "doc_type": "addresses"}
{"source": "OSM", "region": "Kärnten", "osm_type": "node", "osm_id": 5220387408, "name": null, "category": null, "address": "Weizelsdorf 50, 9181 Feistritz im Rosental", "street": "Weizelsdorf", "housenumber": "50", "postcode": "9181", "place": "Feistritz im Rosental", "lat": 46.5339212, "lon": 14.2279987, "tags": {"addr:city": "Feistritz im Rosental", "addr:housenumber": "50", "addr:postcode": "9181", "addr:street": "Weizelsdorf"}, "content": "Adresse: Weizelsdorf 50, 9181 Feistritz im Rosental\nOrt: Feistritz im Rosental\nPLZ: 9181\nKoordinaten: 46.533921, 14.227999", "doc_type": "addresses"}
{"source": "OSM", "region": "Kärnten", "osm_type": "node", "osm_id": 5220387409, "name": null, "category": null, "address": "Weizelsdorf 71, 9181 Feistritz im Rosental", "street": "Weizelsdorf", "housenumber": "71", "postcode": "9181", "place": "Feistritz im Rosental", "lat": 46.5335837, "lon": 14.2297572, "tags": {"addr:city": "Feistritz im Rosental", "addr:housenumber": "71", "addr:postcode": "9181", "addr:street": "Weizelsdorf"}, "content": "Adresse: Weizelsdorf 71, 9181 Feistritz im Rosental\nOrt: Feistritz im Rosental\nPLZ: 9181\nKoordinaten: 46.533584, 14.229757", "doc_type": "addresses"}
{"source": "OSM", "region": "Kärnten", "osm_type": "node", "osm_id": 5240959776, "name": null, "category": null, "address": "40, 9162 Feistritz im Rosental", "street": null, "housenumber": "40", "postcode": "9162", "place": "Feistritz im Rosental", "lat": 46.5360114, "lon": 14.2314108, "tags": {"addr:city": "Feistritz im Rosental", "addr:housenumber": "40", "addr:place": "Weizelsdorf", "addr:postcode": "9162"}, "content": "Adresse: 40, 9162 Feistritz im Rosental\nOrt: Feistritz im Rosental\nPLZ: 9162\nKoordinaten: 46.536011, 14.231411", "doc_type": "addresses"}
{"source": "OSM", "region": "Kärnten", "osm_type": "node", "osm_id": 5240959777, "name": null, "category": null, "address": "25, 9162 Feistritz im Rosental", "street": null, "housenumber": "25", "postcode": "9162", "place": "Feistritz im Rosental", "lat": 46.5379501, "lon": 14.2272373, "tags": {"addr:city": "Feistritz im Rosental", "addr:housenumber": "25", "addr:place": "Weizelsdorf", "addr:postcode": "9162"}, "content": "Adresse: 25, 9162 Feistritz im Rosental\nOrt: Feistritz im Rosental\nPLZ: 9162\nKoordinaten: 46.537950, 14.227237", "doc_type": "addresses"}
{"source": "OSM", "region": "Kärnten", "osm_type": "node", "osm_id": 5548886528, "name": null, "category": null, "address": "Hauptstraße, 9181 Feistritz im Rosental", "street": "Hauptstraße", "housenumber": null, "postcode": "9181", "place": "Feistritz im Rosental", "lat": 46.5221769, "lon": 14.1717257, "tags": {"addr:city": "Feistritz im Rosental", "addr:postcode": "9181", "addr:street": "Hauptstraße"}, "content": "Adresse: Hauptstraße, 9181 Feistritz im Rosental\nOrt: Feistritz im Rosental\nPLZ: 9181\nKoordinaten: 46.522177, 14.171726", "doc_type": "addresses"}
{"source": "OSM", "region": "Kärnten", "osm_type": "node", "osm_id": 307479127, "name": "Raiffeisenbank Feistritz im Rosental", "category": "amenity:bank", "address": "Hauptplatz 126, 9181 Feistritz im Rosental", "street": "Hauptplatz", "housenumber": "126", "postcode": "9181", "place": "Feistritz im Rosental", "lat": 46.5226488, "lon": 14.1689097, "tags": {"addr:city": "Feistritz im Rosental", "addr:housenumber": "126", "addr:postcode": "9181", "addr:street": "Hauptplatz", "amenity": "bank", "name": "Raiffeisenbank Feistritz im Rosental"}, "content": "Raiffeisenbank Feistritz im Rosental\nKategorie: amenity:bank\nAdresse: Hauptplatz 126, 9181 Feistritz im Rosental\nOrt: Feistritz im Rosental\nPLZ: 9181\nKoordinaten: 46.522649, 14.168910\nTags: amenity=bank", "doc_type": "pois"}
{"source": "OSM", "region": "Kärnten", "osm_type": "node", "osm_id": 307479130, "name": "Marktgemeindeamt Feistritz im Rosental", "category": "amenity:townhall", "address": "Hauptplatz 126, 9181 Feistritz im Rosental", "street": "Hauptplatz", "housenumber": "126", "postcode": "9181", "place": "Feistritz im Rosental", "lat": 46.5227716, "lon": 14.1688096, "tags": {"addr:city": "Feistritz im Rosental", "addr:housenumber": "126", "addr:postcode": "9181", "addr:street": "Hauptplatz", "amenity": "townhall", "name": "Marktgemeindeamt Feistritz im Rosental"}, "content": "Marktgemeindeamt Feistritz im Rosental\nKategorie: amenity:townhall\nAdresse: Hauptplatz 126, 9181 Feistritz im Rosental\nOrt: Feistritz im Rosental\nPLZ: 9181\nKoordinaten: 46.522772, 14.168810\nTags: amenity=townhall", "doc_type": "pois"}
{"source": "OSM", "region": "Kärnten", "osm_type": "node", "osm_id": 308643149, "name": "Kindergarten Feistritz", "category": "amenity:kindergarten", "address": "Hauptstraße 165, 9181 Feistritz im Rosental", "street": "Hauptstraße", "housenumber": "165", "postcode": "9181", "place": "Feistritz im Rosental", "lat": 46.5232358, "lon": 14.1685479, "tags": {"addr:city": "Feistritz im Rosental", "addr:housenumber": "165", "addr:postcode": "9181", "addr:street": "Hauptstraße", "amenity": "kindergarten", "name": "Kindergarten Feistritz", "operator": "Marktgemeinde Feistritz"}, "content": "Kindergarten Feistritz\nKategorie: amenity:kindergarten\nAdresse: Hauptstraße 165, 9181 Feistritz im Rosental\nOrt: Feistritz im Rosental\nPLZ: 9181\nKoordinaten: 46.523236, 14.168548\nTags: amenity=kindergarten, operator=Marktgemeinde Feistritz", "doc_type": "pois"}
{"source": "OSM", "region": "Kärnten", "osm_type": "node", "osm_id": 389786089, "name": "Klagenfurter Hütte", "category": "tourism:alpine_hut", "address": "Bärental 19, 9181 Feistritz im Rosental", "street": "Bärental", "housenumber": "19", "postcode": "9181", "place": "Feistritz im Rosental", "lat": 46.4468626, "lon": 14.1830532, "tags": {"addr:city": "Feistritz im Rosental", "addr:housenumber": "19", "addr:postcode": "9181", "addr:street": "Bärental", "name": "Klagenfurter Hütte", "operator": "Österreichischer Alpenverein - Sektion Klagenfurt", "tourism": "alpine_hut", "website": "https://klagenfurter-huette.at/"}, "content": "Klagenfurter Hütte\nKategorie: tourism:alpine_hut\nAdresse: Bärental 19, 9181 Feistritz im Rosental\nOrt: Feistritz im Rosental\nPLZ: 9181\nKoordinaten: 46.446863, 14.183053\nTags: operator=Österreichischer Alpenverein - Sektion Klagenfurt, website=https://klagenfurter-huette.at/", "doc_type": "pois"}
{"source": "OSM", "region": "Kärnten", "osm_type": "node", "osm_id": 4908976961, "name": "Polizeiinspektion Feistritz im Rosental", "category": "amenity:police", "address": "Hauptplatz 126, 9181 Feistritz im Rosental", "street": "Hauptplatz", "housenumber": "126", "postcode": "9181", "place": "Feistritz im Rosental", "lat": 46.5226764, "lon": 14.168833, "tags": {"addr:city": "Feistritz im Rosental", "addr:housenumber": "126", "addr:postcode": "9181", "addr:street": "Hauptplatz", "amenity": "police", "name": "Polizeiinspektion Feistritz im Rosental", "phone": "+43 59133 2104-100"}, "content": "Polizeiinspektion Feistritz im Rosental\nKategorie: amenity:police\nAdresse: Hauptplatz 126, 9181 Feistritz im Rosental\nOrt: Feistritz im Rosental\nPLZ: 9181\nKoordinaten: 46.522676, 14.168833\nTags: amenity=police, phone=+43 59133 2104-100", "doc_type": "pois"}
{"source": "OSM", "region": "Kärnten", "osm_type": "node", "osm_id": 5178397843, "name": "Freiwillige Feuerwehr Feistritz im Rosental", "category": "amenity:fire_station", "address": "Florianiplatz, 9181 Feistritz im Rosental", "street": "Florianiplatz", "housenumber": null, "postcode": "9181", "place": "Feistritz im Rosental", "lat": 46.522735, "lon": 14.1686646, "tags": {"addr:city": "Feistritz im Rosental", "addr:postcode": "9181", "addr:street": "Florianiplatz", "amenity": "fire_station", "name": "Freiwillige Feuerwehr Feistritz im Rosental", "phone": "+43 4228 2222"}, "content": "Freiwillige Feuerwehr Feistritz im Rosental\nKategorie: amenity:fire_station\nAdresse: Florianiplatz, 9181 Feistritz im Rosental\nOrt: Feistritz im Rosental\nPLZ: 9181\nKoordinaten: 46.522735, 14.168665\nTags: amenity=fire_station, phone=+43 4228 2222", "doc_type": "pois"}
