{"source": "OSM", "region": "Kärnten", "osm_type": "node", "osm_id": 340517910, "name": "Postpartner 9581, Lebenshilfe Kärnten", "category": "amenity:post_office", "address": "Ferlacher Straße 24, 9581 Ledenitzen", "street": "Ferlacher Straße", "housenumber": "24", "postcode": "9581", "place": "Ledenitzen", "lat": 46.5642879, "lon": 13.968698, "tags": {"addr:city": "Ledenitzen", "addr:housenumber": "24", "addr:postcode": "9581", "addr:street": "Ferlacher Straße", "amenity": "post_office", "name": "Postpartner 9581, Lebenshilfe Kärnten"}, "content": "Postpartner 9581, Lebenshilfe Kärnten\nKategorie: amenity:post_office\nAdresse: Ferlacher Straße 24, 9581 Ledenitzen\nOrt: Ledenitzen\nPLZ: 9581\nKoordinaten: 46.564288, 13.968698\nTags: amenity=post_office", "doc_type": "addresses"}
{"source": "OSM", "region": "Kärnten", "osm_type": "node", "osm_id": 1305303150, "name": "Lorenz", "category": "amenity:restaurant", "address": "Denkmalweg 7, 9581 Ledenitzen", "street": "Denkmalweg", "housenumber": "7", "postcode": "9581", "place": "Ledenitzen", "lat": 46.564879, "lon": 13.9670839, "tags": {"addr:city": "Ledenitzen", "addr:housenumber": "7", "addr:postcode": "9581", "addr:street": "Denkmalweg", "amenity": "restaurant", "name": "Lorenz"}, "content": "Lorenz\nKategorie: amenity:restaurant\nAdresse: Denkmalweg 7, 9581 Ledenitzen\nOrt: Ledenitzen\nPLZ: 9581\nKoordinaten: 46.564879, 13.967084\nTags: amenity=restaurant", "doc_type": "addresses"}
{"source": "OSM", "region": "Kärnten", "osm_type": "node", "osm_id": 3346339884, "name": "Hotel Mittagskogel", "category": "tourism:hotel", "address": "Aichwaldseestraße 4, 9581 Ledenitzen", "street": "Aichwaldseestraße", "housenumber": "4", "postcode": "9581", "place": "Ledenitzen", "lat": 46.556487, "lon": 13.9586363, "tags": {"addr:city": "Ledenitzen", "addr:housenumber": "4", "addr:postcode": "9581", "addr:street": "Aichwaldseestraße", "name": "Hotel Mittagskogel", "tourism": "hotel"}, "content": "Hotel Mittagskogel\nKategorie: tourism:hotel\nAdresse: Aichwaldseestraße 4, 9581 Ledenitzen\nOrt: Ledenitzen\nPLZ: 9581\nKoordinaten: 46.556487, 13.958636", "doc_type": "addresses"}
{"source": "OSM", "region": "Kärnten", "osm_type": "node", "osm_id": 3461408881, "name": "Wohnterrassen Maier", "category": null, "address": "Hofweg 2, 9581 Ledenitzen", "street": "Hofweg", "housenumber": "2", "postcode": "9581", "place": "Ledenitzen", "lat": 46.557789, "lon": 13.9591486, "tags": {"addr:city": "Ledenitzen", "addr:housenumber": "2", "addr:postcode": "9581", "addr:street": "Hofweg", "name": "Wohnterrassen Maier"}, "content": "Wohnterrassen Maier\nAdresse: Hofweg 2, 9581 Ledenitzen\nOrt: Ledenitzen\nPLZ: 9581\nKoordinaten: 46.557789, 13.959149", "doc_type": "addresses"}
{"source": "OSM", "region": "Kärnten", "osm_type": "node", "osm_id": 340517910, "name": "Postpartner 9581, Lebenshilfe Kärnten", "category": "amenity:post_office", "address": "Ferlacher Straße 24, 9581 Ledenitzen", "street": "Ferlacher Straße", "housenumber": "24", "postcode": "9581", "place": "Ledenitzen", "lat": 46.5642879, "lon": 13.968698, "tags": {"addr:city": "Ledenitzen", "addr:housenumber": "24", "addr:postcode": "9581", "addr:street": "Ferlacher Straße", "amenity": "post_office", "name": "Postpartner 9581, Lebenshilfe Kärnten"}, "content": "Postpartner 9581, Lebenshilfe Kärnten\nKategorie: amenity:post_office\nAdresse: Ferlacher Straße 24, 9581 Ledenitzen\nOrt: Ledenitzen\nPLZ: 9581\nKoordinaten: 46.564288, 13.968698\nTags: amenity=post_office", "doc_type": "pois"}
{"source": "OSM", "region": "Kärnten", "osm_type": "node", "osm_id": 1305303150, "name": "Lorenz", "category": "amenity:restaurant", "address": "Denkmalweg 7, 9581 Ledenitzen", "street": "Denkmalweg", "housenumber": "7", "postcode": "9581", "place": "Ledenitzen", "lat": 46.564879, "lon": 13.9670839, "tags": {"addr:city": "Ledenitzen", "addr:housenumber": "7", "addr:postcode": "9581", "addr:street": "Denkmalweg", "amenity": "restaurant", "name": "Lorenz"}, "content": "Lorenz\nKategorie: amenity:restaurant\nAdresse: Denkmalweg 7, 9581 Ledenitzen\nOrt: Ledenitzen\nPLZ: 9581\nKoordinaten: 46.564879, 13.967084\nTags: amenity=restaurant", "doc_type": "pois"}
{"source": "OSM", "region": "Kärnten", "osm_type": "node", "osm_id": 3346339884, "name": "Hotel Mittagskogel", "category": "tourism:hotel", "address": "Aichwaldseestraße 4, 9581 Ledenitzen", "street": "Aichwaldseestraße", "housenumber": "4", "postcode": "9581", "place": "Ledenitzen", "lat": 46.556487, "lon": 13.9586363, "tags": {"addr:city": "Ledenitzen", "addr:housenumber": "4", "addr:postcode": "9581", "addr:street": "Aichwaldseestraße", "name": "Hotel Mittagskogel", "tourism": "hotel"}, "content": "Hotel Mittagskogel\nKategorie: tourism:hotel\nAdresse: Aichwaldseestraße 4, 9581 Ledenitzen\nOrt: Ledenitzen\nPLZ: 9581\nKoordinaten: 46.556487, 13.958636", "doc_type": "pois"}
