{"source": "OSM", "region": "Kärnten", "osm_type": "node", "osm_id": 340517790, "name": "Postpartner 9162, Cafe Jause Bioprodukte", "category": "amenity:post_office", "address": "27, 9162 Ferlach", "street": null, "housenumber": "27", "postcode": "9162", "place": "Ferlach", "lat": 46.5392055, "lon": 14.2584346, "tags": {"addr:city": "Ferlach", "addr:housenumber": "27", "addr:place": "Strau", "addr:postcode": "9162", "amenity": "post_office", "name": "Postpartner 9162, Cafe Jause Bioprodukte"}, "content": "Postpartner 9162, Cafe Jause Bioprodukte\nKategorie: amenity:post_office\nAdresse: 27, 9162 Ferlach\nOrt: Ferlach\nPLZ: 9162\nKoordinaten: 46.539206, 14.258435\nTags: amenity=post_office", "doc_type": "addresses"}
{"source": "OSM", "region": "Kärnten", "osm_type": "node", "osm_id": 340519694, "name": "9170 Waidisch", "category": "amenity:post_box", "address": "28, 9170 Ferlach", "street": null, "housenumber": "28", "postcode": "9170", "place": "Ferlach", "lat": 46.4993637, "lon": 14.3450502, "tags": {"addr:city": "Ferlach", "addr:housenumber": "28", "addr:place": "Waidisch", "addr:postcode": "9170", "amenity": "post_box", "name": "9170 Waidisch"}, "content": "9170 Waidisch\nKategorie: amenity:post_box\nAdresse: 28, 9170 Ferlach\nOrt: Ferlach\nPLZ: 9170\nKoordinaten: 46.499364, 14.345050\nTags: amenity=post_box", "doc_type": "addresses"}
{"source": "OSM", "region": "Kärnten", "osm_type": "node", "osm_id": 565609443, "name": "Gasthof Sereinig", "category": "tourism:guest_house", "address": "40, 9163 Ferlach", "street": null, "housenumber": "40", "postcode": "9163", "place": "Ferlach", "lat": 46.4792838, "lon": 14.2321186, "tags": {"addr:city": "Ferlach", "addr:housenumber": "40", "addr:place": "Bodental", "addr:postcode": "9163", "name": "Gasthof Sereinig", "tourism": "guest_house"}, "content": "Gasthof Sereinig\nKategorie: tourism:guest_house\nAdresse: 40, 9163 Ferlach\nOrt: Ferlach\nPLZ: 9163\nKoordinaten: 46.479284, 14.232119", "doc_type": "addresses"}
{"source": "OSM", "region": "Kärnten", "osm_type": "node", "osm_id": 696772601, "name": "Büchsenmacher & Jagdmuseum", "category": "tourism:museum", "address": "Sponheimer Platz 1, 9170 Ferlach", "street": "Sponheimer Platz", "housenumber": "1", "postcode": "9170", "place": "Ferlach", "lat": 46.5255458, "lon": 14.2998624, "tags": {"addr:city": "Ferlach", "addr:housenumber": "1", "addr:postcode": "9170", "addr:street": "Sponheimer Platz", "name": "Büchsenmacher & Jagdmuseum", "tourism": "museum", "website": "http://www.jagdmuseum-ferlach.at"}, "content": "Büchsenmacher & Jagdmuseum\nKategorie: tourism:museum\nAdresse: Sponheimer Platz 1, 9170 Ferlach\nOrt: Ferlach\nPLZ: 9170\nKoordinaten: 46.525546, 14.299862\nTags: website=http://www.jagdmuseum-ferlach.at", "doc_type": "addresses"}
{"source": "OSM", "region": "Kärnten", "osm_type": "node", "osm_id": 759303392, "name": "Polizeiinspektion Ferlach", "category": "amenity:police", "address": "Loiblstraße 6, 9170 Ferlach", "street": "Loiblstraße", "housenumber": "6", "postcode": "9170", "place": "Ferlach", "lat": 46.5235936, "lon": 14.3003651, "tags": {"addr:city": "Ferlach", "addr:housenumber": "6", "addr:postcode": "9170", "addr:street": "Loiblstraße", "amenity": "police", "name": "Polizeiinspektion Ferlach", "website": "https://www.polizei.gv.at/ktn/lpd/dst/dienststellen.aspx?org=2F355874596A564D756B513D"}, "content": "Polizeiinspektion Ferlach\nKategorie: amenity:police\nAdresse: Loiblstraße 6, 9170 Ferlach\nOrt: Ferlach\nPLZ: 9170\nKoordinaten: 46.523594, 14.300365\nTags: amenity=police, website=https://www.polizei.gv.at/ktn/lpd/dst/dienststellen.aspx?org=2F355874596A564D756B513D", "doc_type": "addresses"}
{"source": "OSM", "region": "Kärnten", "osm_type": "node", "osm_id": 763303877, "name": "Posojilnica Bank eGen", "category": "amenity:bank", "address": "Hauptplatz 16, 9170 Ferlach", "street": "Hauptplatz", "housenumber": "16", "postcode": "9170", "place": "Ferlach", "lat": 46.526588, "lon": 14.2990002, "tags": {"addr:city": "Ferlach", "addr:housenumber": "16", "addr:postcode": "9170", "addr:street": "Hauptplatz", "amenity": "bank", "name": "Posojilnica Bank eGen", "phone": "+43 463 512 365", "website": "https://www.poso.at/"}, "content": "Posojilnica Bank eGen\nKategorie: amenity:bank\nAdresse: Hauptplatz 16, 9170 Ferlach\nOrt: Ferlach\nPLZ: 9170\nKoordinaten: 46.526588, 14.299000\nTags: amenity=bank, phone=+43 463 512 365, website=https://www.poso.at/", "doc_type": "addresses"}
{"source": "OSM", "region": "Kärnten", "osm_type": "node", "osm_id": 1430456561, "name": "Gasthaus zur Linde", "category": "amenity:restaurant", "address": "28, 9170 Ferlach", "street": null, "housenumber": "28", "postcode": "9170", "place": "Ferlach", "lat": 46.4993529, "lon": 14.3449107, "tags": {"addr:city": "Ferlach", "addr:housenumber": "28", "addr:place": "Waidisch", "addr:postcode": "9170", "amenity": "restaurant", "name": "Gasthaus zur Linde", "operator": "Familie Uschnig"}, "content": "Gasthaus zur Linde\nKategorie: amenity:restaurant\nAdresse: 28, 9170 Ferlach\nOrt: Ferlach\nPLZ: 9170\nKoordinaten: 46.499353, 14.344911\nTags: amenity=restaurant, operator=Familie Uschnig", "doc_type": "addresses"}
{"source": "OSM", "region": "Kärnten", "osm_type": "node", "osm_id": 1456302832, "name": "Geco Bar", "category": "amenity:pub", "address": "Freibacher Straße 1, 9170 Ferlach", "street": "Freibacher Straße", "housenumber": "1", "postcode": "9170", "place": "Ferlach", "lat": 46.5276844, "lon": 14.3007103, "tags": {"addr:city": "Ferlach", "addr:housenumber": "1", "addr:postcode": "9170", "addr:street": "Freibacher Straße", "amenity": "pub", "name": "Geco Bar"}, "content": "Geco Bar\nKategorie: amenity:pub\nAdresse: Freibacher Straße 1, 9170 Ferlach\nOrt: Ferlach\nPLZ: 9170\nKoordinaten: 46.527684, 14.300710\nTags: amenity=pub", "doc_type": "addresses"}
{"source": "OSM", "region": "Kärnten", "osm_type": "node", "osm_id": 1471844660, "name": "BP", "category": "amenity:fuel", "address": "Klagenfurter Straße 23, 9170 Ferlach", "street": "Klagenfurter Straße", "housenumber": "23", "postcode": "9170", "place": "Ferlach", "lat": 46.5280226, "lon": 14.2918761, "tags": {"addr:city": "Ferlach", "addr:housenumber": "23", "addr:postcode": "9170", "addr:street": "Klagenfurter Straße", "amenity": "fuel", "brand": "BP", "name": "BP", "operator": "Veratschnig Handels Gmbh & Co KG"}, "content": "BP\nKategorie: amenity:fuel\nAdresse: Klagenfurter Straße 23, 9170 Ferlach\nOrt: Ferlach\nPLZ: 9170\nKoordinaten: 46.528023, 14.291876\nTags: amenity=fuel, operator=Veratschnig Handels Gmbh & Co KG, brand=BP", "doc_type": "addresses"}
{"source": "OSM", "region": "Kärnten", "osm_type": "node", "osm_id": 1471844667, "name": "Eni", "category": "amenity:fuel", "address": "Klagenfurter Straße 42, 9170 Ferlach", "street": "Klagenfurter Straße", "housenumber": "42", "postcode": "9170", "place": "Ferlach", "lat": 46.5284416, "lon": 14.2913509, "tags": {"addr:city": "Ferlach", "addr:housenumber": "42", "addr:postcode": "9170", "addr:street": "Klagenfurter Straße", "amenity": "fuel", "brand": "Eni", "name": "Eni", "operator": "Kurt Lagler"}, "content": "Eni\nKategorie: amenity:fuel\nAdresse: Klagenfurter Straße 42, 9170 Ferlach\nOrt: Ferlach\nPLZ: 9170\nKoordinaten: 46.528442, 14.291351\nTags: amenity=fuel, operator=Kurt Lagler, brand=Eni", "doc_type": "addresses"}
{"source": "OSM", "region": "Kärnten", "osm_type": "node", "osm_id": 1582383978, "name": "Billa", "category": "shop:supermarket", "address": "Klagenfurter Straße 28, 9170 Ferlach", "street": "Klagenfurter Straße", "housenumber": "28", "postcode": "9170", "place": "Ferlach", "lat": 46.528965, "lon": 14.2906109, "tags": {"addr:city": "Ferlach", "addr:housenumber": "28", "addr:postcode": "9170", "addr:street": "Klagenfurter Straße", "brand": "Billa", "name": "Billa", "shop": "supermarket"}, "content": "Billa\nKategorie: shop:supermarket\nAdresse: Klagenfurter Straße 28, 9170 Ferlach\nOrt: Ferlach\nPLZ: 9170\nKoordinaten: 46.528965, 14.290611\nTags: shop=supermarket, brand=Billa", "doc_type": "addresses"}
{"source": "OSM", "region": "Kärnten", "osm_type": "node", "osm_id": 1876155218, "name": null, "category": null, "address": "41, 9163 Ferlach", "street": null, "housenumber": "41", "postcode": "9163", "place": "Ferlach", "lat": 46.4794944, "lon": 14.2319173, "tags": {"addr:city": "Ferlach", "addr:housenumber": "41", "addr:place": "Bodental", "addr:postcode": "9163"}, "content": "Adresse: 41, 9163 Ferlach\nOrt: Ferlach\nPLZ: 9163\nKoordinaten: 46.479494, 14.231917", "doc_type": "addresses"}
{"source": "OSM", "region": "Kärnten", "osm_type": "node", "osm_id": 3226613461, "name": "Alte Schule Cigan", "category": "amenity:restaurant", "address": "30, 9162 Ferlach", "street": null, "housenumber": "30", "postcode": "9162", "place": "Ferlach", "lat": 46.5332907, "lon": 14.2504588, "tags": {"addr:city": "Ferlach", "addr:housenumber": "30", "addr:place": "Kappel an der Drau", "addr:postcode": "9162", "amenity": "restaurant", "name": "Alte Schule Cigan", "website": "http://www.alteschule.co.at/"}, "content": "Alte Schule Cigan\nKategorie: amenity:restaurant\nAdresse: 30, 9162 Ferlach\nOrt: Ferlach\nPLZ: 9162\nKoordinaten: 46.533291, 14.250459\nTags: amenity=restaurant, website=http://www.alteschule.co.at/", "doc_type": "addresses"}
{"source": "OSM", "region": "Kärnten", "osm_type": "node", "osm_id": 3226613462, "name": "Gasthaus Auszeit beim Setz / Ogris", "category": "amenity:restaurant", "address": "13, 9162 Ferlach", "street": null, "housenumber": "13", "postcode": "9162", "place": "Ferlach", "lat": 46.5342649, "lon": 14.2473474, "tags": {"addr:city": "Ferlach", "addr:housenumber": "13", "addr:place": "Kappel an der Drau", "addr:postcode": "9162", "amenity": "restaurant", "name": "Gasthaus Auszeit beim Setz / Ogris", "phone": "+43 699 11491039"}, "content": "Gasthaus Auszeit beim Setz / Ogris\nKategorie: amenity:restaurant\nAdresse: 13, 9162 Ferlach\nOrt: Ferlach\nPLZ: 9162\nKoordinaten: 46.534265, 14.247347\nTags: amenity=restaurant, phone=+43 699 11491039", "doc_type": "addresses"}
{"source": "OSM", "region": "Kärnten", "osm_type": "node", "osm_id": 3760676012, "name": "Penny Markt", "category": "shop:supermarket", "address": "62, 9162 Ferlach", "street": null, "housenumber": "62", "postcode": "9162", "place": "Ferlach", "lat": 46.5329108, "lon": 14.2714971, "tags": {"addr:city": "Ferlach", "addr:housenumber": "62", "addr:place": "Kirschentheuer", "addr:postcode": "9162", "name": "Penny Markt", "shop": "supermarket"}, "content": "Penny Markt\nKategorie: shop:supermarket\nAdresse: 62, 9162 Ferlach\nOrt: Ferlach\nPLZ: 9162\nKoordinaten: 46.532911, 14.271497\nTags: shop=supermarket", "doc_type": "addresses"}
{"source": "OSM", "region": "Kärnten", "osm_type": "node", "osm_id": 4075238691, "name": null, "category": null, "address": "Anton-Kolig-Gasse 4, 9170 Ferlach", "street": "Anton-Kolig-Gasse", "housenumber": "4", "postcode": "9170", "place": "Ferlach", "lat": 46.530307, "lon": 14.3100042, "tags": {"addr:city": "Ferlach", "addr:housenumber": "4", "addr:postcode": "9170", "addr:street": "Anton-Kolig-Gasse"}, "content": "Adresse: Anton-Kolig-Gasse 4, 9170 Ferlach\nOrt: Ferlach\nPLZ: 9170\nKoordinaten: 46.530307, 14.310004", "doc_type": "addresses"}
{"source": "OSM", "region": "Kärnten", "osm_type": "node", "osm_id": 4075238692, "name": null, "category": null, "address": "Anton-Kolig-Gasse 6, 9170 Ferlach", "street": "Anton-Kolig-Gasse", "housenumber": "6", "postcode": "9170", "place": "Ferlach", "lat": 46.5303199, "lon": 14.3103287, "tags": {"addr:city": "Ferlach", "addr:housenumber": "6", "addr:postcode": "9170", "addr:street": "Anton-Kolig-Gasse"}, "content": "Adresse: Anton-Kolig-Gasse 6, 9170 Ferlach\nOrt: Ferlach\nPLZ: 9170\nKoordinaten: 46.530320, 14.310329", "doc_type": "addresses"}
{"source": "OSM", "region": "Kärnten", "osm_type": "node", "osm_id": 4545043889, "name": "Kappel an der Drau", "category": "amenity:fire_station", "address": "122, 9162 Ferlach", "street": null, "housenumber": "122", "postcode": "9162", "place": "Ferlach", "lat": 46.5355527, "lon": 14.247385, "tags": {"addr:city": "Ferlach", "addr:housenumber": "122", "addr:place": "Kappel an der Drau", "addr:postcode": "9162", "amenity": "fire_station", "name": "Kappel an der Drau", "website": "http://www.ffkappeldrau.at"}, "content": "Kappel an der Drau\nKategorie: amenity:fire_station\nAdresse: 122, 9162 Ferlach\nOrt: Ferlach\nPLZ: 9162\nKoordinaten: 46.535553, 14.247385\nTags: amenity=fire_station, website=http://www.ffkappeldrau.at", "doc_type": "addresses"}
{"source": "OSM", "region": "Kärnten", "osm_type": "node", "osm_id": 4585518311, "name": "Werner Markowitz e.U.", "category": "shop:butcher", "address": "Freibacher Straße 31, 9170 Ferlach", "street": "Freibacher Straße", "housenumber": "31", "postcode": "9170", "place": "Ferlach", "lat": 46.5331485, "lon": 14.3039189, "tags": {"addr:city": "Ferlach", "addr:housenumber": "31", "addr:postcode": "9170", "addr:street": "Freibacher Straße", "name": "Werner Markowitz e.U.", "shop": "butcher"}, "content": "Werner Markowitz e.U.\nKategorie: shop:butcher\nAdresse: Freibacher Straße 31, 9170 Ferlach\nOrt: Ferlach\nPLZ: 9170\nKoordinaten: 46.533149, 14.303919\nTags: shop=butcher", "doc_type": "addresses"}
{"source": "OSM", "region": "Kärnten", "osm_type": "node", "osm_id": 4908941937, "name": "Bezirkspolizeikommando Klagenfurt", "category": "amenity:police", "address": "Loiblstraße 6, 9170 Ferlach", "street": "Loiblstraße", "housenumber": "6", "postcode": "9170", "place": "Ferlach", "lat": 46.5235154, "lon": 14.300314, "tags": {"addr:city": "Ferlach", "addr:housenumber": "6", "addr:postcode": "9170", "addr:street": "Loiblstraße", "amenity": "police", "name": "Bezirkspolizeikommando Klagenfurt", "website": "https://www.polizei.gv.at/ktn/lpd/dst/dienststellen.aspx?org=2F355874596A564D756B513D"}, "content": "Bezirkspolizeikommando Klagenfurt\nKategorie: amenity:police\nAdresse: Loiblstraße 6, 9170 Ferlach\nOrt: Ferlach\nPLZ: 9170\nKoordinaten: 46.523515, 14.300314\nTags: amenity=police, website=https://www.polizei.gv.at/ktn/lpd/dst/dienststellen.aspx?org=2F355874596A564D756B513D", "doc_type": "addresses"}
{"source": "OSM", "region": "Kärnten", "osm_type": "node", "osm_id": 5124112859, "name": "Dr. Monika Gruden", "category": "amenity:doctors", "address": "Hauptplatz 16, 9170 Ferlach", "street": "Hauptplatz", "housenumber": "16", "postcode": "9170", "place": "Ferlach", "lat": 46.5264443, "lon": 14.2991855, "tags": {"addr:city": "Ferlach", "addr:housenumber": "16", "addr:postcode": "9170", "addr:street": "Hauptplatz", "amenity": "doctors", "healthcare": "doctor", "name": "Dr. Monika Gruden"}, "content": "Dr. Monika Gruden\nKategorie: amenity:doctors\nAdresse: Hauptplatz 16, 9170 Ferlach\nOrt: Ferlach\nPLZ: 9170\nKoordinaten: 46.526444, 14.299186\nTags: amenity=doctors, healthcare=doctor", "doc_type": "addresses"}
{"source": "OSM", "region": "Kärnten", "osm_type": "node", "osm_id": 5130229722, "name": "Bipa", "category": "shop:chemist", "address": "Hauptplatz 9, 9170 Ferlach", "street": "Hauptplatz", "housenumber": "9", "postcode": "9170", "place": "Ferlach", "lat": 46.5267783, "lon": 14.3004012, "tags": {"addr:city": "Ferlach", "addr:housenumber": "9", "addr:postcode": "9170", "addr:street": "Hauptplatz", "brand": "Bipa", "name": "Bipa", "shop": "chemist"}, "content": "Bipa\nKategorie: shop:chemist\nAdresse: Hauptplatz 9, 9170 Ferlach\nOrt: Ferlach\nPLZ: 9170\nKoordinaten: 46.526778, 14.300401\nTags: shop=chemist, brand=Bipa", "doc_type": "addresses"}
{"source": "OSM", "region": "Kärnten", "osm_type": "node", "osm_id": 5239893916, "name": null, "category": null, "address": "Schulhausgasse 22, 9170 Ferlach", "street": "Schulhausgasse", "housenumber": "22", "postcode": "9170", "place": "Ferlach", "lat": 46.5309013, "lon": 14.3038265, "tags": {"addr:city": "Ferlach", "addr:housenumber": "22", "addr:postcode": "9170", "addr:street": "Schulhausgasse"}, "content": "Adresse: Schulhausgasse 22, 9170 Ferlach\nOrt: Ferlach\nPLZ: 9170\nKoordinaten: 46.530901, 14.303826", "doc_type": "addresses"}
{"source": "OSM", "region": "Kärnten", "osm_type": "node", "osm_id": 5239893917, "name": null, "category": null, "address": "Schulhausgasse 24, 9170 Ferlach", "street": "Schulhausgasse", "housenumber": "24", "postcode": "9170", "place": "Ferlach", "lat": 46.531186, "lon": 14.3038265, "tags": {"addr:city": "Ferlach", "addr:housenumber": "24", "addr:postcode": "9170", "addr:street": "Schulhausgasse"}, "content": "Adresse: Schulhausgasse 24, 9170 Ferlach\nOrt: Ferlach\nPLZ: 9170\nKoordinaten: 46.531186, 14.303826", "doc_type": "addresses"}
{"source": "OSM", "region": "Kärnten", "osm_type": "node", "osm_id": 5239895621, "name": null, "category": null, "address": "Neubaugasse 12, 9170 Ferlach", "street": "Neubaugasse", "housenumber": "12", "postcode": "9170", "place": "Ferlach", "lat": 46.5310857, "lon": 14.304656, "tags": {"addr:city": "Ferlach", "addr:housenumber": "12", "addr:postcode": "9170", "addr:street": "Neubaugasse"}, "content": "Adresse: Neubaugasse 12, 9170 Ferlach\nOrt: Ferlach\nPLZ: 9170\nKoordinaten: 46.531086, 14.304656", "doc_type": "addresses"}
{"source": "OSM", "region": "Kärnten", "osm_type": "node", "osm_id": 5243983087, "name": null, "category": null, "address": "Waldweg 9, 9170 Ferlach", "street": "Waldweg", "housenumber": "9", "postcode": "9170", "place": "Ferlach", "lat": 46.5260349, "lon": 14.291684, "tags": {"addr:city": "Ferlach", "addr:housenumber": "9", "addr:postcode": "9170", "addr:street": "Waldweg"}, "content": "Adresse: Waldweg 9, 9170 Ferlach\nOrt: Ferlach\nPLZ: 9170\nKoordinaten: 46.526035, 14.291684", "doc_type": "addresses"}
{"source": "OSM", "region": "Kärnten", "osm_type": "node", "osm_id": 5243983088, "name": null, "category": null, "address": "Waldweg 11, 9170 Ferlach", "street": "Waldweg", "housenumber": "11", "postcode": "9170", "place": "Ferlach", "lat": 46.5259895, "lon": 14.291941, "tags": {"addr:city": "Ferlach", "addr:housenumber": "11", "addr:postcode": "9170", "addr:street": "Waldweg"}, "content": "Adresse: Waldweg 11, 9170 Ferlach\nOrt: Ferlach\nPLZ: 9170\nKoordinaten: 46.525990, 14.291941", "doc_type": "addresses"}
{"source": "OSM", "region": "Kärnten", "osm_type": "node", "osm_id": 5243983089, "name": null, "category": null, "address": "Waldweg 11, 9170 Ferlach", "street": "Waldweg", "housenumber": "11", "postcode": "9170", "place": "Ferlach", "lat": 46.5259587, "lon": 14.2921995, "tags": {"addr:city": "Ferlach", "addr:housenumber": "11", "addr:postcode": "9170", "addr:street": "Waldweg"}, "content": "Adresse: Waldweg 11, 9170 Ferlach\nOrt: Ferlach\nPLZ: 9170\nKoordinaten: 46.525959, 14.292200", "doc_type": "addresses"}
{"source": "OSM", "region": "Kärnten", "osm_type": "node", "osm_id": 5245064165, "name": null, "category": null, "address": "Grießgasse 41, 9170 Ferlach", "street": "Grießgasse", "housenumber": "41", "postcode": "9170", "place": "Ferlach", "lat": 46.5345423, "lon": 14.3023374, "tags": {"addr:city": "Ferlach", "addr:housenumber": "41", "addr:postcode": "9170", "addr:street": "Grießgasse"}, "content": "Adresse: Grießgasse 41, 9170 Ferlach\nOrt: Ferlach\nPLZ: 9170\nKoordinaten: 46.534542, 14.302337", "doc_type": "addresses"}
{"source": "OSM", "region": "Kärnten", "osm_type": "node", "osm_id": 5245064179, "name": null, "category": null, "address": "Karawankenzeile 4, 9170 Ferlach", "street": "Karawankenzeile", "housenumber": "4", "postcode": "9170", "place": "Ferlach", "lat": 46.5240092, "lon": 14.292402, "tags": {"addr:city": "Ferlach", "addr:housenumber": "4", "addr:postcode": "9170", "addr:street": "Karawankenzeile"}, "content": "Adresse: Karawankenzeile 4, 9170 Ferlach\nOrt: Ferlach\nPLZ: 9170\nKoordinaten: 46.524009, 14.292402", "doc_type": "addresses"}
{"source": "OSM", "region": "Kärnten", "osm_type": "node", "osm_id": 5245064181, "name": null, "category": null, "address": "Reßnigweg 34, 9170 Ferlach", "street": "Reßnigweg", "housenumber": "34", "postcode": "9170", "place": "Ferlach", "lat": 46.531342, "lon": 14.2980013, "tags": {"addr:city": "Ferlach", "addr:housenumber": "34", "addr:postcode": "9170", "addr:street": "Reßnigweg"}, "content": "Adresse: Reßnigweg 34, 9170 Ferlach\nOrt: Ferlach\nPLZ: 9170\nKoordinaten: 46.531342, 14.298001", "doc_type": "addresses"}
{"source": "OSM", "region": "Kärnten", "osm_type": "node", "osm_id": 5245064182, "name": null, "category": null, "address": "Reßnigweg 32, 9170 Ferlach", "street": "Reßnigweg", "housenumber": "32", "postcode": "9170", "place": "Ferlach", "lat": 46.5311505, "lon": 14.297972, "tags": {"addr:city": "Ferlach", "addr:housenumber": "32", "addr:postcode": "9170", "addr:street": "Reßnigweg"}, "content": "Adresse: Reßnigweg 32, 9170 Ferlach\nOrt: Ferlach\nPLZ: 9170\nKoordinaten: 46.531151, 14.297972", "doc_type": "addresses"}
{"source": "OSM", "region": "Kärnten", "osm_type": "node", "osm_id": 5245064183, "name": null, "category": null, "address": "Reßnigweg 36, 9170 Ferlach", "street": "Reßnigweg", "housenumber": "36", "postcode": "9170", "place": "Ferlach", "lat": 46.5309311, "lon": 14.2974989, "tags": {"addr:city": "Ferlach", "addr:housenumber": "36", "addr:postcode": "9170", "addr:street": "Reßnigweg"}, "content": "Adresse: Reßnigweg 36, 9170 Ferlach\nOrt: Ferlach\nPLZ: 9170\nKoordinaten: 46.530931, 14.297499", "doc_type": "addresses"}
{"source": "OSM", "region": "Kärnten", "osm_type": "node", "osm_id": 5245064184, "name": null, "category": null, "address": "Reßnigweg 38, 9170 Ferlach", "street": "Reßnigweg", "housenumber": "38", "postcode": "9170", "place": "Ferlach", "lat": 46.5311128, "lon": 14.2975187, "tags": {"addr:city": "Ferlach", "addr:housenumber": "38", "addr:postcode": "9170", "addr:street": "Reßnigweg"}, "content": "Adresse: Reßnigweg 38, 9170 Ferlach\nOrt: Ferlach\nPLZ: 9170\nKoordinaten: 46.531113, 14.297519", "doc_type": "addresses"}
{"source": "OSM", "region": "Kärnten", "osm_type": "node", "osm_id": 5245064185, "name": null, "category": null, "address": "Reßnigweg 40, 9170 Ferlach", "street": "Reßnigweg", "housenumber": "40", "postcode": "9170", "place": "Ferlach", "lat": 46.5312993, "lon": 14.2975406, "tags": {"addr:city": "Ferlach", "addr:housenumber": "40", "addr:postcode": "9170", "addr:street": "Reßnigweg"}, "content": "Adresse: Reßnigweg 40, 9170 Ferlach\nOrt: Ferlach\nPLZ: 9170\nKoordinaten: 46.531299, 14.297541", "doc_type": "addresses"}
{"source": "OSM", "region": "Kärnten", "osm_type": "node", "osm_id": 5245064186, "name": null, "category": null, "address": "Reßnigweg 46, 9170 Ferlach", "street": "Reßnigweg", "housenumber": "46", "postcode": "9170", "place": "Ferlach", "lat": 46.531241, "lon": 14.2971077, "tags": {"addr:city": "Ferlach", "addr:housenumber": "46", "addr:postcode": "9170", "addr:street": "Reßnigweg"}, "content": "Adresse: Reßnigweg 46, 9170 Ferlach\nOrt: Ferlach\nPLZ: 9170\nKoordinaten: 46.531241, 14.297108", "doc_type": "addresses"}
{"source": "OSM", "region": "Kärnten", "osm_type": "node", "osm_id": 5245064187, "name": null, "category": null, "address": "Reßnigweg 42, 9170 Ferlach", "street": "Reßnigweg", "housenumber": "42", "postcode": "9170", "place": "Ferlach", "lat": 46.530868, "lon": 14.297102, "tags": {"addr:city": "Ferlach", "addr:housenumber": "42", "addr:postcode": "9170", "addr:street": "Reßnigweg"}, "content": "Adresse: Reßnigweg 42, 9170 Ferlach\nOrt: Ferlach\nPLZ: 9170\nKoordinaten: 46.530868, 14.297102", "doc_type": "addresses"}
{"source": "OSM", "region": "Kärnten", "osm_type": "node", "osm_id": 5245064188, "name": null, "category": null, "address": "Reßnigweg 44, 9170 Ferlach", "street": "Reßnigweg", "housenumber": "44", "postcode": "9170", "place": "Ferlach", "lat": 46.5310503, "lon": 14.2971036, "tags": {"addr:city": "Ferlach", "addr:housenumber": "44", "addr:postcode": "9170", "addr:street": "Reßnigweg"}, "content": "Adresse: Reßnigweg 44, 9170 Ferlach\nOrt: Ferlach\nPLZ: 9170\nKoordinaten: 46.531050, 14.297104", "doc_type": "addresses"}
{"source": "OSM", "region": "Kärnten", "osm_type": "node", "osm_id": 5245064189, "name": null, "category": null, "address": "Arbeiterheimgasse 1, 9170 Ferlach", "street": "Arbeiterheimgasse", "housenumber": "1", "postcode": "9170", "place": "Ferlach", "lat": 46.5301066, "lon": 14.2984375, "tags": {"addr:city": "Ferlach", "addr:housenumber": "1", "addr:postcode": "9170", "addr:street": "Arbeiterheimgasse"}, "content": "Adresse: Arbeiterheimgasse 1, 9170 Ferlach\nOrt: Ferlach\nPLZ: 9170\nKoordinaten: 46.530107, 14.298438", "doc_type": "addresses"}
{"source": "OSM", "region": "Kärnten", "osm_type": "node", "osm_id": 5245645485, "name": null, "category": null, "address": "Kirchgasse 18, 9170 Ferlach", "street": "Kirchgasse", "housenumber": "18", "postcode": "9170", "place": "Ferlach", "lat": 46.5261425, "lon": 14.3015975, "tags": {"addr:city": "Ferlach", "addr:housenumber": "18", "addr:postcode": "9170", "addr:street": "Kirchgasse"}, "content": "Adresse: Kirchgasse 18, 9170 Ferlach\nOrt: Ferlach\nPLZ: 9170\nKoordinaten: 46.526142, 14.301597", "doc_type": "addresses"}
{"source": "OSM", "region": "Kärnten", "osm_type": "node", "osm_id": 5245645498, "name": null, "category": null, "address": "Hauptplatz 5, 9170 Ferlach", "street": "Hauptplatz", "housenumber": "5", "postcode": "9170", "place": "Ferlach", "lat": 46.5265854, "lon": 14.3011281, "tags": {"addr:city": "Ferlach", "addr:housenumber": "5", "addr:postcode": "9170", "addr:street": "Hauptplatz"}, "content": "Adresse: Hauptplatz 5, 9170 Ferlach\nOrt: Ferlach\nPLZ: 9170\nKoordinaten: 46.526585, 14.301128", "doc_type": "addresses"}
{"source": "OSM", "region": "Kärnten", "osm_type": "node", "osm_id": 5245645499, "name": null, "category": null, "address": "Kirchgasse 5, 9170 Ferlach", "street": "Kirchgasse", "housenumber": "5", "postcode": "9170", "place": "Ferlach", "lat": 46.5266731, "lon": 14.3013681, "tags": {"addr:city": "Ferlach", "addr:housenumber": "5", "addr:postcode": "9170", "addr:street": "Kirchgasse"}, "content": "Adresse: Kirchgasse 5, 9170 Ferlach\nOrt: Ferlach\nPLZ: 9170\nKoordinaten: 46.526673, 14.301368", "doc_type": "addresses"}
{"source": "OSM", "region": "Kärnten", "osm_type": "node", "osm_id": 5245645500, "name": null, "category": null, "address": "Hauptplatz 4, 9170 Ferlach", "street": "Hauptplatz", "housenumber": "4", "postcode": "9170", "place": "Ferlach", "lat": 46.5263714, "lon": 14.3010009, "tags": {"addr:city": "Ferlach", "addr:housenumber": "4", "addr:postcode": "9170", "addr:street": "Hauptplatz"}, "content": "Adresse: Hauptplatz 4, 9170 Ferlach\nOrt: Ferlach\nPLZ: 9170\nKoordinaten: 46.526371, 14.301001", "doc_type": "addresses"}
{"source": "OSM", "region": "Kärnten", "osm_type": "node", "osm_id": 5245645501, "name": null, "category": null, "address": "Hauptplatz 2, 9170 Ferlach", "street": "Hauptplatz", "housenumber": "2", "postcode": "9170", "place": "Ferlach", "lat": 46.5262097, "lon": 14.3012467, "tags": {"addr:city": "Ferlach", "addr:housenumber": "2", "addr:postcode": "9170", "addr:street": "Hauptplatz"}, "content": "Adresse: Hauptplatz 2, 9170 Ferlach\nOrt: Ferlach\nPLZ: 9170\nKoordinaten: 46.526210, 14.301247", "doc_type": "addresses"}
{"source": "OSM", "region": "Kärnten", "osm_type": "node", "osm_id": 5245742656, "name": null, "category": null, "address": "Waidischer Straße 3, 9170 Ferlach", "street": "Waidischer Straße", "housenumber": "3", "postcode": "9170", "place": "Ferlach", "lat": 46.5261365, "lon": 14.3023552, "tags": {"addr:city": "Ferlach", "addr:housenumber": "3", "addr:postcode": "9170", "addr:street": "Waidischer Straße"}, "content": "Adresse: Waidischer Straße 3, 9170 Ferlach\nOrt: Ferlach\nPLZ: 9170\nKoordinaten: 46.526136, 14.302355", "doc_type": "addresses"}
{"source": "OSM", "region": "Kärnten", "osm_type": "node", "osm_id": 5245742657, "name": null, "category": null, "address": "Messeplatz 5, 9170 Ferlach", "street": "Messeplatz", "housenumber": "5", "postcode": "9170", "place": "Ferlach", "lat": 46.5245467, "lon": 14.2972711, "tags": {"addr:city": "Ferlach", "addr:housenumber": "5", "addr:postcode": "9170", "addr:street": "Messeplatz"}, "content": "Adresse: Messeplatz 5, 9170 Ferlach\nOrt: Ferlach\nPLZ: 9170\nKoordinaten: 46.524547, 14.297271", "doc_type": "addresses"}
{"source": "OSM", "region": "Kärnten", "osm_type": "node", "osm_id": 5245742686, "name": null, "category": null, "address": "Werkstraße 9, 9170 Ferlach", "street": "Werkstraße", "housenumber": "9", "postcode": "9170", "place": "Ferlach", "lat": 46.5253215, "lon": 14.300661, "tags": {"addr:city": "Ferlach", "addr:housenumber": "9", "addr:postcode": "9170", "addr:street": "Werkstraße"}, "content": "Adresse: Werkstraße 9, 9170 Ferlach\nOrt: Ferlach\nPLZ: 9170\nKoordinaten: 46.525321, 14.300661", "doc_type": "addresses"}
{"source": "OSM", "region": "Kärnten", "osm_type": "node", "osm_id": 5245742687, "name": "Kebap Haus Ferlach", "category": "amenity:fast_food", "address": "Werkstraße 7, 9170 Ferlach", "street": "Werkstraße", "housenumber": "7", "postcode": "9170", "place": "Ferlach", "lat": 46.5253449, "lon": 14.3005362, "tags": {"addr:city": "Ferlach", "addr:housenumber": "7", "addr:postcode": "9170", "addr:street": "Werkstraße", "amenity": "fast_food", "name": "Kebap Haus Ferlach"}, "content": "Kebap Haus Ferlach\nKategorie: amenity:fast_food\nAdresse: Werkstraße 7, 9170 Ferlach\nOrt: Ferlach\nPLZ: 9170\nKoordinaten: 46.525345, 14.300536\nTags: amenity=fast_food", "doc_type": "addresses"}
{"source": "OSM", "region": "Kärnten", "osm_type": "node", "osm_id": 5245742694, "name": null, "category": null, "address": "Mühlgasse 2, 9170 Ferlach", "street": "Mühlgasse", "housenumber": "2", "postcode": "9170", "place": "Ferlach", "lat": 46.5275388, "lon": 14.3012499, "tags": {"addr:city": "Ferlach", "addr:housenumber": "2", "addr:postcode": "9170", "addr:street": "Mühlgasse"}, "content": "Adresse: Mühlgasse 2, 9170 Ferlach\nOrt: Ferlach\nPLZ: 9170\nKoordinaten: 46.527539, 14.301250", "doc_type": "addresses"}
{"source": "OSM", "region": "Kärnten", "osm_type": "node", "osm_id": 5246345488, "name": null, "category": null, "address": "Major-Trojer-Straße 30, 9170 Ferlach", "street": "Major-Trojer-Straße", "housenumber": "30", "postcode": "9170", "place": "Ferlach", "lat": 46.5286273, "lon": 14.3107616, "tags": {"addr:city": "Ferlach", "addr:housenumber": "30", "addr:postcode": "9170", "addr:street": "Major-Trojer-Straße"}, "content": "Adresse: Major-Trojer-Straße 30, 9170 Ferlach\nOrt: Ferlach\nPLZ: 9170\nKoordinaten: 46.528627, 14.310762", "doc_type": "addresses"}
{"source": "OSM", "region": "Kärnten", "osm_type": "node", "osm_id": 5246474866, "name": null, "category": null, "address": "Auengasse 9, 9170 Ferlach", "street": "Auengasse", "housenumber": "9", "postcode": "9170", "place": "Ferlach", "lat": 46.5190188, "lon": 14.2962688, "tags": {"addr:city": "Ferlach", "addr:housenumber": "9", "addr:postcode": "9170", "addr:street": "Auengasse"}, "content": "Adresse: Auengasse 9, 9170 Ferlach\nOrt: Ferlach\nPLZ: 9170\nKoordinaten: 46.519019, 14.296269", "doc_type": "addresses"}
{"source": "OSM", "region": "Kärnten", "osm_type": "node", "osm_id": 5246474867, "name": null, "category": null, "address": "Auengasse 12, 9170 Ferlach", "street": "Auengasse", "housenumber": "12", "postcode": "9170", "place": "Ferlach", "lat": 46.5189502, "lon": 14.2940199, "tags": {"addr:city": "Ferlach", "addr:housenumber": "12", "addr:postcode": "9170", "addr:street": "Auengasse"}, "content": "Adresse: Auengasse 12, 9170 Ferlach\nOrt: Ferlach\nPLZ: 9170\nKoordinaten: 46.518950, 14.294020", "doc_type": "addresses"}
{"source": "OSM", "region": "Kärnten", "osm_type": "node", "osm_id": 5246474868, "name": "KWI Corporate Verwaltungs GmbH", "category": null, "address": "Auengasse 8, 9170 Ferlach", "street": "Auengasse", "housenumber": "8", "postcode": "9170", "place": "Ferlach", "lat": 46.5195707, "lon": 14.2944819, "tags": {"addr:city": "Ferlach", "addr:housenumber": "8", "addr:postcode": "9170", "addr:street": "Auengasse", "name": "KWI Corporate Verwaltungs GmbH"}, "content": "KWI Corporate Verwaltungs GmbH\nAdresse: Auengasse 8, 9170 Ferlach\nOrt: Ferlach\nPLZ: 9170\nKoordinaten: 46.519571, 14.294482", "doc_type": "addresses"}
{"source": "OSM", "region": "Kärnten", "osm_type": "node", "osm_id": 5246474869, "name": null, "category": null, "address": "Auengasse 26, 9170 Ferlach", "street": "Auengasse", "housenumber": "26", "postcode": "9170", "place": "Ferlach", "lat": 46.5172181, "lon": 14.2943657, "tags": {"addr:city": "Ferlach", "addr:housenumber": "26", "addr:postcode": "9170", "addr:street": "Auengasse"}, "content": "Adresse: Auengasse 26, 9170 Ferlach\nOrt: Ferlach\nPLZ: 9170\nKoordinaten: 46.517218, 14.294366", "doc_type": "addresses"}
{"source": "OSM", "region": "Kärnten", "osm_type": "node", "osm_id": 5249464169, "name": null, "category": null, "address": "Andreas-Dorfer-Gasse 7, 9170 Ferlach", "street": "Andreas-Dorfer-Gasse", "housenumber": "7", "postcode": "9170", "place": "Ferlach", "lat": 46.5266932, "lon": 14.2915026, "tags": {"addr:city": "Ferlach", "addr:housenumber": "7", "addr:postcode": "9170", "addr:street": "Andreas-Dorfer-Gasse"}, "content": "Adresse: Andreas-Dorfer-Gasse 7, 9170 Ferlach\nOrt: Ferlach\nPLZ: 9170\nKoordinaten: 46.526693, 14.291503", "doc_type": "addresses"}
{"source": "OSM", "region": "Kärnten", "osm_type": "node", "osm_id": 5249464170, "name": null, "category": null, "address": "Andreas-Dorfer-Gasse 5, 9170 Ferlach", "street": "Andreas-Dorfer-Gasse", "housenumber": "5", "postcode": "9170", "place": "Ferlach", "lat": 46.5266788, "lon": 14.2915928, "tags": {"addr:city": "Ferlach", "addr:housenumber": "5", "addr:postcode": "9170", "addr:street": "Andreas-Dorfer-Gasse"}, "content": "Adresse: Andreas-Dorfer-Gasse 5, 9170 Ferlach\nOrt: Ferlach\nPLZ: 9170\nKoordinaten: 46.526679, 14.291593", "doc_type": "addresses"}
{"source": "OSM", "region": "Kärnten", "osm_type": "node", "osm_id": 5249464171, "name": null, "category": null, "address": "Andreas-Dorfer-Gasse 3, 9170 Ferlach", "street": "Andreas-Dorfer-Gasse", "housenumber": "3", "postcode": "9170", "place": "Ferlach", "lat": 46.5266427, "lon": 14.2918296, "tags": {"addr:city": "Ferlach", "addr:housenumber": "3", "addr:postcode": "9170", "addr:street": "Andreas-Dorfer-Gasse"}, "content": "Adresse: Andreas-Dorfer-Gasse 3, 9170 Ferlach\nOrt: Ferlach\nPLZ: 9170\nKoordinaten: 46.526643, 14.291830", "doc_type": "addresses"}
{"source": "OSM", "region": "Kärnten", "osm_type": "node", "osm_id": 5249464172, "name": null, "category": null, "address": "Andreas-Dorfer-Gasse 1, 9170 Ferlach", "street": "Andreas-Dorfer-Gasse", "housenumber": "1", "postcode": "9170", "place": "Ferlach", "lat": 46.5266298, "lon": 14.2919097, "tags": {"addr:city": "Ferlach", "addr:housenumber": "1", "addr:postcode": "9170", "addr:street": "Andreas-Dorfer-Gasse"}, "content": "Adresse: Andreas-Dorfer-Gasse 1, 9170 Ferlach\nOrt: Ferlach\nPLZ: 9170\nKoordinaten: 46.526630, 14.291910", "doc_type": "addresses"}
{"source": "OSM", "region": "Kärnten", "osm_type": "node", "osm_id": 5251962993, "name": null, "category": null, "address": "Markitzweg 4, 9170 Ferlach", "street": "Markitzweg", "housenumber": "4", "postcode": "9170", "place": "Ferlach", "lat": 46.5275832, "lon": 14.3057728, "tags": {"addr:city": "Ferlach", "addr:housenumber": "4", "addr:postcode": "9170", "addr:street": "Markitzweg"}, "content": "Adresse: Markitzweg 4, 9170 Ferlach\nOrt: Ferlach\nPLZ: 9170\nKoordinaten: 46.527583, 14.305773", "doc_type": "addresses"}
{"source": "OSM", "region": "Kärnten", "osm_type": "node", "osm_id": 5251963018, "name": null, "category": null, "address": "August-Veiter-Gasse 10, 9170 Ferlach", "street": "August-Veiter-Gasse", "housenumber": "10", "postcode": "9170", "place": "Ferlach", "lat": 46.5299133, "lon": 14.310626, "tags": {"addr:city": "Ferlach", "addr:housenumber": "10", "addr:postcode": "9170", "addr:street": "August-Veiter-Gasse"}, "content": "Adresse: August-Veiter-Gasse 10, 9170 Ferlach\nOrt: Ferlach\nPLZ: 9170\nKoordinaten: 46.529913, 14.310626", "doc_type": "addresses"}
{"source": "OSM", "region": "Kärnten", "osm_type": "node", "osm_id": 5251963019, "name": null, "category": null, "address": "August-Veiter-Gasse 8, 9170 Ferlach", "street": "August-Veiter-Gasse", "housenumber": "8", "postcode": "9170", "place": "Ferlach", "lat": 46.5299053, "lon": 14.3105326, "tags": {"addr:city": "Ferlach", "addr:housenumber": "8", "addr:postcode": "9170", "addr:street": "August-Veiter-Gasse"}, "content": "Adresse: August-Veiter-Gasse 8, 9170 Ferlach\nOrt: Ferlach\nPLZ: 9170\nKoordinaten: 46.529905, 14.310533", "doc_type": "addresses"}
{"source": "OSM", "region": "Kärnten", "osm_type": "node", "osm_id": 5251964764, "name": null, "category": null, "address": "Georg-Lora-Straße 61, 9170 Ferlach", "street": "Georg-Lora-Straße", "housenumber": "61", "postcode": "9170", "place": "Ferlach", "lat": 46.5323578, "lon": 14.3122264, "tags": {"addr:city": "Ferlach", "addr:housenumber": "61", "addr:postcode": "9170", "addr:street": "Georg-Lora-Straße"}, "content": "Adresse: Georg-Lora-Straße 61, 9170 Ferlach\nOrt: Ferlach\nPLZ: 9170\nKoordinaten: 46.532358, 14.312226", "doc_type": "addresses"}
{"source": "OSM", "region": "Kärnten", "osm_type": "node", "osm_id": 5251964765, "name": null, "category": null, "address": "Georg-Lora-Straße 59, 9170 Ferlach", "street": "Georg-Lora-Straße", "housenumber": "59", "postcode": "9170", "place": "Ferlach", "lat": 46.5323886, "lon": 14.3124669, "tags": {"addr:city": "Ferlach", "addr:housenumber": "59", "addr:postcode": "9170", "addr:street": "Georg-Lora-Straße"}, "content": "Adresse: Georg-Lora-Straße 59, 9170 Ferlach\nOrt: Ferlach\nPLZ: 9170\nKoordinaten: 46.532389, 14.312467", "doc_type": "addresses"}
{"source": "OSM", "region": "Kärnten", "osm_type": "node", "osm_id": 5251964766, "name": null, "category": null, "address": "Georg-Lora-Straße 57, 9170 Ferlach", "street": "Georg-Lora-Straße", "housenumber": "57", "postcode": "9170", "place": "Ferlach", "lat": 46.5322595, "lon": 14.3127614, "tags": {"addr:city": "Ferlach", "addr:housenumber": "57", "addr:postcode": "9170", "addr:street": "Georg-Lora-Straße"}, "content": "Adresse: Georg-Lora-Straße 57, 9170 Ferlach\nOrt: Ferlach\nPLZ: 9170\nKoordinaten: 46.532260, 14.312761", "doc_type": "addresses"}
{"source": "OSM", "region": "Kärnten", "osm_type": "node", "osm_id": 5251964795, "name": null, "category": null, "address": "Georg-Lora-Straße 17, 9170 Ferlach", "street": "Georg-Lora-Straße", "housenumber": "17", "postcode": "9170", "place": "Ferlach", "lat": 46.5285704, "lon": 14.3139064, "tags": {"addr:city": "Ferlach", "addr:housenumber": "17", "addr:postcode": "9170", "addr:street": "Georg-Lora-Straße"}, "content": "Adresse: Georg-Lora-Straße 17, 9170 Ferlach\nOrt: Ferlach\nPLZ: 9170\nKoordinaten: 46.528570, 14.313906", "doc_type": "addresses"}
{"source": "OSM", "region": "Kärnten", "osm_type": "node", "osm_id": 5251965061, "name": null, "category": null, "address": "Gärtnerweg 3, 9170 Ferlach", "street": "Gärtnerweg", "housenumber": "3", "postcode": "9170", "place": "Ferlach", "lat": 46.5256823, "lon": 14.3157437, "tags": {"addr:city": "Ferlach", "addr:housenumber": "3", "addr:postcode": "9170", "addr:street": "Gärtnerweg"}, "content": "Adresse: Gärtnerweg 3, 9170 Ferlach\nOrt: Ferlach\nPLZ: 9170\nKoordinaten: 46.525682, 14.315744", "doc_type": "addresses"}
{"source": "OSM", "region": "Kärnten", "osm_type": "node", "osm_id": 5251965484, "name": null, "category": null, "address": "Sechterweg 14, 9170 Ferlach", "street": "Sechterweg", "housenumber": "14", "postcode": "9170", "place": "Ferlach", "lat": 46.5234461, "lon": 14.3135424, "tags": {"addr:city": "Ferlach", "addr:housenumber": "14", "addr:postcode": "9170", "addr:street": "Sechterweg"}, "content": "Adresse: Sechterweg 14, 9170 Ferlach\nOrt: Ferlach\nPLZ: 9170\nKoordinaten: 46.523446, 14.313542", "doc_type": "addresses"}
{"source": "OSM", "region": "Kärnten", "osm_type": "node", "osm_id": 5251965485, "name": null, "category": null, "address": "Sechterweg 12, 9170 Ferlach", "street": "Sechterweg", "housenumber": "12", "postcode": "9170", "place": "Ferlach", "lat": 46.5236024, "lon": 14.3135772, "tags": {"addr:city": "Ferlach", "addr:housenumber": "12", "addr:postcode": "9170", "addr:street": "Sechterweg"}, "content": "Adresse: Sechterweg 12, 9170 Ferlach\nOrt: Ferlach\nPLZ: 9170\nKoordinaten: 46.523602, 14.313577", "doc_type": "addresses"}
{"source": "OSM", "region": "Kärnten", "osm_type": "node", "osm_id": 5252972858, "name": null, "category": null, "address": "Auengasse 2, 9170 Ferlach", "street": "Auengasse", "housenumber": "2", "postcode": "9170", "place": "Ferlach", "lat": 46.5207713, "lon": 14.2973035, "tags": {"addr:city": "Ferlach", "addr:housenumber": "2", "addr:postcode": "9170", "addr:street": "Auengasse"}, "content": "Adresse: Auengasse 2, 9170 Ferlach\nOrt: Ferlach\nPLZ: 9170\nKoordinaten: 46.520771, 14.297303", "doc_type": "addresses"}
{"source": "OSM", "region": "Kärnten", "osm_type": "node", "osm_id": 5252972864, "name": null, "category": null, "address": "Loiblstraße 8, 9170 Ferlach", "street": "Loiblstraße", "housenumber": "8", "postcode": "9170", "place": "Ferlach", "lat": 46.5229612, "lon": 14.2990804, "tags": {"addr:city": "Ferlach", "addr:housenumber": "8", "addr:postcode": "9170", "addr:street": "Loiblstraße"}, "content": "Adresse: Loiblstraße 8, 9170 Ferlach\nOrt: Ferlach\nPLZ: 9170\nKoordinaten: 46.522961, 14.299080", "doc_type": "addresses"}
{"source": "OSM", "region": "Kärnten", "osm_type": "node", "osm_id": 5252972865, "name": null, "category": null, "address": "Waagplatz 6, 9170 Ferlach", "street": "Waagplatz", "housenumber": "6", "postcode": "9170", "place": "Ferlach", "lat": 46.527715, "lon": 14.2999008, "tags": {"addr:city": "Ferlach", "addr:housenumber": "6", "addr:postcode": "9170", "addr:street": "Waagplatz"}, "content": "Adresse: Waagplatz 6, 9170 Ferlach\nOrt: Ferlach\nPLZ: 9170\nKoordinaten: 46.527715, 14.299901", "doc_type": "addresses"}
{"source": "OSM", "region": "Kärnten", "osm_type": "node", "osm_id": 5252972866, "name": null, "category": null, "address": "Maschinenhausgasse 1, 9170 Ferlach", "street": "Maschinenhausgasse", "housenumber": "1", "postcode": "9170", "place": "Ferlach", "lat": 46.5274467, "lon": 14.3003814, "tags": {"addr:city": "Ferlach", "addr:housenumber": "1", "addr:postcode": "9170", "addr:street": "Maschinenhausgasse"}, "content": "Adresse: Maschinenhausgasse 1, 9170 Ferlach\nOrt: Ferlach\nPLZ: 9170\nKoordinaten: 46.527447, 14.300381", "doc_type": "addresses"}
{"source": "OSM", "region": "Kärnten", "osm_type": "node", "osm_id": 5252972884, "name": null, "category": null, "address": "Freibacher Straße 22, 9170 Ferlach", "street": "Freibacher Straße", "housenumber": "22", "postcode": "9170", "place": "Ferlach", "lat": 46.529166, "lon": 14.3015773, "tags": {"addr:city": "Ferlach", "addr:housenumber": "22", "addr:postcode": "9170", "addr:street": "Freibacher Straße"}, "content": "Adresse: Freibacher Straße 22, 9170 Ferlach\nOrt: Ferlach\nPLZ: 9170\nKoordinaten: 46.529166, 14.301577", "doc_type": "addresses"}
{"source": "OSM", "region": "Kärnten", "osm_type": "node", "osm_id": 5252973835, "name": null, "category": null, "address": "Drei-Lärchen-Weg 27, 9170 Ferlach", "street": "Drei-Lärchen-Weg", "housenumber": "27", "postcode": "9170", "place": "Ferlach", "lat": 46.520595, "lon": 14.3100673, "tags": {"addr:city": "Ferlach", "addr:housenumber": "27", "addr:postcode": "9170", "addr:street": "Drei-Lärchen-Weg"}, "content": "Adresse: Drei-Lärchen-Weg 27, 9170 Ferlach\nOrt: Ferlach\nPLZ: 9170\nKoordinaten: 46.520595, 14.310067", "doc_type": "addresses"}
{"source": "OSM", "region": "Kärnten", "osm_type": "node", "osm_id": 5252973836, "name": null, "category": null, "address": "Drei-Lärchen-Weg 21, 9170 Ferlach", "street": "Drei-Lärchen-Weg", "housenumber": "21", "postcode": "9170", "place": "Ferlach", "lat": 46.5206749, "lon": 14.3088264, "tags": {"addr:city": "Ferlach", "addr:housenumber": "21", "addr:postcode": "9170", "addr:street": "Drei-Lärchen-Weg"}, "content": "Adresse: Drei-Lärchen-Weg 21, 9170 Ferlach\nOrt: Ferlach\nPLZ: 9170\nKoordinaten: 46.520675, 14.308826", "doc_type": "addresses"}
{"source": "OSM", "region": "Kärnten", "osm_type": "node", "osm_id": 5252973841, "name": null, "category": null, "address": "Drei-Lärchen-Weg 15, 9170 Ferlach", "street": "Drei-Lärchen-Weg", "housenumber": "15", "postcode": "9170", "place": "Ferlach", "lat": 46.5208511, "lon": 14.3072686, "tags": {"addr:city": "Ferlach", "addr:housenumber": "15", "addr:postcode": "9170", "addr:street": "Drei-Lärchen-Weg"}, "content": "Adresse: Drei-Lärchen-Weg 15, 9170 Ferlach\nOrt: Ferlach\nPLZ: 9170\nKoordinaten: 46.520851, 14.307269", "doc_type": "addresses"}
{"source": "OSM", "region": "Kärnten", "osm_type": "node", "osm_id": 5252973842, "name": null, "category": null, "address": "Drei-Lärchen-Weg 13, 9170 Ferlach", "street": "Drei-Lärchen-Weg", "housenumber": "13", "postcode": "9170", "place": "Ferlach", "lat": 46.5209293, "lon": 14.306796, "tags": {"addr:city": "Ferlach", "addr:housenumber": "13", "addr:postcode": "9170", "addr:street": "Drei-Lärchen-Weg"}, "content": "Adresse: Drei-Lärchen-Weg 13, 9170 Ferlach\nOrt: Ferlach\nPLZ: 9170\nKoordinaten: 46.520929, 14.306796", "doc_type": "addresses"}
{"source": "OSM", "region": "Kärnten", "osm_type": "node", "osm_id": 5252973852, "name": null, "category": null, "address": "Waldweg 15, 9170 Ferlach", "street": "Waldweg", "housenumber": "15", "postcode": "9170", "place": "Ferlach", "lat": 46.5258406, "lon": 14.2926778, "tags": {"addr:city": "Ferlach", "addr:housenumber": "15", "addr:postcode": "9170", "addr:street": "Waldweg"}, "content": "Adresse: Waldweg 15, 9170 Ferlach\nOrt: Ferlach\nPLZ: 9170\nKoordinaten: 46.525841, 14.292678", "doc_type": "addresses"}
{"source": "OSM", "region": "Kärnten", "osm_type": "node", "osm_id": 5252973853, "name": null, "category": null, "address": "Waldweg 13, 9170 Ferlach", "street": "Waldweg", "housenumber": "13", "postcode": "9170", "place": "Ferlach", "lat": 46.5257978, "lon": 14.2925296, "tags": {"addr:city": "Ferlach", "addr:housenumber": "13", "addr:postcode": "9170", "addr:street": "Waldweg"}, "content": "Adresse: Waldweg 13, 9170 Ferlach\nOrt: Ferlach\nPLZ: 9170\nKoordinaten: 46.525798, 14.292530", "doc_type": "addresses"}
{"source": "OSM", "region": "Kärnten", "osm_type": "node", "osm_id": 5252973854, "name": null, "category": null, "address": "Dobrovagasse 8, 9170 Ferlach", "street": "Dobrovagasse", "housenumber": "8", "postcode": "9170", "place": "Ferlach", "lat": 46.5266638, "lon": 14.2902823, "tags": {"addr:city": "Ferlach", "addr:housenumber": "8", "addr:postcode": "9170", "addr:street": "Dobrovagasse"}, "content": "Adresse: Dobrovagasse 8, 9170 Ferlach\nOrt: Ferlach\nPLZ: 9170\nKoordinaten: 46.526664, 14.290282", "doc_type": "addresses"}
{"source": "OSM", "region": "Kärnten", "osm_type": "node", "osm_id": 5252973856, "name": null, "category": null, "address": "Waldstraße 14, 9170 Ferlach", "street": "Waldstraße", "housenumber": "14", "postcode": "9170", "place": "Ferlach", "lat": 46.5279855, "lon": 14.2890416, "tags": {"addr:city": "Ferlach", "addr:housenumber": "14", "addr:postcode": "9170", "addr:street": "Waldstraße"}, "content": "Adresse: Waldstraße 14, 9170 Ferlach\nOrt: Ferlach\nPLZ: 9170\nKoordinaten: 46.527985, 14.289042", "doc_type": "addresses"}
{"source": "OSM", "region": "Kärnten", "osm_type": "node", "osm_id": 5252973857, "name": null, "category": null, "address": "Klagenfurter Straße 52, 9170 Ferlach", "street": "Klagenfurter Straße", "housenumber": "52", "postcode": "9170", "place": "Ferlach", "lat": 46.5298841, "lon": 14.2887145, "tags": {"addr:city": "Ferlach", "addr:housenumber": "52", "addr:postcode": "9170", "addr:street": "Klagenfurter Straße"}, "content": "Adresse: Klagenfurter Straße 52, 9170 Ferlach\nOrt: Ferlach\nPLZ: 9170\nKoordinaten: 46.529884, 14.288714", "doc_type": "addresses"}
{"source": "OSM", "region": "Kärnten", "osm_type": "node", "osm_id": 5253631920, "name": null, "category": null, "address": "113, 9170 Ferlach", "street": null, "housenumber": "113", "postcode": "9170", "place": "Ferlach", "lat": 46.5358038, "lon": 14.3117688, "tags": {"addr:city": "Ferlach", "addr:housenumber": "113", "addr:place": "Unterferlach", "addr:postcode": "9170"}, "content": "Adresse: 113, 9170 Ferlach\nOrt: Ferlach\nPLZ: 9170\nKoordinaten: 46.535804, 14.311769", "doc_type": "addresses"}
{"source": "OSM", "region": "Kärnten", "osm_type": "node", "osm_id": 5256237028, "name": null, "category": null, "address": "2, 9162 Ferlach", "street": null, "housenumber": "2", "postcode": "9162", "place": "Ferlach", "lat": 46.5289442, "lon": 14.2526976, "tags": {"addr:city": "Ferlach", "addr:housenumber": "2", "addr:place": "Dornach", "addr:postcode": "9162"}, "content": "Adresse: 2, 9162 Ferlach\nOrt: Ferlach\nPLZ: 9162\nKoordinaten: 46.528944, 14.252698", "doc_type": "addresses"}
{"source": "OSM", "region": "Kärnten", "osm_type": "node", "osm_id": 5256237029, "name": null, "category": null, "address": "44, 9162 Ferlach", "street": null, "housenumber": "44", "postcode": "9162", "place": "Ferlach", "lat": 46.529306, "lon": 14.2558153, "tags": {"addr:city": "Ferlach", "addr:housenumber": "44", "addr:place": "Dornach", "addr:postcode": "9162"}, "content": "Adresse: 44, 9162 Ferlach\nOrt: Ferlach\nPLZ: 9162\nKoordinaten: 46.529306, 14.255815", "doc_type": "addresses"}
{"source": "OSM", "region": "Kärnten", "osm_type": "node", "osm_id": 5256237030, "name": null, "category": null, "address": "43, 9162 Ferlach", "street": null, "housenumber": "43", "postcode": "9162", "place": "Ferlach", "lat": 46.5290202, "lon": 14.2562859, "tags": {"addr:city": "Ferlach", "addr:housenumber": "43", "addr:place": "Dornach", "addr:postcode": "9162"}, "content": "Adresse: 43, 9162 Ferlach\nOrt: Ferlach\nPLZ: 9162\nKoordinaten: 46.529020, 14.256286", "doc_type": "addresses"}
{"source": "OSM", "region": "Kärnten", "osm_type": "node", "osm_id": 5256237031, "name": null, "category": null, "address": "23, 9162 Ferlach", "street": null, "housenumber": "23", "postcode": "9162", "place": "Ferlach", "lat": 46.5277331, "lon": 14.2571765, "tags": {"addr:city": "Ferlach", "addr:housenumber": "23", "addr:place": "Dornach", "addr:postcode": "9162"}, "content": "Adresse: 23, 9162 Ferlach\nOrt: Ferlach\nPLZ: 9162\nKoordinaten: 46.527733, 14.257176", "doc_type": "addresses"}
{"source": "OSM", "region": "Kärnten", "osm_type": "node", "osm_id": 5256630407, "name": null, "category": null, "address": "87, 9162 Ferlach", "street": null, "housenumber": "87", "postcode": "9162", "place": "Ferlach", "lat": 46.5381461, "lon": 14.2478009, "tags": {"addr:city": "Ferlach", "addr:housenumber": "87", "addr:place": "Kappel an der Drau", "addr:postcode": "9162"}, "content": "Adresse: 87, 9162 Ferlach\nOrt: Ferlach\nPLZ: 9162\nKoordinaten: 46.538146, 14.247801", "doc_type": "addresses"}
{"source": "OSM", "region": "Kärnten", "osm_type": "node", "osm_id": 5256630408, "name": null, "category": null, "address": "44, 9162 Ferlach", "street": null, "housenumber": "44", "postcode": "9162", "place": "Ferlach", "lat": 46.5381123, "lon": 14.2479484, "tags": {"addr:city": "Ferlach", "addr:housenumber": "44", "addr:place": "Kappel an der Drau", "addr:postcode": "9162"}, "content": "Adresse: 44, 9162 Ferlach\nOrt: Ferlach\nPLZ: 9162\nKoordinaten: 46.538112, 14.247948", "doc_type": "addresses"}
{"source": "OSM", "region": "Kärnten", "osm_type": "node", "osm_id": 5256630468, "name": null, "category": null, "address": "31, 9162 Ferlach", "street": null, "housenumber": "31", "postcode": "9162", "place": "Ferlach", "lat": 46.5403406, "lon": 14.2443067, "tags": {"addr:city": "Ferlach", "addr:housenumber": "31", "addr:place": "Kappel an der Drau", "addr:postcode": "9162"}, "content": "Adresse: 31, 9162 Ferlach\nOrt: Ferlach\nPLZ: 9162\nKoordinaten: 46.540341, 14.244307", "doc_type": "addresses"}
{"source": "OSM", "region": "Kärnten", "osm_type": "node", "osm_id": 5257403813, "name": null, "category": null, "address": "Gaston-Glock-Park 1, 9170 Ferlach", "street": "Gaston-Glock-Park", "housenumber": "1", "postcode": "9170", "place": "Ferlach", "lat": 46.5248835, "lon": 14.2993565, "tags": {"addr:city": "Ferlach", "addr:housenumber": "1", "addr:postcode": "9170", "addr:street": "Gaston-Glock-Park"}, "content": "Adresse: Gaston-Glock-Park 1, 9170 Ferlach\nOrt: Ferlach\nPLZ: 9170\nKoordinaten: 46.524884, 14.299357", "doc_type": "addresses"}
{"source": "OSM", "region": "Kärnten", "osm_type": "node", "osm_id": 5257403814, "name": null, "category": null, "address": "Sponheimer Platz 5, 9170 Ferlach", "street": "Sponheimer Platz", "housenumber": "5", "postcode": "9170", "place": "Ferlach", "lat": 46.5247413, "lon": 14.2998631, "tags": {"addr:city": "Ferlach", "addr:housenumber": "5", "addr:postcode": "9170", "addr:street": "Sponheimer Platz"}, "content": "Adresse: Sponheimer Platz 5, 9170 Ferlach\nOrt: Ferlach\nPLZ: 9170\nKoordinaten: 46.524741, 14.299863", "doc_type": "addresses"}
{"source": "OSM", "region": "Kärnten", "osm_type": "node", "osm_id": 5257403815, "name": null, "category": null, "address": "Sponheimer Platz 3, 9170 Ferlach", "street": "Sponheimer Platz", "housenumber": "3", "postcode": "9170", "place": "Ferlach", "lat": 46.5252673, "lon": 14.2996268, "tags": {"addr:city": "Ferlach", "addr:housenumber": "3", "addr:postcode": "9170", "addr:street": "Sponheimer Platz"}, "content": "Adresse: Sponheimer Platz 3, 9170 Ferlach\nOrt: Ferlach\nPLZ: 9170\nKoordinaten: 46.525267, 14.299627", "doc_type": "addresses"}
{"source": "OSM", "region": "Kärnten", "osm_type": "node", "osm_id": 5257405134, "name": null, "category": null, "address": "Mühlsteig 7, 9170 Ferlach", "street": "Mühlsteig", "housenumber": "7", "postcode": "9170", "place": "Ferlach", "lat": 46.5229097, "lon": 14.29857, "tags": {"addr:city": "Ferlach", "addr:housenumber": "7", "addr:postcode": "9170", "addr:street": "Mühlsteig"}, "content": "Adresse: Mühlsteig 7, 9170 Ferlach\nOrt: Ferlach\nPLZ: 9170\nKoordinaten: 46.522910, 14.298570", "doc_type": "addresses"}
{"source": "OSM", "region": "Kärnten", "osm_type": "node", "osm_id": 5257405135, "name": null, "category": null, "address": "Mühlsteig 10, 9170 Ferlach", "street": "Mühlsteig", "housenumber": "10", "postcode": "9170", "place": "Ferlach", "lat": 46.5224415, "lon": 14.2980167, "tags": {"addr:city": "Ferlach", "addr:housenumber": "10", "addr:postcode": "9170", "addr:street": "Mühlsteig"}, "content": "Adresse: Mühlsteig 10, 9170 Ferlach\nOrt: Ferlach\nPLZ: 9170\nKoordinaten: 46.522441, 14.298017", "doc_type": "addresses"}
{"source": "OSM", "region": "Kärnten", "osm_type": "node", "osm_id": 5257405136, "name": null, "category": null, "address": "Gablerweg 6, 9170 Ferlach", "street": "Gablerweg", "housenumber": "6", "postcode": "9170", "place": "Ferlach", "lat": 46.5232763, "lon": 14.2994309, "tags": {"addr:city": "Ferlach", "addr:housenumber": "6", "addr:postcode": "9170", "addr:street": "Gablerweg"}, "content": "Adresse: Gablerweg 6, 9170 Ferlach\nOrt: Ferlach\nPLZ: 9170\nKoordinaten: 46.523276, 14.299431", "doc_type": "addresses"}
{"source": "OSM", "region": "Kärnten", "osm_type": "node", "osm_id": 5257405137, "name": null, "category": null, "address": "Mühlsteig 3, 9170 Ferlach", "street": "Mühlsteig", "housenumber": "3", "postcode": "9170", "place": "Ferlach", "lat": 46.5233479, "lon": 14.2991562, "tags": {"addr:city": "Ferlach", "addr:housenumber": "3", "addr:postcode": "9170", "addr:street": "Mühlsteig"}, "content": "Adresse: Mühlsteig 3, 9170 Ferlach\nOrt: Ferlach\nPLZ: 9170\nKoordinaten: 46.523348, 14.299156", "doc_type": "addresses"}
{"source": "OSM", "region": "Kärnten", "osm_type": "node", "osm_id": 5257405138, "name": null, "category": null, "address": "Loiblstraße 22, 9170 Ferlach", "street": "Loiblstraße", "housenumber": "22", "postcode": "9170", "place": "Ferlach", "lat": 46.5211698, "lon": 14.2974382, "tags": {"addr:city": "Ferlach", "addr:housenumber": "22", "addr:postcode": "9170", "addr:street": "Loiblstraße"}, "content": "Adresse: Loiblstraße 22, 9170 Ferlach\nOrt: Ferlach\nPLZ: 9170\nKoordinaten: 46.521170, 14.297438", "doc_type": "addresses"}
{"source": "OSM", "region": "Kärnten", "osm_type": "node", "osm_id": 5257405139, "name": null, "category": null, "address": "Auengasse 5, 9170 Ferlach", "street": "Auengasse", "housenumber": "5", "postcode": "9170", "place": "Ferlach", "lat": 46.5195337, "lon": 14.2969458, "tags": {"addr:city": "Ferlach", "addr:housenumber": "5", "addr:postcode": "9170", "addr:street": "Auengasse"}, "content": "Adresse: Auengasse 5, 9170 Ferlach\nOrt: Ferlach\nPLZ: 9170\nKoordinaten: 46.519534, 14.296946", "doc_type": "addresses"}
{"source": "OSM", "region": "Kärnten", "osm_type": "node", "osm_id": 5257405155, "name": null, "category": null, "address": "Kindergartengasse 12, 9170 Ferlach", "street": "Kindergartengasse", "housenumber": "12", "postcode": "9170", "place": "Ferlach", "lat": 46.5262239, "lon": 14.3059389, "tags": {"addr:city": "Ferlach", "addr:housenumber": "12", "addr:postcode": "9170", "addr:street": "Kindergartengasse"}, "content": "Adresse: Kindergartengasse 12, 9170 Ferlach\nOrt: Ferlach\nPLZ: 9170\nKoordinaten: 46.526224, 14.305939", "doc_type": "addresses"}
{"source": "OSM", "region": "Kärnten", "osm_type": "node", "osm_id": 5257405158, "name": null, "category": null, "address": "Sechterweg 3, 9170 Ferlach", "street": "Sechterweg", "housenumber": "3", "postcode": "9170", "place": "Ferlach", "lat": 46.5240986, "lon": 14.3142937, "tags": {"addr:city": "Ferlach", "addr:housenumber": "3", "addr:postcode": "9170", "addr:street": "Sechterweg"}, "content": "Adresse: Sechterweg 3, 9170 Ferlach\nOrt: Ferlach\nPLZ: 9170\nKoordinaten: 46.524099, 14.314294", "doc_type": "addresses"}
{"source": "OSM", "region": "Kärnten", "osm_type": "node", "osm_id": 5280826860, "name": null, "category": null, "address": "1, 9170 Ferlach", "street": null, "housenumber": "1", "postcode": "9170", "place": "Ferlach", "lat": 46.5336448, "lon": 14.2811596, "tags": {"addr:city": "Ferlach", "addr:housenumber": "1", "addr:place": "Görtschach", "addr:postcode": "9170"}, "content": "Adresse: 1, 9170 Ferlach\nOrt: Ferlach\nPLZ: 9170\nKoordinaten: 46.533645, 14.281160", "doc_type": "addresses"}
{"source": "OSM", "region": "Kärnten", "osm_type": "node", "osm_id": 5280826861, "name": null, "category": null, "address": "2, 9170 Ferlach", "street": null, "housenumber": "2", "postcode": "9170", "place": "Ferlach", "lat": 46.533659, "lon": 14.2809199, "tags": {"addr:city": "Ferlach", "addr:housenumber": "2", "addr:place": "Görtschach", "addr:postcode": "9170"}, "content": "Adresse: 2, 9170 Ferlach\nOrt: Ferlach\nPLZ: 9170\nKoordinaten: 46.533659, 14.280920", "doc_type": "addresses"}
{"source": "OSM", "region": "Kärnten", "osm_type": "node", "osm_id": 5288474905, "name": null, "category": null, "address": "99, 9170 Ferlach", "street": null, "housenumber": "99", "postcode": "9170", "place": "Ferlach", "lat": 46.5417652, "lon": 14.2963549, "tags": {"addr:city": "Ferlach", "addr:housenumber": "99", "addr:place": "Reßnig", "addr:postcode": "9170"}, "content": "Adresse: 99, 9170 Ferlach\nOrt: Ferlach\nPLZ: 9170\nKoordinaten: 46.541765, 14.296355", "doc_type": "addresses"}
{"source": "OSM", "region": "Kärnten", "osm_type": "node", "osm_id": 5288725341, "name": null, "category": null, "address": "Schaidaweg 1, 9170 Ferlach", "street": "Schaidaweg", "housenumber": "1", "postcode": "9170", "place": "Ferlach", "lat": 46.5221809, "lon": 14.3027029, "tags": {"addr:city": "Ferlach", "addr:housenumber": "1", "addr:postcode": "9170", "addr:street": "Schaidaweg"}, "content": "Adresse: Schaidaweg 1, 9170 Ferlach\nOrt: Ferlach\nPLZ: 9170\nKoordinaten: 46.522181, 14.302703", "doc_type": "addresses"}
{"source": "OSM", "region": "Kärnten", "osm_type": "node", "osm_id": 5288725371, "name": null, "category": null, "address": "Auengasse 10, 9170 Ferlach", "street": "Auengasse", "housenumber": "10", "postcode": "9170", "place": "Ferlach", "lat": 46.5183679, "lon": 14.2950773, "tags": {"addr:city": "Ferlach", "addr:housenumber": "10", "addr:postcode": "9170", "addr:street": "Auengasse"}, "content": "Adresse: Auengasse 10, 9170 Ferlach\nOrt: Ferlach\nPLZ: 9170\nKoordinaten: 46.518368, 14.295077", "doc_type": "addresses"}
{"source": "OSM", "region": "Kärnten", "osm_type": "node", "osm_id": 5288725372, "name": null, "category": null, "address": "Mühlsteig 4, 9170 Ferlach", "street": "Mühlsteig", "housenumber": "4", "postcode": "9170", "place": "Ferlach", "lat": 46.5239241, "lon": 14.2993201, "tags": {"addr:city": "Ferlach", "addr:housenumber": "4", "addr:postcode": "9170", "addr:street": "Mühlsteig"}, "content": "Adresse: Mühlsteig 4, 9170 Ferlach\nOrt: Ferlach\nPLZ: 9170\nKoordinaten: 46.523924, 14.299320", "doc_type": "addresses"}
{"source": "OSM", "region": "Kärnten", "osm_type": "node", "osm_id": 5288725373, "name": null, "category": null, "address": "Gartengasse 10, 9170 Ferlach", "street": "Gartengasse", "housenumber": "10", "postcode": "9170", "place": "Ferlach", "lat": 46.5282397, "lon": 14.3035786, "tags": {"addr:city": "Ferlach", "addr:housenumber": "10", "addr:postcode": "9170", "addr:street": "Gartengasse"}, "content": "Adresse: Gartengasse 10, 9170 Ferlach\nOrt: Ferlach\nPLZ: 9170\nKoordinaten: 46.528240, 14.303579", "doc_type": "addresses"}
{"source": "OSM", "region": "Kärnten", "osm_type": "node", "osm_id": 5288725374, "name": null, "category": null, "address": "Neubaugasse 7, 9170 Ferlach", "street": "Neubaugasse", "housenumber": "7", "postcode": "9170", "place": "Ferlach", "lat": 46.528251, "lon": 14.3043838, "tags": {"addr:city": "Ferlach", "addr:housenumber": "7", "addr:postcode": "9170", "addr:street": "Neubaugasse"}, "content": "Adresse: Neubaugasse 7, 9170 Ferlach\nOrt: Ferlach\nPLZ: 9170\nKoordinaten: 46.528251, 14.304384", "doc_type": "addresses"}
{"source": "OSM", "region": "Kärnten", "osm_type": "node", "osm_id": 5293483802, "name": null, "category": null, "address": "5, 9170 Ferlach", "street": null, "housenumber": "5", "postcode": "9170", "place": "Ferlach", "lat": 46.5388795, "lon": 14.3466882, "tags": {"addr:city": "Ferlach", "addr:housenumber": "5", "addr:place": "Dörfl", "addr:postcode": "9170"}, "content": "Adresse: 5, 9170 Ferlach\nOrt: Ferlach\nPLZ: 9170\nKoordinaten: 46.538880, 14.346688", "doc_type": "addresses"}
{"source": "OSM", "region": "Kärnten", "osm_type": "node", "osm_id": 5293483803, "name": null, "category": null, "address": "29, 9170 Ferlach", "street": null, "housenumber": "29", "postcode": "9170", "place": "Ferlach", "lat": 46.5422747, "lon": 14.3369735, "tags": {"addr:city": "Ferlach", "addr:housenumber": "29", "addr:place": "Glainach", "addr:postcode": "9170"}, "content": "Adresse: 29, 9170 Ferlach\nOrt: Ferlach\nPLZ: 9170\nKoordinaten: 46.542275, 14.336973", "doc_type": "addresses"}
{"source": "OSM", "region": "Kärnten", "osm_type": "node", "osm_id": 5296279104, "name": null, "category": null, "address": "Markitzweg 20, 9170 Ferlach", "street": "Markitzweg", "housenumber": "20", "postcode": "9170", "place": "Ferlach", "lat": 46.5280321, "lon": 14.3058182, "tags": {"addr:city": "Ferlach", "addr:housenumber": "20", "addr:postcode": "9170", "addr:street": "Markitzweg"}, "content": "Adresse: Markitzweg 20, 9170 Ferlach\nOrt: Ferlach\nPLZ: 9170\nKoordinaten: 46.528032, 14.305818", "doc_type": "addresses"}
{"source": "OSM", "region": "Kärnten", "osm_type": "node", "osm_id": 5297524046, "name": null, "category": null, "address": "56, 9163 Ferlach", "street": null, "housenumber": "56", "postcode": "9163", "place": "Ferlach", "lat": 46.5169342, "lon": 14.2847408, "tags": {"addr:city": "Ferlach", "addr:housenumber": "56", "addr:place": "Unterbergen", "addr:postcode": "9163"}, "content": "Adresse: 56, 9163 Ferlach\nOrt: Ferlach\nPLZ: 9163\nKoordinaten: 46.516934, 14.284741", "doc_type": "addresses"}
{"source": "OSM", "region": "Kärnten", "osm_type": "node", "osm_id": 5297524047, "name": null, "category": null, "address": "63, 9163 Ferlach", "street": null, "housenumber": "63", "postcode": "9163", "place": "Ferlach", "lat": 46.5180596, "lon": 14.2843393, "tags": {"addr:city": "Ferlach", "addr:housenumber": "63", "addr:place": "Unterbergen", "addr:postcode": "9163"}, "content": "Adresse: 63, 9163 Ferlach\nOrt: Ferlach\nPLZ: 9163\nKoordinaten: 46.518060, 14.284339", "doc_type": "addresses"}
{"source": "OSM", "region": "Kärnten", "osm_type": "node", "osm_id": 5298030508, "name": null, "category": null, "address": "46, 9163 Ferlach", "street": null, "housenumber": "46", "postcode": "9163", "place": "Ferlach", "lat": 46.508011, "lon": 14.2879933, "tags": {"addr:city": "Ferlach", "addr:housenumber": "46", "addr:place": "Unterloibl", "addr:postcode": "9163"}, "content": "Adresse: 46, 9163 Ferlach\nOrt: Ferlach\nPLZ: 9163\nKoordinaten: 46.508011, 14.287993", "doc_type": "addresses"}
{"source": "OSM", "region": "Kärnten", "osm_type": "node", "osm_id": 5298030509, "name": null, "category": null, "address": "41, 9163 Ferlach", "street": null, "housenumber": "41", "postcode": "9163", "place": "Ferlach", "lat": 46.5080876, "lon": 14.2880416, "tags": {"addr:city": "Ferlach", "addr:housenumber": "41", "addr:place": "Unterloibl", "addr:postcode": "9163"}, "content": "Adresse: 41, 9163 Ferlach\nOrt: Ferlach\nPLZ: 9163\nKoordinaten: 46.508088, 14.288042", "doc_type": "addresses"}
{"source": "OSM", "region": "Kärnten", "osm_type": "node", "osm_id": 5298040178, "name": null, "category": null, "address": "66, 9163 Ferlach", "street": null, "housenumber": "66", "postcode": "9163", "place": "Ferlach", "lat": 46.5257702, "lon": 14.2819635, "tags": {"addr:city": "Ferlach", "addr:housenumber": "66", "addr:place": "Unterbergen", "addr:postcode": "9163"}, "content": "Adresse: 66, 9163 Ferlach\nOrt: Ferlach\nPLZ: 9163\nKoordinaten: 46.525770, 14.281963", "doc_type": "addresses"}
{"source": "OSM", "region": "Kärnten", "osm_type": "node", "osm_id": 5298316357, "name": null, "category": null, "address": "40, 9163 Ferlach", "street": null, "housenumber": "40", "postcode": "9163", "place": "Ferlach", "lat": 46.5048791, "lon": 14.2884847, "tags": {"addr:city": "Ferlach", "addr:housenumber": "40", "addr:place": "Unterloibl", "addr:postcode": "9163"}, "content": "Adresse: 40, 9163 Ferlach\nOrt: Ferlach\nPLZ: 9163\nKoordinaten: 46.504879, 14.288485", "doc_type": "addresses"}
{"source": "OSM", "region": "Kärnten", "osm_type": "node", "osm_id": 5298316358, "name": null, "category": null, "address": "15, 9163 Ferlach", "street": null, "housenumber": "15", "postcode": "9163", "place": "Ferlach", "lat": 46.5048928, "lon": 14.2884359, "tags": {"addr:city": "Ferlach", "addr:housenumber": "15", "addr:place": "Unterloibl", "addr:postcode": "9163"}, "content": "Adresse: 15, 9163 Ferlach\nOrt: Ferlach\nPLZ: 9163\nKoordinaten: 46.504893, 14.288436", "doc_type": "addresses"}
{"source": "OSM", "region": "Kärnten", "osm_type": "node", "osm_id": 5298316454, "name": null, "category": null, "address": "45, 9163 Ferlach", "street": null, "housenumber": "45", "postcode": "9163", "place": "Ferlach", "lat": 46.5062426, "lon": 14.2885176, "tags": {"addr:city": "Ferlach", "addr:housenumber": "45", "addr:place": "Unterloibl", "addr:postcode": "9163"}, "content": "Adresse: 45, 9163 Ferlach\nOrt: Ferlach\nPLZ: 9163\nKoordinaten: 46.506243, 14.288518", "doc_type": "addresses"}
{"source": "OSM", "region": "Kärnten", "osm_type": "node", "osm_id": 5438021835, "name": null, "category": null, "address": "12, 9170 Ferlach", "street": null, "housenumber": "12", "postcode": "9170", "place": "Ferlach", "lat": 46.4991271, "lon": 14.3456896, "tags": {"addr:city": "Ferlach", "addr:housenumber": "12", "addr:place": "Waidisch", "addr:postcode": "9170"}, "content": "Adresse: 12, 9170 Ferlach\nOrt: Ferlach\nPLZ: 9170\nKoordinaten: 46.499127, 14.345690", "doc_type": "addresses"}
{"source": "OSM", "region": "Kärnten", "osm_type": "node", "osm_id": 5438021836, "name": null, "category": null, "address": "13, 9170 Ferlach", "street": null, "housenumber": "13", "postcode": "9170", "place": "Ferlach", "lat": 46.499236, "lon": 14.3455877, "tags": {"addr:city": "Ferlach", "addr:housenumber": "13", "addr:place": "Waidisch", "addr:postcode": "9170"}, "content": "Adresse: 13, 9170 Ferlach\nOrt: Ferlach\nPLZ: 9170\nKoordinaten: 46.499236, 14.345588", "doc_type": "addresses"}
{"source": "OSM", "region": "Kärnten", "osm_type": "node", "osm_id": 5489623965, "name": null, "category": null, "address": "39, 9163 Ferlach", "street": null, "housenumber": "39", "postcode": "9163", "place": "Ferlach", "lat": 46.5172872, "lon": 14.2829345, "tags": {"addr:city": "Ferlach", "addr:housenumber": "39", "addr:place": "Unterbergen", "addr:postcode": "9163"}, "content": "Adresse: 39, 9163 Ferlach\nOrt: Ferlach\nPLZ: 9163\nKoordinaten: 46.517287, 14.282934", "doc_type": "addresses"}
{"source": "OSM", "region": "Kärnten", "osm_type": "node", "osm_id": 5489623974, "name": null, "category": null, "address": "41, 9170 Ferlach", "street": null, "housenumber": "41", "postcode": "9170", "place": "Ferlach", "lat": 46.487469, "lon": 14.3508796, "tags": {"addr:city": "Ferlach", "addr:housenumber": "41", "addr:place": "Waidisch", "addr:postcode": "9170"}, "content": "Adresse: 41, 9170 Ferlach\nOrt: Ferlach\nPLZ: 9170\nKoordinaten: 46.487469, 14.350880", "doc_type": "addresses"}
{"source": "OSM", "region": "Kärnten", "osm_type": "node", "osm_id": 5489624011, "name": null, "category": null, "address": "39, 9170 Ferlach", "street": null, "housenumber": "39", "postcode": "9170", "place": "Ferlach", "lat": 46.485095, "lon": 14.3506537, "tags": {"addr:city": "Ferlach", "addr:housenumber": "39", "addr:place": "Waidisch", "addr:postcode": "9170"}, "content": "Adresse: 39, 9170 Ferlach\nOrt: Ferlach\nPLZ: 9170\nKoordinaten: 46.485095, 14.350654", "doc_type": "addresses"}
{"source": "OSM", "region": "Kärnten", "osm_type": "node", "osm_id": 5489624077, "name": null, "category": null, "address": "2, 9170 Ferlach", "street": null, "housenumber": "2", "postcode": "9170", "place": "Ferlach", "lat": 46.5203423, "lon": 14.3428275, "tags": {"addr:city": "Ferlach", "addr:housenumber": "2", "addr:place": "Rauth", "addr:postcode": "9170"}, "content": "Adresse: 2, 9170 Ferlach\nOrt: Ferlach\nPLZ: 9170\nKoordinaten: 46.520342, 14.342828", "doc_type": "addresses"}
{"source": "OSM", "region": "Kärnten", "osm_type": "node", "osm_id": 5489624080, "name": null, "category": null, "address": "7, 9170 Ferlach", "street": null, "housenumber": "7", "postcode": "9170", "place": "Ferlach", "lat": 46.5261167, "lon": 14.3552129, "tags": {"addr:city": "Ferlach", "addr:housenumber": "7", "addr:place": "Rauth", "addr:postcode": "9170"}, "content": "Adresse: 7, 9170 Ferlach\nOrt: Ferlach\nPLZ: 9170\nKoordinaten: 46.526117, 14.355213", "doc_type": "addresses"}
{"source": "OSM", "region": "Kärnten", "osm_type": "node", "osm_id": 5489673559, "name": null, "category": null, "address": "168, 9163 Ferlach", "street": null, "housenumber": "168", "postcode": "9163", "place": "Ferlach", "lat": 46.4798052, "lon": 14.2306359, "tags": {"addr:city": "Ferlach", "addr:housenumber": "168", "addr:place": "Bodental", "addr:postcode": "9163"}, "content": "Adresse: 168, 9163 Ferlach\nOrt: Ferlach\nPLZ: 9163\nKoordinaten: 46.479805, 14.230636", "doc_type": "addresses"}
{"source": "OSM", "region": "Kärnten", "osm_type": "node", "osm_id": 5489673564, "name": null, "category": null, "address": "171, 9163 Ferlach", "street": null, "housenumber": "171", "postcode": "9163", "place": "Ferlach", "lat": 46.4801751, "lon": 14.2301906, "tags": {"addr:city": "Ferlach", "addr:housenumber": "171", "addr:place": "Bodental", "addr:postcode": "9163"}, "content": "Adresse: 171, 9163 Ferlach\nOrt: Ferlach\nPLZ: 9163\nKoordinaten: 46.480175, 14.230191", "doc_type": "addresses"}
{"source": "OSM", "region": "Kärnten", "osm_type": "node", "osm_id": 5492240679, "name": null, "category": null, "address": "59, 9163 Ferlach", "street": null, "housenumber": "59", "postcode": "9163", "place": "Ferlach", "lat": 46.5176919, "lon": 14.2840984, "tags": {"addr:city": "Ferlach", "addr:housenumber": "59", "addr:place": "Unterbergen", "addr:postcode": "9163"}, "content": "Adresse: 59, 9163 Ferlach\nOrt: Ferlach\nPLZ: 9163\nKoordinaten: 46.517692, 14.284098", "doc_type": "addresses"}
{"source": "OSM", "region": "Kärnten", "osm_type": "node", "osm_id": 5492240690, "name": null, "category": null, "address": "14, 9170 Ferlach", "street": null, "housenumber": "14", "postcode": "9170", "place": "Ferlach", "lat": 46.5090286, "lon": 14.3336496, "tags": {"addr:city": "Ferlach", "addr:housenumber": "14", "addr:place": "Waidisch", "addr:postcode": "9170"}, "content": "Adresse: 14, 9170 Ferlach\nOrt: Ferlach\nPLZ: 9170\nKoordinaten: 46.509029, 14.333650", "doc_type": "addresses"}
{"source": "OSM", "region": "Kärnten", "osm_type": "node", "osm_id": 5492240764, "name": null, "category": null, "address": "20, 9170 Ferlach", "street": null, "housenumber": "20", "postcode": "9170", "place": "Ferlach", "lat": 46.5032363, "lon": 14.3411421, "tags": {"addr:city": "Ferlach", "addr:housenumber": "20", "addr:place": "Waidisch", "addr:postcode": "9170"}, "content": "Adresse: 20, 9170 Ferlach\nOrt: Ferlach\nPLZ: 9170\nKoordinaten: 46.503236, 14.341142", "doc_type": "addresses"}
{"source": "OSM", "region": "Kärnten", "osm_type": "node", "osm_id": 5492240765, "name": null, "category": null, "address": "51, 9170 Ferlach", "street": null, "housenumber": "51", "postcode": "9170", "place": "Ferlach", "lat": 46.4836014, "lon": 14.3651414, "tags": {"addr:city": "Ferlach", "addr:housenumber": "51", "addr:place": "Waidisch", "addr:postcode": "9170"}, "content": "Adresse: 51, 9170 Ferlach\nOrt: Ferlach\nPLZ: 9170\nKoordinaten: 46.483601, 14.365141", "doc_type": "addresses"}
{"source": "OSM", "region": "Kärnten", "osm_type": "node", "osm_id": 5494984651, "name": null, "category": null, "address": "209, 9163 Ferlach", "street": null, "housenumber": "209", "postcode": "9163", "place": "Ferlach", "lat": 46.4771641, "lon": 14.2153859, "tags": {"addr:city": "Ferlach", "addr:housenumber": "209", "addr:place": "Bodental", "addr:postcode": "9163"}, "content": "Adresse: 209, 9163 Ferlach\nOrt: Ferlach\nPLZ: 9163\nKoordinaten: 46.477164, 14.215386", "doc_type": "addresses"}
{"source": "OSM", "region": "Kärnten", "osm_type": "node", "osm_id": 5494984866, "name": null, "category": null, "address": "81, 9163 Ferlach", "street": null, "housenumber": "81", "postcode": "9163", "place": "Ferlach", "lat": 46.4733409, "lon": 14.2231189, "tags": {"addr:city": "Ferlach", "addr:housenumber": "81", "addr:place": "Bodental", "addr:postcode": "9163"}, "content": "Adresse: 81, 9163 Ferlach\nOrt: Ferlach\nPLZ: 9163\nKoordinaten: 46.473341, 14.223119", "doc_type": "addresses"}
{"source": "OSM", "region": "Kärnten", "osm_type": "node", "osm_id": 340517790, "name": "Postpartner 9162, Cafe Jause Bioprodukte", "category": "amenity:post_office", "address": "27, 9162 Ferlach", "street": null, "housenumber": "27", "postcode": "9162", "place": "Ferlach", "lat": 46.5392055, "lon": 14.2584346, "tags": {"addr:city": "Ferlach", "addr:housenumber": "27", "addr:place": "Strau", "addr:postcode": "9162", "amenity": "post_office", "name": "Postpartner 9162, Cafe Jause Bioprodukte"}, "content": "Postpartner 9162, Cafe Jause Bioprodukte\nKategorie: amenity:post_office\nAdresse: 27, 9162 Ferlach\nOrt: Ferlach\nPLZ: 9162\nKoordinaten: 46.539206, 14.258435\nTags: amenity=post_office", "doc_type": "pois"}
{"source": "OSM", "region": "Kärnten", "osm_type": "node", "osm_id": 340519694, "name": "9170 Waidisch", "category": "amenity:post_box", "address": "28, 9170 Ferlach", "street": null, "housenumber": "28", "postcode": "9170", "place": "Ferlach", "lat": 46.4993637, "lon": 14.3450502, "tags": {"addr:city": "Ferlach", "addr:housenumber": "28", "addr:place": "Waidisch", "addr:postcode": "9170", "amenity": "post_box", "name": "9170 Waidisch"}, "content": "9170 Waidisch\nKategorie: amenity:post_box\nAdresse: 28, 9170 Ferlach\nOrt: Ferlach\nPLZ: 9170\nKoordinaten: 46.499364, 14.345050\nTags: amenity=post_box", "doc_type": "pois"}
{"source": "OSM", "region": "Kärnten", "osm_type": "node", "osm_id": 565609443, "name": "Gasthof Sereinig", "category": "tourism:guest_house", "address": "40, 9163 Ferlach", "street": null, "housenumber": "40", "postcode": "9163", "place": "Ferlach", "lat": 46.4792838, "lon": 14.2321186, "tags": {"addr:city": "Ferlach", "addr:housenumber": "40", "addr:place": "Bodental", "addr:postcode": "9163", "name": "Gasthof Sereinig", "tourism": "guest_house"}, "content": "Gasthof Sereinig\nKategorie: tourism:guest_house\nAdresse: 40, 9163 Ferlach\nOrt: Ferlach\nPLZ: 9163\nKoordinaten: 46.479284, 14.232119", "doc_type": "pois"}
{"source": "OSM", "region": "Kärnten", "osm_type": "node", "osm_id": 696772601, "name": "Büchsenmacher & Jagdmuseum", "category": "tourism:museum", "address": "Sponheimer Platz 1, 9170 Ferlach", "street": "Sponheimer Platz", "housenumber": "1", "postcode": "9170", "place": "Ferlach", "lat": 46.5255458, "lon": 14.2998624, "tags": {"addr:city": "Ferlach", "addr:housenumber": "1", "addr:postcode": "9170", "addr:street": "Sponheimer Platz", "name": "Büchsenmacher & Jagdmuseum", "tourism": "museum", "website": "http://www.jagdmuseum-ferlach.at"}, "content": "Büchsenmacher & Jagdmuseum\nKategorie: tourism:museum\nAdresse: Sponheimer Platz 1, 9170 Ferlach\nOrt: Ferlach\nPLZ: 9170\nKoordinaten: 46.525546, 14.299862\nTags: website=http://www.jagdmuseum-ferlach.at", "doc_type": "pois"}
{"source": "OSM", "region": "Kärnten", "osm_type": "node", "osm_id": 759303392, "name": "Polizeiinspektion Ferlach", "category": "amenity:police", "address": "Loiblstraße 6, 9170 Ferlach", "street": "Loiblstraße", "housenumber": "6", "postcode": "9170", "place": "Ferlach", "lat": 46.5235936, "lon": 14.3003651, "tags": {"addr:city": "Ferlach", "addr:housenumber": "6", "addr:postcode": "9170", "addr:street": "Loiblstraße", "amenity": "police", "name": "Polizeiinspektion Ferlach", "website": "https://www.polizei.gv.at/ktn/lpd/dst/dienststellen.aspx?org=2F355874596A564D756B513D"}, "content": "Polizeiinspektion Ferlach\nKategorie: amenity:police\nAdresse: Loiblstraße 6, 9170 Ferlach\nOrt: Ferlach\nPLZ: 9170\nKoordinaten: 46.523594, 14.300365\nTags: amenity=police, website=https://www.polizei.gv.at/ktn/lpd/dst/dienststellen.aspx?org=2F355874596A564D756B513D", "doc_type": "pois"}
{"source": "OSM", "region": "Kärnten", "osm_type": "node", "osm_id": 763303871, "name": "Adler Apotheke", "category": "amenity:pharmacy", "address": "9170 Ferlach", "street": null, "housenumber": null, "postcode": "9170", "place": "Ferlach", "lat": 46.5264462, "lon": 14.2993408, "tags": {"addr:city": "Ferlach", "addr:postcode": "9170", "amenity": "pharmacy", "healthcare": "pharmacy", "name": "Adler Apotheke", "website": "https://www.apothekeferlach.at/"}, "content": "Adler Apotheke\nKategorie: amenity:pharmacy\nAdresse: 9170 Ferlach\nOrt: Ferlach\nPLZ: 9170\nKoordinaten: 46.526446, 14.299341\nTags: amenity=pharmacy, healthcare=pharmacy, website=https://www.apothekeferlach.at/", "doc_type": "pois"}
{"source": "OSM", "region": "Kärnten", "osm_type": "node", "osm_id": 763303877, "name": "Posojilnica Bank eGen", "category": "amenity:bank", "address": "Hauptplatz 16, 9170 Ferlach", "street": "Hauptplatz", "housenumber": "16", "postcode": "9170", "place": "Ferlach", "lat": 46.526588, "lon": 14.2990002, "tags": {"addr:city": "Ferlach", "addr:housenumber": "16", "addr:postcode": "9170", "addr:street": "Hauptplatz", "amenity": "bank", "name": "Posojilnica Bank eGen", "phone": "+43 463 512 365", "website": "https://www.poso.at/"}, "content": "Posojilnica Bank eGen\nKategorie: amenity:bank\nAdresse: Hauptplatz 16, 9170 Ferlach\nOrt: Ferlach\nPLZ: 9170\nKoordinaten: 46.526588, 14.299000\nTags: amenity=bank, phone=+43 463 512 365, website=https://www.poso.at/", "doc_type": "pois"}
{"source": "OSM", "region": "Kärnten", "osm_type": "node", "osm_id": 1430456561, "name": "Gasthaus zur Linde", "category": "amenity:restaurant", "address": "28, 9170 Ferlach", "street": null, "housenumber": "28", "postcode": "9170", "place": "Ferlach", "lat": 46.4993529, "lon": 14.3449107, "tags": {"addr:city": "Ferlach", "addr:housenumber": "28", "addr:place": "Waidisch", "addr:postcode": "9170", "amenity": "restaurant", "name": "Gasthaus zur Linde", "operator": "Familie Uschnig"}, "content": "Gasthaus zur Linde\nKategorie: amenity:restaurant\nAdresse: 28, 9170 Ferlach\nOrt: Ferlach\nPLZ: 9170\nKoordinaten: 46.499353, 14.344911\nTags: amenity=restaurant, operator=Familie Uschnig", "doc_type": "pois"}
{"source": "OSM", "region": "Kärnten", "osm_type": "node", "osm_id": 1456302832, "name": "Geco Bar", "category": "amenity:pub", "address": "Freibacher Straße 1, 9170 Ferlach", "street": "Freibacher Straße", "housenumber": "1", "postcode": "9170", "place": "Ferlach", "lat": 46.5276844, "lon": 14.3007103, "tags": {"addr:city": "Ferlach", "addr:housenumber": "1", "addr:postcode": "9170", "addr:street": "Freibacher Straße", "amenity": "pub", "name": "Geco Bar"}, "content": "Geco Bar\nKategorie: amenity:pub\nAdresse: Freibacher Straße 1, 9170 Ferlach\nOrt: Ferlach\nPLZ: 9170\nKoordinaten: 46.527684, 14.300710\nTags: amenity=pub", "doc_type": "pois"}
{"source": "OSM", "region": "Kärnten", "osm_type": "node", "osm_id": 1471844660, "name": "BP", "category": "amenity:fuel", "address": "Klagenfurter Straße 23, 9170 Ferlach", "street": "Klagenfurter Straße", "housenumber": "23", "postcode": "9170", "place": "Ferlach", "lat": 46.5280226, "lon": 14.2918761, "tags": {"addr:city": "Ferlach", "addr:housenumber": "23", "addr:postcode": "9170", "addr:street": "Klagenfurter Straße", "amenity": "fuel", "brand": "BP", "name": "BP", "operator": "Veratschnig Handels Gmbh & Co KG"}, "content": "BP\nKategorie: amenity:fuel\nAdresse: Klagenfurter Straße 23, 9170 Ferlach\nOrt: Ferlach\nPLZ: 9170\nKoordinaten: 46.528023, 14.291876\nTags: amenity=fuel, operator=Veratschnig Handels Gmbh & Co KG, brand=BP", "doc_type": "pois"}
{"source": "OSM", "region": "Kärnten", "osm_type": "node", "osm_id": 1471844667, "name": "Eni", "category": "amenity:fuel", "address": "Klagenfurter Straße 42, 9170 Ferlach", "street": "Klagenfurter Straße", "housenumber": "42", "postcode": "9170", "place": "Ferlach", "lat": 46.5284416, "lon": 14.2913509, "tags": {"addr:city": "Ferlach", "addr:housenumber": "42", "addr:postcode": "9170", "addr:street": "Klagenfurter Straße", "amenity": "fuel", "brand": "Eni", "name": "Eni", "operator": "Kurt Lagler"}, "content": "Eni\nKategorie: amenity:fuel\nAdresse: Klagenfurter Straße 42, 9170 Ferlach\nOrt: Ferlach\nPLZ: 9170\nKoordinaten: 46.528442, 14.291351\nTags: amenity=fuel, operator=Kurt Lagler, brand=Eni", "doc_type": "pois"}
{"source": "OSM", "region": "Kärnten", "osm_type": "node", "osm_id": 1582383978, "name": "Billa", "category": "shop:supermarket", "address": "Klagenfurter Straße 28, 9170 Ferlach", "street": "Klagenfurter Straße", "housenumber": "28", "postcode": "9170", "place": "Ferlach", "lat": 46.528965, "lon": 14.2906109, "tags": {"addr:city": "Ferlach", "addr:housenumber": "28", "addr:postcode": "9170", "addr:street": "Klagenfurter Straße", "brand": "Billa", "name": "Billa", "shop": "supermarket"}, "content": "Billa\nKategorie: shop:supermarket\nAdresse: Klagenfurter Straße 28, 9170 Ferlach\nOrt: Ferlach\nPLZ: 9170\nKoordinaten: 46.528965, 14.290611\nTags: shop=supermarket, brand=Billa", "doc_type": "pois"}
{"source": "OSM", "region": "Kärnten", "osm_type": "node", "osm_id": 3226613461, "name": "Alte Schule Cigan", "category": "amenity:restaurant", "address": "30, 9162 Ferlach", "street": null, "housenumber": "30", "postcode": "9162", "place": "Ferlach", "lat": 46.5332907, "lon": 14.2504588, "tags": {"addr:city": "Ferlach", "addr:housenumber": "30", "addr:place": "Kappel an der Drau", "addr:postcode": "9162", "amenity": "restaurant", "name": "Alte Schule Cigan", "website": "http://www.alteschule.co.at/"}, "content": "Alte Schule Cigan\nKategorie: amenity:restaurant\nAdresse: 30, 9162 Ferlach\nOrt: Ferlach\nPLZ: 9162\nKoordinaten: 46.533291, 14.250459\nTags: amenity=restaurant, website=http://www.alteschule.co.at/", "doc_type": "pois"}
{"source": "OSM", "region": "Kärnten", "osm_type": "node", "osm_id": 3226613462, "name": "Gasthaus Auszeit beim Setz / Ogris", "category": "amenity:restaurant", "address": "13, 9162 Ferlach", "street": null, "housenumber": "13", "postcode": "9162", "place": "Ferlach", "lat": 46.5342649, "lon": 14.2473474, "tags": {"addr:city": "Ferlach", "addr:housenumber": "13", "addr:place": "Kappel an der Drau", "addr:postcode": "9162", "amenity": "restaurant", "name": "Gasthaus Auszeit beim Setz / Ogris", "phone": "+43 699 11491039"}, "content": "Gasthaus Auszeit beim Setz / Ogris\nKategorie: amenity:restaurant\nAdresse: 13, 9162 Ferlach\nOrt: Ferlach\nPLZ: 9162\nKoordinaten: 46.534265, 14.247347\nTags: amenity=restaurant, phone=+43 699 11491039", "doc_type": "pois"}
{"source": "OSM", "region": "Kärnten", "osm_type": "node", "osm_id": 3760676012, "name": "Penny Markt", "category": "shop:supermarket", "address": "62, 9162 Ferlach", "street": null, "housenumber": "62", "postcode": "9162", "place": "Ferlach", "lat": 46.5329108, "lon": 14.2714971, "tags": {"addr:city": "Ferlach", "addr:housenumber": "62", "addr:place": "Kirschentheuer", "addr:postcode": "9162", "name": "Penny Markt", "shop": "supermarket"}, "content": "Penny Markt\nKategorie: shop:supermarket\nAdresse: 62, 9162 Ferlach\nOrt: Ferlach\nPLZ: 9162\nKoordinaten: 46.532911, 14.271497\nTags: shop=supermarket", "doc_type": "pois"}
{"source": "OSM", "region": "Kärnten", "osm_type": "node", "osm_id": 4082804104, "name": "Karawanken Apotheke", "category": "amenity:pharmacy", "address": "9170 Ferlach", "street": null, "housenumber": null, "postcode": "9170", "place": "Ferlach", "lat": 46.5287922, "lon": 14.2909157, "tags": {"addr:city": "Ferlach", "addr:postcode": "9170", "amenity": "pharmacy", "healthcare": "pharmacy", "name": "Karawanken Apotheke", "website": "https://www.karawanken-apotheke.at/kontakt/"}, "content": "Karawanken Apotheke\nKategorie: amenity:pharmacy\nAdresse: 9170 Ferlach\nOrt: Ferlach\nPLZ: 9170\nKoordinaten: 46.528792, 14.290916\nTags: amenity=pharmacy, healthcare=pharmacy, website=https://www.karawanken-apotheke.at/kontakt/", "doc_type": "pois"}
{"source": "OSM", "region": "Kärnten", "osm_type": "node", "osm_id": 4545043889, "name": "Kappel an der Drau", "category": "amenity:fire_station", "address": "122, 9162 Ferlach", "street": null, "housenumber": "122", "postcode": "9162", "place": "Ferlach", "lat": 46.5355527, "lon": 14.247385, "tags": {"addr:city": "Ferlach", "addr:housenumber": "122", "addr:place": "Kappel an der Drau", "addr:postcode": "9162", "amenity": "fire_station", "name": "Kappel an der Drau", "website": "http://www.ffkappeldrau.at"}, "content": "Kappel an der Drau\nKategorie: amenity:fire_station\nAdresse: 122, 9162 Ferlach\nOrt: Ferlach\nPLZ: 9162\nKoordinaten: 46.535553, 14.247385\nTags: amenity=fire_station, website=http://www.ffkappeldrau.at", "doc_type": "pois"}
{"source": "OSM", "region": "Kärnten", "osm_type": "node", "osm_id": 4585518311, "name": "Werner Markowitz e.U.", "category": "shop:butcher", "address": "Freibacher Straße 31, 9170 Ferlach", "street": "Freibacher Straße", "housenumber": "31", "postcode": "9170", "place": "Ferlach", "lat": 46.5331485, "lon": 14.3039189, "tags": {"addr:city": "Ferlach", "addr:housenumber": "31", "addr:postcode": "9170", "addr:street": "Freibacher Straße", "name": "Werner Markowitz e.U.", "shop": "butcher"}, "content": "Werner Markowitz e.U.\nKategorie: shop:butcher\nAdresse: Freibacher Straße 31, 9170 Ferlach\nOrt: Ferlach\nPLZ: 9170\nKoordinaten: 46.533149, 14.303919\nTags: shop=butcher", "doc_type": "pois"}
{"source": "OSM", "region": "Kärnten", "osm_type": "node", "osm_id": 4908941937, "name": "Bezirkspolizeikommando Klagenfurt", "category": "amenity:police", "address": "Loiblstraße 6, 9170 Ferlach", "street": "Loiblstraße", "housenumber": "6", "postcode": "9170", "place": "Ferlach", "lat": 46.5235154, "lon": 14.300314, "tags": {"addr:city": "Ferlach", "addr:housenumber": "6", "addr:postcode": "9170", "addr:street": "Loiblstraße", "amenity": "police", "name": "Bezirkspolizeikommando Klagenfurt", "website": "https://www.polizei.gv.at/ktn/lpd/dst/dienststellen.aspx?org=2F355874596A564D756B513D"}, "content": "Bezirkspolizeikommando Klagenfurt\nKategorie: amenity:police\nAdresse: Loiblstraße 6, 9170 Ferlach\nOrt: Ferlach\nPLZ: 9170\nKoordinaten: 46.523515, 14.300314\nTags: amenity=police, website=https://www.polizei.gv.at/ktn/lpd/dst/dienststellen.aspx?org=2F355874596A564D756B513D", "doc_type": "pois"}
{"source": "OSM", "region": "Kärnten", "osm_type": "node", "osm_id": 5124112859, "name": "Dr. Monika Gruden", "category": "amenity:doctors", "address": "Hauptplatz 16, 9170 Ferlach", "street": "Hauptplatz", "housenumber": "16", "postcode": "9170", "place": "Ferlach", "lat": 46.5264443, "lon": 14.2991855, "tags": {"addr:city": "Ferlach", "addr:housenumber": "16", "addr:postcode": "9170", "addr:street": "Hauptplatz", "amenity": "doctors", "healthcare": "doctor", "name": "Dr. Monika Gruden"}, "content": "Dr. Monika Gruden\nKategorie: amenity:doctors\nAdresse: Hauptplatz 16, 9170 Ferlach\nOrt: Ferlach\nPLZ: 9170\nKoordinaten: 46.526444, 14.299186\nTags: amenity=doctors, healthcare=doctor", "doc_type": "pois"}
{"source": "OSM", "region": "Kärnten", "osm_type": "node", "osm_id": 5130229722, "name": "Bipa", "category": "shop:chemist", "address": "Hauptplatz 9, 9170 Ferlach", "street": "Hauptplatz", "housenumber": "9", "postcode": "9170", "place": "Ferlach", "lat": 46.5267783, "lon": 14.3004012, "tags": {"addr:city": "Ferlach", "addr:housenumber": "9", "addr:postcode": "9170", "addr:street": "Hauptplatz", "brand": "Bipa", "name": "Bipa", "shop": "chemist"}, "content": "Bipa\nKategorie: shop:chemist\nAdresse: Hauptplatz 9, 9170 Ferlach\nOrt: Ferlach\nPLZ: 9170\nKoordinaten: 46.526778, 14.300401\nTags: shop=chemist, brand=Bipa", "doc_type": "pois"}
{"source": "OSM", "region": "Kärnten", "osm_type": "node", "osm_id": 5245742687, "name": "Kebap Haus Ferlach", "category": "amenity:fast_food", "address": "Werkstraße 7, 9170 Ferlach", "street": "Werkstraße", "housenumber": "7", "postcode": "9170", "place": "Ferlach", "lat": 46.5253449, "lon": 14.3005362, "tags": {"addr:city": "Ferlach", "addr:housenumber": "7", "addr:postcode": "9170", "addr:street": "Werkstraße", "amenity": "fast_food", "name": "Kebap Haus Ferlach"}, "content": "Kebap Haus Ferlach\nKategorie: amenity:fast_food\nAdresse: Werkstraße 7, 9170 Ferlach\nOrt: Ferlach\nPLZ: 9170\nKoordinaten: 46.525345, 14.300536\nTags: amenity=fast_food", "doc_type": "pois"}
