{"source": "OSM", "region": "Kärnten", "osm_type": "node", "osm_id": 340518300, "name": "Post Filiale 9431", "category": "amenity:post_office", "address": "Hauptstraße 45, 9431 Sankt Stefan", "street": "Hauptstraße", "housenumber": "45", "postcode": "9431", "place": "Sankt Stefan", "lat": 46.8055197, "lon": 14.8500214, "tags": {"addr:city": "Sankt Stefan", "addr:housenumber": "45", "addr:postcode": "9431", "addr:street": "Hauptstraße", "amenity": "post_office", "name": "Post Filiale 9431", "operator": "Österreichische Post AG", "website": "https://www.post.at"}, "content": "Post Filiale 9431\nKategorie: amenity:post_office\nAdresse: Hauptstraße 45, 9431 Sankt Stefan\nOrt: Sankt Stefan\nPLZ: 9431\nKoordinaten: 46.805520, 14.850021\nTags: amenity=post_office, operator=Österreichische Post AG, website=https://www.post.at", "doc_type": "addresses"}
{"source": "OSM", "region": "Kärnten", "osm_type": "node", "osm_id": 2002295318, "name": "Pale Sport & Bike Shop", "category": "shop:motorcycle", "address": "Rotkogelstraße 6, 9431 Sankt Stefan", "street": "Rotkogelstraße", "housenumber": "6", "postcode": "9431", "place": "Sankt Stefan", "lat": 46.8109398, "lon": 14.8513384, "tags": {"addr:city": "Sankt Stefan", "addr:housenumber": "6", "addr:postcode": "9431", "addr:street": "Rotkogelstraße", "name": "Pale Sport & Bike Shop", "shop": "motorcycle"}, "content": "Pale Sport & Bike Shop\nKategorie: shop:motorcycle\nAdresse: Rotkogelstraße 6, 9431 Sankt Stefan\nOrt: Sankt Stefan\nPLZ: 9431\nKoordinaten: 46.810940, 14.851338\nTags: shop=motorcycle", "doc_type": "addresses"}
{"source": "OSM", "region": "Kärnten", "osm_type": "node", "osm_id": 340518300, "name": "Post Filiale 9431", "category": "amenity:post_office", "address": "Hauptstraße 45, 9431 Sankt Stefan", "street": "Hauptstraße", "housenumber": "45", "postcode": "9431", "place": "Sankt Stefan", "lat": 46.8055197, "lon": 14.8500214, "tags": {"addr:city": "Sankt Stefan", "addr:housenumber": "45", "addr:postcode": "9431", "addr:street": "Hauptstraße", "amenity": "post_office", "name": "Post Filiale 9431", "operator": "Österreichische Post AG", "website": "https://www.post.at"}, "content": "Post Filiale 9431\nKategorie: amenity:post_office\nAdresse: Hauptstraße 45, 9431 Sankt Stefan\nOrt: Sankt Stefan\nPLZ: 9431\nKoordinaten: 46.805520, 14.850021\nTags: amenity=post_office, operator=Österreichische Post AG, website=https://www.post.at", "doc_type": "pois"}
{"source": "OSM", "region": "Kärnten", "osm_type": "node", "osm_id": 2002295318, "name": "Pale Sport & Bike Shop", "category": "shop:motorcycle", "address": "Rotkogelstraße 6, 9431 Sankt Stefan", "street": "Rotkogelstraße", "housenumber": "6", "postcode": "9431", "place": "Sankt Stefan", "lat": 46.8109398, "lon": 14.8513384, "tags": {"addr:city": "Sankt Stefan", "addr:housenumber": "6", "addr:postcode": "9431", "addr:street": "Rotkogelstraße", "name": "Pale Sport & Bike Shop", "shop": "motorcycle"}, "content": "Pale Sport & Bike Shop\nKategorie: shop:motorcycle\nAdresse: Rotkogelstraße 6, 9431 Sankt Stefan\nOrt: Sankt Stefan\nPLZ: 9431\nKoordinaten: 46.810940, 14.851338\nTags: shop=motorcycle", "doc_type": "pois"}
