{"source": "OSM", "region": "Kärnten", "osm_type": "node", "osm_id": 340517182, "name": "Postpartner 9831, Cafe Greissler Doris Egarter", "category": "amenity:post_office", "address": "69, 9831 Flattach", "street": null, "housenumber": "69", "postcode": "9831", "place": "Flattach", "lat": 46.9347202, "lon": 13.1314465, "tags": {"addr:city": "Flattach", "addr:housenumber": "69", "addr:place": "Flattach", "addr:postcode": "9831", "amenity": "post_office", "name": "Postpartner 9831, Cafe Greissler Doris Egarter"}, "content": "Postpartner 9831, Cafe Greissler Doris Egarter\nKategorie: amenity:post_office\nAdresse: 69, 9831 Flattach\nOrt: Flattach\nPLZ: 9831\nKoordinaten: 46.934720, 13.131446\nTags: amenity=post_office", "doc_type": "addresses"}
{"source": "OSM", "region": "Kärnten", "osm_type": "node", "osm_id": 372783455, "name": "Mallnitz", "category": null, "address": "46, 9831 Flattach", "street": null, "housenumber": "46", "postcode": "9831", "place": "Flattach", "lat": 47.0137915, "lon": 13.1862674, "tags": {"addr:city": "Flattach", "addr:housenumber": "46", "addr:place": "Innerfragant", "addr:postcode": "9831", "name": "Mallnitz"}, "content": "Mallnitz\nAdresse: 46, 9831 Flattach\nOrt: Flattach\nPLZ: 9831\nKoordinaten: 47.013792, 13.186267", "doc_type": "addresses"}
{"source": "OSM", "region": "Kärnten", "osm_type": "node", "osm_id": 5623601323, "name": null, "category": null, "address": "29, 9831 Flattach", "street": null, "housenumber": "29", "postcode": "9831", "place": "Flattach", "lat": 46.9345374, "lon": 13.1126922, "tags": {"addr:city": "Flattach", "addr:housenumber": "29", "addr:place": "Kleindorf", "addr:postcode": "9831"}, "content": "Adresse: 29, 9831 Flattach\nOrt: Flattach\nPLZ: 9831\nKoordinaten: 46.934537, 13.112692", "doc_type": "addresses"}
{"source": "OSM", "region": "Kärnten", "osm_type": "node", "osm_id": 5623601324, "name": null, "category": null, "address": "58, 9831 Flattach", "street": null, "housenumber": "58", "postcode": "9831", "place": "Flattach", "lat": 46.9349715, "lon": 13.1138563, "tags": {"addr:city": "Flattach", "addr:housenumber": "58", "addr:place": "Kleindorf", "addr:postcode": "9831"}, "content": "Adresse: 58, 9831 Flattach\nOrt: Flattach\nPLZ: 9831\nKoordinaten: 46.934972, 13.113856", "doc_type": "addresses"}
{"source": "OSM", "region": "Kärnten", "osm_type": "node", "osm_id": 5623601325, "name": null, "category": null, "address": "3a, 9831 Flattach", "street": null, "housenumber": "3a", "postcode": "9831", "place": "Flattach", "lat": 46.9353378, "lon": 13.1141192, "tags": {"addr:city": "Flattach", "addr:housenumber": "3a", "addr:place": "Kleindorf", "addr:postcode": "9831"}, "content": "Adresse: 3a, 9831 Flattach\nOrt: Flattach\nPLZ: 9831\nKoordinaten: 46.935338, 13.114119", "doc_type": "addresses"}
{"source": "OSM", "region": "Kärnten", "osm_type": "node", "osm_id": 5623601326, "name": null, "category": null, "address": "4, 9831 Flattach", "street": null, "housenumber": "4", "postcode": "9831", "place": "Flattach", "lat": 46.9352499, "lon": 13.1138885, "tags": {"addr:city": "Flattach", "addr:housenumber": "4", "addr:place": "Kleindorf", "addr:postcode": "9831"}, "content": "Adresse: 4, 9831 Flattach\nOrt: Flattach\nPLZ: 9831\nKoordinaten: 46.935250, 13.113888", "doc_type": "addresses"}
{"source": "OSM", "region": "Kärnten", "osm_type": "node", "osm_id": 5623601327, "name": null, "category": null, "address": "6, 9831 Flattach", "street": null, "housenumber": "6", "postcode": "9831", "place": "Flattach", "lat": 46.9347536, "lon": 13.1139421, "tags": {"addr:city": "Flattach", "addr:housenumber": "6", "addr:place": "Kleindorf", "addr:postcode": "9831"}, "content": "Adresse: 6, 9831 Flattach\nOrt: Flattach\nPLZ: 9831\nKoordinaten: 46.934754, 13.113942", "doc_type": "addresses"}
{"source": "OSM", "region": "Kärnten", "osm_type": "node", "osm_id": 5623601328, "name": null, "category": null, "address": "44, 9831 Flattach", "street": null, "housenumber": "44", "postcode": "9831", "place": "Flattach", "lat": 46.9344019, "lon": 13.1135666, "tags": {"addr:city": "Flattach", "addr:housenumber": "44", "addr:place": "Kleindorf", "addr:postcode": "9831"}, "content": "Adresse: 44, 9831 Flattach\nOrt: Flattach\nPLZ: 9831\nKoordinaten: 46.934402, 13.113567", "doc_type": "addresses"}
{"source": "OSM", "region": "Kärnten", "osm_type": "node", "osm_id": 5623601329, "name": null, "category": null, "address": "20, 9831 Flattach", "street": null, "housenumber": "20", "postcode": "9831", "place": "Flattach", "lat": 46.9345063, "lon": 13.1138965, "tags": {"addr:city": "Flattach", "addr:housenumber": "20", "addr:place": "Kleindorf", "addr:postcode": "9831"}, "content": "Adresse: 20, 9831 Flattach\nOrt: Flattach\nPLZ: 9831\nKoordinaten: 46.934506, 13.113896", "doc_type": "addresses"}
{"source": "OSM", "region": "Kärnten", "osm_type": "node", "osm_id": 5623601330, "name": null, "category": null, "address": "47, 9831 Flattach", "street": null, "housenumber": "47", "postcode": "9831", "place": "Flattach", "lat": 46.9342939, "lon": 13.1142318, "tags": {"addr:city": "Flattach", "addr:housenumber": "47", "addr:place": "Kleindorf", "addr:postcode": "9831"}, "content": "Adresse: 47, 9831 Flattach\nOrt: Flattach\nPLZ: 9831\nKoordinaten: 46.934294, 13.114232", "doc_type": "addresses"}
{"source": "OSM", "region": "Kärnten", "osm_type": "node", "osm_id": 5623601331, "name": null, "category": null, "address": "21, 9831 Flattach", "street": null, "housenumber": "21", "postcode": "9831", "place": "Flattach", "lat": 46.9339532, "lon": 13.1138912, "tags": {"addr:city": "Flattach", "addr:housenumber": "21", "addr:place": "Kleindorf", "addr:postcode": "9831"}, "content": "Adresse: 21, 9831 Flattach\nOrt: Flattach\nPLZ: 9831\nKoordinaten: 46.933953, 13.113891", "doc_type": "addresses"}
{"source": "OSM", "region": "Kärnten", "osm_type": "node", "osm_id": 5623601332, "name": null, "category": null, "address": "28, 9831 Flattach", "street": null, "housenumber": "28", "postcode": "9831", "place": "Flattach", "lat": 46.9337554, "lon": 13.1144598, "tags": {"addr:city": "Flattach", "addr:housenumber": "28", "addr:place": "Kleindorf", "addr:postcode": "9831"}, "content": "Adresse: 28, 9831 Flattach\nOrt: Flattach\nPLZ: 9831\nKoordinaten: 46.933755, 13.114460", "doc_type": "addresses"}
{"source": "OSM", "region": "Kärnten", "osm_type": "node", "osm_id": 5623601333, "name": null, "category": null, "address": "55, 9831 Flattach", "street": null, "housenumber": "55", "postcode": "9831", "place": "Flattach", "lat": 46.9338415, "lon": 13.1146958, "tags": {"addr:city": "Flattach", "addr:housenumber": "55", "addr:place": "Kleindorf", "addr:postcode": "9831"}, "content": "Adresse: 55, 9831 Flattach\nOrt: Flattach\nPLZ: 9831\nKoordinaten: 46.933841, 13.114696", "doc_type": "addresses"}
{"source": "OSM", "region": "Kärnten", "osm_type": "node", "osm_id": 5623601334, "name": null, "category": null, "address": "27, 9831 Flattach", "street": null, "housenumber": "27", "postcode": "9831", "place": "Flattach", "lat": 46.9345411, "lon": 13.11461, "tags": {"addr:city": "Flattach", "addr:housenumber": "27", "addr:place": "Kleindorf", "addr:postcode": "9831"}, "content": "Adresse: 27, 9831 Flattach\nOrt: Flattach\nPLZ: 9831\nKoordinaten: 46.934541, 13.114610", "doc_type": "addresses"}
{"source": "OSM", "region": "Kärnten", "osm_type": "node", "osm_id": 5623601335, "name": null, "category": null, "address": "23, 9831 Flattach", "street": null, "housenumber": "23", "postcode": "9831", "place": "Flattach", "lat": 46.9345393, "lon": 13.1151867, "tags": {"addr:city": "Flattach", "addr:housenumber": "23", "addr:place": "Kleindorf", "addr:postcode": "9831"}, "content": "Adresse: 23, 9831 Flattach\nOrt: Flattach\nPLZ: 9831\nKoordinaten: 46.934539, 13.115187", "doc_type": "addresses"}
{"source": "OSM", "region": "Kärnten", "osm_type": "node", "osm_id": 5623601336, "name": null, "category": null, "address": "48, 9831 Flattach", "street": null, "housenumber": "48", "postcode": "9831", "place": "Flattach", "lat": 46.9342114, "lon": 13.114889, "tags": {"addr:city": "Flattach", "addr:housenumber": "48", "addr:place": "Kleindorf", "addr:postcode": "9831"}, "content": "Adresse: 48, 9831 Flattach\nOrt: Flattach\nPLZ: 9831\nKoordinaten: 46.934211, 13.114889", "doc_type": "addresses"}
{"source": "OSM", "region": "Kärnten", "osm_type": "node", "osm_id": 5623601337, "name": null, "category": null, "address": "46, 9831 Flattach", "street": null, "housenumber": "46", "postcode": "9831", "place": "Flattach", "lat": 46.934488, "lon": 13.1154925, "tags": {"addr:city": "Flattach", "addr:housenumber": "46", "addr:place": "Kleindorf", "addr:postcode": "9831"}, "content": "Adresse: 46, 9831 Flattach\nOrt: Flattach\nPLZ: 9831\nKoordinaten: 46.934488, 13.115493", "doc_type": "addresses"}
{"source": "OSM", "region": "Kärnten", "osm_type": "node", "osm_id": 5623601338, "name": null, "category": null, "address": "60, 9831 Flattach", "street": null, "housenumber": "60", "postcode": "9831", "place": "Flattach", "lat": 46.9351308, "lon": 13.1152336, "tags": {"addr:city": "Flattach", "addr:housenumber": "60", "addr:place": "Kleindorf", "addr:postcode": "9831"}, "content": "Adresse: 60, 9831 Flattach\nOrt: Flattach\nPLZ: 9831\nKoordinaten: 46.935131, 13.115234", "doc_type": "addresses"}
{"source": "OSM", "region": "Kärnten", "osm_type": "node", "osm_id": 5623601339, "name": null, "category": null, "address": "62, 9831 Flattach", "street": null, "housenumber": "62", "postcode": "9831", "place": "Flattach", "lat": 46.9348598, "lon": 13.1150231, "tags": {"addr:city": "Flattach", "addr:housenumber": "62", "addr:place": "Kleindorf", "addr:postcode": "9831"}, "content": "Adresse: 62, 9831 Flattach\nOrt: Flattach\nPLZ: 9831\nKoordinaten: 46.934860, 13.115023", "doc_type": "addresses"}
{"source": "OSM", "region": "Kärnten", "osm_type": "node", "osm_id": 5623601340, "name": null, "category": null, "address": "41, 9831 Flattach", "street": null, "housenumber": "41", "postcode": "9831", "place": "Flattach", "lat": 46.935031, "lon": 13.1155367, "tags": {"addr:city": "Flattach", "addr:housenumber": "41", "addr:place": "Kleindorf", "addr:postcode": "9831"}, "content": "Adresse: 41, 9831 Flattach\nOrt: Flattach\nPLZ: 9831\nKoordinaten: 46.935031, 13.115537", "doc_type": "addresses"}
{"source": "OSM", "region": "Kärnten", "osm_type": "node", "osm_id": 5623601341, "name": null, "category": null, "address": "26, 9831 Flattach", "street": null, "housenumber": "26", "postcode": "9831", "place": "Flattach", "lat": 46.9350915, "lon": 13.1159055, "tags": {"addr:city": "Flattach", "addr:housenumber": "26", "addr:place": "Kleindorf", "addr:postcode": "9831"}, "content": "Adresse: 26, 9831 Flattach\nOrt: Flattach\nPLZ: 9831\nKoordinaten: 46.935091, 13.115906", "doc_type": "addresses"}
{"source": "OSM", "region": "Kärnten", "osm_type": "node", "osm_id": 5623601342, "name": null, "category": null, "address": "32, 9831 Flattach", "street": null, "housenumber": "32", "postcode": "9831", "place": "Flattach", "lat": 46.9350118, "lon": 13.1161255, "tags": {"addr:city": "Flattach", "addr:housenumber": "32", "addr:place": "Kleindorf", "addr:postcode": "9831"}, "content": "Adresse: 32, 9831 Flattach\nOrt: Flattach\nPLZ: 9831\nKoordinaten: 46.935012, 13.116126", "doc_type": "addresses"}
{"source": "OSM", "region": "Kärnten", "osm_type": "node", "osm_id": 5623601345, "name": null, "category": null, "address": "15, 9831 Flattach", "street": null, "housenumber": "15", "postcode": "9831", "place": "Flattach", "lat": 46.9340851, "lon": 13.1287318, "tags": {"addr:city": "Flattach", "addr:housenumber": "15", "addr:place": "Flattach", "addr:postcode": "9831"}, "content": "Adresse: 15, 9831 Flattach\nOrt: Flattach\nPLZ: 9831\nKoordinaten: 46.934085, 13.128732", "doc_type": "addresses"}
{"source": "OSM", "region": "Kärnten", "osm_type": "node", "osm_id": 5623601346, "name": null, "category": null, "address": "14, 9831 Flattach", "street": null, "housenumber": "14", "postcode": "9831", "place": "Flattach", "lat": 46.9342407, "lon": 13.1300341, "tags": {"addr:city": "Flattach", "addr:housenumber": "14", "addr:place": "Flattach", "addr:postcode": "9831"}, "content": "Adresse: 14, 9831 Flattach\nOrt: Flattach\nPLZ: 9831\nKoordinaten: 46.934241, 13.130034", "doc_type": "addresses"}
{"source": "OSM", "region": "Kärnten", "osm_type": "node", "osm_id": 5623601347, "name": null, "category": null, "address": "13, 9831 Flattach", "street": null, "housenumber": "13", "postcode": "9831", "place": "Flattach", "lat": 46.9350182, "lon": 13.129621, "tags": {"addr:city": "Flattach", "addr:housenumber": "13", "addr:place": "Flattach", "addr:postcode": "9831"}, "content": "Adresse: 13, 9831 Flattach\nOrt: Flattach\nPLZ: 9831\nKoordinaten: 46.935018, 13.129621", "doc_type": "addresses"}
{"source": "OSM", "region": "Kärnten", "osm_type": "node", "osm_id": 5623601348, "name": null, "category": null, "address": "74, 9831 Flattach", "street": null, "housenumber": "74", "postcode": "9831", "place": "Flattach", "lat": 46.9346015, "lon": 13.1289867, "tags": {"addr:city": "Flattach", "addr:housenumber": "74", "addr:place": "Flattach", "addr:postcode": "9831"}, "content": "Adresse: 74, 9831 Flattach\nOrt: Flattach\nPLZ: 9831\nKoordinaten: 46.934601, 13.128987", "doc_type": "addresses"}
{"source": "OSM", "region": "Kärnten", "osm_type": "node", "osm_id": 5623601349, "name": null, "category": null, "address": "81, 9831 Flattach", "street": null, "housenumber": "81", "postcode": "9831", "place": "Flattach", "lat": 46.9346272, "lon": 13.1303492, "tags": {"addr:city": "Flattach", "addr:housenumber": "81", "addr:place": "Flattach", "addr:postcode": "9831"}, "content": "Adresse: 81, 9831 Flattach\nOrt: Flattach\nPLZ: 9831\nKoordinaten: 46.934627, 13.130349", "doc_type": "addresses"}
{"source": "OSM", "region": "Kärnten", "osm_type": "node", "osm_id": 5623601350, "name": null, "category": null, "address": "80, 9831 Flattach", "street": null, "housenumber": "80", "postcode": "9831", "place": "Flattach", "lat": 46.9345448, "lon": 13.1299952, "tags": {"addr:city": "Flattach", "addr:housenumber": "80", "addr:place": "Flattach", "addr:postcode": "9831"}, "content": "Adresse: 80, 9831 Flattach\nOrt: Flattach\nPLZ: 9831\nKoordinaten: 46.934545, 13.129995", "doc_type": "addresses"}
{"source": "OSM", "region": "Kärnten", "osm_type": "node", "osm_id": 5623601351, "name": null, "category": null, "address": "17, 9831 Flattach", "street": null, "housenumber": "17", "postcode": "9831", "place": "Flattach", "lat": 46.9347243, "lon": 13.1294963, "tags": {"addr:city": "Flattach", "addr:housenumber": "17", "addr:place": "Flattach", "addr:postcode": "9831"}, "content": "Adresse: 17, 9831 Flattach\nOrt: Flattach\nPLZ: 9831\nKoordinaten: 46.934724, 13.129496", "doc_type": "addresses"}
{"source": "OSM", "region": "Kärnten", "osm_type": "node", "osm_id": 5623601352, "name": null, "category": null, "address": "23, 9831 Flattach", "street": null, "housenumber": "23", "postcode": "9831", "place": "Flattach", "lat": 46.9351913, "lon": 13.1302661, "tags": {"addr:city": "Flattach", "addr:housenumber": "23", "addr:place": "Flattach", "addr:postcode": "9831"}, "content": "Adresse: 23, 9831 Flattach\nOrt: Flattach\nPLZ: 9831\nKoordinaten: 46.935191, 13.130266", "doc_type": "addresses"}
{"source": "OSM", "region": "Kärnten", "osm_type": "node", "osm_id": 5623601353, "name": null, "category": null, "address": "43, 9831 Flattach", "street": null, "housenumber": "43", "postcode": "9831", "place": "Flattach", "lat": 46.9349349, "lon": 13.1303439, "tags": {"addr:city": "Flattach", "addr:housenumber": "43", "addr:place": "Flattach", "addr:postcode": "9831"}, "content": "Adresse: 43, 9831 Flattach\nOrt: Flattach\nPLZ: 9831\nKoordinaten: 46.934935, 13.130344", "doc_type": "addresses"}
{"source": "OSM", "region": "Kärnten", "osm_type": "node", "osm_id": 5623601354, "name": null, "category": null, "address": "18, 9831 Flattach", "street": null, "housenumber": "18", "postcode": "9831", "place": "Flattach", "lat": 46.9349495, "lon": 13.1294748, "tags": {"addr:city": "Flattach", "addr:housenumber": "18", "addr:place": "Flattach", "addr:postcode": "9831"}, "content": "Adresse: 18, 9831 Flattach\nOrt: Flattach\nPLZ: 9831\nKoordinaten: 46.934950, 13.129475", "doc_type": "addresses"}
{"source": "OSM", "region": "Kärnten", "osm_type": "node", "osm_id": 5623601355, "name": null, "category": null, "address": "5, 9831 Flattach", "street": null, "housenumber": "5", "postcode": "9831", "place": "Flattach", "lat": 46.9354056, "lon": 13.1296357, "tags": {"addr:city": "Flattach", "addr:housenumber": "5", "addr:place": "Flattach", "addr:postcode": "9831"}, "content": "Adresse: 5, 9831 Flattach\nOrt: Flattach\nPLZ: 9831\nKoordinaten: 46.935406, 13.129636", "doc_type": "addresses"}
{"source": "OSM", "region": "Kärnten", "osm_type": "node", "osm_id": 5623601356, "name": null, "category": null, "address": "8, 9831 Flattach", "street": null, "housenumber": "8", "postcode": "9831", "place": "Flattach", "lat": 46.9356034, "lon": 13.1299898, "tags": {"addr:city": "Flattach", "addr:housenumber": "8", "addr:place": "Flattach", "addr:postcode": "9831"}, "content": "Adresse: 8, 9831 Flattach\nOrt: Flattach\nPLZ: 9831\nKoordinaten: 46.935603, 13.129990", "doc_type": "addresses"}
{"source": "OSM", "region": "Kärnten", "osm_type": "node", "osm_id": 5623601357, "name": null, "category": null, "address": "107, 9831 Flattach", "street": null, "housenumber": "107", "postcode": "9831", "place": "Flattach", "lat": 46.9359513, "lon": 13.1302124, "tags": {"addr:city": "Flattach", "addr:housenumber": "107", "addr:place": "Flattach", "addr:postcode": "9831"}, "content": "Adresse: 107, 9831 Flattach\nOrt: Flattach\nPLZ: 9831\nKoordinaten: 46.935951, 13.130212", "doc_type": "addresses"}
{"source": "OSM", "region": "Kärnten", "osm_type": "node", "osm_id": 5623601358, "name": null, "category": null, "address": "7, 9831 Flattach", "street": null, "housenumber": "7", "postcode": "9831", "place": "Flattach", "lat": 46.9358689, "lon": 13.1299227, "tags": {"addr:city": "Flattach", "addr:housenumber": "7", "addr:place": "Flattach", "addr:postcode": "9831"}, "content": "Adresse: 7, 9831 Flattach\nOrt: Flattach\nPLZ: 9831\nKoordinaten: 46.935869, 13.129923", "doc_type": "addresses"}
{"source": "OSM", "region": "Kärnten", "osm_type": "node", "osm_id": 5623601359, "name": null, "category": null, "address": "6, 9831 Flattach", "street": null, "housenumber": "6", "postcode": "9831", "place": "Flattach", "lat": 46.9360814, "lon": 13.1294775, "tags": {"addr:city": "Flattach", "addr:housenumber": "6", "addr:place": "Flattach", "addr:postcode": "9831"}, "content": "Adresse: 6, 9831 Flattach\nOrt: Flattach\nPLZ: 9831\nKoordinaten: 46.936081, 13.129478", "doc_type": "addresses"}
{"source": "OSM", "region": "Kärnten", "osm_type": "node", "osm_id": 5623601360, "name": null, "category": null, "address": "115, 9831 Flattach", "street": null, "housenumber": "115", "postcode": "9831", "place": "Flattach", "lat": 46.9361253, "lon": 13.1291261, "tags": {"addr:city": "Flattach", "addr:housenumber": "115", "addr:place": "Flattach", "addr:postcode": "9831"}, "content": "Adresse: 115, 9831 Flattach\nOrt: Flattach\nPLZ: 9831\nKoordinaten: 46.936125, 13.129126", "doc_type": "addresses"}
{"source": "OSM", "region": "Kärnten", "osm_type": "node", "osm_id": 5623601361, "name": null, "category": null, "address": "3, 9831 Flattach", "street": null, "housenumber": "3", "postcode": "9831", "place": "Flattach", "lat": 46.9357462, "lon": 13.1289571, "tags": {"addr:city": "Flattach", "addr:housenumber": "3", "addr:place": "Flattach", "addr:postcode": "9831"}, "content": "Adresse: 3, 9831 Flattach\nOrt: Flattach\nPLZ: 9831\nKoordinaten: 46.935746, 13.128957", "doc_type": "addresses"}
{"source": "OSM", "region": "Kärnten", "osm_type": "node", "osm_id": 5623601362, "name": null, "category": null, "address": "136, 9831 Flattach", "street": null, "housenumber": "136", "postcode": "9831", "place": "Flattach", "lat": 46.935814, "lon": 13.1292683, "tags": {"addr:city": "Flattach", "addr:housenumber": "136", "addr:place": "Flattach", "addr:postcode": "9831"}, "content": "Adresse: 136, 9831 Flattach\nOrt: Flattach\nPLZ: 9831\nKoordinaten: 46.935814, 13.129268", "doc_type": "addresses"}
{"source": "OSM", "region": "Kärnten", "osm_type": "node", "osm_id": 5623601363, "name": null, "category": null, "address": "70, 9831 Flattach", "street": null, "housenumber": "70", "postcode": "9831", "place": "Flattach", "lat": 46.9352023, "lon": 13.1291637, "tags": {"addr:city": "Flattach", "addr:housenumber": "70", "addr:place": "Flattach", "addr:postcode": "9831"}, "content": "Adresse: 70, 9831 Flattach\nOrt: Flattach\nPLZ: 9831\nKoordinaten: 46.935202, 13.129164", "doc_type": "addresses"}
{"source": "OSM", "region": "Kärnten", "osm_type": "node", "osm_id": 5623601366, "name": null, "category": null, "address": "103, 9831 Flattach", "street": null, "housenumber": "103", "postcode": "9831", "place": "Flattach", "lat": 46.9363066, "lon": 13.1234935, "tags": {"addr:city": "Flattach", "addr:housenumber": "103", "addr:place": "Flattach", "addr:postcode": "9831"}, "content": "Adresse: 103, 9831 Flattach\nOrt: Flattach\nPLZ: 9831\nKoordinaten: 46.936307, 13.123494", "doc_type": "addresses"}
{"source": "OSM", "region": "Kärnten", "osm_type": "node", "osm_id": 5623601367, "name": null, "category": null, "address": "142, 9831 Flattach", "street": null, "housenumber": "142", "postcode": "9831", "place": "Flattach", "lat": 46.9360374, "lon": 13.1238234, "tags": {"addr:city": "Flattach", "addr:housenumber": "142", "addr:place": "Flattach", "addr:postcode": "9831"}, "content": "Adresse: 142, 9831 Flattach\nOrt: Flattach\nPLZ: 9831\nKoordinaten: 46.936037, 13.123823", "doc_type": "addresses"}
{"source": "OSM", "region": "Kärnten", "osm_type": "node", "osm_id": 5623601369, "name": null, "category": null, "address": "166, 9831 Flattach", "street": null, "housenumber": "166", "postcode": "9831", "place": "Flattach", "lat": 46.9356546, "lon": 13.1238878, "tags": {"addr:city": "Flattach", "addr:housenumber": "166", "addr:place": "Flattach", "addr:postcode": "9831"}, "content": "Adresse: 166, 9831 Flattach\nOrt: Flattach\nPLZ: 9831\nKoordinaten: 46.935655, 13.123888", "doc_type": "addresses"}
{"source": "OSM", "region": "Kärnten", "osm_type": "node", "osm_id": 5623601370, "name": null, "category": null, "address": "159, 9831 Flattach", "street": null, "housenumber": "159", "postcode": "9831", "place": "Flattach", "lat": 46.9344459, "lon": 13.1233835, "tags": {"addr:city": "Flattach", "addr:housenumber": "159", "addr:place": "Flattach", "addr:postcode": "9831"}, "content": "Adresse: 159, 9831 Flattach\nOrt: Flattach\nPLZ: 9831\nKoordinaten: 46.934446, 13.123383", "doc_type": "addresses"}
{"source": "OSM", "region": "Kärnten", "osm_type": "node", "osm_id": 5623601371, "name": null, "category": null, "address": "117, 9831 Flattach", "street": null, "housenumber": "117", "postcode": "9831", "place": "Flattach", "lat": 46.9345136, "lon": 13.1225601, "tags": {"addr:city": "Flattach", "addr:housenumber": "117", "addr:place": "Flattach", "addr:postcode": "9831"}, "content": "Adresse: 117, 9831 Flattach\nOrt: Flattach\nPLZ: 9831\nKoordinaten: 46.934514, 13.122560", "doc_type": "addresses"}
{"source": "OSM", "region": "Kärnten", "osm_type": "node", "osm_id": 5623601373, "name": null, "category": null, "address": "144, 9831 Flattach", "street": null, "housenumber": "144", "postcode": "9831", "place": "Flattach", "lat": 46.9358122, "lon": 13.1229785, "tags": {"addr:city": "Flattach", "addr:housenumber": "144", "addr:place": "Flattach", "addr:postcode": "9831"}, "content": "Adresse: 144, 9831 Flattach\nOrt: Flattach\nPLZ: 9831\nKoordinaten: 46.935812, 13.122979", "doc_type": "addresses"}
{"source": "OSM", "region": "Kärnten", "osm_type": "node", "osm_id": 5623601375, "name": null, "category": null, "address": "11, 9831 Flattach", "street": null, "housenumber": "11", "postcode": "9831", "place": "Flattach", "lat": 46.9362371, "lon": 13.1228337, "tags": {"addr:city": "Flattach", "addr:housenumber": "11", "addr:place": "Kurierdorf", "addr:postcode": "9831"}, "content": "Adresse: 11, 9831 Flattach\nOrt: Flattach\nPLZ: 9831\nKoordinaten: 46.936237, 13.122834", "doc_type": "addresses"}
{"source": "OSM", "region": "Kärnten", "osm_type": "node", "osm_id": 5623601376, "name": null, "category": null, "address": "10, 9831 Flattach", "street": null, "housenumber": "10", "postcode": "9831", "place": "Flattach", "lat": 46.9361418, "lon": 13.1227425, "tags": {"addr:city": "Flattach", "addr:housenumber": "10", "addr:place": "Kurierdorf", "addr:postcode": "9831"}, "content": "Adresse: 10, 9831 Flattach\nOrt: Flattach\nPLZ: 9831\nKoordinaten: 46.936142, 13.122742", "doc_type": "addresses"}
{"source": "OSM", "region": "Kärnten", "osm_type": "node", "osm_id": 5623601379, "name": null, "category": null, "address": "120, 9831 Flattach", "street": null, "housenumber": "120", "postcode": "9831", "place": "Flattach", "lat": 46.9357297, "lon": 13.1209561, "tags": {"addr:city": "Flattach", "addr:housenumber": "120", "addr:place": "Flattach", "addr:postcode": "9831"}, "content": "Adresse: 120, 9831 Flattach\nOrt: Flattach\nPLZ: 9831\nKoordinaten: 46.935730, 13.120956", "doc_type": "addresses"}
{"source": "OSM", "region": "Kärnten", "osm_type": "node", "osm_id": 5623601380, "name": null, "category": null, "address": "39, 9831 Flattach", "street": null, "housenumber": "39", "postcode": "9831", "place": "Flattach", "lat": 46.9359404, "lon": 13.1147495, "tags": {"addr:city": "Flattach", "addr:housenumber": "39", "addr:place": "Kleindorf", "addr:postcode": "9831"}, "content": "Adresse: 39, 9831 Flattach\nOrt: Flattach\nPLZ: 9831\nKoordinaten: 46.935940, 13.114750", "doc_type": "addresses"}
{"source": "OSM", "region": "Kärnten", "osm_type": "node", "osm_id": 5623601381, "name": null, "category": null, "address": "37, 9831 Flattach", "street": null, "housenumber": "37", "postcode": "9831", "place": "Flattach", "lat": 46.9356217, "lon": 13.1152645, "tags": {"addr:city": "Flattach", "addr:housenumber": "37", "addr:place": "Kleindorf", "addr:postcode": "9831"}, "content": "Adresse: 37, 9831 Flattach\nOrt: Flattach\nPLZ: 9831\nKoordinaten: 46.935622, 13.115265", "doc_type": "addresses"}
{"source": "OSM", "region": "Kärnten", "osm_type": "node", "osm_id": 5623601382, "name": null, "category": null, "address": "38, 9831 Flattach", "street": null, "housenumber": "38", "postcode": "9831", "place": "Flattach", "lat": 46.9358122, "lon": 13.1151089, "tags": {"addr:city": "Flattach", "addr:housenumber": "38", "addr:place": "Kleindorf", "addr:postcode": "9831"}, "content": "Adresse: 38, 9831 Flattach\nOrt: Flattach\nPLZ: 9831\nKoordinaten: 46.935812, 13.115109", "doc_type": "addresses"}
{"source": "OSM", "region": "Kärnten", "osm_type": "node", "osm_id": 5623601383, "name": null, "category": null, "address": "36, 9831 Flattach", "street": null, "housenumber": "36", "postcode": "9831", "place": "Flattach", "lat": 46.9354862, "lon": 13.1155863, "tags": {"addr:city": "Flattach", "addr:housenumber": "36", "addr:place": "Kleindorf", "addr:postcode": "9831"}, "content": "Adresse: 36, 9831 Flattach\nOrt: Flattach\nPLZ: 9831\nKoordinaten: 46.935486, 13.115586", "doc_type": "addresses"}
{"source": "OSM", "region": "Kärnten", "osm_type": "node", "osm_id": 5623601384, "name": null, "category": null, "address": "49, 9831 Flattach", "street": null, "housenumber": "49", "postcode": "9831", "place": "Flattach", "lat": 46.9355557, "lon": 13.114669, "tags": {"addr:city": "Flattach", "addr:housenumber": "49", "addr:place": "Kleindorf", "addr:postcode": "9831"}, "content": "Adresse: 49, 9831 Flattach\nOrt: Flattach\nPLZ: 9831\nKoordinaten: 46.935556, 13.114669", "doc_type": "addresses"}
{"source": "OSM", "region": "Kärnten", "osm_type": "node", "osm_id": 5623601385, "name": null, "category": null, "address": "31, 9831 Flattach", "street": null, "housenumber": "31", "postcode": "9831", "place": "Flattach", "lat": 46.9355905, "lon": 13.1162542, "tags": {"addr:city": "Flattach", "addr:housenumber": "31", "addr:place": "Kleindorf", "addr:postcode": "9831"}, "content": "Adresse: 31, 9831 Flattach\nOrt: Flattach\nPLZ: 9831\nKoordinaten: 46.935591, 13.116254", "doc_type": "addresses"}
{"source": "OSM", "region": "Kärnten", "osm_type": "node", "osm_id": 5623601386, "name": null, "category": null, "address": "26, 9831 Flattach", "street": null, "housenumber": "26", "postcode": "9831", "place": "Flattach", "lat": 46.9370502, "lon": 13.1193495, "tags": {"addr:city": "Flattach", "addr:housenumber": "26", "addr:place": "Flattachberg", "addr:postcode": "9831"}, "content": "Adresse: 26, 9831 Flattach\nOrt: Flattach\nPLZ: 9831\nKoordinaten: 46.937050, 13.119350", "doc_type": "addresses"}
{"source": "OSM", "region": "Kärnten", "osm_type": "node", "osm_id": 5623601387, "name": null, "category": null, "address": "44, 9831 Flattach", "street": null, "housenumber": "44", "postcode": "9831", "place": "Flattach", "lat": 46.9371711, "lon": 13.1186199, "tags": {"addr:city": "Flattach", "addr:housenumber": "44", "addr:place": "Flattach", "addr:postcode": "9831"}, "content": "Adresse: 44, 9831 Flattach\nOrt: Flattach\nPLZ: 9831\nKoordinaten: 46.937171, 13.118620", "doc_type": "addresses"}
{"source": "OSM", "region": "Kärnten", "osm_type": "node", "osm_id": 5623601388, "name": null, "category": null, "address": "110, 9831 Flattach", "street": null, "housenumber": "110", "postcode": "9831", "place": "Flattach", "lat": 46.9367297, "lon": 13.1197438, "tags": {"addr:city": "Flattach", "addr:housenumber": "110", "addr:place": "Flattach", "addr:postcode": "9831"}, "content": "Adresse: 110, 9831 Flattach\nOrt: Flattach\nPLZ: 9831\nKoordinaten: 46.936730, 13.119744", "doc_type": "addresses"}
{"source": "OSM", "region": "Kärnten", "osm_type": "node", "osm_id": 5623601389, "name": null, "category": null, "address": "124, 9831 Flattach", "street": null, "housenumber": "124", "postcode": "9831", "place": "Flattach", "lat": 46.9368011, "lon": 13.1201139, "tags": {"addr:city": "Flattach", "addr:housenumber": "124", "addr:place": "Flattach", "addr:postcode": "9831"}, "content": "Adresse: 124, 9831 Flattach\nOrt: Flattach\nPLZ: 9831\nKoordinaten: 46.936801, 13.120114", "doc_type": "addresses"}
{"source": "OSM", "region": "Kärnten", "osm_type": "node", "osm_id": 5623601390, "name": null, "category": null, "address": "105, 9831 Flattach", "street": null, "housenumber": "105", "postcode": "9831", "place": "Flattach", "lat": 46.9365081, "lon": 13.1201729, "tags": {"addr:city": "Flattach", "addr:housenumber": "105", "addr:place": "Flattach", "addr:postcode": "9831"}, "content": "Adresse: 105, 9831 Flattach\nOrt: Flattach\nPLZ: 9831\nKoordinaten: 46.936508, 13.120173", "doc_type": "addresses"}
{"source": "OSM", "region": "Kärnten", "osm_type": "node", "osm_id": 5623601391, "name": null, "category": null, "address": "106, 9831 Flattach", "street": null, "housenumber": "106", "postcode": "9831", "place": "Flattach", "lat": 46.9365594, "lon": 13.120417, "tags": {"addr:city": "Flattach", "addr:housenumber": "106", "addr:place": "Flattach", "addr:postcode": "9831"}, "content": "Adresse: 106, 9831 Flattach\nOrt: Flattach\nPLZ: 9831\nKoordinaten: 46.936559, 13.120417", "doc_type": "addresses"}
{"source": "OSM", "region": "Kärnten", "osm_type": "node", "osm_id": 5623601392, "name": null, "category": null, "address": "113, 9831 Flattach", "street": null, "housenumber": "113", "postcode": "9831", "place": "Flattach", "lat": 46.9368945, "lon": 13.1205779, "tags": {"addr:city": "Flattach", "addr:housenumber": "113", "addr:place": "Flattach", "addr:postcode": "9831"}, "content": "Adresse: 113, 9831 Flattach\nOrt: Flattach\nPLZ: 9831\nKoordinaten: 46.936895, 13.120578", "doc_type": "addresses"}
{"source": "OSM", "region": "Kärnten", "osm_type": "node", "osm_id": 5623601393, "name": null, "category": null, "address": "97, 9831 Flattach", "street": null, "housenumber": "97", "postcode": "9831", "place": "Flattach", "lat": 46.9367627, "lon": 13.120991, "tags": {"addr:city": "Flattach", "addr:housenumber": "97", "addr:place": "Flattach", "addr:postcode": "9831"}, "content": "Adresse: 97, 9831 Flattach\nOrt: Flattach\nPLZ: 9831\nKoordinaten: 46.936763, 13.120991", "doc_type": "addresses"}
{"source": "OSM", "region": "Kärnten", "osm_type": "node", "osm_id": 5623601394, "name": null, "category": null, "address": "126, 9831 Flattach", "street": null, "housenumber": "126", "postcode": "9831", "place": "Flattach", "lat": 46.9365173, "lon": 13.122662, "tags": {"addr:city": "Flattach", "addr:housenumber": "126", "addr:place": "Flattach", "addr:postcode": "9831"}, "content": "Adresse: 126, 9831 Flattach\nOrt: Flattach\nPLZ: 9831\nKoordinaten: 46.936517, 13.122662", "doc_type": "addresses"}
{"source": "OSM", "region": "Kärnten", "osm_type": "node", "osm_id": 5623601395, "name": null, "category": null, "address": "128, 9831 Flattach", "street": null, "housenumber": "128", "postcode": "9831", "place": "Flattach", "lat": 46.9366619, "lon": 13.1217232, "tags": {"addr:city": "Flattach", "addr:housenumber": "128", "addr:place": "Flattach", "addr:postcode": "9831"}, "content": "Adresse: 128, 9831 Flattach\nOrt: Flattach\nPLZ: 9831\nKoordinaten: 46.936662, 13.121723", "doc_type": "addresses"}
{"source": "OSM", "region": "Kärnten", "osm_type": "node", "osm_id": 5623601396, "name": null, "category": null, "address": "127, 9831 Flattach", "street": null, "housenumber": "127", "postcode": "9831", "place": "Flattach", "lat": 46.9365319, "lon": 13.1221551, "tags": {"addr:city": "Flattach", "addr:housenumber": "127", "addr:place": "Flattach", "addr:postcode": "9831"}, "content": "Adresse: 127, 9831 Flattach\nOrt: Flattach\nPLZ: 9831\nKoordinaten: 46.936532, 13.122155", "doc_type": "addresses"}
{"source": "OSM", "region": "Kärnten", "osm_type": "node", "osm_id": 5623601402, "name": null, "category": null, "address": "5, 9831 Flattach", "street": null, "housenumber": "5", "postcode": "9831", "place": "Flattach", "lat": 46.9358561, "lon": 13.1220719, "tags": {"addr:city": "Flattach", "addr:housenumber": "5", "addr:place": "Kurierdorf", "addr:postcode": "9831"}, "content": "Adresse: 5, 9831 Flattach\nOrt: Flattach\nPLZ: 9831\nKoordinaten: 46.935856, 13.122072", "doc_type": "addresses"}
{"source": "OSM", "region": "Kärnten", "osm_type": "node", "osm_id": 5623601403, "name": null, "category": null, "address": "6, 9831 Flattach", "street": null, "housenumber": "6", "postcode": "9831", "place": "Flattach", "lat": 46.9356913, "lon": 13.1218627, "tags": {"addr:city": "Flattach", "addr:housenumber": "6", "addr:place": "Kurierdorf", "addr:postcode": "9831"}, "content": "Adresse: 6, 9831 Flattach\nOrt: Flattach\nPLZ: 9831\nKoordinaten: 46.935691, 13.121863", "doc_type": "addresses"}
{"source": "OSM", "region": "Kärnten", "osm_type": "node", "osm_id": 5623601407, "name": null, "category": null, "address": "109, 9831 Flattach", "street": null, "housenumber": "109", "postcode": "9831", "place": "Flattach", "lat": 46.9348323, "lon": 13.1223696, "tags": {"addr:city": "Flattach", "addr:housenumber": "109", "addr:place": "Flattach", "addr:postcode": "9831"}, "content": "Adresse: 109, 9831 Flattach\nOrt: Flattach\nPLZ: 9831\nKoordinaten: 46.934832, 13.122370", "doc_type": "addresses"}
{"source": "OSM", "region": "Kärnten", "osm_type": "node", "osm_id": 5623601413, "name": null, "category": null, "address": "100, 9831 Flattach", "street": null, "housenumber": "100", "postcode": "9831", "place": "Flattach", "lat": 46.9348189, "lon": 13.1193048, "tags": {"addr:city": "Flattach", "addr:housenumber": "100", "addr:place": "Flattach", "addr:postcode": "9831"}, "content": "Adresse: 100, 9831 Flattach\nOrt: Flattach\nPLZ: 9831\nKoordinaten: 46.934819, 13.119305", "doc_type": "addresses"}
{"source": "OSM", "region": "Kärnten", "osm_type": "node", "osm_id": 5623601414, "name": null, "category": null, "address": "77, 9831 Flattach", "street": null, "housenumber": "77", "postcode": "9831", "place": "Flattach", "lat": 46.9355259, "lon": 13.1204554, "tags": {"addr:city": "Flattach", "addr:housenumber": "77", "addr:place": "Flattach", "addr:postcode": "9831"}, "content": "Adresse: 77, 9831 Flattach\nOrt: Flattach\nPLZ: 9831\nKoordinaten: 46.935526, 13.120455", "doc_type": "addresses"}
{"source": "OSM", "region": "Kärnten", "osm_type": "node", "osm_id": 5623601428, "name": null, "category": null, "address": "114, 9831 Flattach", "street": null, "housenumber": "114", "postcode": "9831", "place": "Flattach", "lat": 46.9347096, "lon": 13.1187031, "tags": {"addr:city": "Flattach", "addr:housenumber": "114", "addr:place": "Flattach", "addr:postcode": "9831"}, "content": "Adresse: 114, 9831 Flattach\nOrt: Flattach\nPLZ: 9831\nKoordinaten: 46.934710, 13.118703", "doc_type": "addresses"}
{"source": "OSM", "region": "Kärnten", "osm_type": "node", "osm_id": 5623601429, "name": null, "category": null, "address": "88, 9831 Flattach", "street": null, "housenumber": "88", "postcode": "9831", "place": "Flattach", "lat": 46.9347444, "lon": 13.1182685, "tags": {"addr:city": "Flattach", "addr:housenumber": "88", "addr:place": "Flattach", "addr:postcode": "9831"}, "content": "Adresse: 88, 9831 Flattach\nOrt: Flattach\nPLZ: 9831\nKoordinaten: 46.934744, 13.118268", "doc_type": "addresses"}
{"source": "OSM", "region": "Kärnten", "osm_type": "node", "osm_id": 5623601430, "name": null, "category": null, "address": "173, 9831 Flattach", "street": null, "housenumber": "173", "postcode": "9831", "place": "Flattach", "lat": 46.9349477, "lon": 13.1182069, "tags": {"addr:city": "Flattach", "addr:housenumber": "173", "addr:place": "Flattach", "addr:postcode": "9831"}, "content": "Adresse: 173, 9831 Flattach\nOrt: Flattach\nPLZ: 9831\nKoordinaten: 46.934948, 13.118207", "doc_type": "addresses"}
{"source": "OSM", "region": "Kärnten", "osm_type": "node", "osm_id": 5623601431, "name": null, "category": null, "address": "102, 9831 Flattach", "street": null, "housenumber": "102", "postcode": "9831", "place": "Flattach", "lat": 46.9350686, "lon": 13.1185099, "tags": {"addr:city": "Flattach", "addr:housenumber": "102", "addr:place": "Flattach", "addr:postcode": "9831"}, "content": "Adresse: 102, 9831 Flattach\nOrt: Flattach\nPLZ: 9831\nKoordinaten: 46.935069, 13.118510", "doc_type": "addresses"}
{"source": "OSM", "region": "Kärnten", "osm_type": "node", "osm_id": 5623601432, "name": null, "category": null, "address": "87, 9831 Flattach", "street": null, "housenumber": "87", "postcode": "9831", "place": "Flattach", "lat": 46.9352371, "lon": 13.1181881, "tags": {"addr:city": "Flattach", "addr:housenumber": "87", "addr:place": "Flattach", "addr:postcode": "9831"}, "content": "Adresse: 87, 9831 Flattach\nOrt: Flattach\nPLZ: 9831\nKoordinaten: 46.935237, 13.118188", "doc_type": "addresses"}
{"source": "OSM", "region": "Kärnten", "osm_type": "node", "osm_id": 5623601433, "name": null, "category": null, "address": "96, 9831 Flattach", "street": null, "housenumber": "96", "postcode": "9831", "place": "Flattach", "lat": 46.9352993, "lon": 13.1184885, "tags": {"addr:city": "Flattach", "addr:housenumber": "96", "addr:place": "Flattach", "addr:postcode": "9831"}, "content": "Adresse: 96, 9831 Flattach\nOrt: Flattach\nPLZ: 9831\nKoordinaten: 46.935299, 13.118488", "doc_type": "addresses"}
{"source": "OSM", "region": "Kärnten", "osm_type": "node", "osm_id": 5623601434, "name": null, "category": null, "address": "78, 9831 Flattach", "street": null, "housenumber": "78", "postcode": "9831", "place": "Flattach", "lat": 46.935281, "lon": 13.117885, "tags": {"addr:city": "Flattach", "addr:housenumber": "78", "addr:place": "Flattach", "addr:postcode": "9831"}, "content": "Adresse: 78, 9831 Flattach\nOrt: Flattach\nPLZ: 9831\nKoordinaten: 46.935281, 13.117885", "doc_type": "addresses"}
{"source": "OSM", "region": "Kärnten", "osm_type": "node", "osm_id": 5623601435, "name": null, "category": null, "address": "146, 9831 Flattach", "street": null, "housenumber": "146", "postcode": "9831", "place": "Flattach", "lat": 46.9356437, "lon": 13.1176329, "tags": {"addr:city": "Flattach", "addr:housenumber": "146", "addr:place": "Flattach", "addr:postcode": "9831"}, "content": "Adresse: 146, 9831 Flattach\nOrt: Flattach\nPLZ: 9831\nKoordinaten: 46.935644, 13.117633", "doc_type": "addresses"}
{"source": "OSM", "region": "Kärnten", "osm_type": "node", "osm_id": 5623601436, "name": null, "category": null, "address": "143, 9831 Flattach", "street": null, "housenumber": "143", "postcode": "9831", "place": "Flattach", "lat": 46.9358012, "lon": 13.1179494, "tags": {"addr:city": "Flattach", "addr:housenumber": "143", "addr:place": "Flattach", "addr:postcode": "9831"}, "content": "Adresse: 143, 9831 Flattach\nOrt: Flattach\nPLZ: 9831\nKoordinaten: 46.935801, 13.117949", "doc_type": "addresses"}
{"source": "OSM", "region": "Kärnten", "osm_type": "node", "osm_id": 5623601437, "name": null, "category": null, "address": "121, 9831 Flattach", "street": null, "housenumber": "121", "postcode": "9831", "place": "Flattach", "lat": 46.9357609, "lon": 13.1184134, "tags": {"addr:city": "Flattach", "addr:housenumber": "121", "addr:place": "Flattach", "addr:postcode": "9831"}, "content": "Adresse: 121, 9831 Flattach\nOrt: Flattach\nPLZ: 9831\nKoordinaten: 46.935761, 13.118413", "doc_type": "addresses"}
{"source": "OSM", "region": "Kärnten", "osm_type": "node", "osm_id": 5623601438, "name": null, "category": null, "address": "76, 9831 Flattach", "street": null, "housenumber": "76", "postcode": "9831", "place": "Flattach", "lat": 46.9359367, "lon": 13.1195667, "tags": {"addr:city": "Flattach", "addr:housenumber": "76", "addr:place": "Flattach", "addr:postcode": "9831"}, "content": "Adresse: 76, 9831 Flattach\nOrt: Flattach\nPLZ: 9831\nKoordinaten: 46.935937, 13.119567", "doc_type": "addresses"}
{"source": "OSM", "region": "Kärnten", "osm_type": "node", "osm_id": 5623601439, "name": null, "category": null, "address": "71, 9831 Flattach", "street": null, "housenumber": "71", "postcode": "9831", "place": "Flattach", "lat": 46.9361693, "lon": 13.1191778, "tags": {"addr:city": "Flattach", "addr:housenumber": "71", "addr:place": "Flattach", "addr:postcode": "9831"}, "content": "Adresse: 71, 9831 Flattach\nOrt: Flattach\nPLZ: 9831\nKoordinaten: 46.936169, 13.119178", "doc_type": "addresses"}
{"source": "OSM", "region": "Kärnten", "osm_type": "node", "osm_id": 5623601440, "name": null, "category": null, "address": "55, 9831 Flattach", "street": null, "housenumber": "55", "postcode": "9831", "place": "Flattach", "lat": 46.9361986, "lon": 13.1187245, "tags": {"addr:city": "Flattach", "addr:housenumber": "55", "addr:place": "Flattach", "addr:postcode": "9831"}, "content": "Adresse: 55, 9831 Flattach\nOrt: Flattach\nPLZ: 9831\nKoordinaten: 46.936199, 13.118725", "doc_type": "addresses"}
{"source": "OSM", "region": "Kärnten", "osm_type": "node", "osm_id": 5623601441, "name": null, "category": null, "address": "68, 9831 Flattach", "street": null, "housenumber": "68", "postcode": "9831", "place": "Flattach", "lat": 46.9366125, "lon": 13.1191778, "tags": {"addr:city": "Flattach", "addr:housenumber": "68", "addr:place": "Flattach", "addr:postcode": "9831"}, "content": "Adresse: 68, 9831 Flattach\nOrt: Flattach\nPLZ: 9831\nKoordinaten: 46.936613, 13.119178", "doc_type": "addresses"}
{"source": "OSM", "region": "Kärnten", "osm_type": "node", "osm_id": 5623601442, "name": null, "category": null, "address": "48, 9831 Flattach", "street": null, "housenumber": "48", "postcode": "9831", "place": "Flattach", "lat": 46.9368964, "lon": 13.1191134, "tags": {"addr:city": "Flattach", "addr:housenumber": "48", "addr:place": "Flattach", "addr:postcode": "9831"}, "content": "Adresse: 48, 9831 Flattach\nOrt: Flattach\nPLZ: 9831\nKoordinaten: 46.936896, 13.119113", "doc_type": "addresses"}
{"source": "OSM", "region": "Kärnten", "osm_type": "node", "osm_id": 5623601443, "name": null, "category": null, "address": "79, 9831 Flattach", "street": null, "housenumber": "79", "postcode": "9831", "place": "Flattach", "lat": 46.9368103, "lon": 13.1189042, "tags": {"addr:city": "Flattach", "addr:housenumber": "79", "addr:place": "Flattach", "addr:postcode": "9831"}, "content": "Adresse: 79, 9831 Flattach\nOrt: Flattach\nPLZ: 9831\nKoordinaten: 46.936810, 13.118904", "doc_type": "addresses"}
{"source": "OSM", "region": "Kärnten", "osm_type": "node", "osm_id": 5623601444, "name": null, "category": null, "address": "137, 9831 Flattach", "street": null, "housenumber": "137", "postcode": "9831", "place": "Flattach", "lat": 46.9368726, "lon": 13.1186092, "tags": {"addr:city": "Flattach", "addr:housenumber": "137", "addr:place": "Flattach", "addr:postcode": "9831"}, "content": "Adresse: 137, 9831 Flattach\nOrt: Flattach\nPLZ: 9831\nKoordinaten: 46.936873, 13.118609", "doc_type": "addresses"}
{"source": "OSM", "region": "Kärnten", "osm_type": "node", "osm_id": 5623601445, "name": null, "category": null, "address": "134, 9831 Flattach", "street": null, "housenumber": "134", "postcode": "9831", "place": "Flattach", "lat": 46.936618, "lon": 13.1186092, "tags": {"addr:city": "Flattach", "addr:housenumber": "134", "addr:place": "Flattach", "addr:postcode": "9831"}, "content": "Adresse: 134, 9831 Flattach\nOrt: Flattach\nPLZ: 9831\nKoordinaten: 46.936618, 13.118609", "doc_type": "addresses"}
{"source": "OSM", "region": "Kärnten", "osm_type": "node", "osm_id": 5623601446, "name": null, "category": null, "address": "47, 9831 Flattach", "street": null, "housenumber": "47", "postcode": "9831", "place": "Flattach", "lat": 46.9364935, "lon": 13.1179601, "tags": {"addr:city": "Flattach", "addr:housenumber": "47", "addr:place": "Flattach", "addr:postcode": "9831"}, "content": "Adresse: 47, 9831 Flattach\nOrt: Flattach\nPLZ: 9831\nKoordinaten: 46.936493, 13.117960", "doc_type": "addresses"}
{"source": "OSM", "region": "Kärnten", "osm_type": "node", "osm_id": 5623601447, "name": null, "category": null, "address": "50, 9831 Flattach", "street": null, "housenumber": "50", "postcode": "9831", "place": "Flattach", "lat": 46.9364477, "lon": 13.1177643, "tags": {"addr:city": "Flattach", "addr:housenumber": "50", "addr:place": "Flattach", "addr:postcode": "9831"}, "content": "Adresse: 50, 9831 Flattach\nOrt: Flattach\nPLZ: 9831\nKoordinaten: 46.936448, 13.117764", "doc_type": "addresses"}
{"source": "OSM", "region": "Kärnten", "osm_type": "node", "osm_id": 5623601448, "name": null, "category": null, "address": "29, 9831 Flattach", "street": null, "housenumber": "29", "postcode": "9831", "place": "Flattach", "lat": 46.9367737, "lon": 13.1177911, "tags": {"addr:city": "Flattach", "addr:housenumber": "29", "addr:place": "Flattach", "addr:postcode": "9831"}, "content": "Adresse: 29, 9831 Flattach\nOrt: Flattach\nPLZ: 9831\nKoordinaten: 46.936774, 13.117791", "doc_type": "addresses"}
{"source": "OSM", "region": "Kärnten", "osm_type": "node", "osm_id": 5623601449, "name": null, "category": null, "address": "156, 9831 Flattach", "street": null, "housenumber": "156", "postcode": "9831", "place": "Flattach", "lat": 46.9368542, "lon": 13.1181961, "tags": {"addr:city": "Flattach", "addr:housenumber": "156", "addr:place": "Flattach", "addr:postcode": "9831"}, "content": "Adresse: 156, 9831 Flattach\nOrt: Flattach\nPLZ: 9831\nKoordinaten: 46.936854, 13.118196", "doc_type": "addresses"}
{"source": "OSM", "region": "Kärnten", "osm_type": "node", "osm_id": 5623601450, "name": null, "category": null, "address": "82, 9831 Flattach", "street": null, "housenumber": "82", "postcode": "9831", "place": "Flattach", "lat": 46.9369275, "lon": 13.1179038, "tags": {"addr:city": "Flattach", "addr:housenumber": "82", "addr:place": "Flattach", "addr:postcode": "9831"}, "content": "Adresse: 82, 9831 Flattach\nOrt: Flattach\nPLZ: 9831\nKoordinaten: 46.936928, 13.117904", "doc_type": "addresses"}
{"source": "OSM", "region": "Kärnten", "osm_type": "node", "osm_id": 5623601451, "name": null, "category": null, "address": "49, 9831 Flattach", "street": null, "housenumber": "49", "postcode": "9831", "place": "Flattach", "lat": 46.9370099, "lon": 13.1182256, "tags": {"addr:city": "Flattach", "addr:housenumber": "49", "addr:place": "Flattach", "addr:postcode": "9831"}, "content": "Adresse: 49, 9831 Flattach\nOrt: Flattach\nPLZ: 9831\nKoordinaten: 46.937010, 13.118226", "doc_type": "addresses"}
{"source": "OSM", "region": "Kärnten", "osm_type": "node", "osm_id": 5623601452, "name": null, "category": null, "address": "14, 9831 Flattach", "street": null, "housenumber": "14", "postcode": "9831", "place": "Flattach", "lat": 46.9373652, "lon": 13.1177348, "tags": {"addr:city": "Flattach", "addr:housenumber": "14", "addr:place": "Flattachberg", "addr:postcode": "9831"}, "content": "Adresse: 14, 9831 Flattach\nOrt: Flattach\nPLZ: 9831\nKoordinaten: 46.937365, 13.117735", "doc_type": "addresses"}
{"source": "OSM", "region": "Kärnten", "osm_type": "node", "osm_id": 5623601453, "name": null, "category": null, "address": "17, 9831 Flattach", "street": null, "housenumber": "17", "postcode": "9831", "place": "Flattach", "lat": 46.9374311, "lon": 13.117319, "tags": {"addr:city": "Flattach", "addr:housenumber": "17", "addr:place": "Flattachberg", "addr:postcode": "9831"}, "content": "Adresse: 17, 9831 Flattach\nOrt: Flattach\nPLZ: 9831\nKoordinaten: 46.937431, 13.117319", "doc_type": "addresses"}
{"source": "OSM", "region": "Kärnten", "osm_type": "node", "osm_id": 5623601454, "name": null, "category": null, "address": "19, 9831 Flattach", "street": null, "housenumber": "19", "postcode": "9831", "place": "Flattach", "lat": 46.9375831, "lon": 13.1171152, "tags": {"addr:city": "Flattach", "addr:housenumber": "19", "addr:place": "Flattachberg", "addr:postcode": "9831"}, "content": "Adresse: 19, 9831 Flattach\nOrt: Flattach\nPLZ: 9831\nKoordinaten: 46.937583, 13.117115", "doc_type": "addresses"}
{"source": "OSM", "region": "Kärnten", "osm_type": "node", "osm_id": 5623601455, "name": null, "category": null, "address": "21, 9831 Flattach", "street": null, "housenumber": "21", "postcode": "9831", "place": "Flattach", "lat": 46.9371821, "lon": 13.1171876, "tags": {"addr:city": "Flattach", "addr:housenumber": "21", "addr:place": "Flattachberg", "addr:postcode": "9831"}, "content": "Adresse: 21, 9831 Flattach\nOrt: Flattach\nPLZ: 9831\nKoordinaten: 46.937182, 13.117188", "doc_type": "addresses"}
{"source": "OSM", "region": "Kärnten", "osm_type": "node", "osm_id": 5623601456, "name": null, "category": null, "address": "21, 9831 Flattach", "street": null, "housenumber": "21", "postcode": "9831", "place": "Flattach", "lat": 46.9371931, "lon": 13.1169274, "tags": {"addr:city": "Flattach", "addr:housenumber": "21", "addr:place": "Flattachberg", "addr:postcode": "9831"}, "content": "Adresse: 21, 9831 Flattach\nOrt: Flattach\nPLZ: 9831\nKoordinaten: 46.937193, 13.116927", "doc_type": "addresses"}
{"source": "OSM", "region": "Kärnten", "osm_type": "node", "osm_id": 5623601458, "name": null, "category": null, "address": "54, 9831 Flattach", "street": null, "housenumber": "54", "postcode": "9831", "place": "Flattach", "lat": 46.9365484, "lon": 13.116847, "tags": {"addr:city": "Flattach", "addr:housenumber": "54", "addr:place": "Flattach", "addr:postcode": "9831"}, "content": "Adresse: 54, 9831 Flattach\nOrt: Flattach\nPLZ: 9831\nKoordinaten: 46.936548, 13.116847", "doc_type": "addresses"}
{"source": "OSM", "region": "Kärnten", "osm_type": "node", "osm_id": 5623601459, "name": null, "category": null, "address": "52, 9831 Flattach", "street": null, "housenumber": "52", "postcode": "9831", "place": "Flattach", "lat": 46.9365081, "lon": 13.1174102, "tags": {"addr:city": "Flattach", "addr:housenumber": "52", "addr:place": "Flattach", "addr:postcode": "9831"}, "content": "Adresse: 52, 9831 Flattach\nOrt: Flattach\nPLZ: 9831\nKoordinaten: 46.936508, 13.117410", "doc_type": "addresses"}
{"source": "OSM", "region": "Kärnten", "osm_type": "node", "osm_id": 5623601460, "name": null, "category": null, "address": "53, 9831 Flattach", "street": null, "housenumber": "53", "postcode": "9831", "place": "Flattach", "lat": 46.9364019, "lon": 13.1171474, "tags": {"addr:city": "Flattach", "addr:housenumber": "53", "addr:place": "Flattach", "addr:postcode": "9831"}, "content": "Adresse: 53, 9831 Flattach\nOrt: Flattach\nPLZ: 9831\nKoordinaten: 46.936402, 13.117147", "doc_type": "addresses"}
{"source": "OSM", "region": "Kärnten", "osm_type": "node", "osm_id": 5623601461, "name": null, "category": null, "address": "63, 9831 Flattach", "street": null, "housenumber": "63", "postcode": "9831", "place": "Flattach", "lat": 46.936314, "lon": 13.1168067, "tags": {"addr:city": "Flattach", "addr:housenumber": "63", "addr:place": "Flattach", "addr:postcode": "9831"}, "content": "Adresse: 63, 9831 Flattach\nOrt: Flattach\nPLZ: 9831\nKoordinaten: 46.936314, 13.116807", "doc_type": "addresses"}
{"source": "OSM", "region": "Kärnten", "osm_type": "node", "osm_id": 5623601462, "name": null, "category": null, "address": "50, 9831 Flattach", "street": null, "housenumber": "50", "postcode": "9831", "place": "Flattach", "lat": 46.9366839, "lon": 13.1156588, "tags": {"addr:city": "Flattach", "addr:housenumber": "50", "addr:place": "Kleindorf", "addr:postcode": "9831"}, "content": "Adresse: 50, 9831 Flattach\nOrt: Flattach\nPLZ: 9831\nKoordinaten: 46.936684, 13.115659", "doc_type": "addresses"}
{"source": "OSM", "region": "Kärnten", "osm_type": "node", "osm_id": 5623601463, "name": null, "category": null, "address": "19, 9831 Flattach", "street": null, "housenumber": "19", "postcode": "9831", "place": "Flattach", "lat": 46.9359367, "lon": 13.1156373, "tags": {"addr:city": "Flattach", "addr:housenumber": "19", "addr:place": "Kleindorf", "addr:postcode": "9831"}, "content": "Adresse: 19, 9831 Flattach\nOrt: Flattach\nPLZ: 9831\nKoordinaten: 46.935937, 13.115637", "doc_type": "addresses"}
{"source": "OSM", "region": "Kärnten", "osm_type": "node", "osm_id": 5623601464, "name": null, "category": null, "address": "33, 9831 Flattach", "street": null, "housenumber": "33", "postcode": "9831", "place": "Flattach", "lat": 46.9362609, "lon": 13.1162167, "tags": {"addr:city": "Flattach", "addr:housenumber": "33", "addr:place": "Kleindorf", "addr:postcode": "9831"}, "content": "Adresse: 33, 9831 Flattach\nOrt: Flattach\nPLZ: 9831\nKoordinaten: 46.936261, 13.116217", "doc_type": "addresses"}
{"source": "OSM", "region": "Kärnten", "osm_type": "node", "osm_id": 5623601465, "name": null, "category": null, "address": "45, 9831 Flattach", "street": null, "housenumber": "45", "postcode": "9831", "place": "Flattach", "lat": 46.9363323, "lon": 13.1157365, "tags": {"addr:city": "Flattach", "addr:housenumber": "45", "addr:place": "Kleindorf", "addr:postcode": "9831"}, "content": "Adresse: 45, 9831 Flattach\nOrt: Flattach\nPLZ: 9831\nKoordinaten: 46.936332, 13.115737", "doc_type": "addresses"}
{"source": "OSM", "region": "Kärnten", "osm_type": "node", "osm_id": 5623601466, "name": null, "category": null, "address": "9, 9831 Flattach", "street": null, "housenumber": "9", "postcode": "9831", "place": "Flattach", "lat": 46.9367614, "lon": 13.1147147, "tags": {"addr:city": "Flattach", "addr:housenumber": "9", "addr:place": "Kleindorf", "addr:postcode": "9831"}, "content": "Adresse: 9, 9831 Flattach\nOrt: Flattach\nPLZ: 9831\nKoordinaten: 46.936761, 13.114715", "doc_type": "addresses"}
{"source": "OSM", "region": "Kärnten", "osm_type": "node", "osm_id": 5623601467, "name": null, "category": null, "address": "11, 9831 Flattach", "street": null, "housenumber": "11", "postcode": "9831", "place": "Flattach", "lat": 46.9367645, "lon": 13.1148827, "tags": {"addr:city": "Flattach", "addr:housenumber": "11", "addr:place": "Kleindorf", "addr:postcode": "9831"}, "content": "Adresse: 11, 9831 Flattach\nOrt: Flattach\nPLZ: 9831\nKoordinaten: 46.936765, 13.114883", "doc_type": "addresses"}
{"source": "OSM", "region": "Kärnten", "osm_type": "node", "osm_id": 5623601468, "name": null, "category": null, "address": "12, 9831 Flattach", "street": null, "housenumber": "12", "postcode": "9831", "place": "Flattach", "lat": 46.9366363, "lon": 13.1137937, "tags": {"addr:city": "Flattach", "addr:housenumber": "12", "addr:place": "Kleindorf", "addr:postcode": "9831"}, "content": "Adresse: 12, 9831 Flattach\nOrt: Flattach\nPLZ: 9831\nKoordinaten: 46.936636, 13.113794", "doc_type": "addresses"}
{"source": "OSM", "region": "Kärnten", "osm_type": "node", "osm_id": 5623601469, "name": null, "category": null, "address": "42, 9831 Flattach", "street": null, "housenumber": "42", "postcode": "9831", "place": "Flattach", "lat": 46.9364092, "lon": 13.1136686, "tags": {"addr:city": "Flattach", "addr:housenumber": "42", "addr:place": "Kleindorf", "addr:postcode": "9831"}, "content": "Adresse: 42, 9831 Flattach\nOrt: Flattach\nPLZ: 9831\nKoordinaten: 46.936409, 13.113669", "doc_type": "addresses"}
{"source": "OSM", "region": "Kärnten", "osm_type": "node", "osm_id": 5623601470, "name": null, "category": null, "address": "2, 9831 Flattach", "street": null, "housenumber": "2", "postcode": "9831", "place": "Flattach", "lat": 46.9357865, "lon": 13.113395, "tags": {"addr:city": "Flattach", "addr:housenumber": "2", "addr:place": "Kleindorf", "addr:postcode": "9831"}, "content": "Adresse: 2, 9831 Flattach\nOrt: Flattach\nPLZ: 9831\nKoordinaten: 46.935786, 13.113395", "doc_type": "addresses"}
{"source": "OSM", "region": "Kärnten", "osm_type": "node", "osm_id": 5623601471, "name": null, "category": null, "address": "52, 9831 Flattach", "street": null, "housenumber": "52", "postcode": "9831", "place": "Flattach", "lat": 46.9358964, "lon": 13.1124133, "tags": {"addr:city": "Flattach", "addr:housenumber": "52", "addr:place": "Kleindorf", "addr:postcode": "9831"}, "content": "Adresse: 52, 9831 Flattach\nOrt: Flattach\nPLZ: 9831\nKoordinaten: 46.935896, 13.112413", "doc_type": "addresses"}
{"source": "OSM", "region": "Kärnten", "osm_type": "node", "osm_id": 5623601472, "name": null, "category": null, "address": "65, 9831 Flattach", "street": null, "housenumber": "65", "postcode": "9831", "place": "Flattach", "lat": 46.935966, "lon": 13.1127325, "tags": {"addr:city": "Flattach", "addr:housenumber": "65", "addr:place": "Kleindorf", "addr:postcode": "9831"}, "content": "Adresse: 65, 9831 Flattach\nOrt: Flattach\nPLZ: 9831\nKoordinaten: 46.935966, 13.112732", "doc_type": "addresses"}
{"source": "OSM", "region": "Kärnten", "osm_type": "node", "osm_id": 5623601473, "name": null, "category": null, "address": "1, 9831 Flattach", "street": null, "housenumber": "1", "postcode": "9831", "place": "Flattach", "lat": 46.9362938, "lon": 13.1127191, "tags": {"addr:city": "Flattach", "addr:housenumber": "1", "addr:place": "Kleindorf", "addr:postcode": "9831"}, "content": "Adresse: 1, 9831 Flattach\nOrt: Flattach\nPLZ: 9831\nKoordinaten: 46.936294, 13.112719", "doc_type": "addresses"}
{"source": "OSM", "region": "Kärnten", "osm_type": "node", "osm_id": 5623601474, "name": null, "category": null, "address": "59, 9831 Flattach", "street": null, "housenumber": "59", "postcode": "9831", "place": "Flattach", "lat": 46.9361968, "lon": 13.1120941, "tags": {"addr:city": "Flattach", "addr:housenumber": "59", "addr:place": "Kleindorf", "addr:postcode": "9831"}, "content": "Adresse: 59, 9831 Flattach\nOrt: Flattach\nPLZ: 9831\nKoordinaten: 46.936197, 13.112094", "doc_type": "addresses"}
{"source": "OSM", "region": "Kärnten", "osm_type": "node", "osm_id": 5623601475, "name": null, "category": null, "address": "17, 9831 Flattach", "street": null, "housenumber": "17", "postcode": "9831", "place": "Flattach", "lat": 46.935933, "lon": 13.1120378, "tags": {"addr:city": "Flattach", "addr:housenumber": "17", "addr:place": "Kleindorf", "addr:postcode": "9831"}, "content": "Adresse: 17, 9831 Flattach\nOrt: Flattach\nPLZ: 9831\nKoordinaten: 46.935933, 13.112038", "doc_type": "addresses"}
{"source": "OSM", "region": "Kärnten", "osm_type": "node", "osm_id": 5623601476, "name": null, "category": null, "address": "56, 9831 Flattach", "street": null, "housenumber": "56", "postcode": "9831", "place": "Flattach", "lat": 46.935836, "lon": 13.1116301, "tags": {"addr:city": "Flattach", "addr:housenumber": "56", "addr:place": "Kleindorf", "addr:postcode": "9831"}, "content": "Adresse: 56, 9831 Flattach\nOrt: Flattach\nPLZ: 9831\nKoordinaten: 46.935836, 13.111630", "doc_type": "addresses"}
{"source": "OSM", "region": "Kärnten", "osm_type": "node", "osm_id": 5623601477, "name": null, "category": null, "address": "56a, 9831 Flattach", "street": null, "housenumber": "56a", "postcode": "9831", "place": "Flattach", "lat": 46.9358158, "lon": 13.1112519, "tags": {"addr:city": "Flattach", "addr:housenumber": "56a", "addr:place": "Kleindorf", "addr:postcode": "9831"}, "content": "Adresse: 56a, 9831 Flattach\nOrt: Flattach\nPLZ: 9831\nKoordinaten: 46.935816, 13.111252", "doc_type": "addresses"}
{"source": "OSM", "region": "Kärnten", "osm_type": "node", "osm_id": 5623601478, "name": null, "category": null, "address": "64, 9831 Flattach", "street": null, "housenumber": "64", "postcode": "9831", "place": "Flattach", "lat": 46.9356107, "lon": 13.1117481, "tags": {"addr:city": "Flattach", "addr:housenumber": "64", "addr:place": "Kleindorf", "addr:postcode": "9831"}, "content": "Adresse: 64, 9831 Flattach\nOrt: Flattach\nPLZ: 9831\nKoordinaten: 46.935611, 13.111748", "doc_type": "addresses"}
{"source": "OSM", "region": "Kärnten", "osm_type": "node", "osm_id": 5623601479, "name": null, "category": null, "address": "53, 9831 Flattach", "street": null, "housenumber": "53", "postcode": "9831", "place": "Flattach", "lat": 46.9355814, "lon": 13.11231, "tags": {"addr:city": "Flattach", "addr:housenumber": "53", "addr:place": "Kleindorf", "addr:postcode": "9831"}, "content": "Adresse: 53, 9831 Flattach\nOrt: Flattach\nPLZ: 9831\nKoordinaten: 46.935581, 13.112310", "doc_type": "addresses"}
{"source": "OSM", "region": "Kärnten", "osm_type": "node", "osm_id": 5623601480, "name": null, "category": null, "address": "51, 9831 Flattach", "street": null, "housenumber": "51", "postcode": "9831", "place": "Flattach", "lat": 46.9357041, "lon": 13.1126171, "tags": {"addr:city": "Flattach", "addr:housenumber": "51", "addr:place": "Kleindorf", "addr:postcode": "9831"}, "content": "Adresse: 51, 9831 Flattach\nOrt: Flattach\nPLZ: 9831\nKoordinaten: 46.935704, 13.112617", "doc_type": "addresses"}
{"source": "OSM", "region": "Kärnten", "osm_type": "node", "osm_id": 5623601481, "name": null, "category": null, "address": "8, 9831 Flattach", "street": null, "housenumber": "8", "postcode": "9831", "place": "Flattach", "lat": 46.9353708, "lon": 13.1130047, "tags": {"addr:city": "Flattach", "addr:housenumber": "8", "addr:place": "Kleindorf", "addr:postcode": "9831"}, "content": "Adresse: 8, 9831 Flattach\nOrt: Flattach\nPLZ: 9831\nKoordinaten: 46.935371, 13.113005", "doc_type": "addresses"}
{"source": "OSM", "region": "Kärnten", "osm_type": "node", "osm_id": 5623601483, "name": null, "category": null, "address": "18, 9831 Flattach", "street": null, "housenumber": "18", "postcode": "9831", "place": "Flattach", "lat": 46.934919, "lon": 13.1125219, "tags": {"addr:city": "Flattach", "addr:housenumber": "18", "addr:place": "Kleindorf", "addr:postcode": "9831"}, "content": "Adresse: 18, 9831 Flattach\nOrt: Flattach\nPLZ: 9831\nKoordinaten: 46.934919, 13.112522", "doc_type": "addresses"}
{"source": "OSM", "region": "Kärnten", "osm_type": "node", "osm_id": 5623601484, "name": null, "category": null, "address": "16, 9831 Flattach", "street": null, "housenumber": "16", "postcode": "9831", "place": "Flattach", "lat": 46.9349367, "lon": 13.1126909, "tags": {"addr:city": "Flattach", "addr:housenumber": "16", "addr:place": "Kleindorf", "addr:postcode": "9831"}, "content": "Adresse: 16, 9831 Flattach\nOrt: Flattach\nPLZ: 9831\nKoordinaten: 46.934937, 13.112691", "doc_type": "addresses"}
{"source": "OSM", "region": "Kärnten", "osm_type": "node", "osm_id": 5623601485, "name": null, "category": null, "address": "30, 9831 Flattach", "street": null, "housenumber": "30", "postcode": "9831", "place": "Flattach", "lat": 46.9348717, "lon": 13.1122564, "tags": {"addr:city": "Flattach", "addr:housenumber": "30", "addr:place": "Kleindorf", "addr:postcode": "9831"}, "content": "Adresse: 30, 9831 Flattach\nOrt: Flattach\nPLZ: 9831\nKoordinaten: 46.934872, 13.112256", "doc_type": "addresses"}
{"source": "OSM", "region": "Kärnten", "osm_type": "node", "osm_id": 5623601486, "name": null, "category": null, "address": "22, 9831 Flattach", "street": null, "housenumber": "22", "postcode": "9831", "place": "Flattach", "lat": 46.934803, "lon": 13.1125139, "tags": {"addr:city": "Flattach", "addr:housenumber": "22", "addr:place": "Kleindorf", "addr:postcode": "9831"}, "content": "Adresse: 22, 9831 Flattach\nOrt: Flattach\nPLZ: 9831\nKoordinaten: 46.934803, 13.112514", "doc_type": "addresses"}
{"source": "OSM", "region": "Kärnten", "osm_type": "node", "osm_id": 5623601487, "name": null, "category": null, "address": "34, 9831 Flattach", "street": null, "housenumber": "34", "postcode": "9831", "place": "Flattach", "lat": 46.934966, "lon": 13.1117481, "tags": {"addr:city": "Flattach", "addr:housenumber": "34", "addr:place": "Kleindorf", "addr:postcode": "9831"}, "content": "Adresse: 34, 9831 Flattach\nOrt: Flattach\nPLZ: 9831\nKoordinaten: 46.934966, 13.111748", "doc_type": "addresses"}
{"source": "OSM", "region": "Kärnten", "osm_type": "node", "osm_id": 5623601489, "name": null, "category": null, "address": "72, 9831 Flattach", "street": null, "housenumber": "72", "postcode": "9831", "place": "Flattach", "lat": 46.9347627, "lon": 13.1097069, "tags": {"addr:city": "Flattach", "addr:housenumber": "72", "addr:place": "Außerfragant", "addr:postcode": "9831"}, "content": "Adresse: 72, 9831 Flattach\nOrt: Flattach\nPLZ: 9831\nKoordinaten: 46.934763, 13.109707", "doc_type": "addresses"}
{"source": "OSM", "region": "Kärnten", "osm_type": "node", "osm_id": 5623601490, "name": null, "category": null, "address": "59, 9831 Flattach", "street": null, "housenumber": "59", "postcode": "9831", "place": "Flattach", "lat": 46.9351675, "lon": 13.1091651, "tags": {"addr:city": "Flattach", "addr:housenumber": "59", "addr:place": "Außerfragant", "addr:postcode": "9831"}, "content": "Adresse: 59, 9831 Flattach\nOrt: Flattach\nPLZ: 9831\nKoordinaten: 46.935167, 13.109165", "doc_type": "addresses"}
{"source": "OSM", "region": "Kärnten", "osm_type": "node", "osm_id": 5623601491, "name": null, "category": null, "address": "60, 9831 Flattach", "street": null, "housenumber": "60", "postcode": "9831", "place": "Flattach", "lat": 46.9350411, "lon": 13.1089774, "tags": {"addr:city": "Flattach", "addr:housenumber": "60", "addr:place": "Außerfragant", "addr:postcode": "9831"}, "content": "Adresse: 60, 9831 Flattach\nOrt: Flattach\nPLZ: 9831\nKoordinaten: 46.935041, 13.108977", "doc_type": "addresses"}
{"source": "OSM", "region": "Kärnten", "osm_type": "node", "osm_id": 5623601492, "name": null, "category": null, "address": "45, 9831 Flattach", "street": null, "housenumber": "45", "postcode": "9831", "place": "Flattach", "lat": 46.9350887, "lon": 13.1086126, "tags": {"addr:city": "Flattach", "addr:housenumber": "45", "addr:place": "Außerfragant", "addr:postcode": "9831"}, "content": "Adresse: 45, 9831 Flattach\nOrt: Flattach\nPLZ: 9831\nKoordinaten: 46.935089, 13.108613", "doc_type": "addresses"}
{"source": "OSM", "region": "Kärnten", "osm_type": "node", "osm_id": 5623601493, "name": null, "category": null, "address": "53, 9831 Flattach", "street": null, "housenumber": "53", "postcode": "9831", "place": "Flattach", "lat": 46.9342426, "lon": 13.1080466, "tags": {"addr:city": "Flattach", "addr:housenumber": "53", "addr:place": "Außerfragant", "addr:postcode": "9831"}, "content": "Adresse: 53, 9831 Flattach\nOrt: Flattach\nPLZ: 9831\nKoordinaten: 46.934243, 13.108047", "doc_type": "addresses"}
{"source": "OSM", "region": "Kärnten", "osm_type": "node", "osm_id": 5623601494, "name": null, "category": null, "address": "108, 9831 Flattach", "street": null, "housenumber": "108", "postcode": "9831", "place": "Flattach", "lat": 46.9334807, "lon": 13.1078254, "tags": {"addr:city": "Flattach", "addr:housenumber": "108", "addr:place": "Außerfragant", "addr:postcode": "9831"}, "content": "Adresse: 108, 9831 Flattach\nOrt: Flattach\nPLZ: 9831\nKoordinaten: 46.933481, 13.107825", "doc_type": "addresses"}
{"source": "OSM", "region": "Kärnten", "osm_type": "node", "osm_id": 5623601495, "name": null, "category": null, "address": "80, 9831 Flattach", "street": null, "housenumber": "80", "postcode": "9831", "place": "Flattach", "lat": 46.9336711, "lon": 13.1075008, "tags": {"addr:city": "Flattach", "addr:housenumber": "80", "addr:place": "Außerfragant", "addr:postcode": "9831"}, "content": "Adresse: 80, 9831 Flattach\nOrt: Flattach\nPLZ: 9831\nKoordinaten: 46.933671, 13.107501", "doc_type": "addresses"}
{"source": "OSM", "region": "Kärnten", "osm_type": "node", "osm_id": 5623601496, "name": null, "category": null, "address": "21, 9831 Flattach", "street": null, "housenumber": "21", "postcode": "9831", "place": "Flattach", "lat": 46.9338396, "lon": 13.1083243, "tags": {"addr:city": "Flattach", "addr:housenumber": "21", "addr:place": "Außerfragant", "addr:postcode": "9831"}, "content": "Adresse: 21, 9831 Flattach\nOrt: Flattach\nPLZ: 9831\nKoordinaten: 46.933840, 13.108324", "doc_type": "addresses"}
{"source": "OSM", "region": "Kärnten", "osm_type": "node", "osm_id": 5623601497, "name": null, "category": null, "address": "51, 9831 Flattach", "street": null, "housenumber": "51", "postcode": "9831", "place": "Flattach", "lat": 46.9340155, "lon": 13.1078468, "tags": {"addr:city": "Flattach", "addr:housenumber": "51", "addr:place": "Außerfragant", "addr:postcode": "9831"}, "content": "Adresse: 51, 9831 Flattach\nOrt: Flattach\nPLZ: 9831\nKoordinaten: 46.934016, 13.107847", "doc_type": "addresses"}
{"source": "OSM", "region": "Kärnten", "osm_type": "node", "osm_id": 5623601498, "name": null, "category": null, "address": "26, 9831 Flattach", "street": null, "housenumber": "26", "postcode": "9831", "place": "Flattach", "lat": 46.9340283, "lon": 13.1072795, "tags": {"addr:city": "Flattach", "addr:housenumber": "26", "addr:place": "Außerfragant", "addr:postcode": "9831"}, "content": "Adresse: 26, 9831 Flattach\nOrt: Flattach\nPLZ: 9831\nKoordinaten: 46.934028, 13.107280", "doc_type": "addresses"}
{"source": "OSM", "region": "Kärnten", "osm_type": "node", "osm_id": 5623601499, "name": null, "category": null, "address": "90, 9831 Flattach", "street": null, "housenumber": "90", "postcode": "9831", "place": "Flattach", "lat": 46.9345759, "lon": 13.1069174, "tags": {"addr:city": "Flattach", "addr:housenumber": "90", "addr:place": "Außerfragant", "addr:postcode": "9831"}, "content": "Adresse: 90, 9831 Flattach\nOrt: Flattach\nPLZ: 9831\nKoordinaten: 46.934576, 13.106917", "doc_type": "addresses"}
{"source": "OSM", "region": "Kärnten", "osm_type": "node", "osm_id": 5623601500, "name": null, "category": null, "address": "40, 9831 Flattach", "street": null, "housenumber": "40", "postcode": "9831", "place": "Flattach", "lat": 46.9342939, "lon": 13.1068853, "tags": {"addr:city": "Flattach", "addr:housenumber": "40", "addr:place": "Außerfragant", "addr:postcode": "9831"}, "content": "Adresse: 40, 9831 Flattach\nOrt: Flattach\nPLZ: 9831\nKoordinaten: 46.934294, 13.106885", "doc_type": "addresses"}
{"source": "OSM", "region": "Kärnten", "osm_type": "node", "osm_id": 5623601501, "name": null, "category": null, "address": "101, 9831 Flattach", "street": null, "housenumber": "101", "postcode": "9831", "place": "Flattach", "lat": 46.9342462, "lon": 13.1063126, "tags": {"addr:city": "Flattach", "addr:housenumber": "101", "addr:place": "Außerfragant", "addr:postcode": "9831"}, "content": "Adresse: 101, 9831 Flattach\nOrt: Flattach\nPLZ: 9831\nKoordinaten: 46.934246, 13.106313", "doc_type": "addresses"}
{"source": "OSM", "region": "Kärnten", "osm_type": "node", "osm_id": 5623601502, "name": null, "category": null, "address": "101, 9831 Flattach", "street": null, "housenumber": "101", "postcode": "9831", "place": "Flattach", "lat": 46.9342169, "lon": 13.1058285, "tags": {"addr:city": "Flattach", "addr:housenumber": "101", "addr:place": "Außerfragant", "addr:postcode": "9831"}, "content": "Adresse: 101, 9831 Flattach\nOrt: Flattach\nPLZ: 9831\nKoordinaten: 46.934217, 13.105828", "doc_type": "addresses"}
{"source": "OSM", "region": "Kärnten", "osm_type": "node", "osm_id": 5623601503, "name": null, "category": null, "address": "5, 9831 Flattach", "street": null, "housenumber": "5", "postcode": "9831", "place": "Flattach", "lat": 46.9341629, "lon": 13.1055053, "tags": {"addr:city": "Flattach", "addr:housenumber": "5", "addr:place": "Außerfragant", "addr:postcode": "9831"}, "content": "Adresse: 5, 9831 Flattach\nOrt: Flattach\nPLZ: 9831\nKoordinaten: 46.934163, 13.105505", "doc_type": "addresses"}
{"source": "OSM", "region": "Kärnten", "osm_type": "node", "osm_id": 5623601504, "name": null, "category": null, "address": "10, 9831 Flattach", "street": null, "housenumber": "10", "postcode": "9831", "place": "Flattach", "lat": 46.9340585, "lon": 13.1060055, "tags": {"addr:city": "Flattach", "addr:housenumber": "10", "addr:place": "Außerfragant", "addr:postcode": "9831"}, "content": "Adresse: 10, 9831 Flattach\nOrt: Flattach\nPLZ: 9831\nKoordinaten: 46.934058, 13.106006", "doc_type": "addresses"}
{"source": "OSM", "region": "Kärnten", "osm_type": "node", "osm_id": 5623601505, "name": null, "category": null, "address": "28, 9831 Flattach", "street": null, "housenumber": "28", "postcode": "9831", "place": "Flattach", "lat": 46.9339935, "lon": 13.1055213, "tags": {"addr:city": "Flattach", "addr:housenumber": "28", "addr:place": "Außerfragant", "addr:postcode": "9831"}, "content": "Adresse: 28, 9831 Flattach\nOrt: Flattach\nPLZ: 9831\nKoordinaten: 46.933993, 13.105521", "doc_type": "addresses"}
{"source": "OSM", "region": "Kärnten", "osm_type": "node", "osm_id": 5623601506, "name": null, "category": null, "address": "42, 9831 Flattach", "street": null, "housenumber": "42", "postcode": "9831", "place": "Flattach", "lat": 46.933847, "lon": 13.1057386, "tags": {"addr:city": "Flattach", "addr:housenumber": "42", "addr:place": "Außerfragant", "addr:postcode": "9831"}, "content": "Adresse: 42, 9831 Flattach\nOrt: Flattach\nPLZ: 9831\nKoordinaten: 46.933847, 13.105739", "doc_type": "addresses"}
{"source": "OSM", "region": "Kärnten", "osm_type": "node", "osm_id": 5623601507, "name": null, "category": null, "address": "47, 9831 Flattach", "street": null, "housenumber": "47", "postcode": "9831", "place": "Flattach", "lat": 46.9335713, "lon": 13.1051995, "tags": {"addr:city": "Flattach", "addr:housenumber": "47", "addr:place": "Außerfragant", "addr:postcode": "9831"}, "content": "Adresse: 47, 9831 Flattach\nOrt: Flattach\nPLZ: 9831\nKoordinaten: 46.933571, 13.105199", "doc_type": "addresses"}
{"source": "OSM", "region": "Kärnten", "osm_type": "node", "osm_id": 5623601508, "name": null, "category": null, "address": "71, 9831 Flattach", "street": null, "housenumber": "71", "postcode": "9831", "place": "Flattach", "lat": 46.9335173, "lon": 13.1058177, "tags": {"addr:city": "Flattach", "addr:housenumber": "71", "addr:place": "Außerfragant", "addr:postcode": "9831"}, "content": "Adresse: 71, 9831 Flattach\nOrt: Flattach\nPLZ: 9831\nKoordinaten: 46.933517, 13.105818", "doc_type": "addresses"}
{"source": "OSM", "region": "Kärnten", "osm_type": "node", "osm_id": 5623601509, "name": null, "category": null, "address": "61, 9831 Flattach", "street": null, "housenumber": "61", "postcode": "9831", "place": "Flattach", "lat": 46.9334312, "lon": 13.1063649, "tags": {"addr:city": "Flattach", "addr:housenumber": "61", "addr:place": "Außerfragant", "addr:postcode": "9831"}, "content": "Adresse: 61, 9831 Flattach\nOrt: Flattach\nPLZ: 9831\nKoordinaten: 46.933431, 13.106365", "doc_type": "addresses"}
{"source": "OSM", "region": "Kärnten", "osm_type": "node", "osm_id": 5623601510, "name": null, "category": null, "address": "17, 9831 Flattach", "street": null, "housenumber": "17", "postcode": "9831", "place": "Flattach", "lat": 46.9332847, "lon": 13.1061168, "tags": {"addr:city": "Flattach", "addr:housenumber": "17", "addr:place": "Außerfragant", "addr:postcode": "9831"}, "content": "Adresse: 17, 9831 Flattach\nOrt: Flattach\nPLZ: 9831\nKoordinaten: 46.933285, 13.106117", "doc_type": "addresses"}
{"source": "OSM", "region": "Kärnten", "osm_type": "node", "osm_id": 5623601511, "name": null, "category": null, "address": "3, 9831 Flattach", "street": null, "housenumber": "3", "postcode": "9831", "place": "Flattach", "lat": 46.9328946, "lon": 13.105697, "tags": {"addr:city": "Flattach", "addr:housenumber": "3", "addr:place": "Außerfragant", "addr:postcode": "9831"}, "content": "Adresse: 3, 9831 Flattach\nOrt: Flattach\nPLZ: 9831\nKoordinaten: 46.932895, 13.105697", "doc_type": "addresses"}
{"source": "OSM", "region": "Kärnten", "osm_type": "node", "osm_id": 5623601512, "name": null, "category": null, "address": "109, 9831 Flattach", "street": null, "housenumber": "109", "postcode": "9831", "place": "Flattach", "lat": 46.9327407, "lon": 13.1059492, "tags": {"addr:city": "Flattach", "addr:housenumber": "109", "addr:place": "Außerfragant", "addr:postcode": "9831"}, "content": "Adresse: 109, 9831 Flattach\nOrt: Flattach\nPLZ: 9831\nKoordinaten: 46.932741, 13.105949", "doc_type": "addresses"}
{"source": "OSM", "region": "Kärnten", "osm_type": "node", "osm_id": 5623601513, "name": null, "category": null, "address": "105, 9831 Flattach", "street": null, "housenumber": "105", "postcode": "9831", "place": "Flattach", "lat": 46.9319531, "lon": 13.1047261, "tags": {"addr:city": "Flattach", "addr:housenumber": "105", "addr:place": "Außerfragant", "addr:postcode": "9831"}, "content": "Adresse: 105, 9831 Flattach\nOrt: Flattach\nPLZ: 9831\nKoordinaten: 46.931953, 13.104726", "doc_type": "addresses"}
{"source": "OSM", "region": "Kärnten", "osm_type": "node", "osm_id": 5623601514, "name": null, "category": null, "address": "36, 9831 Flattach", "street": null, "housenumber": "36", "postcode": "9831", "place": "Flattach", "lat": 46.9309567, "lon": 13.1044793, "tags": {"addr:city": "Flattach", "addr:housenumber": "36", "addr:place": "Außerfragant", "addr:postcode": "9831"}, "content": "Adresse: 36, 9831 Flattach\nOrt: Flattach\nPLZ: 9831\nKoordinaten: 46.930957, 13.104479", "doc_type": "addresses"}
{"source": "OSM", "region": "Kärnten", "osm_type": "node", "osm_id": 340517182, "name": "Postpartner 9831, Cafe Greissler Doris Egarter", "category": "amenity:post_office", "address": "69, 9831 Flattach", "street": null, "housenumber": "69", "postcode": "9831", "place": "Flattach", "lat": 46.9347202, "lon": 13.1314465, "tags": {"addr:city": "Flattach", "addr:housenumber": "69", "addr:place": "Flattach", "addr:postcode": "9831", "amenity": "post_office", "name": "Postpartner 9831, Cafe Greissler Doris Egarter"}, "content": "Postpartner 9831, Cafe Greissler Doris Egarter\nKategorie: amenity:post_office\nAdresse: 69, 9831 Flattach\nOrt: Flattach\nPLZ: 9831\nKoordinaten: 46.934720, 13.131446\nTags: amenity=post_office", "doc_type": "pois"}
