{"source": "OSM", "region": "Kärnten", "osm_type": "node", "osm_id": 340518065, "name": "Postpartner 9360, ADEG Kohlweg", "category": "amenity:post_office", "address": "Industriestraße 4, 9360 Friesach", "street": "Industriestraße", "housenumber": "4", "postcode": "9360", "place": "Friesach", "lat": 46.9523023, "lon": 14.4145425, "tags": {"addr:city": "Friesach", "addr:housenumber": "4", "addr:postcode": "9360", "addr:street": "Industriestraße", "amenity": "post_office", "name": "Postpartner 9360, ADEG Kohlweg"}, "content": "Postpartner 9360, ADEG Kohlweg\nKategorie: amenity:post_office\nAdresse: Industriestraße 4, 9360 Friesach\nOrt: Friesach\nPLZ: 9360\nKoordinaten: 46.952302, 14.414542\nTags: amenity=post_office", "doc_type": "addresses"}
{"source": "OSM", "region": "Kärnten", "osm_type": "node", "osm_id": 2098132533, "name": "Polizeiinspektion Friesach", "category": "amenity:police", "address": "Herrengasse 8, 9360 Friesach", "street": "Herrengasse", "housenumber": "8", "postcode": "9360", "place": "Friesach", "lat": 46.9497596, "lon": 14.4061582, "tags": {"addr:city": "Friesach", "addr:housenumber": "8", "addr:postcode": "9360", "addr:street": "Herrengasse", "amenity": "police", "name": "Polizeiinspektion Friesach", "phone": "+43 59133 2122-100"}, "content": "Polizeiinspektion Friesach\nKategorie: amenity:police\nAdresse: Herrengasse 8, 9360 Friesach\nOrt: Friesach\nPLZ: 9360\nKoordinaten: 46.949760, 14.406158\nTags: amenity=police, phone=+43 59133 2122-100", "doc_type": "addresses"}
{"source": "OSM", "region": "Kärnten", "osm_type": "node", "osm_id": 2419938799, "name": "Villa Bucher", "category": "amenity:restaurant", "address": "Hauptplatz 11, 9360 Friesach", "street": "Hauptplatz", "housenumber": "11", "postcode": "9360", "place": "Friesach", "lat": 46.950311, "lon": 14.4043537, "tags": {"addr:city": "Friesach", "addr:housenumber": "11", "addr:postcode": "9360", "addr:street": "Hauptplatz", "amenity": "restaurant", "name": "Villa Bucher", "phone": "+43 4268 25100", "tourism": "hotel", "website": "https://www.metnitztalerhof.at/"}, "content": "Villa Bucher\nKategorie: amenity:restaurant\nAdresse: Hauptplatz 11, 9360 Friesach\nOrt: Friesach\nPLZ: 9360\nKoordinaten: 46.950311, 14.404354\nTags: amenity=restaurant, phone=+43 4268 25100, website=https://www.metnitztalerhof.at/", "doc_type": "addresses"}
{"source": "OSM", "region": "Kärnten", "osm_type": "node", "osm_id": 4546326390, "name": "Billa", "category": "shop:supermarket", "address": "Lastenstraße 26, 9360 Friesach", "street": "Lastenstraße", "housenumber": "26", "postcode": "9360", "place": "Friesach", "lat": 46.9566519, "lon": 14.4020355, "tags": {"addr:city": "Friesach", "addr:housenumber": "26", "addr:postcode": "9360", "addr:street": "Lastenstraße", "brand": "Billa", "name": "Billa", "shop": "supermarket"}, "content": "Billa\nKategorie: shop:supermarket\nAdresse: Lastenstraße 26, 9360 Friesach\nOrt: Friesach\nPLZ: 9360\nKoordinaten: 46.956652, 14.402036\nTags: shop=supermarket, brand=Billa", "doc_type": "addresses"}
{"source": "OSM", "region": "Kärnten", "osm_type": "node", "osm_id": 5194491365, "name": "Therapist for Kinesiology and Massage, Sonja Glaser", "category": "office:therapist", "address": "Fürstenhofgasse 8, 9360 Friesach", "street": "Fürstenhofgasse", "housenumber": "8", "postcode": "9360", "place": "Friesach", "lat": 46.9513105, "lon": 14.4066404, "tags": {"addr:city": "Friesach", "addr:housenumber": "8", "addr:postcode": "9360", "addr:street": "Fürstenhofgasse", "name": "Therapist for Kinesiology and Massage, Sonja Glaser", "office": "therapist", "phone": "+43 650 2269433"}, "content": "Therapist for Kinesiology and Massage, Sonja Glaser\nKategorie: office:therapist\nAdresse: Fürstenhofgasse 8, 9360 Friesach\nOrt: Friesach\nPLZ: 9360\nKoordinaten: 46.951310, 14.406640\nTags: office=therapist, phone=+43 650 2269433", "doc_type": "addresses"}
{"source": "OSM", "region": "Kärnten", "osm_type": "node", "osm_id": 5536541818, "name": "Kobald", "category": null, "address": "14, 9361 Friesach", "street": null, "housenumber": "14", "postcode": "9361", "place": "Friesach", "lat": 47.0110139, "lon": 14.273854, "tags": {"addr:city": "Friesach", "addr:housenumber": "14", "addr:place": "Roßbach", "addr:postcode": "9361", "name": "Kobald"}, "content": "Kobald\nAdresse: 14, 9361 Friesach\nOrt: Friesach\nPLZ: 9361\nKoordinaten: 47.011014, 14.273854", "doc_type": "addresses"}
{"source": "OSM", "region": "Kärnten", "osm_type": "node", "osm_id": 5634424767, "name": null, "category": null, "address": "8, 9360 Friesach", "street": null, "housenumber": "8", "postcode": "9360", "place": "Friesach", "lat": 46.9577097, "lon": 14.4805898, "tags": {"addr:city": "Friesach", "addr:housenumber": "8", "addr:place": "Kräuping", "addr:postcode": "9360"}, "content": "Adresse: 8, 9360 Friesach\nOrt: Friesach\nPLZ: 9360\nKoordinaten: 46.957710, 14.480590", "doc_type": "addresses"}
{"source": "OSM", "region": "Kärnten", "osm_type": "node", "osm_id": 340518065, "name": "Postpartner 9360, ADEG Kohlweg", "category": "amenity:post_office", "address": "Industriestraße 4, 9360 Friesach", "street": "Industriestraße", "housenumber": "4", "postcode": "9360", "place": "Friesach", "lat": 46.9523023, "lon": 14.4145425, "tags": {"addr:city": "Friesach", "addr:housenumber": "4", "addr:postcode": "9360", "addr:street": "Industriestraße", "amenity": "post_office", "name": "Postpartner 9360, ADEG Kohlweg"}, "content": "Postpartner 9360, ADEG Kohlweg\nKategorie: amenity:post_office\nAdresse: Industriestraße 4, 9360 Friesach\nOrt: Friesach\nPLZ: 9360\nKoordinaten: 46.952302, 14.414542\nTags: amenity=post_office", "doc_type": "pois"}
{"source": "OSM", "region": "Kärnten", "osm_type": "node", "osm_id": 2098132533, "name": "Polizeiinspektion Friesach", "category": "amenity:police", "address": "Herrengasse 8, 9360 Friesach", "street": "Herrengasse", "housenumber": "8", "postcode": "9360", "place": "Friesach", "lat": 46.9497596, "lon": 14.4061582, "tags": {"addr:city": "Friesach", "addr:housenumber": "8", "addr:postcode": "9360", "addr:street": "Herrengasse", "amenity": "police", "name": "Polizeiinspektion Friesach", "phone": "+43 59133 2122-100"}, "content": "Polizeiinspektion Friesach\nKategorie: amenity:police\nAdresse: Herrengasse 8, 9360 Friesach\nOrt: Friesach\nPLZ: 9360\nKoordinaten: 46.949760, 14.406158\nTags: amenity=police, phone=+43 59133 2122-100", "doc_type": "pois"}
{"source": "OSM", "region": "Kärnten", "osm_type": "node", "osm_id": 2419938799, "name": "Villa Bucher", "category": "amenity:restaurant", "address": "Hauptplatz 11, 9360 Friesach", "street": "Hauptplatz", "housenumber": "11", "postcode": "9360", "place": "Friesach", "lat": 46.950311, "lon": 14.4043537, "tags": {"addr:city": "Friesach", "addr:housenumber": "11", "addr:postcode": "9360", "addr:street": "Hauptplatz", "amenity": "restaurant", "name": "Villa Bucher", "phone": "+43 4268 25100", "tourism": "hotel", "website": "https://www.metnitztalerhof.at/"}, "content": "Villa Bucher\nKategorie: amenity:restaurant\nAdresse: Hauptplatz 11, 9360 Friesach\nOrt: Friesach\nPLZ: 9360\nKoordinaten: 46.950311, 14.404354\nTags: amenity=restaurant, phone=+43 4268 25100, website=https://www.metnitztalerhof.at/", "doc_type": "pois"}
{"source": "OSM", "region": "Kärnten", "osm_type": "node", "osm_id": 4546326390, "name": "Billa", "category": "shop:supermarket", "address": "Lastenstraße 26, 9360 Friesach", "street": "Lastenstraße", "housenumber": "26", "postcode": "9360", "place": "Friesach", "lat": 46.9566519, "lon": 14.4020355, "tags": {"addr:city": "Friesach", "addr:housenumber": "26", "addr:postcode": "9360", "addr:street": "Lastenstraße", "brand": "Billa", "name": "Billa", "shop": "supermarket"}, "content": "Billa\nKategorie: shop:supermarket\nAdresse: Lastenstraße 26, 9360 Friesach\nOrt: Friesach\nPLZ: 9360\nKoordinaten: 46.956652, 14.402036\nTags: shop=supermarket, brand=Billa", "doc_type": "pois"}
{"source": "OSM", "region": "Kärnten", "osm_type": "node", "osm_id": 5194491365, "name": "Therapist for Kinesiology and Massage, Sonja Glaser", "category": "office:therapist", "address": "Fürstenhofgasse 8, 9360 Friesach", "street": "Fürstenhofgasse", "housenumber": "8", "postcode": "9360", "place": "Friesach", "lat": 46.9513105, "lon": 14.4066404, "tags": {"addr:city": "Friesach", "addr:housenumber": "8", "addr:postcode": "9360", "addr:street": "Fürstenhofgasse", "name": "Therapist for Kinesiology and Massage, Sonja Glaser", "office": "therapist", "phone": "+43 650 2269433"}, "content": "Therapist for Kinesiology and Massage, Sonja Glaser\nKategorie: office:therapist\nAdresse: Fürstenhofgasse 8, 9360 Friesach\nOrt: Friesach\nPLZ: 9360\nKoordinaten: 46.951310, 14.406640\nTags: office=therapist, phone=+43 650 2269433", "doc_type": "pois"}
