{"source": "OSM", "region": "Kärnten", "osm_type": "node", "osm_id": 340518103, "name": "Postpartner 9334, Tabak Trafik Wieser", "category": "amenity:post_office", "address": "Oberer Markt 14, 9334 Guttaring", "street": "Oberer Markt", "housenumber": "14", "postcode": "9334", "place": "Guttaring", "lat": 46.8903543, "lon": 14.5124975, "tags": {"addr:city": "Guttaring", "addr:housenumber": "14", "addr:postcode": "9334", "addr:street": "Oberer Markt", "amenity": "post_office", "name": "Postpartner 9334, Tabak Trafik Wieser"}, "content": "Postpartner 9334, Tabak Trafik Wieser\nKategorie: amenity:post_office\nAdresse: Oberer Markt 14, 9334 Guttaring\nOrt: Guttaring\nPLZ: 9334\nKoordinaten: 46.890354, 14.512498\nTags: amenity=post_office", "doc_type": "addresses"}
{"source": "OSM", "region": "Kärnten", "osm_type": "node", "osm_id": 5641513202, "name": "Gasthof Mannhof", "category": "amenity:restaurant", "address": "3, 9330 Guttaring", "street": null, "housenumber": "3", "postcode": "9330", "place": "Guttaring", "lat": 46.8771147, "lon": 14.4913986, "tags": {"addr:city": "Guttaring", "addr:housenumber": "3", "addr:place": "Dachberg", "addr:postcode": "9330", "amenity": "restaurant", "name": "Gasthof Mannhof"}, "content": "Gasthof Mannhof\nKategorie: amenity:restaurant\nAdresse: 3, 9330 Guttaring\nOrt: Guttaring\nPLZ: 9330\nKoordinaten: 46.877115, 14.491399\nTags: amenity=restaurant", "doc_type": "addresses"}
{"source": "OSM", "region": "Kärnten", "osm_type": "node", "osm_id": 5641513448, "name": "Buschenschenke Weingartner \"Brotbauer\"", "category": "amenity:restaurant", "address": "2, 9334 Guttaring", "street": null, "housenumber": "2", "postcode": "9334", "place": "Guttaring", "lat": 46.8699271, "lon": 14.5001467, "tags": {"addr:city": "Guttaring", "addr:housenumber": "2", "addr:place": "Rabachboden", "addr:postcode": "9334", "amenity": "restaurant", "name": "Buschenschenke Weingartner \"Brotbauer\"", "website": "https://guttaring.at/pages/unser-guttaring/tourismus/essen-trinken.php"}, "content": "Buschenschenke Weingartner \"Brotbauer\"\nKategorie: amenity:restaurant\nAdresse: 2, 9334 Guttaring\nOrt: Guttaring\nPLZ: 9334\nKoordinaten: 46.869927, 14.500147\nTags: amenity=restaurant, website=https://guttaring.at/pages/unser-guttaring/tourismus/essen-trinken.php", "doc_type": "addresses"}
{"source": "OSM", "region": "Kärnten", "osm_type": "node", "osm_id": 5641513732, "name": "Kfz Meisterbetrieb Kuss", "category": "shop:car_repair", "address": "Christophorusweg 1, 9334 Guttaring", "street": "Christophorusweg", "housenumber": "1", "postcode": "9334", "place": "Guttaring", "lat": 46.8799327, "lon": 14.5048767, "tags": {"addr:city": "Guttaring", "addr:housenumber": "1", "addr:postcode": "9334", "addr:street": "Christophorusweg", "name": "Kfz Meisterbetrieb Kuss", "operator": "Ing. Herbert Kuss", "shop": "car_repair", "website": "https://ad-kuss.at/index.php/impressum"}, "content": "Kfz Meisterbetrieb Kuss\nKategorie: shop:car_repair\nAdresse: Christophorusweg 1, 9334 Guttaring\nOrt: Guttaring\nPLZ: 9334\nKoordinaten: 46.879933, 14.504877\nTags: shop=car_repair, operator=Ing. Herbert Kuss, website=https://ad-kuss.at/index.php/impressum", "doc_type": "addresses"}
{"source": "OSM", "region": "Kärnten", "osm_type": "node", "osm_id": 5641513741, "name": "Norische Nudelwerkstatt", "category": "amenity:restaurant", "address": "Christophorusweg 2, 9334 Guttaring", "street": "Christophorusweg", "housenumber": "2", "postcode": "9334", "place": "Guttaring", "lat": 46.8799813, "lon": 14.5054078, "tags": {"addr:city": "Guttaring", "addr:housenumber": "2", "addr:postcode": "9334", "addr:street": "Christophorusweg", "amenity": "restaurant", "name": "Norische Nudelwerkstatt", "website": "https://www.nudl.at/"}, "content": "Norische Nudelwerkstatt\nKategorie: amenity:restaurant\nAdresse: Christophorusweg 2, 9334 Guttaring\nOrt: Guttaring\nPLZ: 9334\nKoordinaten: 46.879981, 14.505408\nTags: amenity=restaurant, website=https://www.nudl.at/", "doc_type": "addresses"}
{"source": "OSM", "region": "Kärnten", "osm_type": "node", "osm_id": 340518103, "name": "Postpartner 9334, Tabak Trafik Wieser", "category": "amenity:post_office", "address": "Oberer Markt 14, 9334 Guttaring", "street": "Oberer Markt", "housenumber": "14", "postcode": "9334", "place": "Guttaring", "lat": 46.8903543, "lon": 14.5124975, "tags": {"addr:city": "Guttaring", "addr:housenumber": "14", "addr:postcode": "9334", "addr:street": "Oberer Markt", "amenity": "post_office", "name": "Postpartner 9334, Tabak Trafik Wieser"}, "content": "Postpartner 9334, Tabak Trafik Wieser\nKategorie: amenity:post_office\nAdresse: Oberer Markt 14, 9334 Guttaring\nOrt: Guttaring\nPLZ: 9334\nKoordinaten: 46.890354, 14.512498\nTags: amenity=post_office", "doc_type": "pois"}
{"source": "OSM", "region": "Kärnten", "osm_type": "node", "osm_id": 5641513202, "name": "Gasthof Mannhof", "category": "amenity:restaurant", "address": "3, 9330 Guttaring", "street": null, "housenumber": "3", "postcode": "9330", "place": "Guttaring", "lat": 46.8771147, "lon": 14.4913986, "tags": {"addr:city": "Guttaring", "addr:housenumber": "3", "addr:place": "Dachberg", "addr:postcode": "9330", "amenity": "restaurant", "name": "Gasthof Mannhof"}, "content": "Gasthof Mannhof\nKategorie: amenity:restaurant\nAdresse: 3, 9330 Guttaring\nOrt: Guttaring\nPLZ: 9330\nKoordinaten: 46.877115, 14.491399\nTags: amenity=restaurant", "doc_type": "pois"}
{"source": "OSM", "region": "Kärnten", "osm_type": "node", "osm_id": 5641513448, "name": "Buschenschenke Weingartner \"Brotbauer\"", "category": "amenity:restaurant", "address": "2, 9334 Guttaring", "street": null, "housenumber": "2", "postcode": "9334", "place": "Guttaring", "lat": 46.8699271, "lon": 14.5001467, "tags": {"addr:city": "Guttaring", "addr:housenumber": "2", "addr:place": "Rabachboden", "addr:postcode": "9334", "amenity": "restaurant", "name": "Buschenschenke Weingartner \"Brotbauer\"", "website": "https://guttaring.at/pages/unser-guttaring/tourismus/essen-trinken.php"}, "content": "Buschenschenke Weingartner \"Brotbauer\"\nKategorie: amenity:restaurant\nAdresse: 2, 9334 Guttaring\nOrt: Guttaring\nPLZ: 9334\nKoordinaten: 46.869927, 14.500147\nTags: amenity=restaurant, website=https://guttaring.at/pages/unser-guttaring/tourismus/essen-trinken.php", "doc_type": "pois"}
{"source": "OSM", "region": "Kärnten", "osm_type": "node", "osm_id": 5641513732, "name": "Kfz Meisterbetrieb Kuss", "category": "shop:car_repair", "address": "Christophorusweg 1, 9334 Guttaring", "street": "Christophorusweg", "housenumber": "1", "postcode": "9334", "place": "Guttaring", "lat": 46.8799327, "lon": 14.5048767, "tags": {"addr:city": "Guttaring", "addr:housenumber": "1", "addr:postcode": "9334", "addr:street": "Christophorusweg", "name": "Kfz Meisterbetrieb Kuss", "operator": "Ing. Herbert Kuss", "shop": "car_repair", "website": "https://ad-kuss.at/index.php/impressum"}, "content": "Kfz Meisterbetrieb Kuss\nKategorie: shop:car_repair\nAdresse: Christophorusweg 1, 9334 Guttaring\nOrt: Guttaring\nPLZ: 9334\nKoordinaten: 46.879933, 14.504877\nTags: shop=car_repair, operator=Ing. Herbert Kuss, website=https://ad-kuss.at/index.php/impressum", "doc_type": "pois"}
{"source": "OSM", "region": "Kärnten", "osm_type": "node", "osm_id": 5641513741, "name": "Norische Nudelwerkstatt", "category": "amenity:restaurant", "address": "Christophorusweg 2, 9334 Guttaring", "street": "Christophorusweg", "housenumber": "2", "postcode": "9334", "place": "Guttaring", "lat": 46.8799813, "lon": 14.5054078, "tags": {"addr:city": "Guttaring", "addr:housenumber": "2", "addr:postcode": "9334", "addr:street": "Christophorusweg", "amenity": "restaurant", "name": "Norische Nudelwerkstatt", "website": "https://www.nudl.at/"}, "content": "Norische Nudelwerkstatt\nKategorie: amenity:restaurant\nAdresse: Christophorusweg 2, 9334 Guttaring\nOrt: Guttaring\nPLZ: 9334\nKoordinaten: 46.879981, 14.505408\nTags: amenity=restaurant, website=https://www.nudl.at/", "doc_type": "pois"}
