{"source": "OSM", "region": "Kärnten", "osm_type": "node", "osm_id": 4213786653, "name": "Reitstall Joham", "category": "amenity:restaurant", "address": "14, 9063 Possau", "street": null, "housenumber": "14", "postcode": "9063", "place": "Possau", "lat": 46.6947676, "lon": 14.3862636, "tags": {"addr:housenumber": "14", "addr:place": "Possau", "addr:postcode": "9063", "amenity": "restaurant", "name": "Reitstall Joham"}, "content": "Reitstall Joham\nKategorie: amenity:restaurant\nAdresse: 14, 9063 Possau\nOrt: Possau\nPLZ: 9063\nKoordinaten: 46.694768, 14.386264\nTags: amenity=restaurant", "doc_type": "addresses"}
{"source": "OSM", "region": "Kärnten", "osm_type": "node", "osm_id": 4213786653, "name": "Reitstall Joham", "category": "amenity:restaurant", "address": "14, 9063 Possau", "street": null, "housenumber": "14", "postcode": "9063", "place": "Possau", "lat": 46.6947676, "lon": 14.3862636, "tags": {"addr:housenumber": "14", "addr:place": "Possau", "addr:postcode": "9063", "amenity": "restaurant", "name": "Reitstall Joham"}, "content": "Reitstall Joham\nKategorie: amenity:restaurant\nAdresse: 14, 9063 Possau\nOrt: Possau\nPLZ: 9063\nKoordinaten: 46.694768, 14.386264\nTags: amenity=restaurant", "doc_type": "pois"}
