{"source": "OSM", "region": "Kärnten", "osm_type": "node", "osm_id": 4438157108, "name": "Ferienwohnung Sauerschnig", "category": "tourism:apartment", "address": "Georgibergstraße 43, 9122 Sankt Kanzian am Klopeiner See", "street": "Georgibergstraße", "housenumber": "43", "postcode": "9122", "place": "Sankt Kanzian am Klopeiner See", "lat": 46.6085322, "lon": 14.6028968, "tags": {"addr:city": "Sankt Kanzian am Klopeiner See", "addr:housenumber": "43", "addr:postcode": "9122", "addr:street": "Georgibergstraße", "name": "Ferienwohnung Sauerschnig", "tourism": "apartment", "website": "https://www.sauerschnig.com/"}, "content": "Ferienwohnung Sauerschnig\nKategorie: tourism:apartment\nAdresse: Georgibergstraße 43, 9122 Sankt Kanzian am Klopeiner See\nOrt: Sankt Kanzian am Klopeiner See\nPLZ: 9122\nKoordinaten: 46.608532, 14.602897\nTags: website=https://www.sauerschnig.com/", "doc_type": "addresses"}
{"source": "OSM", "region": "Kärnten", "osm_type": "node", "osm_id": 4445641691, "name": "Apartments Jesse", "category": "tourism:chalet", "address": "Ostuferstraße 3, 9122 Sankt Kanzian am Klopeiner See", "street": "Ostuferstraße", "housenumber": "3", "postcode": "9122", "place": "Sankt Kanzian am Klopeiner See", "lat": 46.6101757, "lon": 14.5973338, "tags": {"addr:city": "Sankt Kanzian am Klopeiner See", "addr:housenumber": "3", "addr:postcode": "9122", "addr:street": "Ostuferstraße", "name": "Apartments Jesse", "tourism": "chalet", "website": "https://www.apartments-jesse.at/"}, "content": "Apartments Jesse\nKategorie: tourism:chalet\nAdresse: Ostuferstraße 3, 9122 Sankt Kanzian am Klopeiner See\nOrt: Sankt Kanzian am Klopeiner See\nPLZ: 9122\nKoordinaten: 46.610176, 14.597334\nTags: website=https://www.apartments-jesse.at/", "doc_type": "addresses"}
{"source": "OSM", "region": "Kärnten", "osm_type": "node", "osm_id": 4242617214, "name": "Caputo", "category": "amenity:restaurant", "address": "9122 Sankt Kanzian am Klopeiner See", "street": null, "housenumber": null, "postcode": "9122", "place": "Sankt Kanzian am Klopeiner See", "lat": 46.6068076, "lon": 14.5741743, "tags": {"addr:city": "Sankt Kanzian am Klopeiner See", "addr:postcode": "9122", "amenity": "restaurant", "name": "Caputo", "website": "http://pizzeria-caputo.at/"}, "content": "Caputo\nKategorie: amenity:restaurant\nAdresse: 9122 Sankt Kanzian am Klopeiner See\nOrt: Sankt Kanzian am Klopeiner See\nPLZ: 9122\nKoordinaten: 46.606808, 14.574174\nTags: amenity=restaurant, website=http://pizzeria-caputo.at/", "doc_type": "pois"}
{"source": "OSM", "region": "Kärnten", "osm_type": "node", "osm_id": 4438157108, "name": "Ferienwohnung Sauerschnig", "category": "tourism:apartment", "address": "Georgibergstraße 43, 9122 Sankt Kanzian am Klopeiner See", "street": "Georgibergstraße", "housenumber": "43", "postcode": "9122", "place": "Sankt Kanzian am Klopeiner See", "lat": 46.6085322, "lon": 14.6028968, "tags": {"addr:city": "Sankt Kanzian am Klopeiner See", "addr:housenumber": "43", "addr:postcode": "9122", "addr:street": "Georgibergstraße", "name": "Ferienwohnung Sauerschnig", "tourism": "apartment", "website": "https://www.sauerschnig.com/"}, "content": "Ferienwohnung Sauerschnig\nKategorie: tourism:apartment\nAdresse: Georgibergstraße 43, 9122 Sankt Kanzian am Klopeiner See\nOrt: Sankt Kanzian am Klopeiner See\nPLZ: 9122\nKoordinaten: 46.608532, 14.602897\nTags: website=https://www.sauerschnig.com/", "doc_type": "pois"}
{"source": "OSM", "region": "Kärnten", "osm_type": "node", "osm_id": 4445641691, "name": "Apartments Jesse", "category": "tourism:chalet", "address": "Ostuferstraße 3, 9122 Sankt Kanzian am Klopeiner See", "street": "Ostuferstraße", "housenumber": "3", "postcode": "9122", "place": "Sankt Kanzian am Klopeiner See", "lat": 46.6101757, "lon": 14.5973338, "tags": {"addr:city": "Sankt Kanzian am Klopeiner See", "addr:housenumber": "3", "addr:postcode": "9122", "addr:street": "Ostuferstraße", "name": "Apartments Jesse", "tourism": "chalet", "website": "https://www.apartments-jesse.at/"}, "content": "Apartments Jesse\nKategorie: tourism:chalet\nAdresse: Ostuferstraße 3, 9122 Sankt Kanzian am Klopeiner See\nOrt: Sankt Kanzian am Klopeiner See\nPLZ: 9122\nKoordinaten: 46.610176, 14.597334\nTags: website=https://www.apartments-jesse.at/", "doc_type": "pois"}
