{"source": "OSM", "region": "Kärnten", "osm_type": "node", "osm_id": 340520503, "name": "Postpartner 9103, Geschäft Anton Napetschnig", "category": "amenity:post_office", "address": "8, 9103 Diex", "street": null, "housenumber": "8", "postcode": "9103", "place": "Diex", "lat": 46.7445621, "lon": 14.6166389, "tags": {"addr:city": "Diex", "addr:housenumber": "8", "addr:place": "Diex", "addr:postcode": "9103", "amenity": "post_office", "name": "Postpartner 9103, Geschäft Anton Napetschnig"}, "content": "Postpartner 9103, Geschäft Anton Napetschnig\nKategorie: amenity:post_office\nAdresse: 8, 9103 Diex\nOrt: Diex\nPLZ: 9103\nKoordinaten: 46.744562, 14.616639\nTags: amenity=post_office", "doc_type": "addresses"}
{"source": "OSM", "region": "Kärnten", "osm_type": "node", "osm_id": 2437412541, "name": "Mountain-View Data", "category": "office:it", "address": "Mountain View Platz 1, 9103 Diex", "street": "Mountain View Platz", "housenumber": "1", "postcode": "9103", "place": "Diex", "lat": 46.7425837, "lon": 14.6168177, "tags": {"addr:city": "Diex", "addr:housenumber": "1", "addr:postcode": "9103", "addr:street": "Mountain View Platz", "name": "Mountain-View Data", "office": "it", "phone": "+43 4231 25 555", "website": "https://www.mountain-view.com/"}, "content": "Mountain-View Data\nKategorie: office:it\nAdresse: Mountain View Platz 1, 9103 Diex\nOrt: Diex\nPLZ: 9103\nKoordinaten: 46.742584, 14.616818\nTags: office=it, phone=+43 4231 25 555, website=https://www.mountain-view.com/", "doc_type": "addresses"}
{"source": "OSM", "region": "Kärnten", "osm_type": "node", "osm_id": 2824235358, "name": "Gasthof Kramer", "category": "amenity:restaurant", "address": "18, 9103 Diex", "street": null, "housenumber": "18", "postcode": "9103", "place": "Diex", "lat": 46.7447047, "lon": 14.6171876, "tags": {"addr:city": "Diex", "addr:housenumber": "18", "addr:place": "Diex", "addr:postcode": "9103", "amenity": "restaurant", "name": "Gasthof Kramer"}, "content": "Gasthof Kramer\nKategorie: amenity:restaurant\nAdresse: 18, 9103 Diex\nOrt: Diex\nPLZ: 9103\nKoordinaten: 46.744705, 14.617188\nTags: amenity=restaurant", "doc_type": "addresses"}
{"source": "OSM", "region": "Kärnten", "osm_type": "node", "osm_id": 340520503, "name": "Postpartner 9103, Geschäft Anton Napetschnig", "category": "amenity:post_office", "address": "8, 9103 Diex", "street": null, "housenumber": "8", "postcode": "9103", "place": "Diex", "lat": 46.7445621, "lon": 14.6166389, "tags": {"addr:city": "Diex", "addr:housenumber": "8", "addr:place": "Diex", "addr:postcode": "9103", "amenity": "post_office", "name": "Postpartner 9103, Geschäft Anton Napetschnig"}, "content": "Postpartner 9103, Geschäft Anton Napetschnig\nKategorie: amenity:post_office\nAdresse: 8, 9103 Diex\nOrt: Diex\nPLZ: 9103\nKoordinaten: 46.744562, 14.616639\nTags: amenity=post_office", "doc_type": "pois"}
{"source": "OSM", "region": "Kärnten", "osm_type": "node", "osm_id": 2437412541, "name": "Mountain-View Data", "category": "office:it", "address": "Mountain View Platz 1, 9103 Diex", "street": "Mountain View Platz", "housenumber": "1", "postcode": "9103", "place": "Diex", "lat": 46.7425837, "lon": 14.6168177, "tags": {"addr:city": "Diex", "addr:housenumber": "1", "addr:postcode": "9103", "addr:street": "Mountain View Platz", "name": "Mountain-View Data", "office": "it", "phone": "+43 4231 25 555", "website": "https://www.mountain-view.com/"}, "content": "Mountain-View Data\nKategorie: office:it\nAdresse: Mountain View Platz 1, 9103 Diex\nOrt: Diex\nPLZ: 9103\nKoordinaten: 46.742584, 14.616818\nTags: office=it, phone=+43 4231 25 555, website=https://www.mountain-view.com/", "doc_type": "pois"}
{"source": "OSM", "region": "Kärnten", "osm_type": "node", "osm_id": 2824235358, "name": "Gasthof Kramer", "category": "amenity:restaurant", "address": "18, 9103 Diex", "street": null, "housenumber": "18", "postcode": "9103", "place": "Diex", "lat": 46.7447047, "lon": 14.6171876, "tags": {"addr:city": "Diex", "addr:housenumber": "18", "addr:place": "Diex", "addr:postcode": "9103", "amenity": "restaurant", "name": "Gasthof Kramer"}, "content": "Gasthof Kramer\nKategorie: amenity:restaurant\nAdresse: 18, 9103 Diex\nOrt: Diex\nPLZ: 9103\nKoordinaten: 46.744705, 14.617188\nTags: amenity=restaurant", "doc_type": "pois"}
