{"source": "OSM", "region": "Kärnten", "osm_type": "node", "osm_id": 801079568, "name": "Eni", "category": "amenity:fuel", "address": "Klagenfurter Straße 42a, 9100 Völkermarkt", "street": "Klagenfurter Straße", "housenumber": "42a", "postcode": "9100", "place": "Völkermarkt", "lat": 46.6592355, "lon": 14.6172141, "tags": {"addr:city": "Völkermarkt", "addr:housenumber": "42a", "addr:postcode": "9100", "addr:street": "Klagenfurter Straße", "amenity": "fuel", "brand": "Eni", "name": "Eni"}, "content": "Eni\nKategorie: amenity:fuel\nAdresse: Klagenfurter Straße 42a, 9100 Völkermarkt\nOrt: Völkermarkt\nPLZ: 9100\nKoordinaten: 46.659236, 14.617214\nTags: amenity=fuel, brand=Eni", "doc_type": "addresses"}
{"source": "OSM", "region": "Kärnten", "osm_type": "node", "osm_id": 3217701923, "name": null, "category": null, "address": "Mettingerstraße 7, 9100 Völkermarkt", "street": "Mettingerstraße", "housenumber": "7", "postcode": "9100", "place": "Völkermarkt", "lat": 46.6611008, "lon": 14.6346603, "tags": {"addr:city": "Völkermarkt", "addr:housenumber": "7", "addr:postcode": "9100", "addr:street": "Mettingerstraße"}, "content": "Adresse: Mettingerstraße 7, 9100 Völkermarkt\nOrt: Völkermarkt\nPLZ: 9100\nKoordinaten: 46.661101, 14.634660", "doc_type": "addresses"}
{"source": "OSM", "region": "Kärnten", "osm_type": "node", "osm_id": 3985978271, "name": null, "category": null, "address": "12, 9100 Völkermarkt", "street": null, "housenumber": "12", "postcode": "9100", "place": "Völkermarkt", "lat": 46.6570034, "lon": 14.7224905, "tags": {"addr:city": "Völkermarkt", "addr:housenumber": "12", "addr:place": "Bach", "addr:postcode": "9100"}, "content": "Adresse: 12, 9100 Völkermarkt\nOrt: Völkermarkt\nPLZ: 9100\nKoordinaten: 46.657003, 14.722490", "doc_type": "addresses"}
{"source": "OSM", "region": "Kärnten", "osm_type": "node", "osm_id": 4404848789, "name": "Lidl", "category": "shop:supermarket", "address": "Umfahrungsstraße 4, 9100 Völkermarkt", "street": "Umfahrungsstraße", "housenumber": "4", "postcode": "9100", "place": "Völkermarkt", "lat": 46.6619746, "lon": 14.6226715, "tags": {"addr:city": "Völkermarkt", "addr:housenumber": "4", "addr:postcode": "9100", "addr:street": "Umfahrungsstraße", "brand": "Lidl", "name": "Lidl", "shop": "supermarket"}, "content": "Lidl\nKategorie: shop:supermarket\nAdresse: Umfahrungsstraße 4, 9100 Völkermarkt\nOrt: Völkermarkt\nPLZ: 9100\nKoordinaten: 46.661975, 14.622671\nTags: shop=supermarket, brand=Lidl", "doc_type": "addresses"}
{"source": "OSM", "region": "Kärnten", "osm_type": "node", "osm_id": 4546305691, "name": "Billa", "category": "shop:supermarket", "address": "Klagenfurter Straße 38, 9100 Völkermarkt", "street": "Klagenfurter Straße", "housenumber": "38", "postcode": "9100", "place": "Völkermarkt", "lat": 46.6605705, "lon": 14.6185656, "tags": {"addr:city": "Völkermarkt", "addr:housenumber": "38", "addr:postcode": "9100", "addr:street": "Klagenfurter Straße", "brand": "Billa", "name": "Billa", "shop": "supermarket"}, "content": "Billa\nKategorie: shop:supermarket\nAdresse: Klagenfurter Straße 38, 9100 Völkermarkt\nOrt: Völkermarkt\nPLZ: 9100\nKoordinaten: 46.660570, 14.618566\nTags: shop=supermarket, brand=Billa", "doc_type": "addresses"}
{"source": "OSM", "region": "Kärnten", "osm_type": "node", "osm_id": 4546406489, "name": "Billa", "category": "shop:supermarket", "address": "Umfahrungsstraße 22-24, 9100 Völkermarkt", "street": "Umfahrungsstraße", "housenumber": "22-24", "postcode": "9100", "place": "Völkermarkt", "lat": 46.6626968, "lon": 14.6315336, "tags": {"addr:city": "Völkermarkt", "addr:housenumber": "22-24", "addr:postcode": "9100", "addr:street": "Umfahrungsstraße", "brand": "Billa", "name": "Billa", "shop": "supermarket"}, "content": "Billa\nKategorie: shop:supermarket\nAdresse: Umfahrungsstraße 22-24, 9100 Völkermarkt\nOrt: Völkermarkt\nPLZ: 9100\nKoordinaten: 46.662697, 14.631534\nTags: shop=supermarket, brand=Billa", "doc_type": "addresses"}
{"source": "OSM", "region": "Kärnten", "osm_type": "node", "osm_id": 4557594229, "name": null, "category": null, "address": "Herzog Bernhard-Platz 13, 9100 Völkermarkt", "street": "Herzog Bernhard-Platz", "housenumber": "13", "postcode": "9100", "place": "Völkermarkt", "lat": 46.6612641, "lon": 14.6345601, "tags": {"addr:city": "Völkermarkt", "addr:housenumber": "13", "addr:postcode": "9100", "addr:street": "Herzog Bernhard-Platz"}, "content": "Adresse: Herzog Bernhard-Platz 13, 9100 Völkermarkt\nOrt: Völkermarkt\nPLZ: 9100\nKoordinaten: 46.661264, 14.634560", "doc_type": "addresses"}
{"source": "OSM", "region": "Kärnten", "osm_type": "node", "osm_id": 4557679228, "name": null, "category": null, "address": "Griffner Straße 14, 9100 Völkermarkt", "street": "Griffner Straße", "housenumber": "14", "postcode": "9100", "place": "Völkermarkt", "lat": 46.6619254, "lon": 14.6372398, "tags": {"addr:city": "Völkermarkt", "addr:housenumber": "14", "addr:postcode": "9100", "addr:street": "Griffner Straße"}, "content": "Adresse: Griffner Straße 14, 9100 Völkermarkt\nOrt: Völkermarkt\nPLZ: 9100\nKoordinaten: 46.661925, 14.637240", "doc_type": "addresses"}
{"source": "OSM", "region": "Kärnten", "osm_type": "node", "osm_id": 4557679229, "name": null, "category": null, "address": "Griffner Straße 14a, 9100 Völkermarkt", "street": "Griffner Straße", "housenumber": "14a", "postcode": "9100", "place": "Völkermarkt", "lat": 46.6620793, "lon": 14.6373058, "tags": {"addr:city": "Völkermarkt", "addr:housenumber": "14a", "addr:postcode": "9100", "addr:street": "Griffner Straße"}, "content": "Adresse: Griffner Straße 14a, 9100 Völkermarkt\nOrt: Völkermarkt\nPLZ: 9100\nKoordinaten: 46.662079, 14.637306", "doc_type": "addresses"}
{"source": "OSM", "region": "Kärnten", "osm_type": "node", "osm_id": 5130230722, "name": "Bipa", "category": "shop:chemist", "address": "Hauptplatz 2, 9100 Völkermarkt", "street": "Hauptplatz", "housenumber": "2", "postcode": "9100", "place": "Völkermarkt", "lat": 46.6604076, "lon": 14.634227, "tags": {"addr:city": "Völkermarkt", "addr:housenumber": "2", "addr:postcode": "9100", "addr:street": "Hauptplatz", "brand": "Bipa", "name": "Bipa", "shop": "chemist"}, "content": "Bipa\nKategorie: shop:chemist\nAdresse: Hauptplatz 2, 9100 Völkermarkt\nOrt: Völkermarkt\nPLZ: 9100\nKoordinaten: 46.660408, 14.634227\nTags: shop=chemist, brand=Bipa", "doc_type": "addresses"}
{"source": "OSM", "region": "Kärnten", "osm_type": "node", "osm_id": 5131711476, "name": "Bezirkspolizeikommando Völkermarkt", "category": "amenity:police", "address": "Ritzingstraße 3, 9100 Völkermarkt", "street": "Ritzingstraße", "housenumber": "3", "postcode": "9100", "place": "Völkermarkt", "lat": 46.6607356, "lon": 14.6233637, "tags": {"addr:city": "Völkermarkt", "addr:housenumber": "3", "addr:postcode": "9100", "addr:street": "Ritzingstraße", "amenity": "police", "name": "Bezirkspolizeikommando Völkermarkt", "phone": "+43 59133 2140305"}, "content": "Bezirkspolizeikommando Völkermarkt\nKategorie: amenity:police\nAdresse: Ritzingstraße 3, 9100 Völkermarkt\nOrt: Völkermarkt\nPLZ: 9100\nKoordinaten: 46.660736, 14.623364\nTags: amenity=police, phone=+43 59133 2140305", "doc_type": "addresses"}
{"source": "OSM", "region": "Kärnten", "osm_type": "node", "osm_id": 5163939625, "name": "Post Filiale 9100", "category": "amenity:post_office", "address": "Herzog Bernhard-Platz 13, 9100 Völkermarkt", "street": "Herzog Bernhard-Platz", "housenumber": "13", "postcode": "9100", "place": "Völkermarkt", "lat": 46.6613554, "lon": 14.6343775, "tags": {"addr:city": "Völkermarkt", "addr:housenumber": "13", "addr:postcode": "9100", "addr:street": "Herzog Bernhard-Platz", "amenity": "post_office", "name": "Post Filiale 9100", "operator": "Österreichische Post AG", "website": "https://www.post.at"}, "content": "Post Filiale 9100\nKategorie: amenity:post_office\nAdresse: Herzog Bernhard-Platz 13, 9100 Völkermarkt\nOrt: Völkermarkt\nPLZ: 9100\nKoordinaten: 46.661355, 14.634377\nTags: amenity=post_office, operator=Österreichische Post AG, website=https://www.post.at", "doc_type": "addresses"}
{"source": "OSM", "region": "Kärnten", "osm_type": "node", "osm_id": 5523656195, "name": null, "category": null, "address": "Klagenfurter Straße 24, 9100 Völkermarkt", "street": "Klagenfurter Straße", "housenumber": "24", "postcode": "9100", "place": "Völkermarkt", "lat": 46.6613535, "lon": 14.624831, "tags": {"addr:city": "Völkermarkt", "addr:housenumber": "24", "addr:postcode": "9100", "addr:street": "Klagenfurter Straße"}, "content": "Adresse: Klagenfurter Straße 24, 9100 Völkermarkt\nOrt: Völkermarkt\nPLZ: 9100\nKoordinaten: 46.661353, 14.624831", "doc_type": "addresses"}
{"source": "OSM", "region": "Kärnten", "osm_type": "node", "osm_id": 5532120578, "name": null, "category": null, "address": "Hans-Wiegele-Straße 8, 9100 Völkermarkt", "street": "Hans-Wiegele-Straße", "housenumber": "8", "postcode": "9100", "place": "Völkermarkt", "lat": 46.6618926, "lon": 14.6352637, "tags": {"addr:city": "Völkermarkt", "addr:housenumber": "8", "addr:postcode": "9100", "addr:street": "Hans-Wiegele-Straße"}, "content": "Adresse: Hans-Wiegele-Straße 8, 9100 Völkermarkt\nOrt: Völkermarkt\nPLZ: 9100\nKoordinaten: 46.661893, 14.635264", "doc_type": "addresses"}
{"source": "OSM", "region": "Kärnten", "osm_type": "node", "osm_id": 5532120579, "name": null, "category": null, "address": "Hans-Wiegele-Straße 6, 9100 Völkermarkt", "street": "Hans-Wiegele-Straße", "housenumber": "6", "postcode": "9100", "place": "Völkermarkt", "lat": 46.6619036, "lon": 14.6351257, "tags": {"addr:city": "Völkermarkt", "addr:housenumber": "6", "addr:postcode": "9100", "addr:street": "Hans-Wiegele-Straße"}, "content": "Adresse: Hans-Wiegele-Straße 6, 9100 Völkermarkt\nOrt: Völkermarkt\nPLZ: 9100\nKoordinaten: 46.661904, 14.635126", "doc_type": "addresses"}
{"source": "OSM", "region": "Kärnten", "osm_type": "node", "osm_id": 5532120610, "name": null, "category": null, "address": "2, 9064 Völkermarkt", "street": null, "housenumber": "2", "postcode": "9064", "place": "Völkermarkt", "lat": 46.6874341, "lon": 14.5104571, "tags": {"addr:city": "Völkermarkt", "addr:housenumber": "2", "addr:place": "Schöndorf", "addr:postcode": "9064"}, "content": "Adresse: 2, 9064 Völkermarkt\nOrt: Völkermarkt\nPLZ: 9064\nKoordinaten: 46.687434, 14.510457", "doc_type": "addresses"}
{"source": "OSM", "region": "Kärnten", "osm_type": "node", "osm_id": 5532120772, "name": null, "category": null, "address": "22a, 9064 Völkermarkt", "street": null, "housenumber": "22a", "postcode": "9064", "place": "Völkermarkt", "lat": 46.6789406, "lon": 14.512504, "tags": {"addr:city": "Völkermarkt", "addr:housenumber": "22a", "addr:place": "Salchendorf", "addr:postcode": "9064"}, "content": "Adresse: 22a, 9064 Völkermarkt\nOrt: Völkermarkt\nPLZ: 9064\nKoordinaten: 46.678941, 14.512504", "doc_type": "addresses"}
{"source": "OSM", "region": "Kärnten", "osm_type": "node", "osm_id": 5577225849, "name": null, "category": null, "address": "Klagenfurter Straße 25, 9100 Völkermarkt", "street": "Klagenfurter Straße", "housenumber": "25", "postcode": "9100", "place": "Völkermarkt", "lat": 46.6608676, "lon": 14.6251488, "tags": {"addr:city": "Völkermarkt", "addr:housenumber": "25", "addr:postcode": "9100", "addr:street": "Klagenfurter Straße"}, "content": "Adresse: Klagenfurter Straße 25, 9100 Völkermarkt\nOrt: Völkermarkt\nPLZ: 9100\nKoordinaten: 46.660868, 14.625149", "doc_type": "addresses"}
{"source": "OSM", "region": "Kärnten", "osm_type": "node", "osm_id": 5577225850, "name": null, "category": null, "address": "Klagenfurter Straße 23, 9100 Völkermarkt", "street": "Klagenfurter Straße", "housenumber": "23", "postcode": "9100", "place": "Völkermarkt", "lat": 46.6610322, "lon": 14.6251599, "tags": {"addr:city": "Völkermarkt", "addr:housenumber": "23", "addr:postcode": "9100", "addr:street": "Klagenfurter Straße"}, "content": "Adresse: Klagenfurter Straße 23, 9100 Völkermarkt\nOrt: Völkermarkt\nPLZ: 9100\nKoordinaten: 46.661032, 14.625160", "doc_type": "addresses"}
{"source": "OSM", "region": "Kärnten", "osm_type": "node", "osm_id": 5577225851, "name": null, "category": null, "address": "Klagenfurter Straße 21, 9100 Völkermarkt", "street": "Klagenfurter Straße", "housenumber": "21", "postcode": "9100", "place": "Völkermarkt", "lat": 46.660839, "lon": 14.6255672, "tags": {"addr:city": "Völkermarkt", "addr:housenumber": "21", "addr:postcode": "9100", "addr:street": "Klagenfurter Straße"}, "content": "Adresse: Klagenfurter Straße 21, 9100 Völkermarkt\nOrt: Völkermarkt\nPLZ: 9100\nKoordinaten: 46.660839, 14.625567", "doc_type": "addresses"}
{"source": "OSM", "region": "Kärnten", "osm_type": "node", "osm_id": 5577225852, "name": null, "category": null, "address": "Klagenfurter Straße 19, 9100 Völkermarkt", "street": "Klagenfurter Straße", "housenumber": "19", "postcode": "9100", "place": "Völkermarkt", "lat": 46.6610009, "lon": 14.6255757, "tags": {"addr:city": "Völkermarkt", "addr:housenumber": "19", "addr:postcode": "9100", "addr:street": "Klagenfurter Straße"}, "content": "Adresse: Klagenfurter Straße 19, 9100 Völkermarkt\nOrt: Völkermarkt\nPLZ: 9100\nKoordinaten: 46.661001, 14.625576", "doc_type": "addresses"}
{"source": "OSM", "region": "Kärnten", "osm_type": "node", "osm_id": 5580175504, "name": null, "category": null, "address": "Kl.St.Veit 5, 9371 Völkermarkt", "street": "Kl.St.Veit", "housenumber": "5", "postcode": "9371", "place": "Völkermarkt", "lat": 46.7285427, "lon": 14.5476104, "tags": {"addr:city": "Völkermarkt", "addr:housenumber": "5", "addr:postcode": "9371", "addr:street": "Kl.St.Veit"}, "content": "Adresse: Kl.St.Veit 5, 9371 Völkermarkt\nOrt: Völkermarkt\nPLZ: 9371\nKoordinaten: 46.728543, 14.547610", "doc_type": "addresses"}
{"source": "OSM", "region": "Kärnten", "osm_type": "node", "osm_id": 5631351394, "name": null, "category": null, "address": "9a, 9102 Völkermarkt", "street": null, "housenumber": "9a", "postcode": "9102", "place": "Völkermarkt", "lat": 46.6977211, "lon": 14.5491748, "tags": {"addr:city": "Völkermarkt", "addr:housenumber": "9a", "addr:place": "Kremschitz", "addr:postcode": "9102"}, "content": "Adresse: 9a, 9102 Völkermarkt\nOrt: Völkermarkt\nPLZ: 9102\nKoordinaten: 46.697721, 14.549175", "doc_type": "addresses"}
{"source": "OSM", "region": "Kärnten", "osm_type": "node", "osm_id": 5631351396, "name": null, "category": null, "address": "12, 9100 Völkermarkt", "street": null, "housenumber": "12", "postcode": "9100", "place": "Völkermarkt", "lat": 46.6757557, "lon": 14.5726803, "tags": {"addr:city": "Völkermarkt", "addr:housenumber": "12", "addr:place": "St.Margarethen o.T.", "addr:postcode": "9100"}, "content": "Adresse: 12, 9100 Völkermarkt\nOrt: Völkermarkt\nPLZ: 9100\nKoordinaten: 46.675756, 14.572680", "doc_type": "addresses"}
{"source": "OSM", "region": "Kärnten", "osm_type": "node", "osm_id": 5631351397, "name": null, "category": null, "address": "3, 9100 Völkermarkt", "street": null, "housenumber": "3", "postcode": "9100", "place": "Völkermarkt", "lat": 46.6757373, "lon": 14.5724067, "tags": {"addr:city": "Völkermarkt", "addr:housenumber": "3", "addr:place": "St.Margarethen o.T.", "addr:postcode": "9100"}, "content": "Adresse: 3, 9100 Völkermarkt\nOrt: Völkermarkt\nPLZ: 9100\nKoordinaten: 46.675737, 14.572407", "doc_type": "addresses"}
{"source": "OSM", "region": "Kärnten", "osm_type": "node", "osm_id": 801079568, "name": "Eni", "category": "amenity:fuel", "address": "Klagenfurter Straße 42a, 9100 Völkermarkt", "street": "Klagenfurter Straße", "housenumber": "42a", "postcode": "9100", "place": "Völkermarkt", "lat": 46.6592355, "lon": 14.6172141, "tags": {"addr:city": "Völkermarkt", "addr:housenumber": "42a", "addr:postcode": "9100", "addr:street": "Klagenfurter Straße", "amenity": "fuel", "brand": "Eni", "name": "Eni"}, "content": "Eni\nKategorie: amenity:fuel\nAdresse: Klagenfurter Straße 42a, 9100 Völkermarkt\nOrt: Völkermarkt\nPLZ: 9100\nKoordinaten: 46.659236, 14.617214\nTags: amenity=fuel, brand=Eni", "doc_type": "pois"}
{"source": "OSM", "region": "Kärnten", "osm_type": "node", "osm_id": 3194297065, "name": "Cafe Latte", "category": "amenity:cafe", "address": "9100 Völkermarkt", "street": null, "housenumber": null, "postcode": "9100", "place": "Völkermarkt", "lat": 46.6621786, "lon": 14.6338718, "tags": {"addr:city": "Völkermarkt", "addr:postcode": "9100", "amenity": "cafe", "name": "Cafe Latte"}, "content": "Cafe Latte\nKategorie: amenity:cafe\nAdresse: 9100 Völkermarkt\nOrt: Völkermarkt\nPLZ: 9100\nKoordinaten: 46.662179, 14.633872\nTags: amenity=cafe", "doc_type": "pois"}
{"source": "OSM", "region": "Kärnten", "osm_type": "node", "osm_id": 4404848789, "name": "Lidl", "category": "shop:supermarket", "address": "Umfahrungsstraße 4, 9100 Völkermarkt", "street": "Umfahrungsstraße", "housenumber": "4", "postcode": "9100", "place": "Völkermarkt", "lat": 46.6619746, "lon": 14.6226715, "tags": {"addr:city": "Völkermarkt", "addr:housenumber": "4", "addr:postcode": "9100", "addr:street": "Umfahrungsstraße", "brand": "Lidl", "name": "Lidl", "shop": "supermarket"}, "content": "Lidl\nKategorie: shop:supermarket\nAdresse: Umfahrungsstraße 4, 9100 Völkermarkt\nOrt: Völkermarkt\nPLZ: 9100\nKoordinaten: 46.661975, 14.622671\nTags: shop=supermarket, brand=Lidl", "doc_type": "pois"}
{"source": "OSM", "region": "Kärnten", "osm_type": "node", "osm_id": 4546305691, "name": "Billa", "category": "shop:supermarket", "address": "Klagenfurter Straße 38, 9100 Völkermarkt", "street": "Klagenfurter Straße", "housenumber": "38", "postcode": "9100", "place": "Völkermarkt", "lat": 46.6605705, "lon": 14.6185656, "tags": {"addr:city": "Völkermarkt", "addr:housenumber": "38", "addr:postcode": "9100", "addr:street": "Klagenfurter Straße", "brand": "Billa", "name": "Billa", "shop": "supermarket"}, "content": "Billa\nKategorie: shop:supermarket\nAdresse: Klagenfurter Straße 38, 9100 Völkermarkt\nOrt: Völkermarkt\nPLZ: 9100\nKoordinaten: 46.660570, 14.618566\nTags: shop=supermarket, brand=Billa", "doc_type": "pois"}
{"source": "OSM", "region": "Kärnten", "osm_type": "node", "osm_id": 4546406489, "name": "Billa", "category": "shop:supermarket", "address": "Umfahrungsstraße 22-24, 9100 Völkermarkt", "street": "Umfahrungsstraße", "housenumber": "22-24", "postcode": "9100", "place": "Völkermarkt", "lat": 46.6626968, "lon": 14.6315336, "tags": {"addr:city": "Völkermarkt", "addr:housenumber": "22-24", "addr:postcode": "9100", "addr:street": "Umfahrungsstraße", "brand": "Billa", "name": "Billa", "shop": "supermarket"}, "content": "Billa\nKategorie: shop:supermarket\nAdresse: Umfahrungsstraße 22-24, 9100 Völkermarkt\nOrt: Völkermarkt\nPLZ: 9100\nKoordinaten: 46.662697, 14.631534\nTags: shop=supermarket, brand=Billa", "doc_type": "pois"}
{"source": "OSM", "region": "Kärnten", "osm_type": "node", "osm_id": 5011100024, "name": "Schuhaus Hribernik Gmbh", "category": "shop:shoes", "address": "9100 Völkermarkt", "street": null, "housenumber": null, "postcode": "9100", "place": "Völkermarkt", "lat": 46.6624099, "lon": 14.6330435, "tags": {"addr:city": "Völkermarkt", "addr:postcode": "9100", "name": "Schuhaus Hribernik Gmbh", "shop": "shoes"}, "content": "Schuhaus Hribernik Gmbh\nKategorie: shop:shoes\nAdresse: 9100 Völkermarkt\nOrt: Völkermarkt\nPLZ: 9100\nKoordinaten: 46.662410, 14.633043\nTags: shop=shoes", "doc_type": "pois"}
{"source": "OSM", "region": "Kärnten", "osm_type": "node", "osm_id": 5011159421, "name": "Schuh und Sport Frankl", "category": "shop:sports", "address": "9100 Völkermarkt", "street": null, "housenumber": null, "postcode": "9100", "place": "Völkermarkt", "lat": 46.6623209, "lon": 14.6331036, "tags": {"addr:city": "Völkermarkt", "addr:postcode": "9100", "name": "Schuh und Sport Frankl", "shop": "sports"}, "content": "Schuh und Sport Frankl\nKategorie: shop:sports\nAdresse: 9100 Völkermarkt\nOrt: Völkermarkt\nPLZ: 9100\nKoordinaten: 46.662321, 14.633104\nTags: shop=sports", "doc_type": "pois"}
{"source": "OSM", "region": "Kärnten", "osm_type": "node", "osm_id": 5011460023, "name": "Müller", "category": "shop:chemist", "address": "9100 Völkermarkt", "street": null, "housenumber": null, "postcode": "9100", "place": "Völkermarkt", "lat": 46.662264, "lon": 14.6318845, "tags": {"addr:city": "Völkermarkt", "addr:postcode": "9100", "brand": "Müller", "name": "Müller", "shop": "chemist"}, "content": "Müller\nKategorie: shop:chemist\nAdresse: 9100 Völkermarkt\nOrt: Völkermarkt\nPLZ: 9100\nKoordinaten: 46.662264, 14.631884\nTags: shop=chemist, brand=Müller", "doc_type": "pois"}
{"source": "OSM", "region": "Kärnten", "osm_type": "node", "osm_id": 5130230722, "name": "Bipa", "category": "shop:chemist", "address": "Hauptplatz 2, 9100 Völkermarkt", "street": "Hauptplatz", "housenumber": "2", "postcode": "9100", "place": "Völkermarkt", "lat": 46.6604076, "lon": 14.634227, "tags": {"addr:city": "Völkermarkt", "addr:housenumber": "2", "addr:postcode": "9100", "addr:street": "Hauptplatz", "brand": "Bipa", "name": "Bipa", "shop": "chemist"}, "content": "Bipa\nKategorie: shop:chemist\nAdresse: Hauptplatz 2, 9100 Völkermarkt\nOrt: Völkermarkt\nPLZ: 9100\nKoordinaten: 46.660408, 14.634227\nTags: shop=chemist, brand=Bipa", "doc_type": "pois"}
{"source": "OSM", "region": "Kärnten", "osm_type": "node", "osm_id": 5131711476, "name": "Bezirkspolizeikommando Völkermarkt", "category": "amenity:police", "address": "Ritzingstraße 3, 9100 Völkermarkt", "street": "Ritzingstraße", "housenumber": "3", "postcode": "9100", "place": "Völkermarkt", "lat": 46.6607356, "lon": 14.6233637, "tags": {"addr:city": "Völkermarkt", "addr:housenumber": "3", "addr:postcode": "9100", "addr:street": "Ritzingstraße", "amenity": "police", "name": "Bezirkspolizeikommando Völkermarkt", "phone": "+43 59133 2140305"}, "content": "Bezirkspolizeikommando Völkermarkt\nKategorie: amenity:police\nAdresse: Ritzingstraße 3, 9100 Völkermarkt\nOrt: Völkermarkt\nPLZ: 9100\nKoordinaten: 46.660736, 14.623364\nTags: amenity=police, phone=+43 59133 2140305", "doc_type": "pois"}
{"source": "OSM", "region": "Kärnten", "osm_type": "node", "osm_id": 5163939625, "name": "Post Filiale 9100", "category": "amenity:post_office", "address": "Herzog Bernhard-Platz 13, 9100 Völkermarkt", "street": "Herzog Bernhard-Platz", "housenumber": "13", "postcode": "9100", "place": "Völkermarkt", "lat": 46.6613554, "lon": 14.6343775, "tags": {"addr:city": "Völkermarkt", "addr:housenumber": "13", "addr:postcode": "9100", "addr:street": "Herzog Bernhard-Platz", "amenity": "post_office", "name": "Post Filiale 9100", "operator": "Österreichische Post AG", "website": "https://www.post.at"}, "content": "Post Filiale 9100\nKategorie: amenity:post_office\nAdresse: Herzog Bernhard-Platz 13, 9100 Völkermarkt\nOrt: Völkermarkt\nPLZ: 9100\nKoordinaten: 46.661355, 14.634377\nTags: amenity=post_office, operator=Österreichische Post AG, website=https://www.post.at", "doc_type": "pois"}
