{"source": "OSM", "region": "Kärnten", "osm_type": "node", "osm_id": 5531636648, "name": null, "category": null, "address": "205, 9150 Ebersdorf", "street": null, "housenumber": "205", "postcode": "9150", "place": "Ebersdorf", "lat": 46.5799367, "lon": 14.795191, "tags": {"addr:city": "Ebersdorf", "addr:housenumber": "205", "addr:place": "Ebersdorf", "addr:postcode": "9150"}, "content": "Adresse: 205, 9150 Ebersdorf\nOrt: Ebersdorf\nPLZ: 9150\nKoordinaten: 46.579937, 14.795191", "doc_type": "addresses"}
{"source": "OSM", "region": "Kärnten", "osm_type": "node", "osm_id": 5531636658, "name": null, "category": null, "address": "104, 9150 Ebersdorf", "street": null, "housenumber": "104", "postcode": "9150", "place": "Ebersdorf", "lat": 46.5758179, "lon": 14.7897327, "tags": {"addr:city": "Ebersdorf", "addr:housenumber": "104", "addr:place": "Ebersdorf", "addr:postcode": "9150"}, "content": "Adresse: 104, 9150 Ebersdorf\nOrt: Ebersdorf\nPLZ: 9150\nKoordinaten: 46.575818, 14.789733", "doc_type": "addresses"}
{"source": "OSM", "region": "Kärnten", "osm_type": "node", "osm_id": 5531636659, "name": null, "category": null, "address": "238, 9150 Ebersdorf", "street": null, "housenumber": "238", "postcode": "9150", "place": "Ebersdorf", "lat": 46.5767693, "lon": 14.7922996, "tags": {"addr:city": "Ebersdorf", "addr:housenumber": "238", "addr:place": "Ebersdorf", "addr:postcode": "9150"}, "content": "Adresse: 238, 9150 Ebersdorf\nOrt: Ebersdorf\nPLZ: 9150\nKoordinaten: 46.576769, 14.792300", "doc_type": "addresses"}
{"source": "OSM", "region": "Kärnten", "osm_type": "node", "osm_id": 5531636674, "name": null, "category": null, "address": "5, 9150 Ebersdorf", "street": null, "housenumber": "5", "postcode": "9150", "place": "Ebersdorf", "lat": 46.5786167, "lon": 14.7852749, "tags": {"addr:city": "Ebersdorf", "addr:housenumber": "5", "addr:place": "Sorgendorf", "addr:postcode": "9150"}, "content": "Adresse: 5, 9150 Ebersdorf\nOrt: Ebersdorf\nPLZ: 9150\nKoordinaten: 46.578617, 14.785275", "doc_type": "addresses"}
{"source": "OSM", "region": "Kärnten", "osm_type": "node", "osm_id": 5531636675, "name": null, "category": null, "address": "1, 9150 Ebersdorf", "street": null, "housenumber": "1", "postcode": "9150", "place": "Ebersdorf", "lat": 46.5786314, "lon": 14.7862941, "tags": {"addr:city": "Ebersdorf", "addr:housenumber": "1", "addr:place": "Sorgendorf", "addr:postcode": "9150"}, "content": "Adresse: 1, 9150 Ebersdorf\nOrt: Ebersdorf\nPLZ: 9150\nKoordinaten: 46.578631, 14.786294", "doc_type": "addresses"}
{"source": "OSM", "region": "Kärnten", "osm_type": "node", "osm_id": 5531636676, "name": null, "category": null, "address": "99, 9150 Ebersdorf", "street": null, "housenumber": "99", "postcode": "9150", "place": "Ebersdorf", "lat": 46.5789884, "lon": 14.7916854, "tags": {"addr:city": "Ebersdorf", "addr:housenumber": "99", "addr:place": "Ebersdorf", "addr:postcode": "9150"}, "content": "Adresse: 99, 9150 Ebersdorf\nOrt: Ebersdorf\nPLZ: 9150\nKoordinaten: 46.578988, 14.791685", "doc_type": "addresses"}
