{"source": "OSM", "region": "Kärnten", "osm_type": "node", "osm_id": 472638180, "name": "ADEG", "category": "shop:supermarket", "address": "46, 9863 Rennweg am Katschberg", "street": null, "housenumber": "46", "postcode": "9863", "place": "Rennweg am Katschberg", "lat": 47.0184847, "lon": 13.6121719, "tags": {"addr:city": "Rennweg am Katschberg", "addr:housenumber": "46", "addr:place": "Rennweg", "addr:postcode": "9863", "name": "ADEG", "shop": "supermarket"}, "content": "ADEG\nKategorie: shop:supermarket\nAdresse: 46, 9863 Rennweg am Katschberg\nOrt: Rennweg am Katschberg\nPLZ: 9863\nKoordinaten: 47.018485, 13.612172\nTags: shop=supermarket", "doc_type": "addresses"}
{"source": "OSM", "region": "Kärnten", "osm_type": "node", "osm_id": 472642489, "name": "Dr. Luger", "category": "amenity:doctors", "address": "88, 9863 Rennweg am Katschberg", "street": null, "housenumber": "88", "postcode": "9863", "place": "Rennweg am Katschberg", "lat": 47.0184667, "lon": 13.6133196, "tags": {"addr:city": "Rennweg am Katschberg", "addr:housenumber": "88", "addr:place": "Rennweg", "addr:postcode": "9863", "amenity": "doctors", "name": "Dr. Luger"}, "content": "Dr. Luger\nKategorie: amenity:doctors\nAdresse: 88, 9863 Rennweg am Katschberg\nOrt: Rennweg am Katschberg\nPLZ: 9863\nKoordinaten: 47.018467, 13.613320\nTags: amenity=doctors", "doc_type": "addresses"}
{"source": "OSM", "region": "Kärnten", "osm_type": "node", "osm_id": 472642525, "name": "Polizeiinspektion Rennweg am Katschberg", "category": "amenity:police", "address": "6, 9863 Rennweg am Katschberg", "street": null, "housenumber": "6", "postcode": "9863", "place": "Rennweg am Katschberg", "lat": 47.0173114, "lon": 13.6126645, "tags": {"addr:city": "Rennweg am Katschberg", "addr:housenumber": "6", "addr:place": "Rennweg", "addr:postcode": "9863", "amenity": "police", "name": "Polizeiinspektion Rennweg am Katschberg", "phone": "+43 59133 2234100"}, "content": "Polizeiinspektion Rennweg am Katschberg\nKategorie: amenity:police\nAdresse: 6, 9863 Rennweg am Katschberg\nOrt: Rennweg am Katschberg\nPLZ: 9863\nKoordinaten: 47.017311, 13.612664\nTags: amenity=police, phone=+43 59133 2234100", "doc_type": "addresses"}
{"source": "OSM", "region": "Kärnten", "osm_type": "node", "osm_id": 3069726355, "name": "Hotel Lärchenhof Katschberg", "category": "tourism:hotel", "address": "14, 9863 Rennweg am Katschberg", "street": null, "housenumber": "14", "postcode": "9863", "place": "Rennweg am Katschberg", "lat": 47.0577792, "lon": 13.614005, "tags": {"addr:city": "Rennweg am Katschberg", "addr:housenumber": "14", "addr:place": "Katschberghöhe", "addr:postcode": "9863", "name": "Hotel Lärchenhof Katschberg", "phone": "+43 4734 250", "tourism": "hotel", "website": "https://www.laerchenhof-katschberg.at/"}, "content": "Hotel Lärchenhof Katschberg\nKategorie: tourism:hotel\nAdresse: 14, 9863 Rennweg am Katschberg\nOrt: Rennweg am Katschberg\nPLZ: 9863\nKoordinaten: 47.057779, 13.614005\nTags: phone=+43 4734 250, website=https://www.laerchenhof-katschberg.at/", "doc_type": "addresses"}
{"source": "OSM", "region": "Kärnten", "osm_type": "node", "osm_id": 4209592882, "name": null, "category": null, "address": "96a, 9863 Rennweg am Katschberg", "street": null, "housenumber": "96a", "postcode": "9863", "place": "Rennweg am Katschberg", "lat": 47.022893, "lon": 13.6075544, "tags": {"addr:city": "Rennweg am Katschberg", "addr:housenumber": "96a", "addr:place": "Rennweg", "addr:postcode": "9863"}, "content": "Adresse: 96a, 9863 Rennweg am Katschberg\nOrt: Rennweg am Katschberg\nPLZ: 9863\nKoordinaten: 47.022893, 13.607554", "doc_type": "addresses"}
{"source": "OSM", "region": "Kärnten", "osm_type": "node", "osm_id": 472638180, "name": "ADEG", "category": "shop:supermarket", "address": "46, 9863 Rennweg am Katschberg", "street": null, "housenumber": "46", "postcode": "9863", "place": "Rennweg am Katschberg", "lat": 47.0184847, "lon": 13.6121719, "tags": {"addr:city": "Rennweg am Katschberg", "addr:housenumber": "46", "addr:place": "Rennweg", "addr:postcode": "9863", "name": "ADEG", "shop": "supermarket"}, "content": "ADEG\nKategorie: shop:supermarket\nAdresse: 46, 9863 Rennweg am Katschberg\nOrt: Rennweg am Katschberg\nPLZ: 9863\nKoordinaten: 47.018485, 13.612172\nTags: shop=supermarket", "doc_type": "pois"}
{"source": "OSM", "region": "Kärnten", "osm_type": "node", "osm_id": 472642489, "name": "Dr. Luger", "category": "amenity:doctors", "address": "88, 9863 Rennweg am Katschberg", "street": null, "housenumber": "88", "postcode": "9863", "place": "Rennweg am Katschberg", "lat": 47.0184667, "lon": 13.6133196, "tags": {"addr:city": "Rennweg am Katschberg", "addr:housenumber": "88", "addr:place": "Rennweg", "addr:postcode": "9863", "amenity": "doctors", "name": "Dr. Luger"}, "content": "Dr. Luger\nKategorie: amenity:doctors\nAdresse: 88, 9863 Rennweg am Katschberg\nOrt: Rennweg am Katschberg\nPLZ: 9863\nKoordinaten: 47.018467, 13.613320\nTags: amenity=doctors", "doc_type": "pois"}
{"source": "OSM", "region": "Kärnten", "osm_type": "node", "osm_id": 472642525, "name": "Polizeiinspektion Rennweg am Katschberg", "category": "amenity:police", "address": "6, 9863 Rennweg am Katschberg", "street": null, "housenumber": "6", "postcode": "9863", "place": "Rennweg am Katschberg", "lat": 47.0173114, "lon": 13.6126645, "tags": {"addr:city": "Rennweg am Katschberg", "addr:housenumber": "6", "addr:place": "Rennweg", "addr:postcode": "9863", "amenity": "police", "name": "Polizeiinspektion Rennweg am Katschberg", "phone": "+43 59133 2234100"}, "content": "Polizeiinspektion Rennweg am Katschberg\nKategorie: amenity:police\nAdresse: 6, 9863 Rennweg am Katschberg\nOrt: Rennweg am Katschberg\nPLZ: 9863\nKoordinaten: 47.017311, 13.612664\nTags: amenity=police, phone=+43 59133 2234100", "doc_type": "pois"}
{"source": "OSM", "region": "Kärnten", "osm_type": "node", "osm_id": 3069726355, "name": "Hotel Lärchenhof Katschberg", "category": "tourism:hotel", "address": "14, 9863 Rennweg am Katschberg", "street": null, "housenumber": "14", "postcode": "9863", "place": "Rennweg am Katschberg", "lat": 47.0577792, "lon": 13.614005, "tags": {"addr:city": "Rennweg am Katschberg", "addr:housenumber": "14", "addr:place": "Katschberghöhe", "addr:postcode": "9863", "name": "Hotel Lärchenhof Katschberg", "phone": "+43 4734 250", "tourism": "hotel", "website": "https://www.laerchenhof-katschberg.at/"}, "content": "Hotel Lärchenhof Katschberg\nKategorie: tourism:hotel\nAdresse: 14, 9863 Rennweg am Katschberg\nOrt: Rennweg am Katschberg\nPLZ: 9863\nKoordinaten: 47.057779, 13.614005\nTags: phone=+43 4734 250, website=https://www.laerchenhof-katschberg.at/", "doc_type": "pois"}
