{"source": "OSM", "region": "Kärnten", "osm_type": "node", "osm_id": 340519751, "name": "9133 Sittersdorf", "category": "amenity:post_office", "address": "100B, 9133 Sittersdorf", "street": null, "housenumber": "100B", "postcode": "9133", "place": "Sittersdorf", "lat": 46.5466158, "lon": 14.6020537, "tags": {"addr:city": "Sittersdorf", "addr:housenumber": "100B", "addr:place": "Sittersdorf", "addr:postcode": "9133", "amenity": "post_office", "name": "9133 Sittersdorf"}, "content": "9133 Sittersdorf\nKategorie: amenity:post_office\nAdresse: 100B, 9133 Sittersdorf\nOrt: Sittersdorf\nPLZ: 9133\nKoordinaten: 46.546616, 14.602054\nTags: amenity=post_office", "doc_type": "addresses"}
{"source": "OSM", "region": "Kärnten", "osm_type": "node", "osm_id": 878600390, "name": "Landgasthaus Mochoritsch", "category": "amenity:restaurant", "address": "Rückersdorf 5, 9123 Sittersdorf", "street": "Rückersdorf", "housenumber": "5", "postcode": "9123", "place": "Sittersdorf", "lat": 46.5659887, "lon": 14.5691205, "tags": {"addr:city": "Sittersdorf", "addr:housenumber": "5", "addr:postcode": "9123", "addr:street": "Rückersdorf", "amenity": "restaurant", "brand": "Hirter", "name": "Landgasthaus Mochoritsch", "phone": "+43 4237 2212", "website": "https://www.mochoritsch.at/"}, "content": "Landgasthaus Mochoritsch\nKategorie: amenity:restaurant\nAdresse: Rückersdorf 5, 9123 Sittersdorf\nOrt: Sittersdorf\nPLZ: 9123\nKoordinaten: 46.565989, 14.569121\nTags: amenity=restaurant, brand=Hirter, phone=+43 4237 2212, website=https://www.mochoritsch.at/", "doc_type": "addresses"}
{"source": "OSM", "region": "Kärnten", "osm_type": "node", "osm_id": 2026995268, "name": "Frühstückspension Petschnig", "category": "tourism:guest_house", "address": "13, 9133 Sittersdorf", "street": null, "housenumber": "13", "postcode": "9133", "place": "Sittersdorf", "lat": 46.5411175, "lon": 14.6214895, "tags": {"addr:city": "Sittersdorf", "addr:housenumber": "13", "addr:place": "Sielach", "addr:postcode": "9133", "name": "Frühstückspension Petschnig", "tourism": "guest_house"}, "content": "Frühstückspension Petschnig\nKategorie: tourism:guest_house\nAdresse: 13, 9133 Sittersdorf\nOrt: Sittersdorf\nPLZ: 9133\nKoordinaten: 46.541117, 14.621489", "doc_type": "addresses"}
{"source": "OSM", "region": "Kärnten", "osm_type": "node", "osm_id": 2840062714, "name": "Zur Rose", "category": "amenity:restaurant", "address": "22, 9133 Sittersdorf", "street": null, "housenumber": "22", "postcode": "9133", "place": "Sittersdorf", "lat": 46.5481835, "lon": 14.6041556, "tags": {"addr:city": "Sittersdorf", "addr:housenumber": "22", "addr:place": "Weinberg", "addr:postcode": "9133", "amenity": "restaurant", "name": "Zur Rose"}, "content": "Zur Rose\nKategorie: amenity:restaurant\nAdresse: 22, 9133 Sittersdorf\nOrt: Sittersdorf\nPLZ: 9133\nKoordinaten: 46.548184, 14.604156\nTags: amenity=restaurant", "doc_type": "addresses"}
{"source": "OSM", "region": "Kärnten", "osm_type": "node", "osm_id": 4276342800, "name": "Gasthof Skoff", "category": "amenity:restaurant", "address": "6, 9133 Sittersdorf", "street": null, "housenumber": "6", "postcode": "9133", "place": "Sittersdorf", "lat": 46.5484164, "lon": 14.6442171, "tags": {"addr:city": "Sittersdorf", "addr:housenumber": "6", "addr:place": "Altendorf", "addr:postcode": "9133", "amenity": "restaurant", "name": "Gasthof Skoff", "phone": "+43 4237 2248-0"}, "content": "Gasthof Skoff\nKategorie: amenity:restaurant\nAdresse: 6, 9133 Sittersdorf\nOrt: Sittersdorf\nPLZ: 9133\nKoordinaten: 46.548416, 14.644217\nTags: amenity=restaurant, phone=+43 4237 2248-0", "doc_type": "addresses"}
{"source": "OSM", "region": "Kärnten", "osm_type": "node", "osm_id": 4524778469, "name": "AVS Tageswerkstätte Sittersdorf", "category": "amenity:social_facility", "address": "101B, 9133 Sittersdorf", "street": null, "housenumber": "101B", "postcode": "9133", "place": "Sittersdorf", "lat": 46.5474323, "lon": 14.6040491, "tags": {"addr:city": "Sittersdorf", "addr:housenumber": "101B", "addr:place": "Sittersdorf", "addr:postcode": "9133", "amenity": "social_facility", "name": "AVS Tageswerkstätte Sittersdorf"}, "content": "AVS Tageswerkstätte Sittersdorf\nKategorie: amenity:social_facility\nAdresse: 101B, 9133 Sittersdorf\nOrt: Sittersdorf\nPLZ: 9133\nKoordinaten: 46.547432, 14.604049\nTags: amenity=social_facility", "doc_type": "addresses"}
{"source": "OSM", "region": "Kärnten", "osm_type": "node", "osm_id": 4524778470, "name": "ADEG", "category": "shop:supermarket", "address": "100B, 9133 Sittersdorf", "street": null, "housenumber": "100B", "postcode": "9133", "place": "Sittersdorf", "lat": 46.5465572, "lon": 14.6018971, "tags": {"addr:city": "Sittersdorf", "addr:housenumber": "100B", "addr:place": "Sittersdorf", "addr:postcode": "9133", "name": "ADEG", "shop": "supermarket"}, "content": "ADEG\nKategorie: shop:supermarket\nAdresse: 100B, 9133 Sittersdorf\nOrt: Sittersdorf\nPLZ: 9133\nKoordinaten: 46.546557, 14.601897\nTags: shop=supermarket", "doc_type": "addresses"}
{"source": "OSM", "region": "Kärnten", "osm_type": "node", "osm_id": 4524778471, "name": null, "category": "amenity:community_centre", "address": "100A, 9133 Sittersdorf", "street": null, "housenumber": "100A", "postcode": "9133", "place": "Sittersdorf", "lat": 46.5470572, "lon": 14.6026033, "tags": {"addr:city": "Sittersdorf", "addr:housenumber": "100A", "addr:place": "Sittersdorf", "addr:postcode": "9133", "amenity": "community_centre"}, "content": "Kategorie: amenity:community_centre\nAdresse: 100A, 9133 Sittersdorf\nOrt: Sittersdorf\nPLZ: 9133\nKoordinaten: 46.547057, 14.602603\nTags: amenity=community_centre", "doc_type": "addresses"}
{"source": "OSM", "region": "Kärnten", "osm_type": "node", "osm_id": 4767974542, "name": null, "category": "amenity:restaurant", "address": "7, 9133 Sittersdorf", "street": null, "housenumber": "7", "postcode": "9133", "place": "Sittersdorf", "lat": 46.5667979, "lon": 14.5474972, "tags": {"addr:city": "Sittersdorf", "addr:housenumber": "7", "addr:place": "Obernarrach", "addr:postcode": "9133", "amenity": "restaurant"}, "content": "Kategorie: amenity:restaurant\nAdresse: 7, 9133 Sittersdorf\nOrt: Sittersdorf\nPLZ: 9133\nKoordinaten: 46.566798, 14.547497\nTags: amenity=restaurant", "doc_type": "addresses"}
{"source": "OSM", "region": "Kärnten", "osm_type": "node", "osm_id": 5481300988, "name": null, "category": null, "address": "14, 9133 Sittersdorf", "street": null, "housenumber": "14", "postcode": "9133", "place": "Sittersdorf", "lat": 46.5656334, "lon": 14.5383656, "tags": {"addr:city": "Sittersdorf", "addr:housenumber": "14", "addr:place": "Müllnern", "addr:postcode": "9133"}, "content": "Adresse: 14, 9133 Sittersdorf\nOrt: Sittersdorf\nPLZ: 9133\nKoordinaten: 46.565633, 14.538366", "doc_type": "addresses"}
{"source": "OSM", "region": "Kärnten", "osm_type": "node", "osm_id": 5526603789, "name": null, "category": null, "address": "19, 9133 Sittersdorf", "street": null, "housenumber": "19", "postcode": "9133", "place": "Sittersdorf", "lat": 46.5522702, "lon": 14.6573362, "tags": {"addr:city": "Sittersdorf", "addr:housenumber": "19", "addr:place": "Sagerberg", "addr:postcode": "9133"}, "content": "Adresse: 19, 9133 Sittersdorf\nOrt: Sittersdorf\nPLZ: 9133\nKoordinaten: 46.552270, 14.657336", "doc_type": "addresses"}
{"source": "OSM", "region": "Kärnten", "osm_type": "node", "osm_id": 5526603818, "name": null, "category": null, "address": "10, 9133 Sittersdorf", "street": null, "housenumber": "10", "postcode": "9133", "place": "Sittersdorf", "lat": 46.5425025, "lon": 14.6628749, "tags": {"addr:city": "Sittersdorf", "addr:housenumber": "10", "addr:place": "Sagerberg", "addr:postcode": "9133"}, "content": "Adresse: 10, 9133 Sittersdorf\nOrt: Sittersdorf\nPLZ: 9133\nKoordinaten: 46.542502, 14.662875", "doc_type": "addresses"}
{"source": "OSM", "region": "Kärnten", "osm_type": "node", "osm_id": 5528267355, "name": null, "category": null, "address": "30, 9133 Sittersdorf", "street": null, "housenumber": "30", "postcode": "9133", "place": "Sittersdorf", "lat": 46.5489075, "lon": 14.6013719, "tags": {"addr:city": "Sittersdorf", "addr:housenumber": "30", "addr:place": "Weinberg", "addr:postcode": "9133"}, "content": "Adresse: 30, 9133 Sittersdorf\nOrt: Sittersdorf\nPLZ: 9133\nKoordinaten: 46.548907, 14.601372", "doc_type": "addresses"}
{"source": "OSM", "region": "Kärnten", "osm_type": "node", "osm_id": 5528267356, "name": null, "category": null, "address": "15, 9133 Sittersdorf", "street": null, "housenumber": "15", "postcode": "9133", "place": "Sittersdorf", "lat": 46.5494646, "lon": 14.5874137, "tags": {"addr:city": "Sittersdorf", "addr:housenumber": "15", "addr:place": "Kleinzapfen", "addr:postcode": "9133"}, "content": "Adresse: 15, 9133 Sittersdorf\nOrt: Sittersdorf\nPLZ: 9133\nKoordinaten: 46.549465, 14.587414", "doc_type": "addresses"}
{"source": "OSM", "region": "Kärnten", "osm_type": "node", "osm_id": 5528267402, "name": null, "category": null, "address": "12, 9133 Sittersdorf", "street": null, "housenumber": "12", "postcode": "9133", "place": "Sittersdorf", "lat": 46.5638397, "lon": 14.5688581, "tags": {"addr:city": "Sittersdorf", "addr:housenumber": "12", "addr:place": "Rückersdorf", "addr:postcode": "9133"}, "content": "Adresse: 12, 9133 Sittersdorf\nOrt: Sittersdorf\nPLZ: 9133\nKoordinaten: 46.563840, 14.568858", "doc_type": "addresses"}
{"source": "OSM", "region": "Kärnten", "osm_type": "node", "osm_id": 5528267616, "name": null, "category": null, "address": "11A, 9133 Sittersdorf", "street": null, "housenumber": "11A", "postcode": "9133", "place": "Sittersdorf", "lat": 46.5626705, "lon": 14.5600565, "tags": {"addr:city": "Sittersdorf", "addr:housenumber": "11A", "addr:place": "Müllnern", "addr:postcode": "9133"}, "content": "Adresse: 11A, 9133 Sittersdorf\nOrt: Sittersdorf\nPLZ: 9133\nKoordinaten: 46.562671, 14.560056", "doc_type": "addresses"}
{"source": "OSM", "region": "Kärnten", "osm_type": "node", "osm_id": 5528267617, "name": null, "category": null, "address": "10, 9133 Sittersdorf", "street": null, "housenumber": "10", "postcode": "9133", "place": "Sittersdorf", "lat": 46.5618314, "lon": 14.5623672, "tags": {"addr:city": "Sittersdorf", "addr:housenumber": "10", "addr:place": "Müllnern", "addr:postcode": "9133"}, "content": "Adresse: 10, 9133 Sittersdorf\nOrt: Sittersdorf\nPLZ: 9133\nKoordinaten: 46.561831, 14.562367", "doc_type": "addresses"}
{"source": "OSM", "region": "Kärnten", "osm_type": "node", "osm_id": 5528267642, "name": null, "category": null, "address": "23, 9133 Sittersdorf", "street": null, "housenumber": "23", "postcode": "9133", "place": "Sittersdorf", "lat": 46.5607618, "lon": 14.5687509, "tags": {"addr:city": "Sittersdorf", "addr:housenumber": "23", "addr:place": "Rückersdorf", "addr:postcode": "9133"}, "content": "Adresse: 23, 9133 Sittersdorf\nOrt: Sittersdorf\nPLZ: 9133\nKoordinaten: 46.560762, 14.568751", "doc_type": "addresses"}
{"source": "OSM", "region": "Kärnten", "osm_type": "node", "osm_id": 5528267867, "name": null, "category": null, "address": "2, 9133 Sittersdorf", "street": null, "housenumber": "2", "postcode": "9133", "place": "Sittersdorf", "lat": 46.5402849, "lon": 14.5592424, "tags": {"addr:city": "Sittersdorf", "addr:housenumber": "2", "addr:place": "Jerischach", "addr:postcode": "9133"}, "content": "Adresse: 2, 9133 Sittersdorf\nOrt: Sittersdorf\nPLZ: 9133\nKoordinaten: 46.540285, 14.559242", "doc_type": "addresses"}
{"source": "OSM", "region": "Kärnten", "osm_type": "node", "osm_id": 5528267874, "name": null, "category": null, "address": "8, 9133 Sittersdorf", "street": null, "housenumber": "8", "postcode": "9133", "place": "Sittersdorf", "lat": 46.5394104, "lon": 14.5569733, "tags": {"addr:city": "Sittersdorf", "addr:housenumber": "8", "addr:place": "Jerischach", "addr:postcode": "9133"}, "content": "Adresse: 8, 9133 Sittersdorf\nOrt: Sittersdorf\nPLZ: 9133\nKoordinaten: 46.539410, 14.556973", "doc_type": "addresses"}
{"source": "OSM", "region": "Kärnten", "osm_type": "node", "osm_id": 5528267875, "name": null, "category": null, "address": "2, 9133 Sittersdorf", "street": null, "housenumber": "2", "postcode": "9133", "place": "Sittersdorf", "lat": 46.5587699, "lon": 14.5831919, "tags": {"addr:city": "Sittersdorf", "addr:housenumber": "2", "addr:place": "Hart", "addr:postcode": "9133"}, "content": "Adresse: 2, 9133 Sittersdorf\nOrt: Sittersdorf\nPLZ: 9133\nKoordinaten: 46.558770, 14.583192", "doc_type": "addresses"}
{"source": "OSM", "region": "Kärnten", "osm_type": "node", "osm_id": 5528267898, "name": null, "category": null, "address": "50, 9133 Sittersdorf", "street": null, "housenumber": "50", "postcode": "9133", "place": "Sittersdorf", "lat": 46.5593404, "lon": 14.6117033, "tags": {"addr:city": "Sittersdorf", "addr:housenumber": "50", "addr:place": "Proboj", "addr:postcode": "9133"}, "content": "Adresse: 50, 9133 Sittersdorf\nOrt: Sittersdorf\nPLZ: 9133\nKoordinaten: 46.559340, 14.611703", "doc_type": "addresses"}
{"source": "OSM", "region": "Kärnten", "osm_type": "node", "osm_id": 5528268144, "name": null, "category": null, "address": "17, 9133 Sittersdorf", "street": null, "housenumber": "17", "postcode": "9133", "place": "Sittersdorf", "lat": 46.5453288, "lon": 14.6075892, "tags": {"addr:city": "Sittersdorf", "addr:housenumber": "17", "addr:place": "Sittersdorf", "addr:postcode": "9133"}, "content": "Adresse: 17, 9133 Sittersdorf\nOrt: Sittersdorf\nPLZ: 9133\nKoordinaten: 46.545329, 14.607589", "doc_type": "addresses"}
{"source": "OSM", "region": "Kärnten", "osm_type": "node", "osm_id": 5528268145, "name": null, "category": null, "address": "16, 9133 Sittersdorf", "street": null, "housenumber": "16", "postcode": "9133", "place": "Sittersdorf", "lat": 46.5454099, "lon": 14.6074471, "tags": {"addr:city": "Sittersdorf", "addr:housenumber": "16", "addr:place": "Sittersdorf", "addr:postcode": "9133"}, "content": "Adresse: 16, 9133 Sittersdorf\nOrt: Sittersdorf\nPLZ: 9133\nKoordinaten: 46.545410, 14.607447", "doc_type": "addresses"}
{"source": "OSM", "region": "Kärnten", "osm_type": "node", "osm_id": 5528268154, "name": null, "category": null, "address": "6a, 9133 Sittersdorf", "street": null, "housenumber": "6a", "postcode": "9133", "place": "Sittersdorf", "lat": 46.541545, "lon": 14.6056581, "tags": {"addr:city": "Sittersdorf", "addr:housenumber": "6a", "addr:place": "Sielach", "addr:postcode": "9133"}, "content": "Adresse: 6a, 9133 Sittersdorf\nOrt: Sittersdorf\nPLZ: 9133\nKoordinaten: 46.541545, 14.605658", "doc_type": "addresses"}
{"source": "OSM", "region": "Kärnten", "osm_type": "node", "osm_id": 5528268283, "name": null, "category": null, "address": "2, 9133 Sittersdorf", "street": null, "housenumber": "2", "postcode": "9133", "place": "Sittersdorf", "lat": 46.5606677, "lon": 14.6415997, "tags": {"addr:city": "Sittersdorf", "addr:housenumber": "2", "addr:place": "Sonnegg", "addr:postcode": "9133"}, "content": "Adresse: 2, 9133 Sittersdorf\nOrt: Sittersdorf\nPLZ: 9133\nKoordinaten: 46.560668, 14.641600", "doc_type": "addresses"}
{"source": "OSM", "region": "Kärnten", "osm_type": "node", "osm_id": 5528268288, "name": null, "category": null, "address": "101A, 9133 Sittersdorf", "street": null, "housenumber": "101A", "postcode": "9133", "place": "Sittersdorf", "lat": 46.5466431, "lon": 14.6040963, "tags": {"addr:city": "Sittersdorf", "addr:housenumber": "101A", "addr:place": "Sittersdorf", "addr:postcode": "9133"}, "content": "Adresse: 101A, 9133 Sittersdorf\nOrt: Sittersdorf\nPLZ: 9133\nKoordinaten: 46.546643, 14.604096", "doc_type": "addresses"}
{"source": "OSM", "region": "Kärnten", "osm_type": "node", "osm_id": 5528268484, "name": null, "category": null, "address": "63, 9133 Sittersdorf", "street": null, "housenumber": "63", "postcode": "9133", "place": "Sittersdorf", "lat": 46.5459652, "lon": 14.5712373, "tags": {"addr:city": "Sittersdorf", "addr:housenumber": "63", "addr:place": "Goritschach", "addr:postcode": "9133"}, "content": "Adresse: 63, 9133 Sittersdorf\nOrt: Sittersdorf\nPLZ: 9133\nKoordinaten: 46.545965, 14.571237", "doc_type": "addresses"}
{"source": "OSM", "region": "Kärnten", "osm_type": "node", "osm_id": 5528268497, "name": null, "category": null, "address": "7, 9133 Sittersdorf", "street": null, "housenumber": "7", "postcode": "9133", "place": "Sittersdorf", "lat": 46.5361502, "lon": 14.596611, "tags": {"addr:city": "Sittersdorf", "addr:housenumber": "7", "addr:place": "Miklauzhof", "addr:postcode": "9133"}, "content": "Adresse: 7, 9133 Sittersdorf\nOrt: Sittersdorf\nPLZ: 9133\nKoordinaten: 46.536150, 14.596611", "doc_type": "addresses"}
{"source": "OSM", "region": "Kärnten", "osm_type": "node", "osm_id": 340519751, "name": "9133 Sittersdorf", "category": "amenity:post_office", "address": "100B, 9133 Sittersdorf", "street": null, "housenumber": "100B", "postcode": "9133", "place": "Sittersdorf", "lat": 46.5466158, "lon": 14.6020537, "tags": {"addr:city": "Sittersdorf", "addr:housenumber": "100B", "addr:place": "Sittersdorf", "addr:postcode": "9133", "amenity": "post_office", "name": "9133 Sittersdorf"}, "content": "9133 Sittersdorf\nKategorie: amenity:post_office\nAdresse: 100B, 9133 Sittersdorf\nOrt: Sittersdorf\nPLZ: 9133\nKoordinaten: 46.546616, 14.602054\nTags: amenity=post_office", "doc_type": "pois"}
{"source": "OSM", "region": "Kärnten", "osm_type": "node", "osm_id": 878600390, "name": "Landgasthaus Mochoritsch", "category": "amenity:restaurant", "address": "Rückersdorf 5, 9123 Sittersdorf", "street": "Rückersdorf", "housenumber": "5", "postcode": "9123", "place": "Sittersdorf", "lat": 46.5659887, "lon": 14.5691205, "tags": {"addr:city": "Sittersdorf", "addr:housenumber": "5", "addr:postcode": "9123", "addr:street": "Rückersdorf", "amenity": "restaurant", "brand": "Hirter", "name": "Landgasthaus Mochoritsch", "phone": "+43 4237 2212", "website": "https://www.mochoritsch.at/"}, "content": "Landgasthaus Mochoritsch\nKategorie: amenity:restaurant\nAdresse: Rückersdorf 5, 9123 Sittersdorf\nOrt: Sittersdorf\nPLZ: 9123\nKoordinaten: 46.565989, 14.569121\nTags: amenity=restaurant, brand=Hirter, phone=+43 4237 2212, website=https://www.mochoritsch.at/", "doc_type": "pois"}
{"source": "OSM", "region": "Kärnten", "osm_type": "node", "osm_id": 2026995268, "name": "Frühstückspension Petschnig", "category": "tourism:guest_house", "address": "13, 9133 Sittersdorf", "street": null, "housenumber": "13", "postcode": "9133", "place": "Sittersdorf", "lat": 46.5411175, "lon": 14.6214895, "tags": {"addr:city": "Sittersdorf", "addr:housenumber": "13", "addr:place": "Sielach", "addr:postcode": "9133", "name": "Frühstückspension Petschnig", "tourism": "guest_house"}, "content": "Frühstückspension Petschnig\nKategorie: tourism:guest_house\nAdresse: 13, 9133 Sittersdorf\nOrt: Sittersdorf\nPLZ: 9133\nKoordinaten: 46.541117, 14.621489", "doc_type": "pois"}
{"source": "OSM", "region": "Kärnten", "osm_type": "node", "osm_id": 2840062714, "name": "Zur Rose", "category": "amenity:restaurant", "address": "22, 9133 Sittersdorf", "street": null, "housenumber": "22", "postcode": "9133", "place": "Sittersdorf", "lat": 46.5481835, "lon": 14.6041556, "tags": {"addr:city": "Sittersdorf", "addr:housenumber": "22", "addr:place": "Weinberg", "addr:postcode": "9133", "amenity": "restaurant", "name": "Zur Rose"}, "content": "Zur Rose\nKategorie: amenity:restaurant\nAdresse: 22, 9133 Sittersdorf\nOrt: Sittersdorf\nPLZ: 9133\nKoordinaten: 46.548184, 14.604156\nTags: amenity=restaurant", "doc_type": "pois"}
{"source": "OSM", "region": "Kärnten", "osm_type": "node", "osm_id": 4276342800, "name": "Gasthof Skoff", "category": "amenity:restaurant", "address": "6, 9133 Sittersdorf", "street": null, "housenumber": "6", "postcode": "9133", "place": "Sittersdorf", "lat": 46.5484164, "lon": 14.6442171, "tags": {"addr:city": "Sittersdorf", "addr:housenumber": "6", "addr:place": "Altendorf", "addr:postcode": "9133", "amenity": "restaurant", "name": "Gasthof Skoff", "phone": "+43 4237 2248-0"}, "content": "Gasthof Skoff\nKategorie: amenity:restaurant\nAdresse: 6, 9133 Sittersdorf\nOrt: Sittersdorf\nPLZ: 9133\nKoordinaten: 46.548416, 14.644217\nTags: amenity=restaurant, phone=+43 4237 2248-0", "doc_type": "pois"}
{"source": "OSM", "region": "Kärnten", "osm_type": "node", "osm_id": 4524778469, "name": "AVS Tageswerkstätte Sittersdorf", "category": "amenity:social_facility", "address": "101B, 9133 Sittersdorf", "street": null, "housenumber": "101B", "postcode": "9133", "place": "Sittersdorf", "lat": 46.5474323, "lon": 14.6040491, "tags": {"addr:city": "Sittersdorf", "addr:housenumber": "101B", "addr:place": "Sittersdorf", "addr:postcode": "9133", "amenity": "social_facility", "name": "AVS Tageswerkstätte Sittersdorf"}, "content": "AVS Tageswerkstätte Sittersdorf\nKategorie: amenity:social_facility\nAdresse: 101B, 9133 Sittersdorf\nOrt: Sittersdorf\nPLZ: 9133\nKoordinaten: 46.547432, 14.604049\nTags: amenity=social_facility", "doc_type": "pois"}
{"source": "OSM", "region": "Kärnten", "osm_type": "node", "osm_id": 4524778470, "name": "ADEG", "category": "shop:supermarket", "address": "100B, 9133 Sittersdorf", "street": null, "housenumber": "100B", "postcode": "9133", "place": "Sittersdorf", "lat": 46.5465572, "lon": 14.6018971, "tags": {"addr:city": "Sittersdorf", "addr:housenumber": "100B", "addr:place": "Sittersdorf", "addr:postcode": "9133", "name": "ADEG", "shop": "supermarket"}, "content": "ADEG\nKategorie: shop:supermarket\nAdresse: 100B, 9133 Sittersdorf\nOrt: Sittersdorf\nPLZ: 9133\nKoordinaten: 46.546557, 14.601897\nTags: shop=supermarket", "doc_type": "pois"}
{"source": "OSM", "region": "Kärnten", "osm_type": "node", "osm_id": 4524778471, "name": null, "category": "amenity:community_centre", "address": "100A, 9133 Sittersdorf", "street": null, "housenumber": "100A", "postcode": "9133", "place": "Sittersdorf", "lat": 46.5470572, "lon": 14.6026033, "tags": {"addr:city": "Sittersdorf", "addr:housenumber": "100A", "addr:place": "Sittersdorf", "addr:postcode": "9133", "amenity": "community_centre"}, "content": "Kategorie: amenity:community_centre\nAdresse: 100A, 9133 Sittersdorf\nOrt: Sittersdorf\nPLZ: 9133\nKoordinaten: 46.547057, 14.602603\nTags: amenity=community_centre", "doc_type": "pois"}
{"source": "OSM", "region": "Kärnten", "osm_type": "node", "osm_id": 4767974542, "name": null, "category": "amenity:restaurant", "address": "7, 9133 Sittersdorf", "street": null, "housenumber": "7", "postcode": "9133", "place": "Sittersdorf", "lat": 46.5667979, "lon": 14.5474972, "tags": {"addr:city": "Sittersdorf", "addr:housenumber": "7", "addr:place": "Obernarrach", "addr:postcode": "9133", "amenity": "restaurant"}, "content": "Kategorie: amenity:restaurant\nAdresse: 7, 9133 Sittersdorf\nOrt: Sittersdorf\nPLZ: 9133\nKoordinaten: 46.566798, 14.547497\nTags: amenity=restaurant", "doc_type": "pois"}
