{"source": "OSM", "region": "Kärnten", "osm_type": "node", "osm_id": 340518027, "name": "Post Filiale 8224", "category": "amenity:post_office", "address": "10. Oktober Platz 1, 9150 Bleiburg", "street": "10. Oktober Platz", "housenumber": "1", "postcode": "9150", "place": "Bleiburg", "lat": 46.5900032, "lon": 14.7995922, "tags": {"addr:city": "Bleiburg", "addr:housenumber": "1", "addr:postcode": "9150", "addr:street": "10. Oktober Platz", "amenity": "post_office", "name": "Post Filiale 8224", "operator": "Österreichische Post AG", "website": "https://www.post.at"}, "content": "Post Filiale 8224\nKategorie: amenity:post_office\nAdresse: 10. Oktober Platz 1, 9150 Bleiburg\nOrt: Bleiburg\nPLZ: 9150\nKoordinaten: 46.590003, 14.799592\nTags: amenity=post_office, operator=Österreichische Post AG, website=https://www.post.at", "doc_type": "addresses"}
{"source": "OSM", "region": "Kärnten", "osm_type": "node", "osm_id": 819028951, "name": "Brauhaus Breznik", "category": "amenity:restaurant", "address": "10. Oktober Platz 9, 9150 Bleiburg", "street": "10. Oktober Platz", "housenumber": "9", "postcode": "9150", "place": "Bleiburg", "lat": 46.5900399, "lon": 14.7986913, "tags": {"addr:city": "Bleiburg", "addr:housenumber": "9", "addr:postcode": "9150", "addr:street": "10. Oktober Platz", "amenity": "restaurant", "name": "Brauhaus Breznik", "website": "https://brauhaus.breznik.at/wirtshaus/"}, "content": "Brauhaus Breznik\nKategorie: amenity:restaurant\nAdresse: 10. Oktober Platz 9, 9150 Bleiburg\nOrt: Bleiburg\nPLZ: 9150\nKoordinaten: 46.590040, 14.798691\nTags: amenity=restaurant, website=https://brauhaus.breznik.at/wirtshaus/", "doc_type": "addresses"}
{"source": "OSM", "region": "Kärnten", "osm_type": "node", "osm_id": 2484755743, "name": "Schloss Quadrat", "category": "amenity:cafe", "address": "10. Oktober Platz 38, 9150 Bleiburg", "street": "10. Oktober Platz", "housenumber": "38", "postcode": "9150", "place": "Bleiburg", "lat": 46.5902175, "lon": 14.7969578, "tags": {"addr:city": "Bleiburg", "addr:housenumber": "38", "addr:postcode": "9150", "addr:street": "10. Oktober Platz", "amenity": "cafe", "name": "Schloss Quadrat"}, "content": "Schloss Quadrat\nKategorie: amenity:cafe\nAdresse: 10. Oktober Platz 38, 9150 Bleiburg\nOrt: Bleiburg\nPLZ: 9150\nKoordinaten: 46.590218, 14.796958\nTags: amenity=cafe", "doc_type": "addresses"}
{"source": "OSM", "region": "Kärnten", "osm_type": "node", "osm_id": 2484755744, "name": "Polizeiinspektion Bleiburg", "category": "amenity:police", "address": "10. Oktober Platz 38, 9150 Bleiburg", "street": "10. Oktober Platz", "housenumber": "38", "postcode": "9150", "place": "Bleiburg", "lat": 46.5902188, "lon": 14.7970325, "tags": {"addr:city": "Bleiburg", "addr:housenumber": "38", "addr:postcode": "9150", "addr:street": "10. Oktober Platz", "amenity": "police", "name": "Polizeiinspektion Bleiburg", "phone": "+43 59133 2142100"}, "content": "Polizeiinspektion Bleiburg\nKategorie: amenity:police\nAdresse: 10. Oktober Platz 38, 9150 Bleiburg\nOrt: Bleiburg\nPLZ: 9150\nKoordinaten: 46.590219, 14.797033\nTags: amenity=police, phone=+43 59133 2142100", "doc_type": "addresses"}
{"source": "OSM", "region": "Kärnten", "osm_type": "node", "osm_id": 2484755755, "name": "Sparkasse", "category": "amenity:bank", "address": "10. Oktober Platz 38, 9150 Bleiburg", "street": "10. Oktober Platz", "housenumber": "38", "postcode": "9150", "place": "Bleiburg", "lat": 46.5903399, "lon": 14.7968474, "tags": {"addr:city": "Bleiburg", "addr:housenumber": "38", "addr:postcode": "9150", "addr:street": "10. Oktober Platz", "amenity": "bank", "name": "Sparkasse", "operator": "Kärntner Sparkasse"}, "content": "Sparkasse\nKategorie: amenity:bank\nAdresse: 10. Oktober Platz 38, 9150 Bleiburg\nOrt: Bleiburg\nPLZ: 9150\nKoordinaten: 46.590340, 14.796847\nTags: amenity=bank, operator=Kärntner Sparkasse", "doc_type": "addresses"}
{"source": "OSM", "region": "Kärnten", "osm_type": "node", "osm_id": 2484755852, "name": "Stadtapotheke", "category": "amenity:pharmacy", "address": "10. Oktober Platz 2, 9150 Bleiburg", "street": "10. Oktober Platz", "housenumber": "2", "postcode": "9150", "place": "Bleiburg", "lat": 46.5900791, "lon": 14.8000372, "tags": {"addr:city": "Bleiburg", "addr:housenumber": "2", "addr:postcode": "9150", "addr:street": "10. Oktober Platz", "amenity": "pharmacy", "healthcare": "pharmacy", "name": "Stadtapotheke"}, "content": "Stadtapotheke\nKategorie: amenity:pharmacy\nAdresse: 10. Oktober Platz 2, 9150 Bleiburg\nOrt: Bleiburg\nPLZ: 9150\nKoordinaten: 46.590079, 14.800037\nTags: amenity=pharmacy, healthcare=pharmacy", "doc_type": "addresses"}
{"source": "OSM", "region": "Kärnten", "osm_type": "node", "osm_id": 2484755864, "name": "Rauchfangkehrer Micelli", "category": "office:company", "address": "Postgasse 3, 9150 Bleiburg", "street": "Postgasse", "housenumber": "3", "postcode": "9150", "place": "Bleiburg", "lat": 46.5897332, "lon": 14.7999043, "tags": {"addr:city": "Bleiburg", "addr:housenumber": "3", "addr:postcode": "9150", "addr:street": "Postgasse", "name": "Rauchfangkehrer Micelli", "office": "company"}, "content": "Rauchfangkehrer Micelli\nKategorie: office:company\nAdresse: Postgasse 3, 9150 Bleiburg\nOrt: Bleiburg\nPLZ: 9150\nKoordinaten: 46.589733, 14.799904\nTags: office=company", "doc_type": "addresses"}
{"source": "OSM", "region": "Kärnten", "osm_type": "node", "osm_id": 2484755876, "name": "Werner Berg Museum", "category": "tourism:museum", "address": "10. Oktober Platz 4, 9150 Bleiburg", "street": "10. Oktober Platz", "housenumber": "4", "postcode": "9150", "place": "Bleiburg", "lat": 46.5902114, "lon": 14.7998568, "tags": {"addr:city": "Bleiburg", "addr:housenumber": "4", "addr:postcode": "9150", "addr:street": "10. Oktober Platz", "name": "Werner Berg Museum", "tourism": "museum"}, "content": "Werner Berg Museum\nKategorie: tourism:museum\nAdresse: 10. Oktober Platz 4, 9150 Bleiburg\nOrt: Bleiburg\nPLZ: 9150\nKoordinaten: 46.590211, 14.799857", "doc_type": "addresses"}
{"source": "OSM", "region": "Kärnten", "osm_type": "node", "osm_id": 2484755877, "name": "Werner Berg Genießerei", "category": "amenity:cafe", "address": "10. Oktober Platz 6, 9150 Bleiburg", "street": "10. Oktober Platz", "housenumber": "6", "postcode": "9150", "place": "Bleiburg", "lat": 46.5902085, "lon": 14.7996794, "tags": {"addr:city": "Bleiburg", "addr:housenumber": "6", "addr:postcode": "9150", "addr:street": "10. Oktober Platz", "amenity": "cafe", "name": "Werner Berg Genießerei"}, "content": "Werner Berg Genießerei\nKategorie: amenity:cafe\nAdresse: 10. Oktober Platz 6, 9150 Bleiburg\nOrt: Bleiburg\nPLZ: 9150\nKoordinaten: 46.590209, 14.799679\nTags: amenity=cafe", "doc_type": "addresses"}
{"source": "OSM", "region": "Kärnten", "osm_type": "node", "osm_id": 2974103994, "name": "Billa", "category": "shop:supermarket", "address": "Völkermarkter Straße 28, 9150 Bleiburg", "street": "Völkermarkter Straße", "housenumber": "28", "postcode": "9150", "place": "Bleiburg", "lat": 46.5923507, "lon": 14.7959331, "tags": {"addr:city": "Bleiburg", "addr:housenumber": "28", "addr:postcode": "9150", "addr:street": "Völkermarkter Straße", "brand": "Billa", "name": "Billa", "shop": "supermarket"}, "content": "Billa\nKategorie: shop:supermarket\nAdresse: Völkermarkter Straße 28, 9150 Bleiburg\nOrt: Bleiburg\nPLZ: 9150\nKoordinaten: 46.592351, 14.795933\nTags: shop=supermarket, brand=Billa", "doc_type": "addresses"}
{"source": "OSM", "region": "Kärnten", "osm_type": "node", "osm_id": 3338557424, "name": "Gasthaus Rößlwirt", "category": "amenity:restaurant", "address": "Koschatstraße 4, 9150 Bleiburg", "street": "Koschatstraße", "housenumber": "4", "postcode": "9150", "place": "Bleiburg", "lat": 46.589231, "lon": 14.7957841, "tags": {"addr:city": "Bleiburg", "addr:housenumber": "4", "addr:postcode": "9150", "addr:street": "Koschatstraße", "amenity": "restaurant", "name": "Gasthaus Rößlwirt"}, "content": "Gasthaus Rößlwirt\nKategorie: amenity:restaurant\nAdresse: Koschatstraße 4, 9150 Bleiburg\nOrt: Bleiburg\nPLZ: 9150\nKoordinaten: 46.589231, 14.795784\nTags: amenity=restaurant", "doc_type": "addresses"}
{"source": "OSM", "region": "Kärnten", "osm_type": "node", "osm_id": 3675609920, "name": null, "category": "shop:vacant", "address": "Koschatstraße 2, 9150 Bleiburg", "street": "Koschatstraße", "housenumber": "2", "postcode": "9150", "place": "Bleiburg", "lat": 46.5897332, "lon": 14.7956474, "tags": {"addr:city": "Bleiburg", "addr:housenumber": "2", "addr:postcode": "9150", "addr:street": "Koschatstraße", "shop": "vacant"}, "content": "Kategorie: shop:vacant\nAdresse: Koschatstraße 2, 9150 Bleiburg\nOrt: Bleiburg\nPLZ: 9150\nKoordinaten: 46.589733, 14.795647\nTags: shop=vacant", "doc_type": "addresses"}
{"source": "OSM", "region": "Kärnten", "osm_type": "node", "osm_id": 4483797735, "name": "Posojilnica Bank eGen", "category": "amenity:bank", "address": "Völkermarkter Straße 1a, 9150 Bleiburg", "street": "Völkermarkter Straße", "housenumber": "1a", "postcode": "9150", "place": "Bleiburg", "lat": 46.5901086, "lon": 14.7954471, "tags": {"addr:city": "Bleiburg", "addr:housenumber": "1a", "addr:postcode": "9150", "addr:street": "Völkermarkter Straße", "amenity": "bank", "name": "Posojilnica Bank eGen", "phone": "+43 463 512 365", "website": "https://www.poso.at/"}, "content": "Posojilnica Bank eGen\nKategorie: amenity:bank\nAdresse: Völkermarkter Straße 1a, 9150 Bleiburg\nOrt: Bleiburg\nPLZ: 9150\nKoordinaten: 46.590109, 14.795447\nTags: amenity=bank, phone=+43 463 512 365, website=https://www.poso.at/", "doc_type": "addresses"}
{"source": "OSM", "region": "Kärnten", "osm_type": "node", "osm_id": 5043020489, "name": "Café Pazzo", "category": "amenity:cafe", "address": "Koschatstraße 2, 9150 Bleiburg", "street": "Koschatstraße", "housenumber": "2", "postcode": "9150", "place": "Bleiburg", "lat": 46.5898737, "lon": 14.7956204, "tags": {"addr:city": "Bleiburg", "addr:housenumber": "2", "addr:postcode": "9150", "addr:street": "Koschatstraße", "amenity": "cafe", "name": "Café Pazzo"}, "content": "Café Pazzo\nKategorie: amenity:cafe\nAdresse: Koschatstraße 2, 9150 Bleiburg\nOrt: Bleiburg\nPLZ: 9150\nKoordinaten: 46.589874, 14.795620\nTags: amenity=cafe", "doc_type": "addresses"}
{"source": "OSM", "region": "Kärnten", "osm_type": "node", "osm_id": 5051804660, "name": "Elektro Hollauf", "category": "shop:electronics", "address": "10. Oktober Platz 26, 9150 Bleiburg", "street": "10. Oktober Platz", "housenumber": "26", "postcode": "9150", "place": "Bleiburg", "lat": 46.5902305, "lon": 14.7980311, "tags": {"addr:city": "Bleiburg", "addr:housenumber": "26", "addr:postcode": "9150", "addr:street": "10. Oktober Platz", "craft": "electrician", "name": "Elektro Hollauf", "operator": "Klaus Hollauf", "shop": "electronics"}, "content": "Elektro Hollauf\nKategorie: shop:electronics\nAdresse: 10. Oktober Platz 26, 9150 Bleiburg\nOrt: Bleiburg\nPLZ: 9150\nKoordinaten: 46.590230, 14.798031\nTags: shop=electronics, operator=Klaus Hollauf", "doc_type": "addresses"}
{"source": "OSM", "region": "Kärnten", "osm_type": "node", "osm_id": 5052677024, "name": "I fratelli", "category": "amenity:cafe", "address": "10. Oktober Platz 32, 9150 Bleiburg", "street": "10. Oktober Platz", "housenumber": "32", "postcode": "9150", "place": "Bleiburg", "lat": 46.5902063, "lon": 14.7975082, "tags": {"addr:city": "Bleiburg", "addr:housenumber": "32", "addr:postcode": "9150", "addr:street": "10. Oktober Platz", "amenity": "cafe", "name": "I fratelli"}, "content": "I fratelli\nKategorie: amenity:cafe\nAdresse: 10. Oktober Platz 32, 9150 Bleiburg\nOrt: Bleiburg\nPLZ: 9150\nKoordinaten: 46.590206, 14.797508\nTags: amenity=cafe", "doc_type": "addresses"}
{"source": "OSM", "region": "Kärnten", "osm_type": "node", "osm_id": 5052952979, "name": "Bienenwelt Bründl", "category": null, "address": "Bründlweg 13, 9150 Bleiburg", "street": "Bründlweg", "housenumber": "13", "postcode": "9150", "place": "Bleiburg", "lat": 46.5891703, "lon": 14.7916018, "tags": {"addr:city": "Bleiburg", "addr:housenumber": "13", "addr:postcode": "9150", "addr:street": "Bründlweg", "name": "Bienenwelt Bründl", "phone": "+436644401132", "website": "http://www.bienenwelt-bruendl.at"}, "content": "Bienenwelt Bründl\nAdresse: Bründlweg 13, 9150 Bleiburg\nOrt: Bleiburg\nPLZ: 9150\nKoordinaten: 46.589170, 14.791602\nTags: phone=+436644401132, website=http://www.bienenwelt-bruendl.at", "doc_type": "addresses"}
{"source": "OSM", "region": "Kärnten", "osm_type": "node", "osm_id": 5052952980, "name": "Sanitär-, Lüftungs- und Heizungstechnik Polesnig", "category": "craft:plumber", "address": "Völkermarkter Straße 14, 9150 Bleiburg", "street": "Völkermarkter Straße", "housenumber": "14", "postcode": "9150", "place": "Bleiburg", "lat": 46.5987328, "lon": 14.7968968, "tags": {"addr:city": "Bleiburg", "addr:housenumber": "14", "addr:postcode": "9150", "addr:street": "Völkermarkter Straße", "craft": "plumber", "operator": "Sanitär-, Lüftungs- und Heizungstechnik Polesnig"}, "content": "Sanitär-, Lüftungs- und Heizungstechnik Polesnig\nKategorie: craft:plumber\nAdresse: Völkermarkter Straße 14, 9150 Bleiburg\nOrt: Bleiburg\nPLZ: 9150\nKoordinaten: 46.598733, 14.796897\nTags: operator=Sanitär-, Lüftungs- und Heizungstechnik Polesnig", "doc_type": "addresses"}
{"source": "OSM", "region": "Kärnten", "osm_type": "node", "osm_id": 5128424422, "name": null, "category": "shop:vacant", "address": "Koschatstraße 2, 9150 Bleiburg", "street": "Koschatstraße", "housenumber": "2", "postcode": "9150", "place": "Bleiburg", "lat": 46.5895608, "lon": 14.7956518, "tags": {"addr:city": "Bleiburg", "addr:housenumber": "2", "addr:postcode": "9150", "addr:street": "Koschatstraße", "shop": "vacant"}, "content": "Kategorie: shop:vacant\nAdresse: Koschatstraße 2, 9150 Bleiburg\nOrt: Bleiburg\nPLZ: 9150\nKoordinaten: 46.589561, 14.795652\nTags: shop=vacant", "doc_type": "addresses"}
{"source": "OSM", "region": "Kärnten", "osm_type": "node", "osm_id": 5531635862, "name": null, "category": null, "address": "Gutensteiner Straße 21, 9150 Bleiburg", "street": "Gutensteiner Straße", "housenumber": "21", "postcode": "9150", "place": "Bleiburg", "lat": 46.582042, "lon": 14.8041254, "tags": {"addr:city": "Bleiburg", "addr:housenumber": "21", "addr:postcode": "9150", "addr:street": "Gutensteiner Straße"}, "content": "Adresse: Gutensteiner Straße 21, 9150 Bleiburg\nOrt: Bleiburg\nPLZ: 9150\nKoordinaten: 46.582042, 14.804125", "doc_type": "addresses"}
{"source": "OSM", "region": "Kärnten", "osm_type": "node", "osm_id": 5531635873, "name": null, "category": null, "address": "Schulweg 1, 9150 Bleiburg", "street": "Schulweg", "housenumber": "1", "postcode": "9150", "place": "Bleiburg", "lat": 46.5865769, "lon": 14.7973448, "tags": {"addr:city": "Bleiburg", "addr:housenumber": "1", "addr:postcode": "9150", "addr:street": "Schulweg"}, "content": "Adresse: Schulweg 1, 9150 Bleiburg\nOrt: Bleiburg\nPLZ: 9150\nKoordinaten: 46.586577, 14.797345", "doc_type": "addresses"}
{"source": "OSM", "region": "Kärnten", "osm_type": "node", "osm_id": 5531635878, "name": null, "category": null, "address": "Loibacher Straße 10, 9150 Bleiburg", "street": "Loibacher Straße", "housenumber": "10", "postcode": "9150", "place": "Bleiburg", "lat": 46.5834707, "lon": 14.798364, "tags": {"addr:city": "Bleiburg", "addr:housenumber": "10", "addr:postcode": "9150", "addr:street": "Loibacher Straße"}, "content": "Adresse: Loibacher Straße 10, 9150 Bleiburg\nOrt: Bleiburg\nPLZ: 9150\nKoordinaten: 46.583471, 14.798364", "doc_type": "addresses"}
{"source": "OSM", "region": "Kärnten", "osm_type": "node", "osm_id": 5531636695, "name": null, "category": null, "address": "Gutensteiner Straße 24, 9150 Bleiburg", "street": "Gutensteiner Straße", "housenumber": "24", "postcode": "9150", "place": "Bleiburg", "lat": 46.5874304, "lon": 14.8023337, "tags": {"addr:city": "Bleiburg", "addr:housenumber": "24", "addr:postcode": "9150", "addr:street": "Gutensteiner Straße"}, "content": "Adresse: Gutensteiner Straße 24, 9150 Bleiburg\nOrt: Bleiburg\nPLZ: 9150\nKoordinaten: 46.587430, 14.802334", "doc_type": "addresses"}
{"source": "OSM", "region": "Kärnten", "osm_type": "node", "osm_id": 5531636922, "name": null, "category": null, "address": "Kirchplatz 4, 9150 Bleiburg", "street": "Kirchplatz", "housenumber": "4", "postcode": "9150", "place": "Bleiburg", "lat": 46.5893677, "lon": 14.7992733, "tags": {"addr:city": "Bleiburg", "addr:housenumber": "4", "addr:postcode": "9150", "addr:street": "Kirchplatz"}, "content": "Adresse: Kirchplatz 4, 9150 Bleiburg\nOrt: Bleiburg\nPLZ: 9150\nKoordinaten: 46.589368, 14.799273", "doc_type": "addresses"}
{"source": "OSM", "region": "Kärnten", "osm_type": "node", "osm_id": 5531636929, "name": null, "category": null, "address": "Hüblergasse 1, 9150 Bleiburg", "street": "Hüblergasse", "housenumber": "1", "postcode": "9150", "place": "Bleiburg", "lat": 46.5895336, "lon": 14.7987094, "tags": {"addr:city": "Bleiburg", "addr:housenumber": "1", "addr:postcode": "9150", "addr:street": "Hüblergasse"}, "content": "Adresse: Hüblergasse 1, 9150 Bleiburg\nOrt: Bleiburg\nPLZ: 9150\nKoordinaten: 46.589534, 14.798709", "doc_type": "addresses"}
{"source": "OSM", "region": "Kärnten", "osm_type": "node", "osm_id": 5531636930, "name": null, "category": null, "address": "Kumeschgasse 5, 9150 Bleiburg", "street": "Kumeschgasse", "housenumber": "5", "postcode": "9150", "place": "Bleiburg", "lat": 46.5895373, "lon": 14.7985008, "tags": {"addr:city": "Bleiburg", "addr:housenumber": "5", "addr:postcode": "9150", "addr:street": "Kumeschgasse"}, "content": "Adresse: Kumeschgasse 5, 9150 Bleiburg\nOrt: Bleiburg\nPLZ: 9150\nKoordinaten: 46.589537, 14.798501", "doc_type": "addresses"}
{"source": "OSM", "region": "Kärnten", "osm_type": "node", "osm_id": 5531637208, "name": null, "category": null, "address": "10. Oktober Platz 28, 9150 Bleiburg", "street": "10. Oktober Platz", "housenumber": "28", "postcode": "9150", "place": "Bleiburg", "lat": 46.5902764, "lon": 14.7978866, "tags": {"addr:city": "Bleiburg", "addr:housenumber": "28", "addr:postcode": "9150", "addr:street": "10. Oktober Platz"}, "content": "Adresse: 10. Oktober Platz 28, 9150 Bleiburg\nOrt: Bleiburg\nPLZ: 9150\nKoordinaten: 46.590276, 14.797887", "doc_type": "addresses"}
{"source": "OSM", "region": "Kärnten", "osm_type": "node", "osm_id": 5531637209, "name": null, "category": null, "address": "10. Oktober Platz 28a, 9150 Bleiburg", "street": "10. Oktober Platz", "housenumber": "28a", "postcode": "9150", "place": "Bleiburg", "lat": 46.5904515, "lon": 14.7978263, "tags": {"addr:city": "Bleiburg", "addr:housenumber": "28a", "addr:postcode": "9150", "addr:street": "10. Oktober Platz"}, "content": "Adresse: 10. Oktober Platz 28a, 9150 Bleiburg\nOrt: Bleiburg\nPLZ: 9150\nKoordinaten: 46.590452, 14.797826", "doc_type": "addresses"}
{"source": "OSM", "region": "Kärnten", "osm_type": "node", "osm_id": 5531637576, "name": null, "category": null, "address": "Rosenweg 3, 9150 Bleiburg", "street": "Rosenweg", "housenumber": "3", "postcode": "9150", "place": "Bleiburg", "lat": 46.5845676, "lon": 14.7953573, "tags": {"addr:city": "Bleiburg", "addr:housenumber": "3", "addr:postcode": "9150", "addr:street": "Rosenweg"}, "content": "Adresse: Rosenweg 3, 9150 Bleiburg\nOrt: Bleiburg\nPLZ: 9150\nKoordinaten: 46.584568, 14.795357", "doc_type": "addresses"}
{"source": "OSM", "region": "Kärnten", "osm_type": "node", "osm_id": 5531637701, "name": null, "category": null, "address": "Koschatstraße 10, 9150 Bleiburg", "street": "Koschatstraße", "housenumber": "10", "postcode": "9150", "place": "Bleiburg", "lat": 46.5872626, "lon": 14.7955719, "tags": {"addr:city": "Bleiburg", "addr:housenumber": "10", "addr:postcode": "9150", "addr:street": "Koschatstraße"}, "content": "Adresse: Koschatstraße 10, 9150 Bleiburg\nOrt: Bleiburg\nPLZ: 9150\nKoordinaten: 46.587263, 14.795572", "doc_type": "addresses"}
{"source": "OSM", "region": "Kärnten", "osm_type": "node", "osm_id": 5531637702, "name": null, "category": null, "address": "Koschatstraße 10a, 9150 Bleiburg", "street": "Koschatstraße", "housenumber": "10a", "postcode": "9150", "place": "Bleiburg", "lat": 46.5876331, "lon": 14.7955236, "tags": {"addr:city": "Bleiburg", "addr:housenumber": "10a", "addr:postcode": "9150", "addr:street": "Koschatstraße"}, "content": "Adresse: Koschatstraße 10a, 9150 Bleiburg\nOrt: Bleiburg\nPLZ: 9150\nKoordinaten: 46.587633, 14.795524", "doc_type": "addresses"}
{"source": "OSM", "region": "Kärnten", "osm_type": "node", "osm_id": 5531637831, "name": null, "category": null, "address": "Paulitschstraße 7, 9150 Bleiburg", "street": "Paulitschstraße", "housenumber": "7", "postcode": "9150", "place": "Bleiburg", "lat": 46.5884585, "lon": 14.7944916, "tags": {"addr:city": "Bleiburg", "addr:housenumber": "7", "addr:postcode": "9150", "addr:street": "Paulitschstraße"}, "content": "Adresse: Paulitschstraße 7, 9150 Bleiburg\nOrt: Bleiburg\nPLZ: 9150\nKoordinaten: 46.588459, 14.794492", "doc_type": "addresses"}
{"source": "OSM", "region": "Kärnten", "osm_type": "node", "osm_id": 5531637968, "name": null, "category": null, "address": "Völkermarkter Straße 3a, 9150 Bleiburg", "street": "Völkermarkter Straße", "housenumber": "3a", "postcode": "9150", "place": "Bleiburg", "lat": 46.5903907, "lon": 14.7948584, "tags": {"addr:city": "Bleiburg", "addr:housenumber": "3a", "addr:postcode": "9150", "addr:street": "Völkermarkter Straße"}, "content": "Adresse: Völkermarkter Straße 3a, 9150 Bleiburg\nOrt: Bleiburg\nPLZ: 9150\nKoordinaten: 46.590391, 14.794858", "doc_type": "addresses"}
{"source": "OSM", "region": "Kärnten", "osm_type": "node", "osm_id": 5531637969, "name": null, "category": null, "address": "Völkermarkter Straße 3, 9150 Bleiburg", "street": "Völkermarkter Straße", "housenumber": "3", "postcode": "9150", "place": "Bleiburg", "lat": 46.590446, "lon": 14.7945017, "tags": {"addr:city": "Bleiburg", "addr:housenumber": "3", "addr:postcode": "9150", "addr:street": "Völkermarkter Straße"}, "content": "Adresse: Völkermarkter Straße 3, 9150 Bleiburg\nOrt: Bleiburg\nPLZ: 9150\nKoordinaten: 46.590446, 14.794502", "doc_type": "addresses"}
{"source": "OSM", "region": "Kärnten", "osm_type": "node", "osm_id": 5531638017, "name": null, "category": null, "address": "Völkermarkter Straße 21, 9150 Bleiburg", "street": "Völkermarkter Straße", "housenumber": "21", "postcode": "9150", "place": "Bleiburg", "lat": 46.596039, "lon": 14.794098, "tags": {"addr:city": "Bleiburg", "addr:housenumber": "21", "addr:postcode": "9150", "addr:street": "Völkermarkter Straße"}, "content": "Adresse: Völkermarkter Straße 21, 9150 Bleiburg\nOrt: Bleiburg\nPLZ: 9150\nKoordinaten: 46.596039, 14.794098", "doc_type": "addresses"}
{"source": "OSM", "region": "Kärnten", "osm_type": "node", "osm_id": 5531638184, "name": null, "category": null, "address": "Lastenstraße 6, 9150 Bleiburg", "street": "Lastenstraße", "housenumber": "6", "postcode": "9150", "place": "Bleiburg", "lat": 46.5927767, "lon": 14.7942683, "tags": {"addr:city": "Bleiburg", "addr:housenumber": "6", "addr:postcode": "9150", "addr:street": "Lastenstraße"}, "content": "Adresse: Lastenstraße 6, 9150 Bleiburg\nOrt: Bleiburg\nPLZ: 9150\nKoordinaten: 46.592777, 14.794268", "doc_type": "addresses"}
{"source": "OSM", "region": "Kärnten", "osm_type": "node", "osm_id": 5531638194, "name": null, "category": null, "address": "Lastenstraße 2, 9150 Bleiburg", "street": "Lastenstraße", "housenumber": "2", "postcode": "9150", "place": "Bleiburg", "lat": 46.5917823, "lon": 14.794912, "tags": {"addr:city": "Bleiburg", "addr:housenumber": "2", "addr:postcode": "9150", "addr:street": "Lastenstraße"}, "content": "Adresse: Lastenstraße 2, 9150 Bleiburg\nOrt: Bleiburg\nPLZ: 9150\nKoordinaten: 46.591782, 14.794912", "doc_type": "addresses"}
{"source": "OSM", "region": "Kärnten", "osm_type": "node", "osm_id": 5531638195, "name": null, "category": null, "address": "Lastenstraße 4, 9150 Bleiburg", "street": "Lastenstraße", "housenumber": "4", "postcode": "9150", "place": "Bleiburg", "lat": 46.5918745, "lon": 14.7947028, "tags": {"addr:city": "Bleiburg", "addr:housenumber": "4", "addr:postcode": "9150", "addr:street": "Lastenstraße"}, "content": "Adresse: Lastenstraße 4, 9150 Bleiburg\nOrt: Bleiburg\nPLZ: 9150\nKoordinaten: 46.591875, 14.794703", "doc_type": "addresses"}
{"source": "OSM", "region": "Kärnten", "osm_type": "node", "osm_id": 5531638216, "name": null, "category": null, "address": "Völkermarkter Straße 6a, 9150 Bleiburg", "street": "Völkermarkter Straße", "housenumber": "6a", "postcode": "9150", "place": "Bleiburg", "lat": 46.5919998, "lon": 14.7946921, "tags": {"addr:city": "Bleiburg", "addr:housenumber": "6a", "addr:postcode": "9150", "addr:street": "Völkermarkter Straße"}, "content": "Adresse: Völkermarkter Straße 6a, 9150 Bleiburg\nOrt: Bleiburg\nPLZ: 9150\nKoordinaten: 46.592000, 14.794692", "doc_type": "addresses"}
{"source": "OSM", "region": "Kärnten", "osm_type": "node", "osm_id": 340518027, "name": "Post Filiale 8224", "category": "amenity:post_office", "address": "10. Oktober Platz 1, 9150 Bleiburg", "street": "10. Oktober Platz", "housenumber": "1", "postcode": "9150", "place": "Bleiburg", "lat": 46.5900032, "lon": 14.7995922, "tags": {"addr:city": "Bleiburg", "addr:housenumber": "1", "addr:postcode": "9150", "addr:street": "10. Oktober Platz", "amenity": "post_office", "name": "Post Filiale 8224", "operator": "Österreichische Post AG", "website": "https://www.post.at"}, "content": "Post Filiale 8224\nKategorie: amenity:post_office\nAdresse: 10. Oktober Platz 1, 9150 Bleiburg\nOrt: Bleiburg\nPLZ: 9150\nKoordinaten: 46.590003, 14.799592\nTags: amenity=post_office, operator=Österreichische Post AG, website=https://www.post.at", "doc_type": "pois"}
{"source": "OSM", "region": "Kärnten", "osm_type": "node", "osm_id": 819028951, "name": "Brauhaus Breznik", "category": "amenity:restaurant", "address": "10. Oktober Platz 9, 9150 Bleiburg", "street": "10. Oktober Platz", "housenumber": "9", "postcode": "9150", "place": "Bleiburg", "lat": 46.5900399, "lon": 14.7986913, "tags": {"addr:city": "Bleiburg", "addr:housenumber": "9", "addr:postcode": "9150", "addr:street": "10. Oktober Platz", "amenity": "restaurant", "name": "Brauhaus Breznik", "website": "https://brauhaus.breznik.at/wirtshaus/"}, "content": "Brauhaus Breznik\nKategorie: amenity:restaurant\nAdresse: 10. Oktober Platz 9, 9150 Bleiburg\nOrt: Bleiburg\nPLZ: 9150\nKoordinaten: 46.590040, 14.798691\nTags: amenity=restaurant, website=https://brauhaus.breznik.at/wirtshaus/", "doc_type": "pois"}
{"source": "OSM", "region": "Kärnten", "osm_type": "node", "osm_id": 2484755743, "name": "Schloss Quadrat", "category": "amenity:cafe", "address": "10. Oktober Platz 38, 9150 Bleiburg", "street": "10. Oktober Platz", "housenumber": "38", "postcode": "9150", "place": "Bleiburg", "lat": 46.5902175, "lon": 14.7969578, "tags": {"addr:city": "Bleiburg", "addr:housenumber": "38", "addr:postcode": "9150", "addr:street": "10. Oktober Platz", "amenity": "cafe", "name": "Schloss Quadrat"}, "content": "Schloss Quadrat\nKategorie: amenity:cafe\nAdresse: 10. Oktober Platz 38, 9150 Bleiburg\nOrt: Bleiburg\nPLZ: 9150\nKoordinaten: 46.590218, 14.796958\nTags: amenity=cafe", "doc_type": "pois"}
{"source": "OSM", "region": "Kärnten", "osm_type": "node", "osm_id": 2484755744, "name": "Polizeiinspektion Bleiburg", "category": "amenity:police", "address": "10. Oktober Platz 38, 9150 Bleiburg", "street": "10. Oktober Platz", "housenumber": "38", "postcode": "9150", "place": "Bleiburg", "lat": 46.5902188, "lon": 14.7970325, "tags": {"addr:city": "Bleiburg", "addr:housenumber": "38", "addr:postcode": "9150", "addr:street": "10. Oktober Platz", "amenity": "police", "name": "Polizeiinspektion Bleiburg", "phone": "+43 59133 2142100"}, "content": "Polizeiinspektion Bleiburg\nKategorie: amenity:police\nAdresse: 10. Oktober Platz 38, 9150 Bleiburg\nOrt: Bleiburg\nPLZ: 9150\nKoordinaten: 46.590219, 14.797033\nTags: amenity=police, phone=+43 59133 2142100", "doc_type": "pois"}
{"source": "OSM", "region": "Kärnten", "osm_type": "node", "osm_id": 2484755755, "name": "Sparkasse", "category": "amenity:bank", "address": "10. Oktober Platz 38, 9150 Bleiburg", "street": "10. Oktober Platz", "housenumber": "38", "postcode": "9150", "place": "Bleiburg", "lat": 46.5903399, "lon": 14.7968474, "tags": {"addr:city": "Bleiburg", "addr:housenumber": "38", "addr:postcode": "9150", "addr:street": "10. Oktober Platz", "amenity": "bank", "name": "Sparkasse", "operator": "Kärntner Sparkasse"}, "content": "Sparkasse\nKategorie: amenity:bank\nAdresse: 10. Oktober Platz 38, 9150 Bleiburg\nOrt: Bleiburg\nPLZ: 9150\nKoordinaten: 46.590340, 14.796847\nTags: amenity=bank, operator=Kärntner Sparkasse", "doc_type": "pois"}
{"source": "OSM", "region": "Kärnten", "osm_type": "node", "osm_id": 2484755852, "name": "Stadtapotheke", "category": "amenity:pharmacy", "address": "10. Oktober Platz 2, 9150 Bleiburg", "street": "10. Oktober Platz", "housenumber": "2", "postcode": "9150", "place": "Bleiburg", "lat": 46.5900791, "lon": 14.8000372, "tags": {"addr:city": "Bleiburg", "addr:housenumber": "2", "addr:postcode": "9150", "addr:street": "10. Oktober Platz", "amenity": "pharmacy", "healthcare": "pharmacy", "name": "Stadtapotheke"}, "content": "Stadtapotheke\nKategorie: amenity:pharmacy\nAdresse: 10. Oktober Platz 2, 9150 Bleiburg\nOrt: Bleiburg\nPLZ: 9150\nKoordinaten: 46.590079, 14.800037\nTags: amenity=pharmacy, healthcare=pharmacy", "doc_type": "pois"}
{"source": "OSM", "region": "Kärnten", "osm_type": "node", "osm_id": 2484755864, "name": "Rauchfangkehrer Micelli", "category": "office:company", "address": "Postgasse 3, 9150 Bleiburg", "street": "Postgasse", "housenumber": "3", "postcode": "9150", "place": "Bleiburg", "lat": 46.5897332, "lon": 14.7999043, "tags": {"addr:city": "Bleiburg", "addr:housenumber": "3", "addr:postcode": "9150", "addr:street": "Postgasse", "name": "Rauchfangkehrer Micelli", "office": "company"}, "content": "Rauchfangkehrer Micelli\nKategorie: office:company\nAdresse: Postgasse 3, 9150 Bleiburg\nOrt: Bleiburg\nPLZ: 9150\nKoordinaten: 46.589733, 14.799904\nTags: office=company", "doc_type": "pois"}
{"source": "OSM", "region": "Kärnten", "osm_type": "node", "osm_id": 2484755876, "name": "Werner Berg Museum", "category": "tourism:museum", "address": "10. Oktober Platz 4, 9150 Bleiburg", "street": "10. Oktober Platz", "housenumber": "4", "postcode": "9150", "place": "Bleiburg", "lat": 46.5902114, "lon": 14.7998568, "tags": {"addr:city": "Bleiburg", "addr:housenumber": "4", "addr:postcode": "9150", "addr:street": "10. Oktober Platz", "name": "Werner Berg Museum", "tourism": "museum"}, "content": "Werner Berg Museum\nKategorie: tourism:museum\nAdresse: 10. Oktober Platz 4, 9150 Bleiburg\nOrt: Bleiburg\nPLZ: 9150\nKoordinaten: 46.590211, 14.799857", "doc_type": "pois"}
{"source": "OSM", "region": "Kärnten", "osm_type": "node", "osm_id": 2484755877, "name": "Werner Berg Genießerei", "category": "amenity:cafe", "address": "10. Oktober Platz 6, 9150 Bleiburg", "street": "10. Oktober Platz", "housenumber": "6", "postcode": "9150", "place": "Bleiburg", "lat": 46.5902085, "lon": 14.7996794, "tags": {"addr:city": "Bleiburg", "addr:housenumber": "6", "addr:postcode": "9150", "addr:street": "10. Oktober Platz", "amenity": "cafe", "name": "Werner Berg Genießerei"}, "content": "Werner Berg Genießerei\nKategorie: amenity:cafe\nAdresse: 10. Oktober Platz 6, 9150 Bleiburg\nOrt: Bleiburg\nPLZ: 9150\nKoordinaten: 46.590209, 14.799679\nTags: amenity=cafe", "doc_type": "pois"}
{"source": "OSM", "region": "Kärnten", "osm_type": "node", "osm_id": 2974103994, "name": "Billa", "category": "shop:supermarket", "address": "Völkermarkter Straße 28, 9150 Bleiburg", "street": "Völkermarkter Straße", "housenumber": "28", "postcode": "9150", "place": "Bleiburg", "lat": 46.5923507, "lon": 14.7959331, "tags": {"addr:city": "Bleiburg", "addr:housenumber": "28", "addr:postcode": "9150", "addr:street": "Völkermarkter Straße", "brand": "Billa", "name": "Billa", "shop": "supermarket"}, "content": "Billa\nKategorie: shop:supermarket\nAdresse: Völkermarkter Straße 28, 9150 Bleiburg\nOrt: Bleiburg\nPLZ: 9150\nKoordinaten: 46.592351, 14.795933\nTags: shop=supermarket, brand=Billa", "doc_type": "pois"}
{"source": "OSM", "region": "Kärnten", "osm_type": "node", "osm_id": 3338557424, "name": "Gasthaus Rößlwirt", "category": "amenity:restaurant", "address": "Koschatstraße 4, 9150 Bleiburg", "street": "Koschatstraße", "housenumber": "4", "postcode": "9150", "place": "Bleiburg", "lat": 46.589231, "lon": 14.7957841, "tags": {"addr:city": "Bleiburg", "addr:housenumber": "4", "addr:postcode": "9150", "addr:street": "Koschatstraße", "amenity": "restaurant", "name": "Gasthaus Rößlwirt"}, "content": "Gasthaus Rößlwirt\nKategorie: amenity:restaurant\nAdresse: Koschatstraße 4, 9150 Bleiburg\nOrt: Bleiburg\nPLZ: 9150\nKoordinaten: 46.589231, 14.795784\nTags: amenity=restaurant", "doc_type": "pois"}
{"source": "OSM", "region": "Kärnten", "osm_type": "node", "osm_id": 3675609920, "name": null, "category": "shop:vacant", "address": "Koschatstraße 2, 9150 Bleiburg", "street": "Koschatstraße", "housenumber": "2", "postcode": "9150", "place": "Bleiburg", "lat": 46.5897332, "lon": 14.7956474, "tags": {"addr:city": "Bleiburg", "addr:housenumber": "2", "addr:postcode": "9150", "addr:street": "Koschatstraße", "shop": "vacant"}, "content": "Kategorie: shop:vacant\nAdresse: Koschatstraße 2, 9150 Bleiburg\nOrt: Bleiburg\nPLZ: 9150\nKoordinaten: 46.589733, 14.795647\nTags: shop=vacant", "doc_type": "pois"}
{"source": "OSM", "region": "Kärnten", "osm_type": "node", "osm_id": 4483797735, "name": "Posojilnica Bank eGen", "category": "amenity:bank", "address": "Völkermarkter Straße 1a, 9150 Bleiburg", "street": "Völkermarkter Straße", "housenumber": "1a", "postcode": "9150", "place": "Bleiburg", "lat": 46.5901086, "lon": 14.7954471, "tags": {"addr:city": "Bleiburg", "addr:housenumber": "1a", "addr:postcode": "9150", "addr:street": "Völkermarkter Straße", "amenity": "bank", "name": "Posojilnica Bank eGen", "phone": "+43 463 512 365", "website": "https://www.poso.at/"}, "content": "Posojilnica Bank eGen\nKategorie: amenity:bank\nAdresse: Völkermarkter Straße 1a, 9150 Bleiburg\nOrt: Bleiburg\nPLZ: 9150\nKoordinaten: 46.590109, 14.795447\nTags: amenity=bank, phone=+43 463 512 365, website=https://www.poso.at/", "doc_type": "pois"}
{"source": "OSM", "region": "Kärnten", "osm_type": "node", "osm_id": 5043020489, "name": "Café Pazzo", "category": "amenity:cafe", "address": "Koschatstraße 2, 9150 Bleiburg", "street": "Koschatstraße", "housenumber": "2", "postcode": "9150", "place": "Bleiburg", "lat": 46.5898737, "lon": 14.7956204, "tags": {"addr:city": "Bleiburg", "addr:housenumber": "2", "addr:postcode": "9150", "addr:street": "Koschatstraße", "amenity": "cafe", "name": "Café Pazzo"}, "content": "Café Pazzo\nKategorie: amenity:cafe\nAdresse: Koschatstraße 2, 9150 Bleiburg\nOrt: Bleiburg\nPLZ: 9150\nKoordinaten: 46.589874, 14.795620\nTags: amenity=cafe", "doc_type": "pois"}
{"source": "OSM", "region": "Kärnten", "osm_type": "node", "osm_id": 5051804660, "name": "Elektro Hollauf", "category": "shop:electronics", "address": "10. Oktober Platz 26, 9150 Bleiburg", "street": "10. Oktober Platz", "housenumber": "26", "postcode": "9150", "place": "Bleiburg", "lat": 46.5902305, "lon": 14.7980311, "tags": {"addr:city": "Bleiburg", "addr:housenumber": "26", "addr:postcode": "9150", "addr:street": "10. Oktober Platz", "craft": "electrician", "name": "Elektro Hollauf", "operator": "Klaus Hollauf", "shop": "electronics"}, "content": "Elektro Hollauf\nKategorie: shop:electronics\nAdresse: 10. Oktober Platz 26, 9150 Bleiburg\nOrt: Bleiburg\nPLZ: 9150\nKoordinaten: 46.590230, 14.798031\nTags: shop=electronics, operator=Klaus Hollauf", "doc_type": "pois"}
{"source": "OSM", "region": "Kärnten", "osm_type": "node", "osm_id": 5052677024, "name": "I fratelli", "category": "amenity:cafe", "address": "10. Oktober Platz 32, 9150 Bleiburg", "street": "10. Oktober Platz", "housenumber": "32", "postcode": "9150", "place": "Bleiburg", "lat": 46.5902063, "lon": 14.7975082, "tags": {"addr:city": "Bleiburg", "addr:housenumber": "32", "addr:postcode": "9150", "addr:street": "10. Oktober Platz", "amenity": "cafe", "name": "I fratelli"}, "content": "I fratelli\nKategorie: amenity:cafe\nAdresse: 10. Oktober Platz 32, 9150 Bleiburg\nOrt: Bleiburg\nPLZ: 9150\nKoordinaten: 46.590206, 14.797508\nTags: amenity=cafe", "doc_type": "pois"}
{"source": "OSM", "region": "Kärnten", "osm_type": "node", "osm_id": 5052952980, "name": "Sanitär-, Lüftungs- und Heizungstechnik Polesnig", "category": "craft:plumber", "address": "Völkermarkter Straße 14, 9150 Bleiburg", "street": "Völkermarkter Straße", "housenumber": "14", "postcode": "9150", "place": "Bleiburg", "lat": 46.5987328, "lon": 14.7968968, "tags": {"addr:city": "Bleiburg", "addr:housenumber": "14", "addr:postcode": "9150", "addr:street": "Völkermarkter Straße", "craft": "plumber", "operator": "Sanitär-, Lüftungs- und Heizungstechnik Polesnig"}, "content": "Sanitär-, Lüftungs- und Heizungstechnik Polesnig\nKategorie: craft:plumber\nAdresse: Völkermarkter Straße 14, 9150 Bleiburg\nOrt: Bleiburg\nPLZ: 9150\nKoordinaten: 46.598733, 14.796897\nTags: operator=Sanitär-, Lüftungs- und Heizungstechnik Polesnig", "doc_type": "pois"}
{"source": "OSM", "region": "Kärnten", "osm_type": "node", "osm_id": 5128424422, "name": null, "category": "shop:vacant", "address": "Koschatstraße 2, 9150 Bleiburg", "street": "Koschatstraße", "housenumber": "2", "postcode": "9150", "place": "Bleiburg", "lat": 46.5895608, "lon": 14.7956518, "tags": {"addr:city": "Bleiburg", "addr:housenumber": "2", "addr:postcode": "9150", "addr:street": "Koschatstraße", "shop": "vacant"}, "content": "Kategorie: shop:vacant\nAdresse: Koschatstraße 2, 9150 Bleiburg\nOrt: Bleiburg\nPLZ: 9150\nKoordinaten: 46.589561, 14.795652\nTags: shop=vacant", "doc_type": "pois"}
