{"source": "OSM", "region": "K채rnten", "osm_type": "node", "osm_id": 538375496, "name": "Schiffsstation Sattendorf", "category": "amenity:ferry_terminal", "address": "Seeweg 20, 9495 Sattendorf", "street": "Seeweg", "housenumber": "20", "postcode": "9495", "place": "Sattendorf", "lat": 46.6625726, "lon": 13.9170486, "tags": {"addr:city": "Sattendorf", "addr:housenumber": "20", "addr:postcode": "9495", "addr:street": "Seeweg", "amenity": "ferry_terminal", "name": "Schiffsstation Sattendorf", "operator": "Nageler Schifffahrt & Restaurant GmbH & Co KG Ossiachersee Schifffahrt"}, "content": "Schiffsstation Sattendorf\nKategorie: amenity:ferry_terminal\nAdresse: Seeweg 20, 9495 Sattendorf\nOrt: Sattendorf\nPLZ: 9495\nKoordinaten: 46.662573, 13.917049\nTags: amenity=ferry_terminal, operator=Nageler Schifffahrt & Restaurant GmbH & Co KG Ossiachersee Schifffahrt", "doc_type": "addresses"}
{"source": "OSM", "region": "K채rnten", "osm_type": "node", "osm_id": 3763514424, "name": "Leuchtturm.one", "category": "building:office", "address": "Mitterlingweg 3-5, 9520 Sattendorf", "street": "Mitterlingweg", "housenumber": "3-5", "postcode": "9520", "place": "Sattendorf", "lat": 46.6698617, "lon": 13.9455811, "tags": {"addr:city": "Sattendorf", "addr:housenumber": "3-5", "addr:postcode": "9520", "addr:street": "Mitterlingweg", "building": "office", "name": "Leuchtturm.one"}, "content": "Leuchtturm.one\nKategorie: building:office\nAdresse: Mitterlingweg 3-5, 9520 Sattendorf\nOrt: Sattendorf\nPLZ: 9520\nKoordinaten: 46.669862, 13.945581\nTags: building=office", "doc_type": "addresses"}
{"source": "OSM", "region": "K채rnten", "osm_type": "node", "osm_id": 538375496, "name": "Schiffsstation Sattendorf", "category": "amenity:ferry_terminal", "address": "Seeweg 20, 9495 Sattendorf", "street": "Seeweg", "housenumber": "20", "postcode": "9495", "place": "Sattendorf", "lat": 46.6625726, "lon": 13.9170486, "tags": {"addr:city": "Sattendorf", "addr:housenumber": "20", "addr:postcode": "9495", "addr:street": "Seeweg", "amenity": "ferry_terminal", "name": "Schiffsstation Sattendorf", "operator": "Nageler Schifffahrt & Restaurant GmbH & Co KG Ossiachersee Schifffahrt"}, "content": "Schiffsstation Sattendorf\nKategorie: amenity:ferry_terminal\nAdresse: Seeweg 20, 9495 Sattendorf\nOrt: Sattendorf\nPLZ: 9495\nKoordinaten: 46.662573, 13.917049\nTags: amenity=ferry_terminal, operator=Nageler Schifffahrt & Restaurant GmbH & Co KG Ossiachersee Schifffahrt", "doc_type": "pois"}
{"source": "OSM", "region": "K채rnten", "osm_type": "node", "osm_id": 3763514424, "name": "Leuchtturm.one", "category": "building:office", "address": "Mitterlingweg 3-5, 9520 Sattendorf", "street": "Mitterlingweg", "housenumber": "3-5", "postcode": "9520", "place": "Sattendorf", "lat": 46.6698617, "lon": 13.9455811, "tags": {"addr:city": "Sattendorf", "addr:housenumber": "3-5", "addr:postcode": "9520", "addr:street": "Mitterlingweg", "building": "office", "name": "Leuchtturm.one"}, "content": "Leuchtturm.one\nKategorie: building:office\nAdresse: Mitterlingweg 3-5, 9520 Sattendorf\nOrt: Sattendorf\nPLZ: 9520\nKoordinaten: 46.669862, 13.945581\nTags: building=office", "doc_type": "buildings"}
