{"source": "OSM", "region": "Kärnten", "osm_type": "node", "osm_id": 340519714, "name": "Postpartner 9121, ADEG", "category": "amenity:post_office", "address": "Dorfplatz 27, 9121 Tainach", "street": "Dorfplatz", "housenumber": "27", "postcode": "9121", "place": "Tainach", "lat": 46.635486, "lon": 14.5396804, "tags": {"addr:city": "Tainach", "addr:housenumber": "27", "addr:postcode": "9121", "addr:street": "Dorfplatz", "amenity": "post_office", "name": "Postpartner 9121, ADEG"}, "content": "Postpartner 9121, ADEG\nKategorie: amenity:post_office\nAdresse: Dorfplatz 27, 9121 Tainach\nOrt: Tainach\nPLZ: 9121\nKoordinaten: 46.635486, 14.539680\nTags: amenity=post_office", "doc_type": "addresses"}
{"source": "OSM", "region": "Kärnten", "osm_type": "node", "osm_id": 3880333393, "name": "Pascal Werkl - Web-Entwicklung und Performance Marketing", "category": "office:it", "address": "Dr. Josef Kucher-Weg 17, 9121 Tainach", "street": "Dr. Josef Kucher-Weg", "housenumber": "17", "postcode": "9121", "place": "Tainach", "lat": 46.6321338, "lon": 14.5314379, "tags": {"addr:city": "Tainach", "addr:housenumber": "17", "addr:postcode": "9121", "addr:street": "Dr. Josef Kucher-Weg", "name": "Pascal Werkl - Web-Entwicklung und Performance Marketing", "office": "it", "phone": "+43 660 2020 666", "website": "http://www.werkl.net/"}, "content": "Pascal Werkl - Web-Entwicklung und Performance Marketing\nKategorie: office:it\nAdresse: Dr. Josef Kucher-Weg 17, 9121 Tainach\nOrt: Tainach\nPLZ: 9121\nKoordinaten: 46.632134, 14.531438\nTags: office=it, phone=+43 660 2020 666, website=http://www.werkl.net/", "doc_type": "addresses"}
{"source": "OSM", "region": "Kärnten", "osm_type": "node", "osm_id": 3880421552, "name": "Adeg Kummer", "category": "shop:supermarket", "address": "Dorfplatz 27, 9121 Tainach", "street": "Dorfplatz", "housenumber": "27", "postcode": "9121", "place": "Tainach", "lat": 46.6353811, "lon": 14.5395839, "tags": {"addr:city": "Tainach", "addr:housenumber": "27", "addr:postcode": "9121", "addr:street": "Dorfplatz", "name": "Adeg Kummer", "shop": "supermarket"}, "content": "Adeg Kummer\nKategorie: shop:supermarket\nAdresse: Dorfplatz 27, 9121 Tainach\nOrt: Tainach\nPLZ: 9121\nKoordinaten: 46.635381, 14.539584\nTags: shop=supermarket", "doc_type": "addresses"}
{"source": "OSM", "region": "Kärnten", "osm_type": "node", "osm_id": 3880433123, "name": "Alfred Achatz - Werbebeschriftungen", "category": "office:company", "address": "Dr. Josef Kucher-Weg 15, 9121 Tainach", "street": "Dr. Josef Kucher-Weg", "housenumber": "15", "postcode": "9121", "place": "Tainach", "lat": 46.632072, "lon": 14.5317628, "tags": {"addr:city": "Tainach", "addr:housenumber": "15", "addr:postcode": "9121", "addr:street": "Dr. Josef Kucher-Weg", "name": "Alfred Achatz - Werbebeschriftungen", "office": "company", "website": "https://www.ws-achatz.at/"}, "content": "Alfred Achatz - Werbebeschriftungen\nKategorie: office:company\nAdresse: Dr. Josef Kucher-Weg 15, 9121 Tainach\nOrt: Tainach\nPLZ: 9121\nKoordinaten: 46.632072, 14.531763\nTags: office=company, website=https://www.ws-achatz.at/", "doc_type": "addresses"}
{"source": "OSM", "region": "Kärnten", "osm_type": "node", "osm_id": 3880482620, "name": "Gasthaus Hubertushof", "category": "amenity:restaurant", "address": "Dorfplatz 12, 9121 Tainach", "street": "Dorfplatz", "housenumber": "12", "postcode": "9121", "place": "Tainach", "lat": 46.6347868, "lon": 14.5385612, "tags": {"addr:city": "Tainach", "addr:housenumber": "12", "addr:postcode": "9121", "addr:street": "Dorfplatz", "amenity": "restaurant", "name": "Gasthaus Hubertushof"}, "content": "Gasthaus Hubertushof\nKategorie: amenity:restaurant\nAdresse: Dorfplatz 12, 9121 Tainach\nOrt: Tainach\nPLZ: 9121\nKoordinaten: 46.634787, 14.538561\nTags: amenity=restaurant", "doc_type": "addresses"}
{"source": "OSM", "region": "Kärnten", "osm_type": "node", "osm_id": 3880482625, "name": "Platzlwirt", "category": "amenity:pub", "address": "Dorfplatz 23, 9121 Tainach", "street": "Dorfplatz", "housenumber": "23", "postcode": "9121", "place": "Tainach", "lat": 46.6356086, "lon": 14.5393117, "tags": {"addr:city": "Tainach", "addr:housenumber": "23", "addr:postcode": "9121", "addr:street": "Dorfplatz", "amenity": "pub", "name": "Platzlwirt"}, "content": "Platzlwirt\nKategorie: amenity:pub\nAdresse: Dorfplatz 23, 9121 Tainach\nOrt: Tainach\nPLZ: 9121\nKoordinaten: 46.635609, 14.539312\nTags: amenity=pub", "doc_type": "addresses"}
{"source": "OSM", "region": "Kärnten", "osm_type": "node", "osm_id": 3880527021, "name": "Fischrestaurant Sicher", "category": "amenity:restaurant", "address": "Mühlenweg 2, 9121 Tainach", "street": "Mühlenweg", "housenumber": "2", "postcode": "9121", "place": "Tainach", "lat": 46.631675, "lon": 14.537012, "tags": {"addr:city": "Tainach", "addr:housenumber": "2", "addr:postcode": "9121", "addr:street": "Mühlenweg", "amenity": "restaurant", "name": "Fischrestaurant Sicher", "website": "https://www.sicherrestaurant.at/"}, "content": "Fischrestaurant Sicher\nKategorie: amenity:restaurant\nAdresse: Mühlenweg 2, 9121 Tainach\nOrt: Tainach\nPLZ: 9121\nKoordinaten: 46.631675, 14.537012\nTags: amenity=restaurant, website=https://www.sicherrestaurant.at/", "doc_type": "addresses"}
{"source": "OSM", "region": "Kärnten", "osm_type": "node", "osm_id": 3880545363, "name": "SV Tainach", "category": null, "address": "S.v.Hueber-Weg 1, 9121 Tainach", "street": "S.v.Hueber-Weg", "housenumber": "1", "postcode": "9121", "place": "Tainach", "lat": 46.6360584, "lon": 14.5255886, "tags": {"addr:city": "Tainach", "addr:housenumber": "1", "addr:postcode": "9121", "addr:street": "S.v.Hueber-Weg", "name": "SV Tainach"}, "content": "SV Tainach\nAdresse: S.v.Hueber-Weg 1, 9121 Tainach\nOrt: Tainach\nPLZ: 9121\nKoordinaten: 46.636058, 14.525589", "doc_type": "addresses"}
{"source": "OSM", "region": "Kärnten", "osm_type": "node", "osm_id": 340519714, "name": "Postpartner 9121, ADEG", "category": "amenity:post_office", "address": "Dorfplatz 27, 9121 Tainach", "street": "Dorfplatz", "housenumber": "27", "postcode": "9121", "place": "Tainach", "lat": 46.635486, "lon": 14.5396804, "tags": {"addr:city": "Tainach", "addr:housenumber": "27", "addr:postcode": "9121", "addr:street": "Dorfplatz", "amenity": "post_office", "name": "Postpartner 9121, ADEG"}, "content": "Postpartner 9121, ADEG\nKategorie: amenity:post_office\nAdresse: Dorfplatz 27, 9121 Tainach\nOrt: Tainach\nPLZ: 9121\nKoordinaten: 46.635486, 14.539680\nTags: amenity=post_office", "doc_type": "pois"}
{"source": "OSM", "region": "Kärnten", "osm_type": "node", "osm_id": 3880333393, "name": "Pascal Werkl - Web-Entwicklung und Performance Marketing", "category": "office:it", "address": "Dr. Josef Kucher-Weg 17, 9121 Tainach", "street": "Dr. Josef Kucher-Weg", "housenumber": "17", "postcode": "9121", "place": "Tainach", "lat": 46.6321338, "lon": 14.5314379, "tags": {"addr:city": "Tainach", "addr:housenumber": "17", "addr:postcode": "9121", "addr:street": "Dr. Josef Kucher-Weg", "name": "Pascal Werkl - Web-Entwicklung und Performance Marketing", "office": "it", "phone": "+43 660 2020 666", "website": "http://www.werkl.net/"}, "content": "Pascal Werkl - Web-Entwicklung und Performance Marketing\nKategorie: office:it\nAdresse: Dr. Josef Kucher-Weg 17, 9121 Tainach\nOrt: Tainach\nPLZ: 9121\nKoordinaten: 46.632134, 14.531438\nTags: office=it, phone=+43 660 2020 666, website=http://www.werkl.net/", "doc_type": "pois"}
{"source": "OSM", "region": "Kärnten", "osm_type": "node", "osm_id": 3880421552, "name": "Adeg Kummer", "category": "shop:supermarket", "address": "Dorfplatz 27, 9121 Tainach", "street": "Dorfplatz", "housenumber": "27", "postcode": "9121", "place": "Tainach", "lat": 46.6353811, "lon": 14.5395839, "tags": {"addr:city": "Tainach", "addr:housenumber": "27", "addr:postcode": "9121", "addr:street": "Dorfplatz", "name": "Adeg Kummer", "shop": "supermarket"}, "content": "Adeg Kummer\nKategorie: shop:supermarket\nAdresse: Dorfplatz 27, 9121 Tainach\nOrt: Tainach\nPLZ: 9121\nKoordinaten: 46.635381, 14.539584\nTags: shop=supermarket", "doc_type": "pois"}
{"source": "OSM", "region": "Kärnten", "osm_type": "node", "osm_id": 3880433123, "name": "Alfred Achatz - Werbebeschriftungen", "category": "office:company", "address": "Dr. Josef Kucher-Weg 15, 9121 Tainach", "street": "Dr. Josef Kucher-Weg", "housenumber": "15", "postcode": "9121", "place": "Tainach", "lat": 46.632072, "lon": 14.5317628, "tags": {"addr:city": "Tainach", "addr:housenumber": "15", "addr:postcode": "9121", "addr:street": "Dr. Josef Kucher-Weg", "name": "Alfred Achatz - Werbebeschriftungen", "office": "company", "website": "https://www.ws-achatz.at/"}, "content": "Alfred Achatz - Werbebeschriftungen\nKategorie: office:company\nAdresse: Dr. Josef Kucher-Weg 15, 9121 Tainach\nOrt: Tainach\nPLZ: 9121\nKoordinaten: 46.632072, 14.531763\nTags: office=company, website=https://www.ws-achatz.at/", "doc_type": "pois"}
{"source": "OSM", "region": "Kärnten", "osm_type": "node", "osm_id": 3880482620, "name": "Gasthaus Hubertushof", "category": "amenity:restaurant", "address": "Dorfplatz 12, 9121 Tainach", "street": "Dorfplatz", "housenumber": "12", "postcode": "9121", "place": "Tainach", "lat": 46.6347868, "lon": 14.5385612, "tags": {"addr:city": "Tainach", "addr:housenumber": "12", "addr:postcode": "9121", "addr:street": "Dorfplatz", "amenity": "restaurant", "name": "Gasthaus Hubertushof"}, "content": "Gasthaus Hubertushof\nKategorie: amenity:restaurant\nAdresse: Dorfplatz 12, 9121 Tainach\nOrt: Tainach\nPLZ: 9121\nKoordinaten: 46.634787, 14.538561\nTags: amenity=restaurant", "doc_type": "pois"}
{"source": "OSM", "region": "Kärnten", "osm_type": "node", "osm_id": 3880482625, "name": "Platzlwirt", "category": "amenity:pub", "address": "Dorfplatz 23, 9121 Tainach", "street": "Dorfplatz", "housenumber": "23", "postcode": "9121", "place": "Tainach", "lat": 46.6356086, "lon": 14.5393117, "tags": {"addr:city": "Tainach", "addr:housenumber": "23", "addr:postcode": "9121", "addr:street": "Dorfplatz", "amenity": "pub", "name": "Platzlwirt"}, "content": "Platzlwirt\nKategorie: amenity:pub\nAdresse: Dorfplatz 23, 9121 Tainach\nOrt: Tainach\nPLZ: 9121\nKoordinaten: 46.635609, 14.539312\nTags: amenity=pub", "doc_type": "pois"}
{"source": "OSM", "region": "Kärnten", "osm_type": "node", "osm_id": 3880527021, "name": "Fischrestaurant Sicher", "category": "amenity:restaurant", "address": "Mühlenweg 2, 9121 Tainach", "street": "Mühlenweg", "housenumber": "2", "postcode": "9121", "place": "Tainach", "lat": 46.631675, "lon": 14.537012, "tags": {"addr:city": "Tainach", "addr:housenumber": "2", "addr:postcode": "9121", "addr:street": "Mühlenweg", "amenity": "restaurant", "name": "Fischrestaurant Sicher", "website": "https://www.sicherrestaurant.at/"}, "content": "Fischrestaurant Sicher\nKategorie: amenity:restaurant\nAdresse: Mühlenweg 2, 9121 Tainach\nOrt: Tainach\nPLZ: 9121\nKoordinaten: 46.631675, 14.537012\nTags: amenity=restaurant, website=https://www.sicherrestaurant.at/", "doc_type": "pois"}
