{"source": "OSM", "region": "Kärnten", "osm_type": "node", "osm_id": 938439333, "name": "Post Filiale 9601", "category": "amenity:post_office", "address": "Gemeindeplatz 4/1, 9601 Arnoldstein", "street": "Gemeindeplatz", "housenumber": "4/1", "postcode": "9601", "place": "Arnoldstein", "lat": 46.549709, "lon": 13.710223, "tags": {"addr:city": "Arnoldstein", "addr:housenumber": "4/1", "addr:postcode": "9601", "addr:street": "Gemeindeplatz", "amenity": "post_office", "name": "Post Filiale 9601", "operator": "Österreichische Post AG", "website": "https://www.post.at"}, "content": "Post Filiale 9601\nKategorie: amenity:post_office\nAdresse: Gemeindeplatz 4/1, 9601 Arnoldstein\nOrt: Arnoldstein\nPLZ: 9601\nKoordinaten: 46.549709, 13.710223\nTags: amenity=post_office, operator=Österreichische Post AG, website=https://www.post.at", "doc_type": "addresses"}
{"source": "OSM", "region": "Kärnten", "osm_type": "node", "osm_id": 2917063736, "name": "Eis-Cafe Lisa", "category": "amenity:cafe", "address": "Gemeindeplatz 4, 9601 Arnoldstein", "street": "Gemeindeplatz", "housenumber": "4", "postcode": "9601", "place": "Arnoldstein", "lat": 46.5496938, "lon": 13.7097432, "tags": {"addr:city": "Arnoldstein", "addr:housenumber": "4", "addr:postcode": "9601", "addr:street": "Gemeindeplatz", "amenity": "cafe", "name": "Eis-Cafe Lisa", "phone": "+43 664 195 8435", "website": "https://de-de.facebook.com/eiscafelisa/"}, "content": "Eis-Cafe Lisa\nKategorie: amenity:cafe\nAdresse: Gemeindeplatz 4, 9601 Arnoldstein\nOrt: Arnoldstein\nPLZ: 9601\nKoordinaten: 46.549694, 13.709743\nTags: amenity=cafe, phone=+43 664 195 8435, website=https://de-de.facebook.com/eiscafelisa/", "doc_type": "addresses"}
{"source": "OSM", "region": "Kärnten", "osm_type": "node", "osm_id": 3334248995, "name": "EuroTruck", "category": "amenity:fuel", "address": "Industriestraße 6, 9601 Arnoldstein", "street": "Industriestraße", "housenumber": "6", "postcode": "9601", "place": "Arnoldstein", "lat": 46.5596871, "lon": 13.6972286, "tags": {"addr:city": "Arnoldstein", "addr:housenumber": "6", "addr:postcode": "9601", "addr:street": "Industriestraße", "amenity": "fuel", "brand": "OMV", "name": "EuroTruck", "operator": "OMV"}, "content": "EuroTruck\nKategorie: amenity:fuel\nAdresse: Industriestraße 6, 9601 Arnoldstein\nOrt: Arnoldstein\nPLZ: 9601\nKoordinaten: 46.559687, 13.697229\nTags: amenity=fuel, operator=OMV, brand=OMV", "doc_type": "addresses"}
{"source": "OSM", "region": "Kärnten", "osm_type": "node", "osm_id": 4286868297, "name": "Marktgemeindeamt Arnoldstein", "category": "amenity:townhall", "address": "Gemeindeplatz 4/1, 9601 Arnoldstein", "street": "Gemeindeplatz", "housenumber": "4/1", "postcode": "9601", "place": "Arnoldstein", "lat": 46.549736, "lon": 13.7100972, "tags": {"addr:city": "Arnoldstein", "addr:housenumber": "4/1", "addr:postcode": "9601", "addr:street": "Gemeindeplatz", "amenity": "townhall", "name": "Marktgemeindeamt Arnoldstein"}, "content": "Marktgemeindeamt Arnoldstein\nKategorie: amenity:townhall\nAdresse: Gemeindeplatz 4/1, 9601 Arnoldstein\nOrt: Arnoldstein\nPLZ: 9601\nKoordinaten: 46.549736, 13.710097\nTags: amenity=townhall", "doc_type": "addresses"}
{"source": "OSM", "region": "Kärnten", "osm_type": "node", "osm_id": 4286881738, "name": null, "category": "amenity:doctors", "address": "Bahnhofstraße 18, 9601 Arnoldstein", "street": "Bahnhofstraße", "housenumber": "18", "postcode": "9601", "place": "Arnoldstein", "lat": 46.5503695, "lon": 13.7036571, "tags": {"addr:city": "Arnoldstein", "addr:housenumber": "18", "addr:postcode": "9601", "addr:street": "Bahnhofstraße", "amenity": "doctors", "healthcare": "doctor"}, "content": "Kategorie: amenity:doctors\nAdresse: Bahnhofstraße 18, 9601 Arnoldstein\nOrt: Arnoldstein\nPLZ: 9601\nKoordinaten: 46.550370, 13.703657\nTags: amenity=doctors, healthcare=doctor", "doc_type": "addresses"}
{"source": "OSM", "region": "Kärnten", "osm_type": "node", "osm_id": 4433061255, "name": null, "category": null, "address": "Kulturhausgasse 5, 9601 Arnoldstein", "street": "Kulturhausgasse", "housenumber": "5", "postcode": "9601", "place": "Arnoldstein", "lat": 46.5514835, "lon": 13.70268, "tags": {"addr:city": "Arnoldstein", "addr:housenumber": "5", "addr:postcode": "9601", "addr:street": "Kulturhausgasse"}, "content": "Adresse: Kulturhausgasse 5, 9601 Arnoldstein\nOrt: Arnoldstein\nPLZ: 9601\nKoordinaten: 46.551484, 13.702680", "doc_type": "addresses"}
{"source": "OSM", "region": "Kärnten", "osm_type": "node", "osm_id": 4433061260, "name": null, "category": null, "address": "Kulturhausgasse 7, 9601 Arnoldstein", "street": "Kulturhausgasse", "housenumber": "7", "postcode": "9601", "place": "Arnoldstein", "lat": 46.5514946, "lon": 13.7024275, "tags": {"addr:city": "Arnoldstein", "addr:housenumber": "7", "addr:postcode": "9601", "addr:street": "Kulturhausgasse"}, "content": "Adresse: Kulturhausgasse 7, 9601 Arnoldstein\nOrt: Arnoldstein\nPLZ: 9601\nKoordinaten: 46.551495, 13.702428", "doc_type": "addresses"}
{"source": "OSM", "region": "Kärnten", "osm_type": "node", "osm_id": 4433061267, "name": null, "category": null, "address": "Kulturhausgasse 11, 9601 Arnoldstein", "street": "Kulturhausgasse", "housenumber": "11", "postcode": "9601", "place": "Arnoldstein", "lat": 46.5515103, "lon": 13.7020956, "tags": {"addr:city": "Arnoldstein", "addr:housenumber": "11", "addr:postcode": "9601", "addr:street": "Kulturhausgasse"}, "content": "Adresse: Kulturhausgasse 11, 9601 Arnoldstein\nOrt: Arnoldstein\nPLZ: 9601\nKoordinaten: 46.551510, 13.702096", "doc_type": "addresses"}
{"source": "OSM", "region": "Kärnten", "osm_type": "node", "osm_id": 4433061270, "name": null, "category": null, "address": "Kulturhausgasse 13, 9601 Arnoldstein", "street": "Kulturhausgasse", "housenumber": "13", "postcode": "9601", "place": "Arnoldstein", "lat": 46.5515227, "lon": 13.7018458, "tags": {"addr:city": "Arnoldstein", "addr:housenumber": "13", "addr:postcode": "9601", "addr:street": "Kulturhausgasse"}, "content": "Adresse: Kulturhausgasse 13, 9601 Arnoldstein\nOrt: Arnoldstein\nPLZ: 9601\nKoordinaten: 46.551523, 13.701846", "doc_type": "addresses"}
{"source": "OSM", "region": "Kärnten", "osm_type": "node", "osm_id": 5120358360, "name": "Polizeiinspektion Thörl-Maglern - AGM", "category": "amenity:police", "address": "43, 9602 Arnoldstein", "street": null, "housenumber": "43", "postcode": "9602", "place": "Arnoldstein", "lat": 46.5426676, "lon": 13.6499347, "tags": {"addr:city": "Arnoldstein", "addr:housenumber": "43", "addr:place": "Unterthörl", "addr:postcode": "9602", "amenity": "police", "name": "Polizeiinspektion Thörl-Maglern - AGM", "phone": "+43 59133 2264200"}, "content": "Polizeiinspektion Thörl-Maglern - AGM\nKategorie: amenity:police\nAdresse: 43, 9602 Arnoldstein\nOrt: Arnoldstein\nPLZ: 9602\nKoordinaten: 46.542668, 13.649935\nTags: amenity=police, phone=+43 59133 2264200", "doc_type": "addresses"}
{"source": "OSM", "region": "Kärnten", "osm_type": "node", "osm_id": 5120413371, "name": "Polizeikooperationszentrum Thörl-Maglern", "category": "amenity:police", "address": "44, 9602 Arnoldstein", "street": null, "housenumber": "44", "postcode": "9602", "place": "Arnoldstein", "lat": 46.5356954, "lon": 13.6397141, "tags": {"addr:city": "Arnoldstein", "addr:housenumber": "44", "addr:place": "Unterthörl", "addr:postcode": "9602", "amenity": "police", "name": "Polizeikooperationszentrum Thörl-Maglern", "phone": "+43 59133 22 72200"}, "content": "Polizeikooperationszentrum Thörl-Maglern\nKategorie: amenity:police\nAdresse: 44, 9602 Arnoldstein\nOrt: Arnoldstein\nPLZ: 9602\nKoordinaten: 46.535695, 13.639714\nTags: amenity=police, phone=+43 59133 22 72200", "doc_type": "addresses"}
{"source": "OSM", "region": "Kärnten", "osm_type": "node", "osm_id": 938439333, "name": "Post Filiale 9601", "category": "amenity:post_office", "address": "Gemeindeplatz 4/1, 9601 Arnoldstein", "street": "Gemeindeplatz", "housenumber": "4/1", "postcode": "9601", "place": "Arnoldstein", "lat": 46.549709, "lon": 13.710223, "tags": {"addr:city": "Arnoldstein", "addr:housenumber": "4/1", "addr:postcode": "9601", "addr:street": "Gemeindeplatz", "amenity": "post_office", "name": "Post Filiale 9601", "operator": "Österreichische Post AG", "website": "https://www.post.at"}, "content": "Post Filiale 9601\nKategorie: amenity:post_office\nAdresse: Gemeindeplatz 4/1, 9601 Arnoldstein\nOrt: Arnoldstein\nPLZ: 9601\nKoordinaten: 46.549709, 13.710223\nTags: amenity=post_office, operator=Österreichische Post AG, website=https://www.post.at", "doc_type": "pois"}
{"source": "OSM", "region": "Kärnten", "osm_type": "node", "osm_id": 2917063736, "name": "Eis-Cafe Lisa", "category": "amenity:cafe", "address": "Gemeindeplatz 4, 9601 Arnoldstein", "street": "Gemeindeplatz", "housenumber": "4", "postcode": "9601", "place": "Arnoldstein", "lat": 46.5496938, "lon": 13.7097432, "tags": {"addr:city": "Arnoldstein", "addr:housenumber": "4", "addr:postcode": "9601", "addr:street": "Gemeindeplatz", "amenity": "cafe", "name": "Eis-Cafe Lisa", "phone": "+43 664 195 8435", "website": "https://de-de.facebook.com/eiscafelisa/"}, "content": "Eis-Cafe Lisa\nKategorie: amenity:cafe\nAdresse: Gemeindeplatz 4, 9601 Arnoldstein\nOrt: Arnoldstein\nPLZ: 9601\nKoordinaten: 46.549694, 13.709743\nTags: amenity=cafe, phone=+43 664 195 8435, website=https://de-de.facebook.com/eiscafelisa/", "doc_type": "pois"}
{"source": "OSM", "region": "Kärnten", "osm_type": "node", "osm_id": 3334248995, "name": "EuroTruck", "category": "amenity:fuel", "address": "Industriestraße 6, 9601 Arnoldstein", "street": "Industriestraße", "housenumber": "6", "postcode": "9601", "place": "Arnoldstein", "lat": 46.5596871, "lon": 13.6972286, "tags": {"addr:city": "Arnoldstein", "addr:housenumber": "6", "addr:postcode": "9601", "addr:street": "Industriestraße", "amenity": "fuel", "brand": "OMV", "name": "EuroTruck", "operator": "OMV"}, "content": "EuroTruck\nKategorie: amenity:fuel\nAdresse: Industriestraße 6, 9601 Arnoldstein\nOrt: Arnoldstein\nPLZ: 9601\nKoordinaten: 46.559687, 13.697229\nTags: amenity=fuel, operator=OMV, brand=OMV", "doc_type": "pois"}
{"source": "OSM", "region": "Kärnten", "osm_type": "node", "osm_id": 4286868297, "name": "Marktgemeindeamt Arnoldstein", "category": "amenity:townhall", "address": "Gemeindeplatz 4/1, 9601 Arnoldstein", "street": "Gemeindeplatz", "housenumber": "4/1", "postcode": "9601", "place": "Arnoldstein", "lat": 46.549736, "lon": 13.7100972, "tags": {"addr:city": "Arnoldstein", "addr:housenumber": "4/1", "addr:postcode": "9601", "addr:street": "Gemeindeplatz", "amenity": "townhall", "name": "Marktgemeindeamt Arnoldstein"}, "content": "Marktgemeindeamt Arnoldstein\nKategorie: amenity:townhall\nAdresse: Gemeindeplatz 4/1, 9601 Arnoldstein\nOrt: Arnoldstein\nPLZ: 9601\nKoordinaten: 46.549736, 13.710097\nTags: amenity=townhall", "doc_type": "pois"}
{"source": "OSM", "region": "Kärnten", "osm_type": "node", "osm_id": 4286881738, "name": null, "category": "amenity:doctors", "address": "Bahnhofstraße 18, 9601 Arnoldstein", "street": "Bahnhofstraße", "housenumber": "18", "postcode": "9601", "place": "Arnoldstein", "lat": 46.5503695, "lon": 13.7036571, "tags": {"addr:city": "Arnoldstein", "addr:housenumber": "18", "addr:postcode": "9601", "addr:street": "Bahnhofstraße", "amenity": "doctors", "healthcare": "doctor"}, "content": "Kategorie: amenity:doctors\nAdresse: Bahnhofstraße 18, 9601 Arnoldstein\nOrt: Arnoldstein\nPLZ: 9601\nKoordinaten: 46.550370, 13.703657\nTags: amenity=doctors, healthcare=doctor", "doc_type": "pois"}
{"source": "OSM", "region": "Kärnten", "osm_type": "node", "osm_id": 5120358360, "name": "Polizeiinspektion Thörl-Maglern - AGM", "category": "amenity:police", "address": "43, 9602 Arnoldstein", "street": null, "housenumber": "43", "postcode": "9602", "place": "Arnoldstein", "lat": 46.5426676, "lon": 13.6499347, "tags": {"addr:city": "Arnoldstein", "addr:housenumber": "43", "addr:place": "Unterthörl", "addr:postcode": "9602", "amenity": "police", "name": "Polizeiinspektion Thörl-Maglern - AGM", "phone": "+43 59133 2264200"}, "content": "Polizeiinspektion Thörl-Maglern - AGM\nKategorie: amenity:police\nAdresse: 43, 9602 Arnoldstein\nOrt: Arnoldstein\nPLZ: 9602\nKoordinaten: 46.542668, 13.649935\nTags: amenity=police, phone=+43 59133 2264200", "doc_type": "pois"}
{"source": "OSM", "region": "Kärnten", "osm_type": "node", "osm_id": 5120413371, "name": "Polizeikooperationszentrum Thörl-Maglern", "category": "amenity:police", "address": "44, 9602 Arnoldstein", "street": null, "housenumber": "44", "postcode": "9602", "place": "Arnoldstein", "lat": 46.5356954, "lon": 13.6397141, "tags": {"addr:city": "Arnoldstein", "addr:housenumber": "44", "addr:place": "Unterthörl", "addr:postcode": "9602", "amenity": "police", "name": "Polizeikooperationszentrum Thörl-Maglern", "phone": "+43 59133 22 72200"}, "content": "Polizeikooperationszentrum Thörl-Maglern\nKategorie: amenity:police\nAdresse: 44, 9602 Arnoldstein\nOrt: Arnoldstein\nPLZ: 9602\nKoordinaten: 46.535695, 13.639714\nTags: amenity=police, phone=+43 59133 22 72200", "doc_type": "pois"}
