{"source": "OSM", "region": "Kärnten", "osm_type": "node", "osm_id": 665212685, "name": "Gemeindeamt Dellach", "category": "amenity:townhall", "address": "Dellach 123, 9635 Dellach im Gailtal", "street": "Dellach", "housenumber": "123", "postcode": "9635", "place": "Dellach im Gailtal", "lat": 46.6622342, "lon": 13.0790721, "tags": {"addr:city": "Dellach im Gailtal", "addr:housenumber": "123", "addr:postcode": "9635", "addr:street": "Dellach", "amenity": "townhall", "name": "Gemeindeamt Dellach", "website": "https://gemeinde.dellach.at/"}, "content": "Gemeindeamt Dellach\nKategorie: amenity:townhall\nAdresse: Dellach 123, 9635 Dellach im Gailtal\nOrt: Dellach im Gailtal\nPLZ: 9635\nKoordinaten: 46.662234, 13.079072\nTags: amenity=townhall, website=https://gemeinde.dellach.at/", "doc_type": "addresses"}
{"source": "OSM", "region": "Kärnten", "osm_type": "node", "osm_id": 5209993435, "name": "Fußpflege und Kosmetik Maier", "category": "shop:beauty", "address": "Dellach 66, 9635 Dellach im Gailtal", "street": "Dellach", "housenumber": "66", "postcode": "9635", "place": "Dellach im Gailtal", "lat": 46.662387, "lon": 13.0783067, "tags": {"addr:city": "Dellach im Gailtal", "addr:housenumber": "66", "addr:postcode": "9635", "addr:street": "Dellach", "name": "Fußpflege und Kosmetik Maier", "operator": "Bettina Maier", "shop": "beauty", "website": "http://www.kosmetik-zankl.at"}, "content": "Fußpflege und Kosmetik Maier\nKategorie: shop:beauty\nAdresse: Dellach 66, 9635 Dellach im Gailtal\nOrt: Dellach im Gailtal\nPLZ: 9635\nKoordinaten: 46.662387, 13.078307\nTags: shop=beauty, operator=Bettina Maier, website=http://www.kosmetik-zankl.at", "doc_type": "addresses"}
{"source": "OSM", "region": "Kärnten", "osm_type": "node", "osm_id": 5211473326, "name": "Volksschule", "category": "amenity:school", "address": "Dellach 122, 9635 Dellach im Gailtal", "street": "Dellach", "housenumber": "122", "postcode": "9635", "place": "Dellach im Gailtal", "lat": 46.6623357, "lon": 13.0759646, "tags": {"addr:city": "Dellach im Gailtal", "addr:housenumber": "122", "addr:postcode": "9635", "addr:street": "Dellach", "amenity": "school", "name": "Volksschule"}, "content": "Volksschule\nKategorie: amenity:school\nAdresse: Dellach 122, 9635 Dellach im Gailtal\nOrt: Dellach im Gailtal\nPLZ: 9635\nKoordinaten: 46.662336, 13.075965\nTags: amenity=school", "doc_type": "addresses"}
{"source": "OSM", "region": "Kärnten", "osm_type": "node", "osm_id": 5211473327, "name": "Kindergarten Dellach", "category": "amenity:kindergarten", "address": "Dellach 122, 9635 Dellach im Gailtal", "street": "Dellach", "housenumber": "122", "postcode": "9635", "place": "Dellach im Gailtal", "lat": 46.6625, "lon": 13.0760169, "tags": {"addr:city": "Dellach im Gailtal", "addr:housenumber": "122", "addr:postcode": "9635", "addr:street": "Dellach", "amenity": "kindergarten", "name": "Kindergarten Dellach"}, "content": "Kindergarten Dellach\nKategorie: amenity:kindergarten\nAdresse: Dellach 122, 9635 Dellach im Gailtal\nOrt: Dellach im Gailtal\nPLZ: 9635\nKoordinaten: 46.662500, 13.076017\nTags: amenity=kindergarten", "doc_type": "addresses"}
{"source": "OSM", "region": "Kärnten", "osm_type": "node", "osm_id": 665212685, "name": "Gemeindeamt Dellach", "category": "amenity:townhall", "address": "Dellach 123, 9635 Dellach im Gailtal", "street": "Dellach", "housenumber": "123", "postcode": "9635", "place": "Dellach im Gailtal", "lat": 46.6622342, "lon": 13.0790721, "tags": {"addr:city": "Dellach im Gailtal", "addr:housenumber": "123", "addr:postcode": "9635", "addr:street": "Dellach", "amenity": "townhall", "name": "Gemeindeamt Dellach", "website": "https://gemeinde.dellach.at/"}, "content": "Gemeindeamt Dellach\nKategorie: amenity:townhall\nAdresse: Dellach 123, 9635 Dellach im Gailtal\nOrt: Dellach im Gailtal\nPLZ: 9635\nKoordinaten: 46.662234, 13.079072\nTags: amenity=townhall, website=https://gemeinde.dellach.at/", "doc_type": "pois"}
{"source": "OSM", "region": "Kärnten", "osm_type": "node", "osm_id": 5209993435, "name": "Fußpflege und Kosmetik Maier", "category": "shop:beauty", "address": "Dellach 66, 9635 Dellach im Gailtal", "street": "Dellach", "housenumber": "66", "postcode": "9635", "place": "Dellach im Gailtal", "lat": 46.662387, "lon": 13.0783067, "tags": {"addr:city": "Dellach im Gailtal", "addr:housenumber": "66", "addr:postcode": "9635", "addr:street": "Dellach", "name": "Fußpflege und Kosmetik Maier", "operator": "Bettina Maier", "shop": "beauty", "website": "http://www.kosmetik-zankl.at"}, "content": "Fußpflege und Kosmetik Maier\nKategorie: shop:beauty\nAdresse: Dellach 66, 9635 Dellach im Gailtal\nOrt: Dellach im Gailtal\nPLZ: 9635\nKoordinaten: 46.662387, 13.078307\nTags: shop=beauty, operator=Bettina Maier, website=http://www.kosmetik-zankl.at", "doc_type": "pois"}
{"source": "OSM", "region": "Kärnten", "osm_type": "node", "osm_id": 5211473326, "name": "Volksschule", "category": "amenity:school", "address": "Dellach 122, 9635 Dellach im Gailtal", "street": "Dellach", "housenumber": "122", "postcode": "9635", "place": "Dellach im Gailtal", "lat": 46.6623357, "lon": 13.0759646, "tags": {"addr:city": "Dellach im Gailtal", "addr:housenumber": "122", "addr:postcode": "9635", "addr:street": "Dellach", "amenity": "school", "name": "Volksschule"}, "content": "Volksschule\nKategorie: amenity:school\nAdresse: Dellach 122, 9635 Dellach im Gailtal\nOrt: Dellach im Gailtal\nPLZ: 9635\nKoordinaten: 46.662336, 13.075965\nTags: amenity=school", "doc_type": "pois"}
{"source": "OSM", "region": "Kärnten", "osm_type": "node", "osm_id": 5211473327, "name": "Kindergarten Dellach", "category": "amenity:kindergarten", "address": "Dellach 122, 9635 Dellach im Gailtal", "street": "Dellach", "housenumber": "122", "postcode": "9635", "place": "Dellach im Gailtal", "lat": 46.6625, "lon": 13.0760169, "tags": {"addr:city": "Dellach im Gailtal", "addr:housenumber": "122", "addr:postcode": "9635", "addr:street": "Dellach", "amenity": "kindergarten", "name": "Kindergarten Dellach"}, "content": "Kindergarten Dellach\nKategorie: amenity:kindergarten\nAdresse: Dellach 122, 9635 Dellach im Gailtal\nOrt: Dellach im Gailtal\nPLZ: 9635\nKoordinaten: 46.662500, 13.076017\nTags: amenity=kindergarten", "doc_type": "pois"}
