{"source": "OSM", "region": "K채rnten", "osm_type": "node", "osm_id": 5393201212, "name": null, "category": null, "address": "Finkenweg 7a, 9560 Haiden", "street": "Finkenweg", "housenumber": "7a", "postcode": "9560", "place": "Haiden", "lat": 46.7447546, "lon": 14.1025287, "tags": {"addr:city": "Haiden", "addr:housenumber": "7a", "addr:postcode": "9560", "addr:street": "Finkenweg"}, "content": "Adresse: Finkenweg 7a, 9560 Haiden\nOrt: Haiden\nPLZ: 9560\nKoordinaten: 46.744755, 14.102529", "doc_type": "addresses"}
{"source": "OSM", "region": "K채rnten", "osm_type": "node", "osm_id": 5393201213, "name": null, "category": null, "address": "Finkenweg 7, 9560 Haiden", "street": "Finkenweg", "housenumber": "7", "postcode": "9560", "place": "Haiden", "lat": 46.7446337, "lon": 14.1024656, "tags": {"addr:city": "Haiden", "addr:housenumber": "7", "addr:postcode": "9560", "addr:street": "Finkenweg"}, "content": "Adresse: Finkenweg 7, 9560 Haiden\nOrt: Haiden\nPLZ: 9560\nKoordinaten: 46.744634, 14.102466", "doc_type": "addresses"}
{"source": "OSM", "region": "K채rnten", "osm_type": "node", "osm_id": 5393201214, "name": null, "category": null, "address": "Finkenweg 9, 9560 Haiden", "street": "Finkenweg", "housenumber": "9", "postcode": "9560", "place": "Haiden", "lat": 46.7445122, "lon": 14.1025857, "tags": {"addr:city": "Haiden", "addr:housenumber": "9", "addr:postcode": "9560", "addr:street": "Finkenweg"}, "content": "Adresse: Finkenweg 9, 9560 Haiden\nOrt: Haiden\nPLZ: 9560\nKoordinaten: 46.744512, 14.102586", "doc_type": "addresses"}
{"source": "OSM", "region": "K채rnten", "osm_type": "node", "osm_id": 5393201215, "name": null, "category": null, "address": "Finkenweg 9a, 9560 Haiden", "street": "Finkenweg", "housenumber": "9a", "postcode": "9560", "place": "Haiden", "lat": 46.7447316, "lon": 14.1027003, "tags": {"addr:city": "Haiden", "addr:housenumber": "9a", "addr:postcode": "9560", "addr:street": "Finkenweg"}, "content": "Adresse: Finkenweg 9a, 9560 Haiden\nOrt: Haiden\nPLZ: 9560\nKoordinaten: 46.744732, 14.102700", "doc_type": "addresses"}
