{"source": "OSM", "region": "Kärnten", "osm_type": "node", "osm_id": 5233793780, "name": null, "category": null, "address": "16, 9173 St. Margareten im Rosental", "street": null, "housenumber": "16", "postcode": "9173", "place": "St. Margareten im Rosental", "lat": 46.5459472, "lon": 14.4370242, "tags": {"addr:city": "St. Margareten im Rosental", "addr:housenumber": "16", "addr:place": "Gupf", "addr:postcode": "9173"}, "content": "Adresse: 16, 9173 St. Margareten im Rosental\nOrt: St. Margareten im Rosental\nPLZ: 9173\nKoordinaten: 46.545947, 14.437024", "doc_type": "addresses"}
{"source": "OSM", "region": "Kärnten", "osm_type": "node", "osm_id": 5233793785, "name": null, "category": null, "address": "28, 9173 St. Margareten im Rosental", "street": null, "housenumber": "28", "postcode": "9173", "place": "St. Margareten im Rosental", "lat": 46.5543354, "lon": 14.4171942, "tags": {"addr:city": "St. Margareten im Rosental", "addr:housenumber": "28", "addr:place": "Trieblach", "addr:postcode": "9173"}, "content": "Adresse: 28, 9173 St. Margareten im Rosental\nOrt: St. Margareten im Rosental\nPLZ: 9173\nKoordinaten: 46.554335, 14.417194", "doc_type": "addresses"}
{"source": "OSM", "region": "Kärnten", "osm_type": "node", "osm_id": 5234674504, "name": null, "category": null, "address": "12, 9173 St. Margareten im Rosental", "street": null, "housenumber": "12", "postcode": "9173", "place": "St. Margareten im Rosental", "lat": 46.5362616, "lon": 14.4593715, "tags": {"addr:city": "St. Margareten im Rosental", "addr:housenumber": "12", "addr:place": "Oberdörfl", "addr:postcode": "9173"}, "content": "Adresse: 12, 9173 St. Margareten im Rosental\nOrt: St. Margareten im Rosental\nPLZ: 9173\nKoordinaten: 46.536262, 14.459371", "doc_type": "addresses"}
