{"source": "OSM", "region": "Kärnten", "osm_type": "node", "osm_id": 340519773, "name": "9472 Ettendorf", "category": "amenity:post_office", "address": "3, 9472 Lavamünd", "street": null, "housenumber": "3", "postcode": "9472", "place": "Lavamünd", "lat": 46.6716425, "lon": 14.9485244, "tags": {"addr:city": "Lavamünd", "addr:housenumber": "3", "addr:place": "Ettendorf", "addr:postcode": "9472", "amenity": "post_office", "name": "9472 Ettendorf"}, "content": "9472 Ettendorf\nKategorie: amenity:post_office\nAdresse: 3, 9472 Lavamünd\nOrt: Lavamünd\nPLZ: 9472\nKoordinaten: 46.671642, 14.948524\nTags: amenity=post_office", "doc_type": "addresses"}
{"source": "OSM", "region": "Kärnten", "osm_type": "node", "osm_id": 2002436979, "name": "U-Boot", "category": "amenity:restaurant", "address": "Lavamünd 109, 9473 Lavamünd", "street": "Lavamünd", "housenumber": "109", "postcode": "9473", "place": "Lavamünd", "lat": 46.6478246, "lon": 14.9326378, "tags": {"addr:city": "Lavamünd", "addr:housenumber": "109", "addr:postcode": "9473", "addr:street": "Lavamünd", "amenity": "restaurant", "name": "U-Boot", "phone": "+43 650 4229194", "website": "http://www.badesee-lavamuend.at/restaurant.html"}, "content": "U-Boot\nKategorie: amenity:restaurant\nAdresse: Lavamünd 109, 9473 Lavamünd\nOrt: Lavamünd\nPLZ: 9473\nKoordinaten: 46.647825, 14.932638\nTags: amenity=restaurant, phone=+43 650 4229194, website=http://www.badesee-lavamuend.at/restaurant.html", "doc_type": "addresses"}
{"source": "OSM", "region": "Kärnten", "osm_type": "node", "osm_id": 2404765625, "name": "Gasthof Adlerwirt", "category": "amenity:restaurant", "address": "Lavamünd 46, 9473 Lavamünd", "street": "Lavamünd", "housenumber": "46", "postcode": "9473", "place": "Lavamünd", "lat": 46.641901, "lon": 14.9415067, "tags": {"addr:city": "Lavamünd", "addr:housenumber": "46", "addr:postcode": "9473", "addr:street": "Lavamünd", "amenity": "restaurant", "name": "Gasthof Adlerwirt", "phone": "+43 4356 2242"}, "content": "Gasthof Adlerwirt\nKategorie: amenity:restaurant\nAdresse: Lavamünd 46, 9473 Lavamünd\nOrt: Lavamünd\nPLZ: 9473\nKoordinaten: 46.641901, 14.941507\nTags: amenity=restaurant, phone=+43 4356 2242", "doc_type": "addresses"}
{"source": "OSM", "region": "Kärnten", "osm_type": "node", "osm_id": 2404765626, "name": "Gasthof Torwirt", "category": "amenity:restaurant", "address": "Lavamünd 45, 9473 Lavamünd", "street": "Lavamünd", "housenumber": "45", "postcode": "9473", "place": "Lavamünd", "lat": 46.6420572, "lon": 14.9412613, "tags": {"addr:city": "Lavamünd", "addr:housenumber": "45", "addr:postcode": "9473", "addr:street": "Lavamünd", "amenity": "restaurant", "name": "Gasthof Torwirt", "phone": "+43 4356 2228", "tourism": "hotel", "website": "https://www.torwirt.at/"}, "content": "Gasthof Torwirt\nKategorie: amenity:restaurant\nAdresse: Lavamünd 45, 9473 Lavamünd\nOrt: Lavamünd\nPLZ: 9473\nKoordinaten: 46.642057, 14.941261\nTags: amenity=restaurant, phone=+43 4356 2228, website=https://www.torwirt.at/", "doc_type": "addresses"}
{"source": "OSM", "region": "Kärnten", "osm_type": "node", "osm_id": 3697681072, "name": "Salberger", "category": "shop:weapons", "address": "Lavamünd 21, 9473 Lavamünd", "street": "Lavamünd", "housenumber": "21", "postcode": "9473", "place": "Lavamünd", "lat": 46.6418713, "lon": 14.9410974, "tags": {"addr:city": "Lavamünd", "addr:housenumber": "21", "addr:postcode": "9473", "addr:street": "Lavamünd", "name": "Salberger", "operator": "Gerhard Christian Salberger", "phone": "+43 4356 2360", "shop": "weapons", "website": "http://www.salberger.at/"}, "content": "Salberger\nKategorie: shop:weapons\nAdresse: Lavamünd 21, 9473 Lavamünd\nOrt: Lavamünd\nPLZ: 9473\nKoordinaten: 46.641871, 14.941097\nTags: shop=weapons, operator=Gerhard Christian Salberger, phone=+43 4356 2360, website=http://www.salberger.at/", "doc_type": "addresses"}
{"source": "OSM", "region": "Kärnten", "osm_type": "node", "osm_id": 3899927499, "name": null, "category": null, "address": "Zeil 1, 9473 Lavamünd", "street": "Zeil", "housenumber": "1", "postcode": "9473", "place": "Lavamünd", "lat": 46.6604844, "lon": 14.9111399, "tags": {"addr:city": "Lavamünd", "addr:housenumber": "1", "addr:postcode": "9473", "addr:street": "Zeil"}, "content": "Adresse: Zeil 1, 9473 Lavamünd\nOrt: Lavamünd\nPLZ: 9473\nKoordinaten: 46.660484, 14.911140", "doc_type": "addresses"}
{"source": "OSM", "region": "Kärnten", "osm_type": "node", "osm_id": 3899927500, "name": null, "category": null, "address": "Zeil 3, 9473 Lavamünd", "street": "Zeil", "housenumber": "3", "postcode": "9473", "place": "Lavamünd", "lat": 46.6616408, "lon": 14.9071818, "tags": {"addr:city": "Lavamünd", "addr:housenumber": "3", "addr:postcode": "9473", "addr:street": "Zeil"}, "content": "Adresse: Zeil 3, 9473 Lavamünd\nOrt: Lavamünd\nPLZ: 9473\nKoordinaten: 46.661641, 14.907182", "doc_type": "addresses"}
{"source": "OSM", "region": "Kärnten", "osm_type": "node", "osm_id": 3899927501, "name": null, "category": null, "address": "Zeil 4, 9473 Lavamünd", "street": "Zeil", "housenumber": "4", "postcode": "9473", "place": "Lavamünd", "lat": 46.6606001, "lon": 14.9046591, "tags": {"addr:city": "Lavamünd", "addr:housenumber": "4", "addr:postcode": "9473", "addr:street": "Zeil"}, "content": "Adresse: Zeil 4, 9473 Lavamünd\nOrt: Lavamünd\nPLZ: 9473\nKoordinaten: 46.660600, 14.904659", "doc_type": "addresses"}
{"source": "OSM", "region": "Kärnten", "osm_type": "node", "osm_id": 3900811077, "name": "ADEG", "category": "shop:supermarket", "address": "Lavamünd 19, 9473 Lavamünd", "street": "Lavamünd", "housenumber": "19", "postcode": "9473", "place": "Lavamünd", "lat": 46.6417383, "lon": 14.9412814, "tags": {"addr:city": "Lavamünd", "addr:housenumber": "19", "addr:postcode": "9473", "addr:street": "Lavamünd", "brand": "ADEG", "name": "ADEG", "phone": "+435621113", "shop": "supermarket"}, "content": "ADEG\nKategorie: shop:supermarket\nAdresse: Lavamünd 19, 9473 Lavamünd\nOrt: Lavamünd\nPLZ: 9473\nKoordinaten: 46.641738, 14.941281\nTags: shop=supermarket, brand=ADEG, phone=+435621113", "doc_type": "addresses"}
{"source": "OSM", "region": "Kärnten", "osm_type": "node", "osm_id": 3900811078, "name": "Autohaus Töfferl", "category": "shop:car_repair", "address": "Lavamünd 23, 9473 Lavamünd", "street": "Lavamünd", "housenumber": "23", "postcode": "9473", "place": "Lavamünd", "lat": 46.6421087, "lon": 14.9407737, "tags": {"addr:city": "Lavamünd", "addr:housenumber": "23", "addr:postcode": "9473", "addr:street": "Lavamünd", "name": "Autohaus Töfferl", "phone": "+4343562470", "shop": "car_repair", "website": "www.autohaus-toefferl.at"}, "content": "Autohaus Töfferl\nKategorie: shop:car_repair\nAdresse: Lavamünd 23, 9473 Lavamünd\nOrt: Lavamünd\nPLZ: 9473\nKoordinaten: 46.642109, 14.940774\nTags: shop=car_repair, phone=+4343562470, website=www.autohaus-toefferl.at", "doc_type": "addresses"}
{"source": "OSM", "region": "Kärnten", "osm_type": "node", "osm_id": 3900811079, "name": "Billa", "category": "shop:supermarket", "address": "101, 9473 Lavamünd", "street": null, "housenumber": "101", "postcode": "9473", "place": "Lavamünd", "lat": 46.6411622, "lon": 14.946972, "tags": {"addr:city": "Lavamünd", "addr:housenumber": "101", "addr:place": "Pfarrdorf", "addr:postcode": "9473", "brand": "Billa", "name": "Billa", "shop": "supermarket"}, "content": "Billa\nKategorie: shop:supermarket\nAdresse: 101, 9473 Lavamünd\nOrt: Lavamünd\nPLZ: 9473\nKoordinaten: 46.641162, 14.946972\nTags: shop=supermarket, brand=Billa", "doc_type": "addresses"}
{"source": "OSM", "region": "Kärnten", "osm_type": "node", "osm_id": 3900811081, "name": "Cafe Bettina - S'Krügerl", "category": "amenity:pub", "address": "Lavamünd 40, 9473 Lavamünd", "street": "Lavamünd", "housenumber": "40", "postcode": "9473", "place": "Lavamünd", "lat": 46.6426572, "lon": 14.9406753, "tags": {"addr:city": "Lavamünd", "addr:housenumber": "40", "addr:postcode": "9473", "addr:street": "Lavamünd", "amenity": "pub", "name": "Cafe Bettina - S'Krügerl", "phone": "+4343562314", "website": "www.skruegerl.at"}, "content": "Cafe Bettina - S'Krügerl\nKategorie: amenity:pub\nAdresse: Lavamünd 40, 9473 Lavamünd\nOrt: Lavamünd\nPLZ: 9473\nKoordinaten: 46.642657, 14.940675\nTags: amenity=pub, phone=+4343562314, website=www.skruegerl.at", "doc_type": "addresses"}
{"source": "OSM", "region": "Kärnten", "osm_type": "node", "osm_id": 3900811082, "name": "Cafe Kramer", "category": "amenity:cafe", "address": "Lavamünd 16, 9473 Lavamünd", "street": "Lavamünd", "housenumber": "16", "postcode": "9473", "place": "Lavamünd", "lat": 46.6415728, "lon": 14.9415039, "tags": {"addr:city": "Lavamünd", "addr:housenumber": "16", "addr:postcode": "9473", "addr:street": "Lavamünd", "amenity": "cafe", "name": "Cafe Kramer", "phone": "+434356 2249"}, "content": "Cafe Kramer\nKategorie: amenity:cafe\nAdresse: Lavamünd 16, 9473 Lavamünd\nOrt: Lavamünd\nPLZ: 9473\nKoordinaten: 46.641573, 14.941504\nTags: amenity=cafe, phone=+434356 2249", "doc_type": "addresses"}
{"source": "OSM", "region": "Kärnten", "osm_type": "node", "osm_id": 3900811083, "name": "Dr. Heike Pölz", "category": "amenity:doctors", "address": "Lavamünd 24, 9473 Lavamünd", "street": "Lavamünd", "housenumber": "24", "postcode": "9473", "place": "Lavamünd", "lat": 46.6422102, "lon": 14.9405444, "tags": {"addr:city": "Lavamünd", "addr:housenumber": "24", "addr:postcode": "9473", "addr:street": "Lavamünd", "amenity": "doctors", "name": "Dr. Heike Pölz"}, "content": "Dr. Heike Pölz\nKategorie: amenity:doctors\nAdresse: Lavamünd 24, 9473 Lavamünd\nOrt: Lavamünd\nPLZ: 9473\nKoordinaten: 46.642210, 14.940544\nTags: amenity=doctors", "doc_type": "addresses"}
{"source": "OSM", "region": "Kärnten", "osm_type": "node", "osm_id": 3900811084, "name": "Friseur Melinda", "category": "shop:hairdresser", "address": "Lavamünd 26, 9473 Lavamünd", "street": "Lavamünd", "housenumber": "26", "postcode": "9473", "place": "Lavamünd", "lat": 46.6427083, "lon": 14.9398501, "tags": {"addr:city": "Lavamünd", "addr:housenumber": "26", "addr:postcode": "9473", "addr:street": "Lavamünd", "name": "Friseur Melinda", "phone": "+434356227", "shop": "hairdresser"}, "content": "Friseur Melinda\nKategorie: shop:hairdresser\nAdresse: Lavamünd 26, 9473 Lavamünd\nOrt: Lavamünd\nPLZ: 9473\nKoordinaten: 46.642708, 14.939850\nTags: shop=hairdresser, phone=+434356227", "doc_type": "addresses"}
{"source": "OSM", "region": "Kärnten", "osm_type": "node", "osm_id": 3900811085, "name": "GH Hüttenwirt", "category": "amenity:restaurant", "address": "1, 9473 Lavamünd", "street": null, "housenumber": "1", "postcode": "9473", "place": "Lavamünd", "lat": 46.636217, "lon": 14.9555673, "tags": {"addr:city": "Lavamünd", "addr:housenumber": "1", "addr:place": "Pfarrdorf", "addr:postcode": "9473", "amenity": "restaurant", "name": "GH Hüttenwirt", "tourism": "hotel"}, "content": "GH Hüttenwirt\nKategorie: amenity:restaurant\nAdresse: 1, 9473 Lavamünd\nOrt: Lavamünd\nPLZ: 9473\nKoordinaten: 46.636217, 14.955567\nTags: amenity=restaurant", "doc_type": "addresses"}
{"source": "OSM", "region": "Kärnten", "osm_type": "node", "osm_id": 3900811086, "name": "GH Krone", "category": "amenity:restaurant", "address": "Lavamünd 15, 9473 Lavamünd", "street": "Lavamünd", "housenumber": "15", "postcode": "9473", "place": "Lavamünd", "lat": 46.6414543, "lon": 14.9417014, "tags": {"addr:city": "Lavamünd", "addr:housenumber": "15", "addr:postcode": "9473", "addr:street": "Lavamünd", "amenity": "restaurant", "name": "GH Krone", "phone": "+4343562295", "tourism": "hotel", "website": "www.gasthaus-krone.at"}, "content": "GH Krone\nKategorie: amenity:restaurant\nAdresse: Lavamünd 15, 9473 Lavamünd\nOrt: Lavamünd\nPLZ: 9473\nKoordinaten: 46.641454, 14.941701\nTags: amenity=restaurant, phone=+4343562295, website=www.gasthaus-krone.at", "doc_type": "addresses"}
{"source": "OSM", "region": "Kärnten", "osm_type": "node", "osm_id": 3900811087, "name": "Gemeindeamt Lavamünd", "category": "amenity:townhall", "address": "Lavamünd 65, 9473 Lavamünd", "street": "Lavamünd", "housenumber": "65", "postcode": "9473", "place": "Lavamünd", "lat": 46.6412027, "lon": 14.9422763, "tags": {"addr:city": "Lavamünd", "addr:housenumber": "65", "addr:postcode": "9473", "addr:street": "Lavamünd", "amenity": "townhall", "name": "Gemeindeamt Lavamünd", "phone": "+434356 2555-0", "website": "https://lavamuend.at/"}, "content": "Gemeindeamt Lavamünd\nKategorie: amenity:townhall\nAdresse: Lavamünd 65, 9473 Lavamünd\nOrt: Lavamünd\nPLZ: 9473\nKoordinaten: 46.641203, 14.942276\nTags: amenity=townhall, phone=+434356 2555-0, website=https://lavamuend.at/", "doc_type": "addresses"}
{"source": "OSM", "region": "Kärnten", "osm_type": "node", "osm_id": 3900811088, "name": "Mittelschule Lavamünd", "category": "amenity:school", "address": "Lavamünd 92, 9473 Lavamünd", "street": "Lavamünd", "housenumber": "92", "postcode": "9473", "place": "Lavamünd", "lat": 46.6421498, "lon": 14.9446302, "tags": {"addr:city": "Lavamünd", "addr:housenumber": "92", "addr:postcode": "9473", "addr:street": "Lavamünd", "amenity": "school", "name": "Mittelschule Lavamünd", "website": "https://www.ms-lavamuend.at/"}, "content": "Mittelschule Lavamünd\nKategorie: amenity:school\nAdresse: Lavamünd 92, 9473 Lavamünd\nOrt: Lavamünd\nPLZ: 9473\nKoordinaten: 46.642150, 14.944630\nTags: amenity=school, website=https://www.ms-lavamuend.at/", "doc_type": "addresses"}
{"source": "OSM", "region": "Kärnten", "osm_type": "node", "osm_id": 3900811090, "name": "Red Zac Lehner", "category": "shop:electronics", "address": "Lavamünd 44, 9473 Lavamünd", "street": "Lavamünd", "housenumber": "44", "postcode": "9473", "place": "Lavamünd", "lat": 46.6421792, "lon": 14.9410129, "tags": {"addr:city": "Lavamünd", "addr:housenumber": "44", "addr:postcode": "9473", "addr:street": "Lavamünd", "brand": "Red Zac", "name": "Red Zac Lehner", "phone": "+43 4356 5009", "shop": "electronics", "website": "https://www.mahkovec.at/"}, "content": "Red Zac Lehner\nKategorie: shop:electronics\nAdresse: Lavamünd 44, 9473 Lavamünd\nOrt: Lavamünd\nPLZ: 9473\nKoordinaten: 46.642179, 14.941013\nTags: shop=electronics, brand=Red Zac, phone=+43 4356 5009, website=https://www.mahkovec.at/", "doc_type": "addresses"}
{"source": "OSM", "region": "Kärnten", "osm_type": "node", "osm_id": 3900811093, "name": "Polizeiinspektion Lavamünd", "category": "amenity:police", "address": "100, 9473 Lavamünd", "street": null, "housenumber": "100", "postcode": "9473", "place": "Lavamünd", "lat": 46.6441524, "lon": 14.9409103, "tags": {"addr:city": "Lavamünd", "addr:housenumber": "100", "addr:place": "Lavamünd", "addr:postcode": "9473", "amenity": "police", "name": "Polizeiinspektion Lavamünd", "phone": "+43 59133 2162100"}, "content": "Polizeiinspektion Lavamünd\nKategorie: amenity:police\nAdresse: 100, 9473 Lavamünd\nOrt: Lavamünd\nPLZ: 9473\nKoordinaten: 46.644152, 14.940910\nTags: amenity=police, phone=+43 59133 2162100", "doc_type": "addresses"}
{"source": "OSM", "region": "Kärnten", "osm_type": "node", "osm_id": 3900811094, "name": "Post Partner Töfferl", "category": "amenity:post_office", "address": "Lavamünd 23, 9473 Lavamünd", "street": "Lavamünd", "housenumber": "23", "postcode": "9473", "place": "Lavamünd", "lat": 46.6420932, "lon": 14.9407595, "tags": {"addr:city": "Lavamünd", "addr:housenumber": "23", "addr:postcode": "9473", "addr:street": "Lavamünd", "amenity": "post_office", "name": "Post Partner Töfferl", "phone": "+4343562470"}, "content": "Post Partner Töfferl\nKategorie: amenity:post_office\nAdresse: Lavamünd 23, 9473 Lavamünd\nOrt: Lavamünd\nPLZ: 9473\nKoordinaten: 46.642093, 14.940760\nTags: amenity=post_office, phone=+4343562470", "doc_type": "addresses"}
{"source": "OSM", "region": "Kärnten", "osm_type": "node", "osm_id": 3900811976, "name": "Raiffeisen", "category": "amenity:bank", "address": "Lavamünd 41, 9473 Lavamünd", "street": "Lavamünd", "housenumber": "41", "postcode": "9473", "place": "Lavamünd", "lat": 46.6424033, "lon": 14.9406507, "tags": {"addr:city": "Lavamünd", "addr:housenumber": "41", "addr:postcode": "9473", "addr:street": "Lavamünd", "amenity": "bank", "brand": "Raiffeisen", "name": "Raiffeisen"}, "content": "Raiffeisen\nKategorie: amenity:bank\nAdresse: Lavamünd 41, 9473 Lavamünd\nOrt: Lavamünd\nPLZ: 9473\nKoordinaten: 46.642403, 14.940651\nTags: amenity=bank, brand=Raiffeisen", "doc_type": "addresses"}
{"source": "OSM", "region": "Kärnten", "osm_type": "node", "osm_id": 3900811977, "name": "Sander", "category": "shop:car_repair", "address": "Lavamünd 12, 9473 Lavamünd", "street": "Lavamünd", "housenumber": "12", "postcode": "9473", "place": "Lavamünd", "lat": 46.6413159, "lon": 14.9427003, "tags": {"addr:city": "Lavamünd", "addr:housenumber": "12", "addr:postcode": "9473", "addr:street": "Lavamünd", "name": "Sander", "phone": "+4343562315", "shop": "car_repair"}, "content": "Sander\nKategorie: shop:car_repair\nAdresse: Lavamünd 12, 9473 Lavamünd\nOrt: Lavamünd\nPLZ: 9473\nKoordinaten: 46.641316, 14.942700\nTags: shop=car_repair, phone=+4343562315", "doc_type": "addresses"}
{"source": "OSM", "region": "Kärnten", "osm_type": "node", "osm_id": 3900811978, "name": "Schuhe Sarny", "category": "shop:shoes", "address": "Lavamünd 48, 9473 Lavamünd", "street": "Lavamünd", "housenumber": "48", "postcode": "9473", "place": "Lavamünd", "lat": 46.6417234, "lon": 14.941774, "tags": {"addr:city": "Lavamünd", "addr:housenumber": "48", "addr:postcode": "9473", "addr:street": "Lavamünd", "name": "Schuhe Sarny", "phone": "+4343562351", "shop": "shoes", "website": "http://schuhe-sarny.at"}, "content": "Schuhe Sarny\nKategorie: shop:shoes\nAdresse: Lavamünd 48, 9473 Lavamünd\nOrt: Lavamünd\nPLZ: 9473\nKoordinaten: 46.641723, 14.941774\nTags: shop=shoes, phone=+4343562351, website=http://schuhe-sarny.at", "doc_type": "addresses"}
{"source": "OSM", "region": "Kärnten", "osm_type": "node", "osm_id": 3900811979, "name": "Sparkasse", "category": "amenity:bank", "address": "Lavamünd 47, 9473 Lavamünd", "street": "Lavamünd", "housenumber": "47", "postcode": "9473", "place": "Lavamünd", "lat": 46.6417689, "lon": 14.9416972, "tags": {"addr:city": "Lavamünd", "addr:housenumber": "47", "addr:postcode": "9473", "addr:street": "Lavamünd", "amenity": "bank", "name": "Sparkasse", "phone": "+435 0100-30886"}, "content": "Sparkasse\nKategorie: amenity:bank\nAdresse: Lavamünd 47, 9473 Lavamünd\nOrt: Lavamünd\nPLZ: 9473\nKoordinaten: 46.641769, 14.941697\nTags: amenity=bank, phone=+435 0100-30886", "doc_type": "addresses"}
{"source": "OSM", "region": "Kärnten", "osm_type": "node", "osm_id": 3900811980, "name": "Trafik Offner", "category": "shop:stationery", "address": "Lavamünd 22, 9473 Lavamünd", "street": "Lavamünd", "housenumber": "22", "postcode": "9473", "place": "Lavamünd", "lat": 46.6419498, "lon": 14.9409662, "tags": {"addr:city": "Lavamünd", "addr:housenumber": "22", "addr:postcode": "9473", "addr:street": "Lavamünd", "name": "Trafik Offner", "shop": "stationery"}, "content": "Trafik Offner\nKategorie: shop:stationery\nAdresse: Lavamünd 22, 9473 Lavamünd\nOrt: Lavamünd\nPLZ: 9473\nKoordinaten: 46.641950, 14.940966\nTags: shop=stationery", "doc_type": "addresses"}
{"source": "OSM", "region": "Kärnten", "osm_type": "node", "osm_id": 3900811981, "name": "Volksschule Lavamünd", "category": "amenity:school", "address": "Lavamünd 35, 9473 Lavamünd", "street": "Lavamünd", "housenumber": "35", "postcode": "9473", "place": "Lavamünd", "lat": 46.6434398, "lon": 14.9405398, "tags": {"addr:city": "Lavamünd", "addr:housenumber": "35", "addr:postcode": "9473", "addr:street": "Lavamünd", "amenity": "school", "name": "Volksschule Lavamünd"}, "content": "Volksschule Lavamünd\nKategorie: amenity:school\nAdresse: Lavamünd 35, 9473 Lavamünd\nOrt: Lavamünd\nPLZ: 9473\nKoordinaten: 46.643440, 14.940540\nTags: amenity=school", "doc_type": "addresses"}
{"source": "OSM", "region": "Kärnten", "osm_type": "node", "osm_id": 3900811982, "name": "Zahnarzt Dr. Baumgartner", "category": "amenity:dentist", "address": "Lavamünd 62, 9473 Lavamünd", "street": "Lavamünd", "housenumber": "62", "postcode": "9473", "place": "Lavamünd", "lat": 46.6415124, "lon": 14.9452152, "tags": {"addr:city": "Lavamünd", "addr:housenumber": "62", "addr:postcode": "9473", "addr:street": "Lavamünd", "amenity": "dentist", "name": "Zahnarzt Dr. Baumgartner", "phone": "+4343563065"}, "content": "Zahnarzt Dr. Baumgartner\nKategorie: amenity:dentist\nAdresse: Lavamünd 62, 9473 Lavamünd\nOrt: Lavamünd\nPLZ: 9473\nKoordinaten: 46.641512, 14.945215\nTags: amenity=dentist, phone=+4343563065", "doc_type": "addresses"}
{"source": "OSM", "region": "Kärnten", "osm_type": "node", "osm_id": 3900811983, "name": "Dr. Karin Klade", "category": "amenity:doctors", "address": "Lavamünd 36, 9473 Lavamünd", "street": "Lavamünd", "housenumber": "36", "postcode": "9473", "place": "Lavamünd", "lat": 46.642884, "lon": 14.9400552, "tags": {"addr:city": "Lavamünd", "addr:housenumber": "36", "addr:postcode": "9473", "addr:street": "Lavamünd", "amenity": "doctors", "healthcare": "doctor", "name": "Dr. Karin Klade"}, "content": "Dr. Karin Klade\nKategorie: amenity:doctors\nAdresse: Lavamünd 36, 9473 Lavamünd\nOrt: Lavamünd\nPLZ: 9473\nKoordinaten: 46.642884, 14.940055\nTags: amenity=doctors, healthcare=doctor", "doc_type": "addresses"}
{"source": "OSM", "region": "Kärnten", "osm_type": "node", "osm_id": 340519773, "name": "9472 Ettendorf", "category": "amenity:post_office", "address": "3, 9472 Lavamünd", "street": null, "housenumber": "3", "postcode": "9472", "place": "Lavamünd", "lat": 46.6716425, "lon": 14.9485244, "tags": {"addr:city": "Lavamünd", "addr:housenumber": "3", "addr:place": "Ettendorf", "addr:postcode": "9472", "amenity": "post_office", "name": "9472 Ettendorf"}, "content": "9472 Ettendorf\nKategorie: amenity:post_office\nAdresse: 3, 9472 Lavamünd\nOrt: Lavamünd\nPLZ: 9472\nKoordinaten: 46.671642, 14.948524\nTags: amenity=post_office", "doc_type": "pois"}
{"source": "OSM", "region": "Kärnten", "osm_type": "node", "osm_id": 2002436979, "name": "U-Boot", "category": "amenity:restaurant", "address": "Lavamünd 109, 9473 Lavamünd", "street": "Lavamünd", "housenumber": "109", "postcode": "9473", "place": "Lavamünd", "lat": 46.6478246, "lon": 14.9326378, "tags": {"addr:city": "Lavamünd", "addr:housenumber": "109", "addr:postcode": "9473", "addr:street": "Lavamünd", "amenity": "restaurant", "name": "U-Boot", "phone": "+43 650 4229194", "website": "http://www.badesee-lavamuend.at/restaurant.html"}, "content": "U-Boot\nKategorie: amenity:restaurant\nAdresse: Lavamünd 109, 9473 Lavamünd\nOrt: Lavamünd\nPLZ: 9473\nKoordinaten: 46.647825, 14.932638\nTags: amenity=restaurant, phone=+43 650 4229194, website=http://www.badesee-lavamuend.at/restaurant.html", "doc_type": "pois"}
{"source": "OSM", "region": "Kärnten", "osm_type": "node", "osm_id": 2404765625, "name": "Gasthof Adlerwirt", "category": "amenity:restaurant", "address": "Lavamünd 46, 9473 Lavamünd", "street": "Lavamünd", "housenumber": "46", "postcode": "9473", "place": "Lavamünd", "lat": 46.641901, "lon": 14.9415067, "tags": {"addr:city": "Lavamünd", "addr:housenumber": "46", "addr:postcode": "9473", "addr:street": "Lavamünd", "amenity": "restaurant", "name": "Gasthof Adlerwirt", "phone": "+43 4356 2242"}, "content": "Gasthof Adlerwirt\nKategorie: amenity:restaurant\nAdresse: Lavamünd 46, 9473 Lavamünd\nOrt: Lavamünd\nPLZ: 9473\nKoordinaten: 46.641901, 14.941507\nTags: amenity=restaurant, phone=+43 4356 2242", "doc_type": "pois"}
{"source": "OSM", "region": "Kärnten", "osm_type": "node", "osm_id": 2404765626, "name": "Gasthof Torwirt", "category": "amenity:restaurant", "address": "Lavamünd 45, 9473 Lavamünd", "street": "Lavamünd", "housenumber": "45", "postcode": "9473", "place": "Lavamünd", "lat": 46.6420572, "lon": 14.9412613, "tags": {"addr:city": "Lavamünd", "addr:housenumber": "45", "addr:postcode": "9473", "addr:street": "Lavamünd", "amenity": "restaurant", "name": "Gasthof Torwirt", "phone": "+43 4356 2228", "tourism": "hotel", "website": "https://www.torwirt.at/"}, "content": "Gasthof Torwirt\nKategorie: amenity:restaurant\nAdresse: Lavamünd 45, 9473 Lavamünd\nOrt: Lavamünd\nPLZ: 9473\nKoordinaten: 46.642057, 14.941261\nTags: amenity=restaurant, phone=+43 4356 2228, website=https://www.torwirt.at/", "doc_type": "pois"}
{"source": "OSM", "region": "Kärnten", "osm_type": "node", "osm_id": 3697681072, "name": "Salberger", "category": "shop:weapons", "address": "Lavamünd 21, 9473 Lavamünd", "street": "Lavamünd", "housenumber": "21", "postcode": "9473", "place": "Lavamünd", "lat": 46.6418713, "lon": 14.9410974, "tags": {"addr:city": "Lavamünd", "addr:housenumber": "21", "addr:postcode": "9473", "addr:street": "Lavamünd", "name": "Salberger", "operator": "Gerhard Christian Salberger", "phone": "+43 4356 2360", "shop": "weapons", "website": "http://www.salberger.at/"}, "content": "Salberger\nKategorie: shop:weapons\nAdresse: Lavamünd 21, 9473 Lavamünd\nOrt: Lavamünd\nPLZ: 9473\nKoordinaten: 46.641871, 14.941097\nTags: shop=weapons, operator=Gerhard Christian Salberger, phone=+43 4356 2360, website=http://www.salberger.at/", "doc_type": "pois"}
{"source": "OSM", "region": "Kärnten", "osm_type": "node", "osm_id": 3900811077, "name": "ADEG", "category": "shop:supermarket", "address": "Lavamünd 19, 9473 Lavamünd", "street": "Lavamünd", "housenumber": "19", "postcode": "9473", "place": "Lavamünd", "lat": 46.6417383, "lon": 14.9412814, "tags": {"addr:city": "Lavamünd", "addr:housenumber": "19", "addr:postcode": "9473", "addr:street": "Lavamünd", "brand": "ADEG", "name": "ADEG", "phone": "+435621113", "shop": "supermarket"}, "content": "ADEG\nKategorie: shop:supermarket\nAdresse: Lavamünd 19, 9473 Lavamünd\nOrt: Lavamünd\nPLZ: 9473\nKoordinaten: 46.641738, 14.941281\nTags: shop=supermarket, brand=ADEG, phone=+435621113", "doc_type": "pois"}
{"source": "OSM", "region": "Kärnten", "osm_type": "node", "osm_id": 3900811078, "name": "Autohaus Töfferl", "category": "shop:car_repair", "address": "Lavamünd 23, 9473 Lavamünd", "street": "Lavamünd", "housenumber": "23", "postcode": "9473", "place": "Lavamünd", "lat": 46.6421087, "lon": 14.9407737, "tags": {"addr:city": "Lavamünd", "addr:housenumber": "23", "addr:postcode": "9473", "addr:street": "Lavamünd", "name": "Autohaus Töfferl", "phone": "+4343562470", "shop": "car_repair", "website": "www.autohaus-toefferl.at"}, "content": "Autohaus Töfferl\nKategorie: shop:car_repair\nAdresse: Lavamünd 23, 9473 Lavamünd\nOrt: Lavamünd\nPLZ: 9473\nKoordinaten: 46.642109, 14.940774\nTags: shop=car_repair, phone=+4343562470, website=www.autohaus-toefferl.at", "doc_type": "pois"}
{"source": "OSM", "region": "Kärnten", "osm_type": "node", "osm_id": 3900811079, "name": "Billa", "category": "shop:supermarket", "address": "101, 9473 Lavamünd", "street": null, "housenumber": "101", "postcode": "9473", "place": "Lavamünd", "lat": 46.6411622, "lon": 14.946972, "tags": {"addr:city": "Lavamünd", "addr:housenumber": "101", "addr:place": "Pfarrdorf", "addr:postcode": "9473", "brand": "Billa", "name": "Billa", "shop": "supermarket"}, "content": "Billa\nKategorie: shop:supermarket\nAdresse: 101, 9473 Lavamünd\nOrt: Lavamünd\nPLZ: 9473\nKoordinaten: 46.641162, 14.946972\nTags: shop=supermarket, brand=Billa", "doc_type": "pois"}
{"source": "OSM", "region": "Kärnten", "osm_type": "node", "osm_id": 3900811081, "name": "Cafe Bettina - S'Krügerl", "category": "amenity:pub", "address": "Lavamünd 40, 9473 Lavamünd", "street": "Lavamünd", "housenumber": "40", "postcode": "9473", "place": "Lavamünd", "lat": 46.6426572, "lon": 14.9406753, "tags": {"addr:city": "Lavamünd", "addr:housenumber": "40", "addr:postcode": "9473", "addr:street": "Lavamünd", "amenity": "pub", "name": "Cafe Bettina - S'Krügerl", "phone": "+4343562314", "website": "www.skruegerl.at"}, "content": "Cafe Bettina - S'Krügerl\nKategorie: amenity:pub\nAdresse: Lavamünd 40, 9473 Lavamünd\nOrt: Lavamünd\nPLZ: 9473\nKoordinaten: 46.642657, 14.940675\nTags: amenity=pub, phone=+4343562314, website=www.skruegerl.at", "doc_type": "pois"}
{"source": "OSM", "region": "Kärnten", "osm_type": "node", "osm_id": 3900811082, "name": "Cafe Kramer", "category": "amenity:cafe", "address": "Lavamünd 16, 9473 Lavamünd", "street": "Lavamünd", "housenumber": "16", "postcode": "9473", "place": "Lavamünd", "lat": 46.6415728, "lon": 14.9415039, "tags": {"addr:city": "Lavamünd", "addr:housenumber": "16", "addr:postcode": "9473", "addr:street": "Lavamünd", "amenity": "cafe", "name": "Cafe Kramer", "phone": "+434356 2249"}, "content": "Cafe Kramer\nKategorie: amenity:cafe\nAdresse: Lavamünd 16, 9473 Lavamünd\nOrt: Lavamünd\nPLZ: 9473\nKoordinaten: 46.641573, 14.941504\nTags: amenity=cafe, phone=+434356 2249", "doc_type": "pois"}
{"source": "OSM", "region": "Kärnten", "osm_type": "node", "osm_id": 3900811083, "name": "Dr. Heike Pölz", "category": "amenity:doctors", "address": "Lavamünd 24, 9473 Lavamünd", "street": "Lavamünd", "housenumber": "24", "postcode": "9473", "place": "Lavamünd", "lat": 46.6422102, "lon": 14.9405444, "tags": {"addr:city": "Lavamünd", "addr:housenumber": "24", "addr:postcode": "9473", "addr:street": "Lavamünd", "amenity": "doctors", "name": "Dr. Heike Pölz"}, "content": "Dr. Heike Pölz\nKategorie: amenity:doctors\nAdresse: Lavamünd 24, 9473 Lavamünd\nOrt: Lavamünd\nPLZ: 9473\nKoordinaten: 46.642210, 14.940544\nTags: amenity=doctors", "doc_type": "pois"}
{"source": "OSM", "region": "Kärnten", "osm_type": "node", "osm_id": 3900811084, "name": "Friseur Melinda", "category": "shop:hairdresser", "address": "Lavamünd 26, 9473 Lavamünd", "street": "Lavamünd", "housenumber": "26", "postcode": "9473", "place": "Lavamünd", "lat": 46.6427083, "lon": 14.9398501, "tags": {"addr:city": "Lavamünd", "addr:housenumber": "26", "addr:postcode": "9473", "addr:street": "Lavamünd", "name": "Friseur Melinda", "phone": "+434356227", "shop": "hairdresser"}, "content": "Friseur Melinda\nKategorie: shop:hairdresser\nAdresse: Lavamünd 26, 9473 Lavamünd\nOrt: Lavamünd\nPLZ: 9473\nKoordinaten: 46.642708, 14.939850\nTags: shop=hairdresser, phone=+434356227", "doc_type": "pois"}
{"source": "OSM", "region": "Kärnten", "osm_type": "node", "osm_id": 3900811085, "name": "GH Hüttenwirt", "category": "amenity:restaurant", "address": "1, 9473 Lavamünd", "street": null, "housenumber": "1", "postcode": "9473", "place": "Lavamünd", "lat": 46.636217, "lon": 14.9555673, "tags": {"addr:city": "Lavamünd", "addr:housenumber": "1", "addr:place": "Pfarrdorf", "addr:postcode": "9473", "amenity": "restaurant", "name": "GH Hüttenwirt", "tourism": "hotel"}, "content": "GH Hüttenwirt\nKategorie: amenity:restaurant\nAdresse: 1, 9473 Lavamünd\nOrt: Lavamünd\nPLZ: 9473\nKoordinaten: 46.636217, 14.955567\nTags: amenity=restaurant", "doc_type": "pois"}
{"source": "OSM", "region": "Kärnten", "osm_type": "node", "osm_id": 3900811086, "name": "GH Krone", "category": "amenity:restaurant", "address": "Lavamünd 15, 9473 Lavamünd", "street": "Lavamünd", "housenumber": "15", "postcode": "9473", "place": "Lavamünd", "lat": 46.6414543, "lon": 14.9417014, "tags": {"addr:city": "Lavamünd", "addr:housenumber": "15", "addr:postcode": "9473", "addr:street": "Lavamünd", "amenity": "restaurant", "name": "GH Krone", "phone": "+4343562295", "tourism": "hotel", "website": "www.gasthaus-krone.at"}, "content": "GH Krone\nKategorie: amenity:restaurant\nAdresse: Lavamünd 15, 9473 Lavamünd\nOrt: Lavamünd\nPLZ: 9473\nKoordinaten: 46.641454, 14.941701\nTags: amenity=restaurant, phone=+4343562295, website=www.gasthaus-krone.at", "doc_type": "pois"}
{"source": "OSM", "region": "Kärnten", "osm_type": "node", "osm_id": 3900811087, "name": "Gemeindeamt Lavamünd", "category": "amenity:townhall", "address": "Lavamünd 65, 9473 Lavamünd", "street": "Lavamünd", "housenumber": "65", "postcode": "9473", "place": "Lavamünd", "lat": 46.6412027, "lon": 14.9422763, "tags": {"addr:city": "Lavamünd", "addr:housenumber": "65", "addr:postcode": "9473", "addr:street": "Lavamünd", "amenity": "townhall", "name": "Gemeindeamt Lavamünd", "phone": "+434356 2555-0", "website": "https://lavamuend.at/"}, "content": "Gemeindeamt Lavamünd\nKategorie: amenity:townhall\nAdresse: Lavamünd 65, 9473 Lavamünd\nOrt: Lavamünd\nPLZ: 9473\nKoordinaten: 46.641203, 14.942276\nTags: amenity=townhall, phone=+434356 2555-0, website=https://lavamuend.at/", "doc_type": "pois"}
{"source": "OSM", "region": "Kärnten", "osm_type": "node", "osm_id": 3900811088, "name": "Mittelschule Lavamünd", "category": "amenity:school", "address": "Lavamünd 92, 9473 Lavamünd", "street": "Lavamünd", "housenumber": "92", "postcode": "9473", "place": "Lavamünd", "lat": 46.6421498, "lon": 14.9446302, "tags": {"addr:city": "Lavamünd", "addr:housenumber": "92", "addr:postcode": "9473", "addr:street": "Lavamünd", "amenity": "school", "name": "Mittelschule Lavamünd", "website": "https://www.ms-lavamuend.at/"}, "content": "Mittelschule Lavamünd\nKategorie: amenity:school\nAdresse: Lavamünd 92, 9473 Lavamünd\nOrt: Lavamünd\nPLZ: 9473\nKoordinaten: 46.642150, 14.944630\nTags: amenity=school, website=https://www.ms-lavamuend.at/", "doc_type": "pois"}
{"source": "OSM", "region": "Kärnten", "osm_type": "node", "osm_id": 3900811090, "name": "Red Zac Lehner", "category": "shop:electronics", "address": "Lavamünd 44, 9473 Lavamünd", "street": "Lavamünd", "housenumber": "44", "postcode": "9473", "place": "Lavamünd", "lat": 46.6421792, "lon": 14.9410129, "tags": {"addr:city": "Lavamünd", "addr:housenumber": "44", "addr:postcode": "9473", "addr:street": "Lavamünd", "brand": "Red Zac", "name": "Red Zac Lehner", "phone": "+43 4356 5009", "shop": "electronics", "website": "https://www.mahkovec.at/"}, "content": "Red Zac Lehner\nKategorie: shop:electronics\nAdresse: Lavamünd 44, 9473 Lavamünd\nOrt: Lavamünd\nPLZ: 9473\nKoordinaten: 46.642179, 14.941013\nTags: shop=electronics, brand=Red Zac, phone=+43 4356 5009, website=https://www.mahkovec.at/", "doc_type": "pois"}
{"source": "OSM", "region": "Kärnten", "osm_type": "node", "osm_id": 3900811093, "name": "Polizeiinspektion Lavamünd", "category": "amenity:police", "address": "100, 9473 Lavamünd", "street": null, "housenumber": "100", "postcode": "9473", "place": "Lavamünd", "lat": 46.6441524, "lon": 14.9409103, "tags": {"addr:city": "Lavamünd", "addr:housenumber": "100", "addr:place": "Lavamünd", "addr:postcode": "9473", "amenity": "police", "name": "Polizeiinspektion Lavamünd", "phone": "+43 59133 2162100"}, "content": "Polizeiinspektion Lavamünd\nKategorie: amenity:police\nAdresse: 100, 9473 Lavamünd\nOrt: Lavamünd\nPLZ: 9473\nKoordinaten: 46.644152, 14.940910\nTags: amenity=police, phone=+43 59133 2162100", "doc_type": "pois"}
{"source": "OSM", "region": "Kärnten", "osm_type": "node", "osm_id": 3900811094, "name": "Post Partner Töfferl", "category": "amenity:post_office", "address": "Lavamünd 23, 9473 Lavamünd", "street": "Lavamünd", "housenumber": "23", "postcode": "9473", "place": "Lavamünd", "lat": 46.6420932, "lon": 14.9407595, "tags": {"addr:city": "Lavamünd", "addr:housenumber": "23", "addr:postcode": "9473", "addr:street": "Lavamünd", "amenity": "post_office", "name": "Post Partner Töfferl", "phone": "+4343562470"}, "content": "Post Partner Töfferl\nKategorie: amenity:post_office\nAdresse: Lavamünd 23, 9473 Lavamünd\nOrt: Lavamünd\nPLZ: 9473\nKoordinaten: 46.642093, 14.940760\nTags: amenity=post_office, phone=+4343562470", "doc_type": "pois"}
{"source": "OSM", "region": "Kärnten", "osm_type": "node", "osm_id": 3900811976, "name": "Raiffeisen", "category": "amenity:bank", "address": "Lavamünd 41, 9473 Lavamünd", "street": "Lavamünd", "housenumber": "41", "postcode": "9473", "place": "Lavamünd", "lat": 46.6424033, "lon": 14.9406507, "tags": {"addr:city": "Lavamünd", "addr:housenumber": "41", "addr:postcode": "9473", "addr:street": "Lavamünd", "amenity": "bank", "brand": "Raiffeisen", "name": "Raiffeisen"}, "content": "Raiffeisen\nKategorie: amenity:bank\nAdresse: Lavamünd 41, 9473 Lavamünd\nOrt: Lavamünd\nPLZ: 9473\nKoordinaten: 46.642403, 14.940651\nTags: amenity=bank, brand=Raiffeisen", "doc_type": "pois"}
{"source": "OSM", "region": "Kärnten", "osm_type": "node", "osm_id": 3900811977, "name": "Sander", "category": "shop:car_repair", "address": "Lavamünd 12, 9473 Lavamünd", "street": "Lavamünd", "housenumber": "12", "postcode": "9473", "place": "Lavamünd", "lat": 46.6413159, "lon": 14.9427003, "tags": {"addr:city": "Lavamünd", "addr:housenumber": "12", "addr:postcode": "9473", "addr:street": "Lavamünd", "name": "Sander", "phone": "+4343562315", "shop": "car_repair"}, "content": "Sander\nKategorie: shop:car_repair\nAdresse: Lavamünd 12, 9473 Lavamünd\nOrt: Lavamünd\nPLZ: 9473\nKoordinaten: 46.641316, 14.942700\nTags: shop=car_repair, phone=+4343562315", "doc_type": "pois"}
{"source": "OSM", "region": "Kärnten", "osm_type": "node", "osm_id": 3900811978, "name": "Schuhe Sarny", "category": "shop:shoes", "address": "Lavamünd 48, 9473 Lavamünd", "street": "Lavamünd", "housenumber": "48", "postcode": "9473", "place": "Lavamünd", "lat": 46.6417234, "lon": 14.941774, "tags": {"addr:city": "Lavamünd", "addr:housenumber": "48", "addr:postcode": "9473", "addr:street": "Lavamünd", "name": "Schuhe Sarny", "phone": "+4343562351", "shop": "shoes", "website": "http://schuhe-sarny.at"}, "content": "Schuhe Sarny\nKategorie: shop:shoes\nAdresse: Lavamünd 48, 9473 Lavamünd\nOrt: Lavamünd\nPLZ: 9473\nKoordinaten: 46.641723, 14.941774\nTags: shop=shoes, phone=+4343562351, website=http://schuhe-sarny.at", "doc_type": "pois"}
{"source": "OSM", "region": "Kärnten", "osm_type": "node", "osm_id": 3900811979, "name": "Sparkasse", "category": "amenity:bank", "address": "Lavamünd 47, 9473 Lavamünd", "street": "Lavamünd", "housenumber": "47", "postcode": "9473", "place": "Lavamünd", "lat": 46.6417689, "lon": 14.9416972, "tags": {"addr:city": "Lavamünd", "addr:housenumber": "47", "addr:postcode": "9473", "addr:street": "Lavamünd", "amenity": "bank", "name": "Sparkasse", "phone": "+435 0100-30886"}, "content": "Sparkasse\nKategorie: amenity:bank\nAdresse: Lavamünd 47, 9473 Lavamünd\nOrt: Lavamünd\nPLZ: 9473\nKoordinaten: 46.641769, 14.941697\nTags: amenity=bank, phone=+435 0100-30886", "doc_type": "pois"}
{"source": "OSM", "region": "Kärnten", "osm_type": "node", "osm_id": 3900811980, "name": "Trafik Offner", "category": "shop:stationery", "address": "Lavamünd 22, 9473 Lavamünd", "street": "Lavamünd", "housenumber": "22", "postcode": "9473", "place": "Lavamünd", "lat": 46.6419498, "lon": 14.9409662, "tags": {"addr:city": "Lavamünd", "addr:housenumber": "22", "addr:postcode": "9473", "addr:street": "Lavamünd", "name": "Trafik Offner", "shop": "stationery"}, "content": "Trafik Offner\nKategorie: shop:stationery\nAdresse: Lavamünd 22, 9473 Lavamünd\nOrt: Lavamünd\nPLZ: 9473\nKoordinaten: 46.641950, 14.940966\nTags: shop=stationery", "doc_type": "pois"}
{"source": "OSM", "region": "Kärnten", "osm_type": "node", "osm_id": 3900811981, "name": "Volksschule Lavamünd", "category": "amenity:school", "address": "Lavamünd 35, 9473 Lavamünd", "street": "Lavamünd", "housenumber": "35", "postcode": "9473", "place": "Lavamünd", "lat": 46.6434398, "lon": 14.9405398, "tags": {"addr:city": "Lavamünd", "addr:housenumber": "35", "addr:postcode": "9473", "addr:street": "Lavamünd", "amenity": "school", "name": "Volksschule Lavamünd"}, "content": "Volksschule Lavamünd\nKategorie: amenity:school\nAdresse: Lavamünd 35, 9473 Lavamünd\nOrt: Lavamünd\nPLZ: 9473\nKoordinaten: 46.643440, 14.940540\nTags: amenity=school", "doc_type": "pois"}
{"source": "OSM", "region": "Kärnten", "osm_type": "node", "osm_id": 3900811982, "name": "Zahnarzt Dr. Baumgartner", "category": "amenity:dentist", "address": "Lavamünd 62, 9473 Lavamünd", "street": "Lavamünd", "housenumber": "62", "postcode": "9473", "place": "Lavamünd", "lat": 46.6415124, "lon": 14.9452152, "tags": {"addr:city": "Lavamünd", "addr:housenumber": "62", "addr:postcode": "9473", "addr:street": "Lavamünd", "amenity": "dentist", "name": "Zahnarzt Dr. Baumgartner", "phone": "+4343563065"}, "content": "Zahnarzt Dr. Baumgartner\nKategorie: amenity:dentist\nAdresse: Lavamünd 62, 9473 Lavamünd\nOrt: Lavamünd\nPLZ: 9473\nKoordinaten: 46.641512, 14.945215\nTags: amenity=dentist, phone=+4343563065", "doc_type": "pois"}
{"source": "OSM", "region": "Kärnten", "osm_type": "node", "osm_id": 3900811983, "name": "Dr. Karin Klade", "category": "amenity:doctors", "address": "Lavamünd 36, 9473 Lavamünd", "street": "Lavamünd", "housenumber": "36", "postcode": "9473", "place": "Lavamünd", "lat": 46.642884, "lon": 14.9400552, "tags": {"addr:city": "Lavamünd", "addr:housenumber": "36", "addr:postcode": "9473", "addr:street": "Lavamünd", "amenity": "doctors", "healthcare": "doctor", "name": "Dr. Karin Klade"}, "content": "Dr. Karin Klade\nKategorie: amenity:doctors\nAdresse: Lavamünd 36, 9473 Lavamünd\nOrt: Lavamünd\nPLZ: 9473\nKoordinaten: 46.642884, 14.940055\nTags: amenity=doctors, healthcare=doctor", "doc_type": "pois"}
