{"source": "OSM", "region": "Kärnten", "osm_type": "node", "osm_id": 5373662024, "name": null, "category": null, "address": "Oberer Leitenweg 3, 9560 Waiern", "street": "Oberer Leitenweg", "housenumber": "3", "postcode": "9560", "place": "Waiern", "lat": 46.7332689, "lon": 14.0885146, "tags": {"addr:city": "Waiern", "addr:housenumber": "3", "addr:postcode": "9560", "addr:street": "Oberer Leitenweg"}, "content": "Adresse: Oberer Leitenweg 3, 9560 Waiern\nOrt: Waiern\nPLZ: 9560\nKoordinaten: 46.733269, 14.088515", "doc_type": "addresses"}
{"source": "OSM", "region": "Kärnten", "osm_type": "node", "osm_id": 5373662025, "name": null, "category": null, "address": "Martin-Luther-Straße 8, 9560 Waiern", "street": "Martin-Luther-Straße", "housenumber": "8", "postcode": "9560", "place": "Waiern", "lat": 46.7322756, "lon": 14.0844814, "tags": {"addr:city": "Waiern", "addr:housenumber": "8", "addr:postcode": "9560", "addr:street": "Martin-Luther-Straße"}, "content": "Adresse: Martin-Luther-Straße 8, 9560 Waiern\nOrt: Waiern\nPLZ: 9560\nKoordinaten: 46.732276, 14.084481", "doc_type": "addresses"}
{"source": "OSM", "region": "Kärnten", "osm_type": "node", "osm_id": 5373662038, "name": null, "category": null, "address": "Dr.-W.-Domenig-Weg 37, 9560 Waiern", "street": "Dr.-W.-Domenig-Weg", "housenumber": "37", "postcode": "9560", "place": "Waiern", "lat": 46.7278553, "lon": 14.0823197, "tags": {"addr:city": "Waiern", "addr:housenumber": "37", "addr:postcode": "9560", "addr:street": "Dr.-W.-Domenig-Weg"}, "content": "Adresse: Dr.-W.-Domenig-Weg 37, 9560 Waiern\nOrt: Waiern\nPLZ: 9560\nKoordinaten: 46.727855, 14.082320", "doc_type": "addresses"}
{"source": "OSM", "region": "Kärnten", "osm_type": "node", "osm_id": 5373662039, "name": null, "category": null, "address": "Dr.-W.-Domenig-Weg 31, 9560 Waiern", "street": "Dr.-W.-Domenig-Weg", "housenumber": "31", "postcode": "9560", "place": "Waiern", "lat": 46.7276131, "lon": 14.082505, "tags": {"addr:city": "Waiern", "addr:housenumber": "31", "addr:postcode": "9560", "addr:street": "Dr.-W.-Domenig-Weg"}, "content": "Adresse: Dr.-W.-Domenig-Weg 31, 9560 Waiern\nOrt: Waiern\nPLZ: 9560\nKoordinaten: 46.727613, 14.082505", "doc_type": "addresses"}
{"source": "OSM", "region": "Kärnten", "osm_type": "node", "osm_id": 5373662040, "name": null, "category": null, "address": "Dr.-W.-Domenig-Weg 41, 9560 Waiern", "street": "Dr.-W.-Domenig-Weg", "housenumber": "41", "postcode": "9560", "place": "Waiern", "lat": 46.7283515, "lon": 14.0832791, "tags": {"addr:city": "Waiern", "addr:housenumber": "41", "addr:postcode": "9560", "addr:street": "Dr.-W.-Domenig-Weg"}, "content": "Adresse: Dr.-W.-Domenig-Weg 41, 9560 Waiern\nOrt: Waiern\nPLZ: 9560\nKoordinaten: 46.728352, 14.083279", "doc_type": "addresses"}
{"source": "OSM", "region": "Kärnten", "osm_type": "node", "osm_id": 5373662041, "name": null, "category": null, "address": "Dr.-W.-Domenig-Weg 39, 9560 Waiern", "street": "Dr.-W.-Domenig-Weg", "housenumber": "39", "postcode": "9560", "place": "Waiern", "lat": 46.7282139, "lon": 14.0829413, "tags": {"addr:city": "Waiern", "addr:housenumber": "39", "addr:postcode": "9560", "addr:street": "Dr.-W.-Domenig-Weg"}, "content": "Adresse: Dr.-W.-Domenig-Weg 39, 9560 Waiern\nOrt: Waiern\nPLZ: 9560\nKoordinaten: 46.728214, 14.082941", "doc_type": "addresses"}
{"source": "OSM", "region": "Kärnten", "osm_type": "node", "osm_id": 5373662042, "name": null, "category": null, "address": "Dr.-W.-Domenig-Weg 35, 9560 Waiern", "street": "Dr.-W.-Domenig-Weg", "housenumber": "35", "postcode": "9560", "place": "Waiern", "lat": 46.7280074, "lon": 14.0826286, "tags": {"addr:city": "Waiern", "addr:housenumber": "35", "addr:postcode": "9560", "addr:street": "Dr.-W.-Domenig-Weg"}, "content": "Adresse: Dr.-W.-Domenig-Weg 35, 9560 Waiern\nOrt: Waiern\nPLZ: 9560\nKoordinaten: 46.728007, 14.082629", "doc_type": "addresses"}
{"source": "OSM", "region": "Kärnten", "osm_type": "node", "osm_id": 5373662043, "name": null, "category": null, "address": "Dr.-W.-Domenig-Weg 33, 9560 Waiern", "street": "Dr.-W.-Domenig-Weg", "housenumber": "33", "postcode": "9560", "place": "Waiern", "lat": 46.7280055, "lon": 14.0831396, "tags": {"addr:city": "Waiern", "addr:housenumber": "33", "addr:postcode": "9560", "addr:street": "Dr.-W.-Domenig-Weg"}, "content": "Adresse: Dr.-W.-Domenig-Weg 33, 9560 Waiern\nOrt: Waiern\nPLZ: 9560\nKoordinaten: 46.728006, 14.083140", "doc_type": "addresses"}
{"source": "OSM", "region": "Kärnten", "osm_type": "node", "osm_id": 5373662044, "name": null, "category": null, "address": "Dr.-W.-Domenig-Weg 29, 9560 Waiern", "street": "Dr.-W.-Domenig-Weg", "housenumber": "29", "postcode": "9560", "place": "Waiern", "lat": 46.7277865, "lon": 14.0828486, "tags": {"addr:city": "Waiern", "addr:housenumber": "29", "addr:postcode": "9560", "addr:street": "Dr.-W.-Domenig-Weg"}, "content": "Adresse: Dr.-W.-Domenig-Weg 29, 9560 Waiern\nOrt: Waiern\nPLZ: 9560\nKoordinaten: 46.727787, 14.082849", "doc_type": "addresses"}
