{"source": "OSM", "region": "Kärnten", "osm_type": "node", "osm_id": 340517276, "name": "Postpartner 9611, Marktgemeinde", "category": "amenity:post_office", "address": "222, 9611 Nötsch im Gailtal", "street": null, "housenumber": "222", "postcode": "9611", "place": "Nötsch im Gailtal", "lat": 46.5904515, "lon": 13.6210935, "tags": {"addr:city": "Nötsch im Gailtal", "addr:housenumber": "222", "addr:place": "Nötsch", "addr:postcode": "9611", "amenity": "post_office", "name": "Postpartner 9611, Marktgemeinde"}, "content": "Postpartner 9611, Marktgemeinde\nKategorie: amenity:post_office\nAdresse: 222, 9611 Nötsch im Gailtal\nOrt: Nötsch im Gailtal\nPLZ: 9611\nKoordinaten: 46.590452, 13.621094\nTags: amenity=post_office", "doc_type": "addresses"}
{"source": "OSM", "region": "Kärnten", "osm_type": "node", "osm_id": 2099526313, "name": "ADEG Markt Kovsca", "category": "shop:supermarket", "address": "Nötsch im Gailtal 64, 9611 Nötsch im Gailtal", "street": "Nötsch im Gailtal", "housenumber": "64", "postcode": "9611", "place": "Nötsch im Gailtal", "lat": 46.5898938, "lon": 13.6234142, "tags": {"addr:city": "Nötsch im Gailtal", "addr:housenumber": "64", "addr:postcode": "9611", "addr:street": "Nötsch im Gailtal", "brand": "ADEG", "name": "ADEG Markt Kovsca", "shop": "supermarket"}, "content": "ADEG Markt Kovsca\nKategorie: shop:supermarket\nAdresse: Nötsch im Gailtal 64, 9611 Nötsch im Gailtal\nOrt: Nötsch im Gailtal\nPLZ: 9611\nKoordinaten: 46.589894, 13.623414\nTags: shop=supermarket, brand=ADEG", "doc_type": "addresses"}
{"source": "OSM", "region": "Kärnten", "osm_type": "node", "osm_id": 2869810382, "name": "Flugplatz Nötsch", "category": null, "address": "262, 9611 Nötsch im Gailtal", "street": null, "housenumber": "262", "postcode": "9611", "place": "Nötsch im Gailtal", "lat": 46.5807935, "lon": 13.6298561, "tags": {"addr:city": "Nötsch im Gailtal", "addr:housenumber": "262", "addr:place": "Nötsch", "addr:postcode": "9611", "name": "Flugplatz Nötsch", "operator": "Flugsportverein Nötsch", "website": "https://www.lokn.at/"}, "content": "Flugplatz Nötsch\nAdresse: 262, 9611 Nötsch im Gailtal\nOrt: Nötsch im Gailtal\nPLZ: 9611\nKoordinaten: 46.580793, 13.629856\nTags: operator=Flugsportverein Nötsch, website=https://www.lokn.at/", "doc_type": "addresses"}
{"source": "OSM", "region": "Kärnten", "osm_type": "node", "osm_id": 340517276, "name": "Postpartner 9611, Marktgemeinde", "category": "amenity:post_office", "address": "222, 9611 Nötsch im Gailtal", "street": null, "housenumber": "222", "postcode": "9611", "place": "Nötsch im Gailtal", "lat": 46.5904515, "lon": 13.6210935, "tags": {"addr:city": "Nötsch im Gailtal", "addr:housenumber": "222", "addr:place": "Nötsch", "addr:postcode": "9611", "amenity": "post_office", "name": "Postpartner 9611, Marktgemeinde"}, "content": "Postpartner 9611, Marktgemeinde\nKategorie: amenity:post_office\nAdresse: 222, 9611 Nötsch im Gailtal\nOrt: Nötsch im Gailtal\nPLZ: 9611\nKoordinaten: 46.590452, 13.621094\nTags: amenity=post_office", "doc_type": "pois"}
{"source": "OSM", "region": "Kärnten", "osm_type": "node", "osm_id": 2099526313, "name": "ADEG Markt Kovsca", "category": "shop:supermarket", "address": "Nötsch im Gailtal 64, 9611 Nötsch im Gailtal", "street": "Nötsch im Gailtal", "housenumber": "64", "postcode": "9611", "place": "Nötsch im Gailtal", "lat": 46.5898938, "lon": 13.6234142, "tags": {"addr:city": "Nötsch im Gailtal", "addr:housenumber": "64", "addr:postcode": "9611", "addr:street": "Nötsch im Gailtal", "brand": "ADEG", "name": "ADEG Markt Kovsca", "shop": "supermarket"}, "content": "ADEG Markt Kovsca\nKategorie: shop:supermarket\nAdresse: Nötsch im Gailtal 64, 9611 Nötsch im Gailtal\nOrt: Nötsch im Gailtal\nPLZ: 9611\nKoordinaten: 46.589894, 13.623414\nTags: shop=supermarket, brand=ADEG", "doc_type": "pois"}
