{"source": "OSM", "region": "Kärnten", "osm_type": "node", "osm_id": 2912658822, "name": "Archäologischer Park Magdalensberg", "category": "tourism:museum", "address": "Magdalensberg 15, 9064 Magdalensberg", "street": "Magdalensberg", "housenumber": "15", "postcode": "9064", "place": "Magdalensberg", "lat": 46.7246968, "lon": 14.4294112, "tags": {"addr:city": "Magdalensberg", "addr:housenumber": "15", "addr:postcode": "9064", "addr:street": "Magdalensberg", "name": "Archäologischer Park Magdalensberg", "tourism": "museum"}, "content": "Archäologischer Park Magdalensberg\nKategorie: tourism:museum\nAdresse: Magdalensberg 15, 9064 Magdalensberg\nOrt: Magdalensberg\nPLZ: 9064\nKoordinaten: 46.724697, 14.429411", "doc_type": "addresses"}
{"source": "OSM", "region": "Kärnten", "osm_type": "node", "osm_id": 4213796691, "name": "Kohlweisshof", "category": "leisure:horse_riding", "address": "Kleingörtschach 4, 9064 Magdalensberg", "street": "Kleingörtschach", "housenumber": "4", "postcode": "9064", "place": "Magdalensberg", "lat": 46.684008, "lon": 14.4320865, "tags": {"addr:city": "Magdalensberg", "addr:housenumber": "4", "addr:postcode": "9064", "addr:street": "Kleingörtschach", "leisure": "horse_riding", "name": "Kohlweisshof"}, "content": "Kohlweisshof\nKategorie: leisure:horse_riding\nAdresse: Kleingörtschach 4, 9064 Magdalensberg\nOrt: Magdalensberg\nPLZ: 9064\nKoordinaten: 46.684008, 14.432087", "doc_type": "addresses"}
{"source": "OSM", "region": "Kärnten", "osm_type": "node", "osm_id": 4609401942, "name": null, "category": null, "address": "Ottmanacher Straße 2, 9064 Magdalensberg", "street": "Ottmanacher Straße", "housenumber": "2", "postcode": "9064", "place": "Magdalensberg", "lat": 46.6884503, "lon": 14.4566944, "tags": {"addr:city": "Magdalensberg", "addr:housenumber": "2", "addr:place": "Pischeldorf", "addr:postcode": "9064", "addr:street": "Ottmanacher Straße"}, "content": "Adresse: Ottmanacher Straße 2, 9064 Magdalensberg\nOrt: Magdalensberg\nPLZ: 9064\nKoordinaten: 46.688450, 14.456694", "doc_type": "addresses"}
{"source": "OSM", "region": "Kärnten", "osm_type": "node", "osm_id": 4918931122, "name": null, "category": null, "address": "Portendorf 1, 9064 Magdalensberg", "street": "Portendorf", "housenumber": "1", "postcode": "9064", "place": "Magdalensberg", "lat": 46.6512764, "lon": 14.3738425, "tags": {"addr:city": "Magdalensberg", "addr:housenumber": "1", "addr:postcode": "9064", "addr:street": "Portendorf"}, "content": "Adresse: Portendorf 1, 9064 Magdalensberg\nOrt: Magdalensberg\nPLZ: 9064\nKoordinaten: 46.651276, 14.373843", "doc_type": "addresses"}
{"source": "OSM", "region": "Kärnten", "osm_type": "node", "osm_id": 4918931124, "name": null, "category": null, "address": "Torfweg 2, 9064 Magdalensberg", "street": "Torfweg", "housenumber": "2", "postcode": "9064", "place": "Magdalensberg", "lat": 46.6885835, "lon": 14.4631733, "tags": {"addr:city": "Magdalensberg", "addr:housenumber": "2", "addr:postcode": "9064", "addr:street": "Torfweg"}, "content": "Adresse: Torfweg 2, 9064 Magdalensberg\nOrt: Magdalensberg\nPLZ: 9064\nKoordinaten: 46.688584, 14.463173", "doc_type": "addresses"}
{"source": "OSM", "region": "Kärnten", "osm_type": "node", "osm_id": 4918964779, "name": null, "category": null, "address": "4, 9064 Magdalensberg", "street": null, "housenumber": "4", "postcode": "9064", "place": "Magdalensberg", "lat": 46.6663313, "lon": 14.4363496, "tags": {"addr:city": "Magdalensberg", "addr:housenumber": "4", "addr:place": "Sillebrücke", "addr:postcode": "9064"}, "content": "Adresse: 4, 9064 Magdalensberg\nOrt: Magdalensberg\nPLZ: 9064\nKoordinaten: 46.666331, 14.436350", "doc_type": "addresses"}
{"source": "OSM", "region": "Kärnten", "osm_type": "node", "osm_id": 4918964780, "name": null, "category": null, "address": "12, 9064 Magdalensberg", "street": null, "housenumber": "12", "postcode": "9064", "place": "Magdalensberg", "lat": 46.6617073, "lon": 14.4427307, "tags": {"addr:city": "Magdalensberg", "addr:housenumber": "12", "addr:place": "Sillebrücke", "addr:postcode": "9064"}, "content": "Adresse: 12, 9064 Magdalensberg\nOrt: Magdalensberg\nPLZ: 9064\nKoordinaten: 46.661707, 14.442731", "doc_type": "addresses"}
{"source": "OSM", "region": "Kärnten", "osm_type": "node", "osm_id": 4919257169, "name": null, "category": null, "address": "Sonnwendgasse 5a, 9064 Magdalensberg", "street": "Sonnwendgasse", "housenumber": "5a", "postcode": "9064", "place": "Magdalensberg", "lat": 46.6689192, "lon": 14.4109036, "tags": {"addr:city": "Magdalensberg", "addr:housenumber": "5a", "addr:postcode": "9064", "addr:street": "Sonnwendgasse"}, "content": "Adresse: Sonnwendgasse 5a, 9064 Magdalensberg\nOrt: Magdalensberg\nPLZ: 9064\nKoordinaten: 46.668919, 14.410904", "doc_type": "addresses"}
{"source": "OSM", "region": "Kärnten", "osm_type": "node", "osm_id": 2912658822, "name": "Archäologischer Park Magdalensberg", "category": "tourism:museum", "address": "Magdalensberg 15, 9064 Magdalensberg", "street": "Magdalensberg", "housenumber": "15", "postcode": "9064", "place": "Magdalensberg", "lat": 46.7246968, "lon": 14.4294112, "tags": {"addr:city": "Magdalensberg", "addr:housenumber": "15", "addr:postcode": "9064", "addr:street": "Magdalensberg", "name": "Archäologischer Park Magdalensberg", "tourism": "museum"}, "content": "Archäologischer Park Magdalensberg\nKategorie: tourism:museum\nAdresse: Magdalensberg 15, 9064 Magdalensberg\nOrt: Magdalensberg\nPLZ: 9064\nKoordinaten: 46.724697, 14.429411", "doc_type": "pois"}
{"source": "OSM", "region": "Kärnten", "osm_type": "node", "osm_id": 4213796691, "name": "Kohlweisshof", "category": "leisure:horse_riding", "address": "Kleingörtschach 4, 9064 Magdalensberg", "street": "Kleingörtschach", "housenumber": "4", "postcode": "9064", "place": "Magdalensberg", "lat": 46.684008, "lon": 14.4320865, "tags": {"addr:city": "Magdalensberg", "addr:housenumber": "4", "addr:postcode": "9064", "addr:street": "Kleingörtschach", "leisure": "horse_riding", "name": "Kohlweisshof"}, "content": "Kohlweisshof\nKategorie: leisure:horse_riding\nAdresse: Kleingörtschach 4, 9064 Magdalensberg\nOrt: Magdalensberg\nPLZ: 9064\nKoordinaten: 46.684008, 14.432087", "doc_type": "pois"}
