{"source": "OSM", "region": "Kärnten", "osm_type": "node", "osm_id": 1235664619, "name": "\"Das kleine Restaurant\" im Warmbaderhof", "category": "amenity:restaurant", "address": "Kadischenallee 22-24, 9500 Villach Warmbad", "street": "Kadischenallee", "housenumber": "22-24", "postcode": "9500", "place": "Villach Warmbad", "lat": 46.5891009, "lon": 13.8261985, "tags": {"addr:city": "Villach Warmbad", "addr:housenumber": "22-24", "addr:postcode": "9500", "addr:street": "Kadischenallee", "amenity": "restaurant", "name": "\"Das kleine Restaurant\" im Warmbaderhof", "phone": "+43 4242 3001 1283", "website": "https://www.warmbaderhof.com/kulinarik/kleine-restaurant.html"}, "content": "\"Das kleine Restaurant\" im Warmbaderhof\nKategorie: amenity:restaurant\nAdresse: Kadischenallee 22-24, 9500 Villach Warmbad\nOrt: Villach Warmbad\nPLZ: 9500\nKoordinaten: 46.589101, 13.826199\nTags: amenity=restaurant, phone=+43 4242 3001 1283, website=https://www.warmbaderhof.com/kulinarik/kleine-restaurant.html", "doc_type": "addresses"}
{"source": "OSM", "region": "Kärnten", "osm_type": "node", "osm_id": 1239627100, "name": "Kurzentrum Therme Warmbad", "category": "amenity:health_centre", "address": "Kadischenallee 26, 9504 Villach Warmbad", "street": "Kadischenallee", "housenumber": "26", "postcode": "9504", "place": "Villach Warmbad", "lat": 46.5876073, "lon": 13.8265228, "tags": {"addr:city": "Villach Warmbad", "addr:housenumber": "26", "addr:postcode": "9504", "addr:street": "Kadischenallee", "amenity": "health_centre", "healthcare": "rehabilitation", "name": "Kurzentrum Therme Warmbad", "phone": "+43 4242 30011273", "website": "http://www.med-warmbad.at/Kurzentrum/"}, "content": "Kurzentrum Therme Warmbad\nKategorie: amenity:health_centre\nAdresse: Kadischenallee 26, 9504 Villach Warmbad\nOrt: Villach Warmbad\nPLZ: 9504\nKoordinaten: 46.587607, 13.826523\nTags: amenity=health_centre, healthcare=rehabilitation, phone=+43 4242 30011273, website=http://www.med-warmbad.at/Kurzentrum/", "doc_type": "addresses"}
{"source": "OSM", "region": "Kärnten", "osm_type": "node", "osm_id": 4273036552, "name": "\"Cafe Konditorei\" im Hotel Warmbaderhof", "category": "amenity:cafe", "address": "Kadischenallee 22-24, 9504 Villach Warmbad", "street": "Kadischenallee", "housenumber": "22-24", "postcode": "9504", "place": "Villach Warmbad", "lat": 46.5887899, "lon": 13.8263002, "tags": {"addr:city": "Villach Warmbad", "addr:housenumber": "22-24", "addr:postcode": "9504", "addr:street": "Kadischenallee", "amenity": "cafe", "name": "\"Cafe Konditorei\" im Hotel Warmbaderhof", "phone": "+43 4242 3001 1573", "website": "https://www.warmbaderhof.com/kulinarik/cafe-konditorei.html"}, "content": "\"Cafe Konditorei\" im Hotel Warmbaderhof\nKategorie: amenity:cafe\nAdresse: Kadischenallee 22-24, 9504 Villach Warmbad\nOrt: Villach Warmbad\nPLZ: 9504\nKoordinaten: 46.588790, 13.826300\nTags: amenity=cafe, phone=+43 4242 3001 1573, website=https://www.warmbaderhof.com/kulinarik/cafe-konditorei.html", "doc_type": "addresses"}
{"source": "OSM", "region": "Kärnten", "osm_type": "node", "osm_id": 4823400647, "name": null, "category": "amenity:fountain", "address": "Kadischenallee, 9504 Villach Warmbad", "street": "Kadischenallee", "housenumber": null, "postcode": "9504", "place": "Villach Warmbad", "lat": 46.5882959, "lon": 13.8263349, "tags": {"addr:city": "Villach Warmbad", "addr:postcode": "9504", "addr:street": "Kadischenallee", "amenity": "fountain"}, "content": "Kategorie: amenity:fountain\nAdresse: Kadischenallee, 9504 Villach Warmbad\nOrt: Villach Warmbad\nPLZ: 9504\nKoordinaten: 46.588296, 13.826335\nTags: amenity=fountain", "doc_type": "addresses"}
{"source": "OSM", "region": "Kärnten", "osm_type": "node", "osm_id": 4823528130, "name": null, "category": "tourism:artwork", "address": "Warmbader Straße, 9504 Villach Warmbad", "street": "Warmbader Straße", "housenumber": null, "postcode": "9504", "place": "Villach Warmbad", "lat": 46.5885619, "lon": 13.8279475, "tags": {"addr:city": "Villach Warmbad", "addr:postcode": "9504", "addr:street": "Warmbader Straße", "tourism": "artwork"}, "content": "Kategorie: tourism:artwork\nAdresse: Warmbader Straße, 9504 Villach Warmbad\nOrt: Villach Warmbad\nPLZ: 9504\nKoordinaten: 46.588562, 13.827948", "doc_type": "addresses"}
{"source": "OSM", "region": "Kärnten", "osm_type": "node", "osm_id": 1235664619, "name": "\"Das kleine Restaurant\" im Warmbaderhof", "category": "amenity:restaurant", "address": "Kadischenallee 22-24, 9500 Villach Warmbad", "street": "Kadischenallee", "housenumber": "22-24", "postcode": "9500", "place": "Villach Warmbad", "lat": 46.5891009, "lon": 13.8261985, "tags": {"addr:city": "Villach Warmbad", "addr:housenumber": "22-24", "addr:postcode": "9500", "addr:street": "Kadischenallee", "amenity": "restaurant", "name": "\"Das kleine Restaurant\" im Warmbaderhof", "phone": "+43 4242 3001 1283", "website": "https://www.warmbaderhof.com/kulinarik/kleine-restaurant.html"}, "content": "\"Das kleine Restaurant\" im Warmbaderhof\nKategorie: amenity:restaurant\nAdresse: Kadischenallee 22-24, 9500 Villach Warmbad\nOrt: Villach Warmbad\nPLZ: 9500\nKoordinaten: 46.589101, 13.826199\nTags: amenity=restaurant, phone=+43 4242 3001 1283, website=https://www.warmbaderhof.com/kulinarik/kleine-restaurant.html", "doc_type": "pois"}
{"source": "OSM", "region": "Kärnten", "osm_type": "node", "osm_id": 1239627100, "name": "Kurzentrum Therme Warmbad", "category": "amenity:health_centre", "address": "Kadischenallee 26, 9504 Villach Warmbad", "street": "Kadischenallee", "housenumber": "26", "postcode": "9504", "place": "Villach Warmbad", "lat": 46.5876073, "lon": 13.8265228, "tags": {"addr:city": "Villach Warmbad", "addr:housenumber": "26", "addr:postcode": "9504", "addr:street": "Kadischenallee", "amenity": "health_centre", "healthcare": "rehabilitation", "name": "Kurzentrum Therme Warmbad", "phone": "+43 4242 30011273", "website": "http://www.med-warmbad.at/Kurzentrum/"}, "content": "Kurzentrum Therme Warmbad\nKategorie: amenity:health_centre\nAdresse: Kadischenallee 26, 9504 Villach Warmbad\nOrt: Villach Warmbad\nPLZ: 9504\nKoordinaten: 46.587607, 13.826523\nTags: amenity=health_centre, healthcare=rehabilitation, phone=+43 4242 30011273, website=http://www.med-warmbad.at/Kurzentrum/", "doc_type": "pois"}
{"source": "OSM", "region": "Kärnten", "osm_type": "node", "osm_id": 4273036552, "name": "\"Cafe Konditorei\" im Hotel Warmbaderhof", "category": "amenity:cafe", "address": "Kadischenallee 22-24, 9504 Villach Warmbad", "street": "Kadischenallee", "housenumber": "22-24", "postcode": "9504", "place": "Villach Warmbad", "lat": 46.5887899, "lon": 13.8263002, "tags": {"addr:city": "Villach Warmbad", "addr:housenumber": "22-24", "addr:postcode": "9504", "addr:street": "Kadischenallee", "amenity": "cafe", "name": "\"Cafe Konditorei\" im Hotel Warmbaderhof", "phone": "+43 4242 3001 1573", "website": "https://www.warmbaderhof.com/kulinarik/cafe-konditorei.html"}, "content": "\"Cafe Konditorei\" im Hotel Warmbaderhof\nKategorie: amenity:cafe\nAdresse: Kadischenallee 22-24, 9504 Villach Warmbad\nOrt: Villach Warmbad\nPLZ: 9504\nKoordinaten: 46.588790, 13.826300\nTags: amenity=cafe, phone=+43 4242 3001 1573, website=https://www.warmbaderhof.com/kulinarik/cafe-konditorei.html", "doc_type": "pois"}
{"source": "OSM", "region": "Kärnten", "osm_type": "node", "osm_id": 4823400647, "name": null, "category": "amenity:fountain", "address": "Kadischenallee, 9504 Villach Warmbad", "street": "Kadischenallee", "housenumber": null, "postcode": "9504", "place": "Villach Warmbad", "lat": 46.5882959, "lon": 13.8263349, "tags": {"addr:city": "Villach Warmbad", "addr:postcode": "9504", "addr:street": "Kadischenallee", "amenity": "fountain"}, "content": "Kategorie: amenity:fountain\nAdresse: Kadischenallee, 9504 Villach Warmbad\nOrt: Villach Warmbad\nPLZ: 9504\nKoordinaten: 46.588296, 13.826335\nTags: amenity=fountain", "doc_type": "pois"}
{"source": "OSM", "region": "Kärnten", "osm_type": "node", "osm_id": 4823528130, "name": null, "category": "tourism:artwork", "address": "Warmbader Straße, 9504 Villach Warmbad", "street": "Warmbader Straße", "housenumber": null, "postcode": "9504", "place": "Villach Warmbad", "lat": 46.5885619, "lon": 13.8279475, "tags": {"addr:city": "Villach Warmbad", "addr:postcode": "9504", "addr:street": "Warmbader Straße", "tourism": "artwork"}, "content": "Kategorie: tourism:artwork\nAdresse: Warmbader Straße, 9504 Villach Warmbad\nOrt: Villach Warmbad\nPLZ: 9504\nKoordinaten: 46.588562, 13.827948", "doc_type": "pois"}
