{"source": "OSM", "region": "Kärnten", "osm_type": "node", "osm_id": 340515460, "name": "Postpartner 9711, Tabak Trafik Polczer", "category": "amenity:post_office", "address": "Bahnhofstraße (Paternion) 47, 9711 Paternion", "street": "Bahnhofstraße (Paternion)", "housenumber": "47", "postcode": "9711", "place": "Paternion", "lat": 46.7129212, "lon": 13.6375486, "tags": {"addr:city": "Paternion", "addr:housenumber": "47", "addr:postcode": "9711", "addr:street": "Bahnhofstraße (Paternion)", "amenity": "post_office", "name": "Postpartner 9711, Tabak Trafik Polczer"}, "content": "Postpartner 9711, Tabak Trafik Polczer\nKategorie: amenity:post_office\nAdresse: Bahnhofstraße (Paternion) 47, 9711 Paternion\nOrt: Paternion\nPLZ: 9711\nKoordinaten: 46.712921, 13.637549\nTags: amenity=post_office", "doc_type": "addresses"}
{"source": "OSM", "region": "Kärnten", "osm_type": "node", "osm_id": 491427749, "name": "Damian Apotheke", "category": "amenity:pharmacy", "address": "Villacher Straße(Feistritz/Dr) 391, 9710 Paternion", "street": "Villacher Straße(Feistritz/Dr)", "housenumber": "391", "postcode": "9710", "place": "Paternion", "lat": 46.6989056, "lon": 13.6675865, "tags": {"addr:city": "Paternion", "addr:housenumber": "391", "addr:postcode": "9710", "addr:street": "Villacher Straße(Feistritz/Dr)", "amenity": "pharmacy", "healthcare": "pharmacy", "name": "Damian Apotheke"}, "content": "Damian Apotheke\nKategorie: amenity:pharmacy\nAdresse: Villacher Straße(Feistritz/Dr) 391, 9710 Paternion\nOrt: Paternion\nPLZ: 9710\nKoordinaten: 46.698906, 13.667587\nTags: amenity=pharmacy, healthcare=pharmacy", "doc_type": "addresses"}
{"source": "OSM", "region": "Kärnten", "osm_type": "node", "osm_id": 761122335, "name": "Dr. Kronfuß", "category": "amenity:doctors", "address": "Villacher Straße(Feistritz/Dr) 391, 9710 Paternion", "street": "Villacher Straße(Feistritz/Dr)", "housenumber": "391", "postcode": "9710", "place": "Paternion", "lat": 46.6989718, "lon": 13.6676764, "tags": {"addr:city": "Paternion", "addr:housenumber": "391", "addr:postcode": "9710", "addr:street": "Villacher Straße(Feistritz/Dr)", "amenity": "doctors", "healthcare": "doctor", "name": "Dr. Kronfuß"}, "content": "Dr. Kronfuß\nKategorie: amenity:doctors\nAdresse: Villacher Straße(Feistritz/Dr) 391, 9710 Paternion\nOrt: Paternion\nPLZ: 9710\nKoordinaten: 46.698972, 13.667676\nTags: amenity=doctors, healthcare=doctor", "doc_type": "addresses"}
{"source": "OSM", "region": "Kärnten", "osm_type": "node", "osm_id": 3232890668, "name": "9710er", "category": "amenity:bar", "address": "Dueler Straße (Feistritz/Drau) 129, 9710 Paternion", "street": "Dueler Straße (Feistritz/Drau)", "housenumber": "129", "postcode": "9710", "place": "Paternion", "lat": 46.7010449, "lon": 13.6632311, "tags": {"addr:city": "Paternion", "addr:housenumber": "129", "addr:postcode": "9710", "addr:street": "Dueler Straße (Feistritz/Drau)", "amenity": "bar", "name": "9710er", "operator": "Marcel Kofler", "website": "http://www.facebook.com/pages/9710er/211219855583131"}, "content": "9710er\nKategorie: amenity:bar\nAdresse: Dueler Straße (Feistritz/Drau) 129, 9710 Paternion\nOrt: Paternion\nPLZ: 9710\nKoordinaten: 46.701045, 13.663231\nTags: amenity=bar, operator=Marcel Kofler, website=http://www.facebook.com/pages/9710er/211219855583131", "doc_type": "addresses"}
{"source": "OSM", "region": "Kärnten", "osm_type": "node", "osm_id": 3232903830, "name": "Frisörstudio Barbara", "category": "shop:hairdresser", "address": "Dueler Straße (Feistritz/Drau) 129, 9710 Paternion", "street": "Dueler Straße (Feistritz/Drau)", "housenumber": "129", "postcode": "9710", "place": "Paternion", "lat": 46.700993, "lon": 13.6632152, "tags": {"addr:city": "Paternion", "addr:housenumber": "129", "addr:postcode": "9710", "addr:street": "Dueler Straße (Feistritz/Drau)", "name": "Frisörstudio Barbara", "operator": "Barbara Tschernutter", "shop": "hairdresser"}, "content": "Frisörstudio Barbara\nKategorie: shop:hairdresser\nAdresse: Dueler Straße (Feistritz/Drau) 129, 9710 Paternion\nOrt: Paternion\nPLZ: 9710\nKoordinaten: 46.700993, 13.663215\nTags: shop=hairdresser, operator=Barbara Tschernutter", "doc_type": "addresses"}
{"source": "OSM", "region": "Kärnten", "osm_type": "node", "osm_id": 3239174728, "name": "Codeline Consulting & Software Development GmbH", "category": "office:it", "address": "Stockenboier Straße 59, 9711 Paternion", "street": "Stockenboier Straße", "housenumber": "59", "postcode": "9711", "place": "Paternion", "lat": 46.7057578, "lon": 13.6468948, "tags": {"addr:city": "Paternion", "addr:housenumber": "59", "addr:postcode": "9711", "addr:street": "Stockenboier Straße", "name": "Codeline Consulting & Software Development GmbH", "office": "it"}, "content": "Codeline Consulting & Software Development GmbH\nKategorie: office:it\nAdresse: Stockenboier Straße 59, 9711 Paternion\nOrt: Paternion\nPLZ: 9711\nKoordinaten: 46.705758, 13.646895\nTags: office=it", "doc_type": "addresses"}
{"source": "OSM", "region": "Kärnten", "osm_type": "node", "osm_id": 3884668929, "name": "RP-TOOLS Handels und Service GmbH", "category": null, "address": "Bahnhofstraße 10, 9711 Paternion", "street": "Bahnhofstraße", "housenumber": "10", "postcode": "9711", "place": "Paternion", "lat": 46.7192856, "lon": 13.6425378, "tags": {"addr:city": "Paternion", "addr:housenumber": "10", "addr:postcode": "9711", "addr:street": "Bahnhofstraße", "name": "RP-TOOLS Handels und Service GmbH", "phone": "+43 (0) 4245 65 900", "website": "https://www.rp-tools.com/"}, "content": "RP-TOOLS Handels und Service GmbH\nAdresse: Bahnhofstraße 10, 9711 Paternion\nOrt: Paternion\nPLZ: 9711\nKoordinaten: 46.719286, 13.642538\nTags: phone=+43 (0) 4245 65 900, website=https://www.rp-tools.com/", "doc_type": "addresses"}
{"source": "OSM", "region": "Kärnten", "osm_type": "node", "osm_id": 5002288490, "name": "Staff Fitness", "category": "leisure:sports_centre", "address": "Kreuzner Straße(Feistritz/Dr.) 380, 9710 Paternion", "street": "Kreuzner Straße(Feistritz/Dr.)", "housenumber": "380", "postcode": "9710", "place": "Paternion", "lat": 46.6985875, "lon": 13.6607346, "tags": {"addr:city": "Paternion", "addr:housenumber": "380", "addr:postcode": "9710", "addr:street": "Kreuzner Straße(Feistritz/Dr.)", "leisure": "sports_centre", "name": "Staff Fitness"}, "content": "Staff Fitness\nKategorie: leisure:sports_centre\nAdresse: Kreuzner Straße(Feistritz/Dr.) 380, 9710 Paternion\nOrt: Paternion\nPLZ: 9710\nKoordinaten: 46.698588, 13.660735", "doc_type": "addresses"}
{"source": "OSM", "region": "Kärnten", "osm_type": "node", "osm_id": 5002288492, "name": "Fetz Restaurant Feistritz/Drau", "category": "amenity:restaurant", "address": "Kreuzner Straße(Feistritz/Dr.) 380, 9710 Paternion", "street": "Kreuzner Straße(Feistritz/Dr.)", "housenumber": "380", "postcode": "9710", "place": "Paternion", "lat": 46.6987752, "lon": 13.6608338, "tags": {"addr:city": "Paternion", "addr:housenumber": "380", "addr:postcode": "9710", "addr:street": "Kreuzner Straße(Feistritz/Dr.)", "amenity": "restaurant", "name": "Fetz Restaurant Feistritz/Drau"}, "content": "Fetz Restaurant Feistritz/Drau\nKategorie: amenity:restaurant\nAdresse: Kreuzner Straße(Feistritz/Dr.) 380, 9710 Paternion\nOrt: Paternion\nPLZ: 9710\nKoordinaten: 46.698775, 13.660834\nTags: amenity=restaurant", "doc_type": "addresses"}
{"source": "OSM", "region": "Kärnten", "osm_type": "node", "osm_id": 5015912993, "name": "Polizeiinspektion Paternion", "category": "amenity:police", "address": "Hauptstraße 78, Paternion", "street": "Hauptstraße", "housenumber": "78", "postcode": null, "place": "Paternion", "lat": 46.7138484, "lon": 13.6346768, "tags": {"addr:city": "Paternion", "addr:housenumber": "78", "addr:street": "Hauptstraße", "amenity": "police", "name": "Polizeiinspektion Paternion", "phone": "+43 59133 2258100"}, "content": "Polizeiinspektion Paternion\nKategorie: amenity:police\nAdresse: Hauptstraße 78, Paternion\nOrt: Paternion\nKoordinaten: 46.713848, 13.634677\nTags: amenity=police, phone=+43 59133 2258100", "doc_type": "addresses"}
{"source": "OSM", "region": "Kärnten", "osm_type": "node", "osm_id": 340515460, "name": "Postpartner 9711, Tabak Trafik Polczer", "category": "amenity:post_office", "address": "Bahnhofstraße (Paternion) 47, 9711 Paternion", "street": "Bahnhofstraße (Paternion)", "housenumber": "47", "postcode": "9711", "place": "Paternion", "lat": 46.7129212, "lon": 13.6375486, "tags": {"addr:city": "Paternion", "addr:housenumber": "47", "addr:postcode": "9711", "addr:street": "Bahnhofstraße (Paternion)", "amenity": "post_office", "name": "Postpartner 9711, Tabak Trafik Polczer"}, "content": "Postpartner 9711, Tabak Trafik Polczer\nKategorie: amenity:post_office\nAdresse: Bahnhofstraße (Paternion) 47, 9711 Paternion\nOrt: Paternion\nPLZ: 9711\nKoordinaten: 46.712921, 13.637549\nTags: amenity=post_office", "doc_type": "pois"}
{"source": "OSM", "region": "Kärnten", "osm_type": "node", "osm_id": 491427749, "name": "Damian Apotheke", "category": "amenity:pharmacy", "address": "Villacher Straße(Feistritz/Dr) 391, 9710 Paternion", "street": "Villacher Straße(Feistritz/Dr)", "housenumber": "391", "postcode": "9710", "place": "Paternion", "lat": 46.6989056, "lon": 13.6675865, "tags": {"addr:city": "Paternion", "addr:housenumber": "391", "addr:postcode": "9710", "addr:street": "Villacher Straße(Feistritz/Dr)", "amenity": "pharmacy", "healthcare": "pharmacy", "name": "Damian Apotheke"}, "content": "Damian Apotheke\nKategorie: amenity:pharmacy\nAdresse: Villacher Straße(Feistritz/Dr) 391, 9710 Paternion\nOrt: Paternion\nPLZ: 9710\nKoordinaten: 46.698906, 13.667587\nTags: amenity=pharmacy, healthcare=pharmacy", "doc_type": "pois"}
{"source": "OSM", "region": "Kärnten", "osm_type": "node", "osm_id": 761122335, "name": "Dr. Kronfuß", "category": "amenity:doctors", "address": "Villacher Straße(Feistritz/Dr) 391, 9710 Paternion", "street": "Villacher Straße(Feistritz/Dr)", "housenumber": "391", "postcode": "9710", "place": "Paternion", "lat": 46.6989718, "lon": 13.6676764, "tags": {"addr:city": "Paternion", "addr:housenumber": "391", "addr:postcode": "9710", "addr:street": "Villacher Straße(Feistritz/Dr)", "amenity": "doctors", "healthcare": "doctor", "name": "Dr. Kronfuß"}, "content": "Dr. Kronfuß\nKategorie: amenity:doctors\nAdresse: Villacher Straße(Feistritz/Dr) 391, 9710 Paternion\nOrt: Paternion\nPLZ: 9710\nKoordinaten: 46.698972, 13.667676\nTags: amenity=doctors, healthcare=doctor", "doc_type": "pois"}
{"source": "OSM", "region": "Kärnten", "osm_type": "node", "osm_id": 3232890668, "name": "9710er", "category": "amenity:bar", "address": "Dueler Straße (Feistritz/Drau) 129, 9710 Paternion", "street": "Dueler Straße (Feistritz/Drau)", "housenumber": "129", "postcode": "9710", "place": "Paternion", "lat": 46.7010449, "lon": 13.6632311, "tags": {"addr:city": "Paternion", "addr:housenumber": "129", "addr:postcode": "9710", "addr:street": "Dueler Straße (Feistritz/Drau)", "amenity": "bar", "name": "9710er", "operator": "Marcel Kofler", "website": "http://www.facebook.com/pages/9710er/211219855583131"}, "content": "9710er\nKategorie: amenity:bar\nAdresse: Dueler Straße (Feistritz/Drau) 129, 9710 Paternion\nOrt: Paternion\nPLZ: 9710\nKoordinaten: 46.701045, 13.663231\nTags: amenity=bar, operator=Marcel Kofler, website=http://www.facebook.com/pages/9710er/211219855583131", "doc_type": "pois"}
{"source": "OSM", "region": "Kärnten", "osm_type": "node", "osm_id": 3232903830, "name": "Frisörstudio Barbara", "category": "shop:hairdresser", "address": "Dueler Straße (Feistritz/Drau) 129, 9710 Paternion", "street": "Dueler Straße (Feistritz/Drau)", "housenumber": "129", "postcode": "9710", "place": "Paternion", "lat": 46.700993, "lon": 13.6632152, "tags": {"addr:city": "Paternion", "addr:housenumber": "129", "addr:postcode": "9710", "addr:street": "Dueler Straße (Feistritz/Drau)", "name": "Frisörstudio Barbara", "operator": "Barbara Tschernutter", "shop": "hairdresser"}, "content": "Frisörstudio Barbara\nKategorie: shop:hairdresser\nAdresse: Dueler Straße (Feistritz/Drau) 129, 9710 Paternion\nOrt: Paternion\nPLZ: 9710\nKoordinaten: 46.700993, 13.663215\nTags: shop=hairdresser, operator=Barbara Tschernutter", "doc_type": "pois"}
{"source": "OSM", "region": "Kärnten", "osm_type": "node", "osm_id": 3239174728, "name": "Codeline Consulting & Software Development GmbH", "category": "office:it", "address": "Stockenboier Straße 59, 9711 Paternion", "street": "Stockenboier Straße", "housenumber": "59", "postcode": "9711", "place": "Paternion", "lat": 46.7057578, "lon": 13.6468948, "tags": {"addr:city": "Paternion", "addr:housenumber": "59", "addr:postcode": "9711", "addr:street": "Stockenboier Straße", "name": "Codeline Consulting & Software Development GmbH", "office": "it"}, "content": "Codeline Consulting & Software Development GmbH\nKategorie: office:it\nAdresse: Stockenboier Straße 59, 9711 Paternion\nOrt: Paternion\nPLZ: 9711\nKoordinaten: 46.705758, 13.646895\nTags: office=it", "doc_type": "pois"}
{"source": "OSM", "region": "Kärnten", "osm_type": "node", "osm_id": 5002288490, "name": "Staff Fitness", "category": "leisure:sports_centre", "address": "Kreuzner Straße(Feistritz/Dr.) 380, 9710 Paternion", "street": "Kreuzner Straße(Feistritz/Dr.)", "housenumber": "380", "postcode": "9710", "place": "Paternion", "lat": 46.6985875, "lon": 13.6607346, "tags": {"addr:city": "Paternion", "addr:housenumber": "380", "addr:postcode": "9710", "addr:street": "Kreuzner Straße(Feistritz/Dr.)", "leisure": "sports_centre", "name": "Staff Fitness"}, "content": "Staff Fitness\nKategorie: leisure:sports_centre\nAdresse: Kreuzner Straße(Feistritz/Dr.) 380, 9710 Paternion\nOrt: Paternion\nPLZ: 9710\nKoordinaten: 46.698588, 13.660735", "doc_type": "pois"}
{"source": "OSM", "region": "Kärnten", "osm_type": "node", "osm_id": 5002288492, "name": "Fetz Restaurant Feistritz/Drau", "category": "amenity:restaurant", "address": "Kreuzner Straße(Feistritz/Dr.) 380, 9710 Paternion", "street": "Kreuzner Straße(Feistritz/Dr.)", "housenumber": "380", "postcode": "9710", "place": "Paternion", "lat": 46.6987752, "lon": 13.6608338, "tags": {"addr:city": "Paternion", "addr:housenumber": "380", "addr:postcode": "9710", "addr:street": "Kreuzner Straße(Feistritz/Dr.)", "amenity": "restaurant", "name": "Fetz Restaurant Feistritz/Drau"}, "content": "Fetz Restaurant Feistritz/Drau\nKategorie: amenity:restaurant\nAdresse: Kreuzner Straße(Feistritz/Dr.) 380, 9710 Paternion\nOrt: Paternion\nPLZ: 9710\nKoordinaten: 46.698775, 13.660834\nTags: amenity=restaurant", "doc_type": "pois"}
{"source": "OSM", "region": "Kärnten", "osm_type": "node", "osm_id": 5015912993, "name": "Polizeiinspektion Paternion", "category": "amenity:police", "address": "Hauptstraße 78, Paternion", "street": "Hauptstraße", "housenumber": "78", "postcode": null, "place": "Paternion", "lat": 46.7138484, "lon": 13.6346768, "tags": {"addr:city": "Paternion", "addr:housenumber": "78", "addr:street": "Hauptstraße", "amenity": "police", "name": "Polizeiinspektion Paternion", "phone": "+43 59133 2258100"}, "content": "Polizeiinspektion Paternion\nKategorie: amenity:police\nAdresse: Hauptstraße 78, Paternion\nOrt: Paternion\nKoordinaten: 46.713848, 13.634677\nTags: amenity=police, phone=+43 59133 2258100", "doc_type": "pois"}
