{"source": "OSM", "region": "Kärnten", "osm_type": "node", "osm_id": 340519149, "name": "Postpartner 9654, ADEG Guggenberger", "category": "amenity:post_office", "address": "33, 9654 Sankt Lorenzen im Lesachtal", "street": null, "housenumber": "33", "postcode": "9654", "place": "Sankt Lorenzen im Lesachtal", "lat": 46.7019199, "lon": 12.7848005, "tags": {"addr:city": "Sankt Lorenzen im Lesachtal", "addr:housenumber": "33", "addr:place": "Sankt Lorenzen im Lesachtal", "addr:postcode": "9654", "amenity": "post_office", "name": "Postpartner 9654, ADEG Guggenberger"}, "content": "Postpartner 9654, ADEG Guggenberger\nKategorie: amenity:post_office\nAdresse: 33, 9654 Sankt Lorenzen im Lesachtal\nOrt: Sankt Lorenzen im Lesachtal\nPLZ: 9654\nKoordinaten: 46.701920, 12.784800\nTags: amenity=post_office", "doc_type": "addresses"}
{"source": "OSM", "region": "Kärnten", "osm_type": "node", "osm_id": 473505135, "name": "Adeg", "category": "shop:supermarket", "address": "Sankt Lorenzen im Lesachtal 33, 9654 Sankt Lorenzen im Lesachtal", "street": "Sankt Lorenzen im Lesachtal", "housenumber": "33", "postcode": "9654", "place": "Sankt Lorenzen im Lesachtal", "lat": 46.701862, "lon": 12.7847766, "tags": {"addr:city": "Sankt Lorenzen im Lesachtal", "addr:housenumber": "33", "addr:postcode": "9654", "addr:street": "Sankt Lorenzen im Lesachtal", "name": "Adeg", "shop": "supermarket"}, "content": "Adeg\nKategorie: shop:supermarket\nAdresse: Sankt Lorenzen im Lesachtal 33, 9654 Sankt Lorenzen im Lesachtal\nOrt: Sankt Lorenzen im Lesachtal\nPLZ: 9654\nKoordinaten: 46.701862, 12.784777\nTags: shop=supermarket", "doc_type": "addresses"}
{"source": "OSM", "region": "Kärnten", "osm_type": "node", "osm_id": 2570297183, "name": "Gasthof zur Post", "category": "amenity:restaurant", "address": "Sankt Lorenzen im Lesachtal 42, 9654 Sankt Lorenzen im Lesachtal", "street": "Sankt Lorenzen im Lesachtal", "housenumber": "42", "postcode": "9654", "place": "Sankt Lorenzen im Lesachtal", "lat": 46.7020439, "lon": 12.7848914, "tags": {"addr:city": "Sankt Lorenzen im Lesachtal", "addr:housenumber": "42", "addr:postcode": "9654", "addr:street": "Sankt Lorenzen im Lesachtal", "amenity": "restaurant", "name": "Gasthof zur Post", "phone": "+43 4716 227", "website": "https://www.gzp.at/"}, "content": "Gasthof zur Post\nKategorie: amenity:restaurant\nAdresse: Sankt Lorenzen im Lesachtal 42, 9654 Sankt Lorenzen im Lesachtal\nOrt: Sankt Lorenzen im Lesachtal\nPLZ: 9654\nKoordinaten: 46.702044, 12.784891\nTags: amenity=restaurant, phone=+43 4716 227, website=https://www.gzp.at/", "doc_type": "addresses"}
{"source": "OSM", "region": "Kärnten", "osm_type": "node", "osm_id": 3223072644, "name": "Freiwillige Feuerwehr St Lorenzen", "category": "amenity:fire_station", "address": "Sankt Lorenzen im Lesachtal 85, 9654 Sankt Lorenzen im Lesachtal", "street": "Sankt Lorenzen im Lesachtal", "housenumber": "85", "postcode": "9654", "place": "Sankt Lorenzen im Lesachtal", "lat": 46.70154, "lon": 12.7796223, "tags": {"addr:city": "Sankt Lorenzen im Lesachtal", "addr:housenumber": "85", "addr:postcode": "9654", "addr:street": "Sankt Lorenzen im Lesachtal", "amenity": "fire_station", "name": "Freiwillige Feuerwehr St Lorenzen"}, "content": "Freiwillige Feuerwehr St Lorenzen\nKategorie: amenity:fire_station\nAdresse: Sankt Lorenzen im Lesachtal 85, 9654 Sankt Lorenzen im Lesachtal\nOrt: Sankt Lorenzen im Lesachtal\nPLZ: 9654\nKoordinaten: 46.701540, 12.779622\nTags: amenity=fire_station", "doc_type": "addresses"}
{"source": "OSM", "region": "Kärnten", "osm_type": "node", "osm_id": 5198563121, "name": "Lesachtaler Fleisch Markus Salcher", "category": "shop:butcher", "address": "Gailtal Bundesstraße, 9654 Sankt Lorenzen im Lesachtal", "street": "Gailtal Bundesstraße", "housenumber": null, "postcode": "9654", "place": "Sankt Lorenzen im Lesachtal", "lat": 46.7018044, "lon": 12.7852066, "tags": {"addr:city": "Sankt Lorenzen im Lesachtal", "addr:postcode": "9654", "addr:street": "Gailtal Bundesstraße", "name": "Lesachtaler Fleisch Markus Salcher", "operator": "Markus und Leo Salcher OG", "phone": "+434716227", "shop": "butcher", "website": "https://www.lesachtaler-fleisch.at/"}, "content": "Lesachtaler Fleisch Markus Salcher\nKategorie: shop:butcher\nAdresse: Gailtal Bundesstraße, 9654 Sankt Lorenzen im Lesachtal\nOrt: Sankt Lorenzen im Lesachtal\nPLZ: 9654\nKoordinaten: 46.701804, 12.785207\nTags: shop=butcher, operator=Markus und Leo Salcher OG, phone=+434716227, website=https://www.lesachtaler-fleisch.at/", "doc_type": "addresses"}
{"source": "OSM", "region": "Kärnten", "osm_type": "node", "osm_id": 340519149, "name": "Postpartner 9654, ADEG Guggenberger", "category": "amenity:post_office", "address": "33, 9654 Sankt Lorenzen im Lesachtal", "street": null, "housenumber": "33", "postcode": "9654", "place": "Sankt Lorenzen im Lesachtal", "lat": 46.7019199, "lon": 12.7848005, "tags": {"addr:city": "Sankt Lorenzen im Lesachtal", "addr:housenumber": "33", "addr:place": "Sankt Lorenzen im Lesachtal", "addr:postcode": "9654", "amenity": "post_office", "name": "Postpartner 9654, ADEG Guggenberger"}, "content": "Postpartner 9654, ADEG Guggenberger\nKategorie: amenity:post_office\nAdresse: 33, 9654 Sankt Lorenzen im Lesachtal\nOrt: Sankt Lorenzen im Lesachtal\nPLZ: 9654\nKoordinaten: 46.701920, 12.784800\nTags: amenity=post_office", "doc_type": "pois"}
{"source": "OSM", "region": "Kärnten", "osm_type": "node", "osm_id": 473505135, "name": "Adeg", "category": "shop:supermarket", "address": "Sankt Lorenzen im Lesachtal 33, 9654 Sankt Lorenzen im Lesachtal", "street": "Sankt Lorenzen im Lesachtal", "housenumber": "33", "postcode": "9654", "place": "Sankt Lorenzen im Lesachtal", "lat": 46.701862, "lon": 12.7847766, "tags": {"addr:city": "Sankt Lorenzen im Lesachtal", "addr:housenumber": "33", "addr:postcode": "9654", "addr:street": "Sankt Lorenzen im Lesachtal", "name": "Adeg", "shop": "supermarket"}, "content": "Adeg\nKategorie: shop:supermarket\nAdresse: Sankt Lorenzen im Lesachtal 33, 9654 Sankt Lorenzen im Lesachtal\nOrt: Sankt Lorenzen im Lesachtal\nPLZ: 9654\nKoordinaten: 46.701862, 12.784777\nTags: shop=supermarket", "doc_type": "pois"}
{"source": "OSM", "region": "Kärnten", "osm_type": "node", "osm_id": 2570297183, "name": "Gasthof zur Post", "category": "amenity:restaurant", "address": "Sankt Lorenzen im Lesachtal 42, 9654 Sankt Lorenzen im Lesachtal", "street": "Sankt Lorenzen im Lesachtal", "housenumber": "42", "postcode": "9654", "place": "Sankt Lorenzen im Lesachtal", "lat": 46.7020439, "lon": 12.7848914, "tags": {"addr:city": "Sankt Lorenzen im Lesachtal", "addr:housenumber": "42", "addr:postcode": "9654", "addr:street": "Sankt Lorenzen im Lesachtal", "amenity": "restaurant", "name": "Gasthof zur Post", "phone": "+43 4716 227", "website": "https://www.gzp.at/"}, "content": "Gasthof zur Post\nKategorie: amenity:restaurant\nAdresse: Sankt Lorenzen im Lesachtal 42, 9654 Sankt Lorenzen im Lesachtal\nOrt: Sankt Lorenzen im Lesachtal\nPLZ: 9654\nKoordinaten: 46.702044, 12.784891\nTags: amenity=restaurant, phone=+43 4716 227, website=https://www.gzp.at/", "doc_type": "pois"}
{"source": "OSM", "region": "Kärnten", "osm_type": "node", "osm_id": 3223072644, "name": "Freiwillige Feuerwehr St Lorenzen", "category": "amenity:fire_station", "address": "Sankt Lorenzen im Lesachtal 85, 9654 Sankt Lorenzen im Lesachtal", "street": "Sankt Lorenzen im Lesachtal", "housenumber": "85", "postcode": "9654", "place": "Sankt Lorenzen im Lesachtal", "lat": 46.70154, "lon": 12.7796223, "tags": {"addr:city": "Sankt Lorenzen im Lesachtal", "addr:housenumber": "85", "addr:postcode": "9654", "addr:street": "Sankt Lorenzen im Lesachtal", "amenity": "fire_station", "name": "Freiwillige Feuerwehr St Lorenzen"}, "content": "Freiwillige Feuerwehr St Lorenzen\nKategorie: amenity:fire_station\nAdresse: Sankt Lorenzen im Lesachtal 85, 9654 Sankt Lorenzen im Lesachtal\nOrt: Sankt Lorenzen im Lesachtal\nPLZ: 9654\nKoordinaten: 46.701540, 12.779622\nTags: amenity=fire_station", "doc_type": "pois"}
{"source": "OSM", "region": "Kärnten", "osm_type": "node", "osm_id": 5198563121, "name": "Lesachtaler Fleisch Markus Salcher", "category": "shop:butcher", "address": "Gailtal Bundesstraße, 9654 Sankt Lorenzen im Lesachtal", "street": "Gailtal Bundesstraße", "housenumber": null, "postcode": "9654", "place": "Sankt Lorenzen im Lesachtal", "lat": 46.7018044, "lon": 12.7852066, "tags": {"addr:city": "Sankt Lorenzen im Lesachtal", "addr:postcode": "9654", "addr:street": "Gailtal Bundesstraße", "name": "Lesachtaler Fleisch Markus Salcher", "operator": "Markus und Leo Salcher OG", "phone": "+434716227", "shop": "butcher", "website": "https://www.lesachtaler-fleisch.at/"}, "content": "Lesachtaler Fleisch Markus Salcher\nKategorie: shop:butcher\nAdresse: Gailtal Bundesstraße, 9654 Sankt Lorenzen im Lesachtal\nOrt: Sankt Lorenzen im Lesachtal\nPLZ: 9654\nKoordinaten: 46.701804, 12.785207\nTags: shop=butcher, operator=Markus und Leo Salcher OG, phone=+434716227, website=https://www.lesachtaler-fleisch.at/", "doc_type": "pois"}
