{"source": "OSM", "region": "Kärnten", "osm_type": "node", "osm_id": 340516048, "name": "bank99", "category": "amenity:bank", "address": "Bambergerplatz 1, 9560 Feldkirchen in Kärnten", "street": "Bambergerplatz", "housenumber": "1", "postcode": "9560", "place": "Feldkirchen in Kärnten", "lat": 46.7255036, "lon": 14.091028, "tags": {"addr:city": "Feldkirchen in Kärnten", "addr:housenumber": "1", "addr:postcode": "9560", "addr:street": "Bambergerplatz", "amenity": "bank", "brand": "bank99", "name": "bank99", "operator": "bank99 AG", "website": "https://www.bank99.at"}, "content": "bank99\nKategorie: amenity:bank\nAdresse: Bambergerplatz 1, 9560 Feldkirchen in Kärnten\nOrt: Feldkirchen in Kärnten\nPLZ: 9560\nKoordinaten: 46.725504, 14.091028\nTags: amenity=bank, operator=bank99 AG, brand=bank99, website=https://www.bank99.at", "doc_type": "addresses"}
{"source": "OSM", "region": "Kärnten", "osm_type": "node", "osm_id": 1203025993, "name": "Bezirkspolizeikommando Feldkirchen", "category": "amenity:police", "address": "10.-Oktober-Straße 27, 9560 Feldkirchen in Kärnten", "street": "10.-Oktober-Straße", "housenumber": "27", "postcode": "9560", "place": "Feldkirchen in Kärnten", "lat": 46.7224243, "lon": 14.0980227, "tags": {"addr:city": "Feldkirchen in Kärnten", "addr:housenumber": "27", "addr:postcode": "9560", "addr:street": "10.-Oktober-Straße", "amenity": "police", "name": "Bezirkspolizeikommando Feldkirchen", "phone": "+43 59133 2200305"}, "content": "Bezirkspolizeikommando Feldkirchen\nKategorie: amenity:police\nAdresse: 10.-Oktober-Straße 27, 9560 Feldkirchen in Kärnten\nOrt: Feldkirchen in Kärnten\nPLZ: 9560\nKoordinaten: 46.722424, 14.098023\nTags: amenity=police, phone=+43 59133 2200305", "doc_type": "addresses"}
{"source": "OSM", "region": "Kärnten", "osm_type": "node", "osm_id": 1861978017, "name": null, "category": null, "address": "Bürgergasse 2, 9560 Feldkirchen in Kärnten", "street": "Bürgergasse", "housenumber": "2", "postcode": "9560", "place": "Feldkirchen in Kärnten", "lat": 46.7235213, "lon": 14.0932597, "tags": {"addr:city": "Feldkirchen in Kärnten", "addr:housenumber": "2", "addr:postcode": "9560", "addr:street": "Bürgergasse"}, "content": "Adresse: Bürgergasse 2, 9560 Feldkirchen in Kärnten\nOrt: Feldkirchen in Kärnten\nPLZ: 9560\nKoordinaten: 46.723521, 14.093260", "doc_type": "addresses"}
{"source": "OSM", "region": "Kärnten", "osm_type": "node", "osm_id": 1988815018, "name": "Kreuzwirt", "category": "amenity:restaurant", "address": "Wimitzer Straße 8, 9560 Feldkirchen in Kärnten", "street": "Wimitzer Straße", "housenumber": "8", "postcode": "9560", "place": "Feldkirchen in Kärnten", "lat": 46.7516208, "lon": 14.1090768, "tags": {"addr:city": "Feldkirchen in Kärnten", "addr:housenumber": "8", "addr:postcode": "9560", "addr:street": "Wimitzer Straße", "amenity": "restaurant", "name": "Kreuzwirt"}, "content": "Kreuzwirt\nKategorie: amenity:restaurant\nAdresse: Wimitzer Straße 8, 9560 Feldkirchen in Kärnten\nOrt: Feldkirchen in Kärnten\nPLZ: 9560\nKoordinaten: 46.751621, 14.109077\nTags: amenity=restaurant", "doc_type": "addresses"}
{"source": "OSM", "region": "Kärnten", "osm_type": "node", "osm_id": 2392159382, "name": "Eis Cafe Il Gelato", "category": "amenity:ice_cream", "address": "10.-Oktober-Straße 26, 9560 Feldkirchen in Kärnten", "street": "10.-Oktober-Straße", "housenumber": "26", "postcode": "9560", "place": "Feldkirchen in Kärnten", "lat": 46.7230914, "lon": 14.0961383, "tags": {"addr:city": "Feldkirchen in Kärnten", "addr:housenumber": "26", "addr:postcode": "9560", "addr:street": "10.-Oktober-Straße", "amenity": "ice_cream", "name": "Eis Cafe Il Gelato"}, "content": "Eis Cafe Il Gelato\nKategorie: amenity:ice_cream\nAdresse: 10.-Oktober-Straße 26, 9560 Feldkirchen in Kärnten\nOrt: Feldkirchen in Kärnten\nPLZ: 9560\nKoordinaten: 46.723091, 14.096138\nTags: amenity=ice_cream", "doc_type": "addresses"}
{"source": "OSM", "region": "Kärnten", "osm_type": "node", "osm_id": 2998019236, "name": "Bäckerei Weissensteiner", "category": "shop:bakery", "address": "Bambergerplatz 3-4, 9560 Feldkirchen in Kärnten", "street": "Bambergerplatz", "housenumber": "3-4", "postcode": "9560", "place": "Feldkirchen in Kärnten", "lat": 46.7255833, "lon": 14.090847, "tags": {"addr:city": "Feldkirchen in Kärnten", "addr:housenumber": "3-4", "addr:postcode": "9560", "addr:street": "Bambergerplatz", "name": "Bäckerei Weissensteiner", "shop": "bakery", "website": "https://www.weissensteiner.at/hier-finden-sie-uns/"}, "content": "Bäckerei Weissensteiner\nKategorie: shop:bakery\nAdresse: Bambergerplatz 3-4, 9560 Feldkirchen in Kärnten\nOrt: Feldkirchen in Kärnten\nPLZ: 9560\nKoordinaten: 46.725583, 14.090847\nTags: shop=bakery, website=https://www.weissensteiner.at/hier-finden-sie-uns/", "doc_type": "addresses"}
{"source": "OSM", "region": "Kärnten", "osm_type": "node", "osm_id": 3465878131, "name": "Kramerwirt - Fam. Uhr", "category": "amenity:restaurant", "address": "Klein St. Veit 4, 9560 Feldkirchen in Kärnten", "street": "Klein St. Veit", "housenumber": "4", "postcode": "9560", "place": "Feldkirchen in Kärnten", "lat": 46.6968732, "lon": 14.1665597, "tags": {"addr:city": "Feldkirchen in Kärnten", "addr:housenumber": "4", "addr:place": "Klein St. Veit", "addr:postcode": "9560", "addr:street": "Klein St. Veit", "amenity": "restaurant", "name": "Kramerwirt - Fam. Uhr"}, "content": "Kramerwirt - Fam. Uhr\nKategorie: amenity:restaurant\nAdresse: Klein St. Veit 4, 9560 Feldkirchen in Kärnten\nOrt: Feldkirchen in Kärnten\nPLZ: 9560\nKoordinaten: 46.696873, 14.166560\nTags: amenity=restaurant", "doc_type": "addresses"}
{"source": "OSM", "region": "Kärnten", "osm_type": "node", "osm_id": 3923365114, "name": "Hervis", "category": "shop:sports", "address": "10.-Oktober-Straße 12, 9560 Feldkirchen in Kärnten", "street": "10.-Oktober-Straße", "housenumber": "12", "postcode": "9560", "place": "Feldkirchen in Kärnten", "lat": 46.7239786, "lon": 14.0945549, "tags": {"addr:city": "Feldkirchen in Kärnten", "addr:housenumber": "12", "addr:postcode": "9560", "addr:street": "10.-Oktober-Straße", "brand": "Hervis", "name": "Hervis", "shop": "sports"}, "content": "Hervis\nKategorie: shop:sports\nAdresse: 10.-Oktober-Straße 12, 9560 Feldkirchen in Kärnten\nOrt: Feldkirchen in Kärnten\nPLZ: 9560\nKoordinaten: 46.723979, 14.094555\nTags: shop=sports, brand=Hervis", "doc_type": "addresses"}
{"source": "OSM", "region": "Kärnten", "osm_type": "node", "osm_id": 3923365119, "name": "Hartlauer", "category": "shop:electronics", "address": "10.-Oktober-Straße 21, 9560 Feldkirchen in Kärnten", "street": "10.-Oktober-Straße", "housenumber": "21", "postcode": "9560", "place": "Feldkirchen in Kärnten", "lat": 46.7234204, "lon": 14.0961588, "tags": {"addr:city": "Feldkirchen in Kärnten", "addr:housenumber": "21", "addr:postcode": "9560", "addr:street": "10.-Oktober-Straße", "brand": "Hartlauer", "name": "Hartlauer", "shop": "electronics"}, "content": "Hartlauer\nKategorie: shop:electronics\nAdresse: 10.-Oktober-Straße 21, 9560 Feldkirchen in Kärnten\nOrt: Feldkirchen in Kärnten\nPLZ: 9560\nKoordinaten: 46.723420, 14.096159\nTags: shop=electronics, brand=Hartlauer", "doc_type": "addresses"}
{"source": "OSM", "region": "Kärnten", "osm_type": "node", "osm_id": 3923365128, "name": "Billa", "category": "shop:supermarket", "address": "St. Veiterstraße 2, 9560 Feldkirchen in Kärnten", "street": "St. Veiterstraße", "housenumber": "2", "postcode": "9560", "place": "Feldkirchen in Kärnten", "lat": 46.7223386, "lon": 14.1007482, "tags": {"addr:city": "Feldkirchen in Kärnten", "addr:housenumber": "2", "addr:postcode": "9560", "addr:street": "St. Veiterstraße", "brand": "Billa", "name": "Billa", "shop": "supermarket"}, "content": "Billa\nKategorie: shop:supermarket\nAdresse: St. Veiterstraße 2, 9560 Feldkirchen in Kärnten\nOrt: Feldkirchen in Kärnten\nPLZ: 9560\nKoordinaten: 46.722339, 14.100748\nTags: shop=supermarket, brand=Billa", "doc_type": "addresses"}
{"source": "OSM", "region": "Kärnten", "osm_type": "node", "osm_id": 3923365129, "name": "Lagerhaus", "category": "shop:doityourself", "address": "St. Veiterstraße 4, 9560 Feldkirchen in Kärnten", "street": "St. Veiterstraße", "housenumber": "4", "postcode": "9560", "place": "Feldkirchen in Kärnten", "lat": 46.7229548, "lon": 14.1022831, "tags": {"addr:city": "Feldkirchen in Kärnten", "addr:housenumber": "4", "addr:postcode": "9560", "addr:street": "St. Veiterstraße", "brand": "Lagerhaus", "name": "Lagerhaus", "shop": "doityourself"}, "content": "Lagerhaus\nKategorie: shop:doityourself\nAdresse: St. Veiterstraße 4, 9560 Feldkirchen in Kärnten\nOrt: Feldkirchen in Kärnten\nPLZ: 9560\nKoordinaten: 46.722955, 14.102283\nTags: shop=doityourself, brand=Lagerhaus", "doc_type": "addresses"}
{"source": "OSM", "region": "Kärnten", "osm_type": "node", "osm_id": 3923365130, "name": "ÖBAU Egger", "category": "shop:doityourself", "address": "Industriestraße 10, 9560 Feldkirchen in Kärnten", "street": "Industriestraße", "housenumber": "10", "postcode": "9560", "place": "Feldkirchen in Kärnten", "lat": 46.7196476, "lon": 14.1009872, "tags": {"addr:city": "Feldkirchen in Kärnten", "addr:housenumber": "10", "addr:postcode": "9560", "addr:street": "Industriestraße", "name": "ÖBAU Egger", "shop": "doityourself"}, "content": "ÖBAU Egger\nKategorie: shop:doityourself\nAdresse: Industriestraße 10, 9560 Feldkirchen in Kärnten\nOrt: Feldkirchen in Kärnten\nPLZ: 9560\nKoordinaten: 46.719648, 14.100987\nTags: shop=doityourself", "doc_type": "addresses"}
{"source": "OSM", "region": "Kärnten", "osm_type": "node", "osm_id": 4197015838, "name": "Vitalis Apotheke", "category": "amenity:pharmacy", "address": "Flurweg 7, 9560 Feldkirchen in Kärnten", "street": "Flurweg", "housenumber": "7", "postcode": "9560", "place": "Feldkirchen in Kärnten", "lat": 46.7306678, "lon": 14.0924254, "tags": {"addr:city": "Feldkirchen in Kärnten", "addr:housenumber": "7", "addr:postcode": "9560", "addr:street": "Flurweg", "amenity": "pharmacy", "healthcare": "pharmacy", "name": "Vitalis Apotheke"}, "content": "Vitalis Apotheke\nKategorie: amenity:pharmacy\nAdresse: Flurweg 7, 9560 Feldkirchen in Kärnten\nOrt: Feldkirchen in Kärnten\nPLZ: 9560\nKoordinaten: 46.730668, 14.092425\nTags: amenity=pharmacy, healthcare=pharmacy", "doc_type": "addresses"}
{"source": "OSM", "region": "Kärnten", "osm_type": "node", "osm_id": 4197015844, "name": "Stadt Apotheke", "category": "amenity:pharmacy", "address": "10.-Oktober-Straße 19, 9560 Feldkirchen in Kärnten", "street": "10.-Oktober-Straße", "housenumber": "19", "postcode": "9560", "place": "Feldkirchen in Kärnten", "lat": 46.7236073, "lon": 14.0958299, "tags": {"addr:city": "Feldkirchen in Kärnten", "addr:housenumber": "19", "addr:postcode": "9560", "addr:street": "10.-Oktober-Straße", "amenity": "pharmacy", "healthcare": "pharmacy", "name": "Stadt Apotheke"}, "content": "Stadt Apotheke\nKategorie: amenity:pharmacy\nAdresse: 10.-Oktober-Straße 19, 9560 Feldkirchen in Kärnten\nOrt: Feldkirchen in Kärnten\nPLZ: 9560\nKoordinaten: 46.723607, 14.095830\nTags: amenity=pharmacy, healthcare=pharmacy", "doc_type": "addresses"}
{"source": "OSM", "region": "Kärnten", "osm_type": "node", "osm_id": 4197015845, "name": "Salvator Apotheke", "category": "amenity:pharmacy", "address": "Hauptplatz 3, 9560 Feldkirchen in Kärnten", "street": "Hauptplatz", "housenumber": "3", "postcode": "9560", "place": "Feldkirchen in Kärnten", "lat": 46.72362, "lon": 14.0917085, "tags": {"addr:city": "Feldkirchen in Kärnten", "addr:housenumber": "3", "addr:postcode": "9560", "addr:street": "Hauptplatz", "amenity": "pharmacy", "healthcare": "pharmacy", "name": "Salvator Apotheke"}, "content": "Salvator Apotheke\nKategorie: amenity:pharmacy\nAdresse: Hauptplatz 3, 9560 Feldkirchen in Kärnten\nOrt: Feldkirchen in Kärnten\nPLZ: 9560\nKoordinaten: 46.723620, 14.091708\nTags: amenity=pharmacy, healthcare=pharmacy", "doc_type": "addresses"}
{"source": "OSM", "region": "Kärnten", "osm_type": "node", "osm_id": 4353259325, "name": "T&G", "category": "shop:supermarket", "address": "Milesipark 1, 9560 Feldkirchen in Kärnten", "street": "Milesipark", "housenumber": "1", "postcode": "9560", "place": "Feldkirchen in Kärnten", "lat": 46.7274994, "lon": 14.0907556, "tags": {"addr:city": "Feldkirchen in Kärnten", "addr:housenumber": "1", "addr:postcode": "9560", "addr:street": "Milesipark", "name": "T&G", "operator": "MPREIS Warenvertriebs GmbH", "shop": "supermarket"}, "content": "T&G\nKategorie: shop:supermarket\nAdresse: Milesipark 1, 9560 Feldkirchen in Kärnten\nOrt: Feldkirchen in Kärnten\nPLZ: 9560\nKoordinaten: 46.727499, 14.090756\nTags: shop=supermarket, operator=MPREIS Warenvertriebs GmbH", "doc_type": "addresses"}
{"source": "OSM", "region": "Kärnten", "osm_type": "node", "osm_id": 4394732747, "name": null, "category": null, "address": "Rauterplatz 1, 9560 Feldkirchen in Kärnten", "street": "Rauterplatz", "housenumber": "1", "postcode": "9560", "place": "Feldkirchen in Kärnten", "lat": 46.7244459, "lon": 14.0922006, "tags": {"addr:city": "Feldkirchen in Kärnten", "addr:housenumber": "1", "addr:postcode": "9560", "addr:street": "Rauterplatz"}, "content": "Adresse: Rauterplatz 1, 9560 Feldkirchen in Kärnten\nOrt: Feldkirchen in Kärnten\nPLZ: 9560\nKoordinaten: 46.724446, 14.092201", "doc_type": "addresses"}
{"source": "OSM", "region": "Kärnten", "osm_type": "node", "osm_id": 4394732774, "name": null, "category": null, "address": "Hauptplatz 1, 9560 Feldkirchen in Kärnten", "street": "Hauptplatz", "housenumber": "1", "postcode": "9560", "place": "Feldkirchen in Kärnten", "lat": 46.7238964, "lon": 14.0918139, "tags": {"addr:city": "Feldkirchen in Kärnten", "addr:housenumber": "1", "addr:postcode": "9560", "addr:street": "Hauptplatz"}, "content": "Adresse: Hauptplatz 1, 9560 Feldkirchen in Kärnten\nOrt: Feldkirchen in Kärnten\nPLZ: 9560\nKoordinaten: 46.723896, 14.091814", "doc_type": "addresses"}
{"source": "OSM", "region": "Kärnten", "osm_type": "node", "osm_id": 4394834407, "name": null, "category": null, "address": "10.-Oktober-Straße 3, 9560 Feldkirchen in Kärnten", "street": "10.-Oktober-Straße", "housenumber": "3", "postcode": "9560", "place": "Feldkirchen in Kärnten", "lat": 46.7246406, "lon": 14.0937265, "tags": {"addr:city": "Feldkirchen in Kärnten", "addr:housenumber": "3", "addr:postcode": "9560", "addr:street": "10.-Oktober-Straße"}, "content": "Adresse: 10.-Oktober-Straße 3, 9560 Feldkirchen in Kärnten\nOrt: Feldkirchen in Kärnten\nPLZ: 9560\nKoordinaten: 46.724641, 14.093727", "doc_type": "addresses"}
{"source": "OSM", "region": "Kärnten", "osm_type": "node", "osm_id": 4397889275, "name": "Breschan", "category": "shop:toys", "address": "Kirchgasse 6, 9560 Feldkirchen in Kärnten", "street": "Kirchgasse", "housenumber": "6", "postcode": "9560", "place": "Feldkirchen in Kärnten", "lat": 46.7248666, "lon": 14.0925359, "tags": {"addr:city": "Feldkirchen in Kärnten", "addr:housenumber": "6", "addr:postcode": "9560", "addr:street": "Kirchgasse", "name": "Breschan", "operator": "Mag. Heinz Breschan", "shop": "toys"}, "content": "Breschan\nKategorie: shop:toys\nAdresse: Kirchgasse 6, 9560 Feldkirchen in Kärnten\nOrt: Feldkirchen in Kärnten\nPLZ: 9560\nKoordinaten: 46.724867, 14.092536\nTags: shop=toys, operator=Mag. Heinz Breschan", "doc_type": "addresses"}
{"source": "OSM", "region": "Kärnten", "osm_type": "node", "osm_id": 4416793190, "name": "Karawanke Bäckerei", "category": "shop:bakery", "address": "10.-Oktober-Straße 8, 9560 Feldkirchen in Kärnten", "street": "10.-Oktober-Straße", "housenumber": "8", "postcode": "9560", "place": "Feldkirchen in Kärnten", "lat": 46.7243384, "lon": 14.0938687, "tags": {"addr:city": "Feldkirchen in Kärnten", "addr:housenumber": "8", "addr:postcode": "9560", "addr:street": "10.-Oktober-Straße", "name": "Karawanke Bäckerei", "shop": "bakery"}, "content": "Karawanke Bäckerei\nKategorie: shop:bakery\nAdresse: 10.-Oktober-Straße 8, 9560 Feldkirchen in Kärnten\nOrt: Feldkirchen in Kärnten\nPLZ: 9560\nKoordinaten: 46.724338, 14.093869\nTags: shop=bakery", "doc_type": "addresses"}
{"source": "OSM", "region": "Kärnten", "osm_type": "node", "osm_id": 4519322454, "name": null, "category": null, "address": "Markstein-Siedlung 6, Feldkirchen in Kärnten", "street": "Markstein-Siedlung", "housenumber": "6", "postcode": null, "place": "Feldkirchen in Kärnten", "lat": 46.7056957, "lon": 14.1094518, "tags": {"addr:city": "Feldkirchen in Kärnten", "addr:housenumber": "6", "addr:street": "Markstein-Siedlung"}, "content": "Adresse: Markstein-Siedlung 6, Feldkirchen in Kärnten\nOrt: Feldkirchen in Kärnten\nKoordinaten: 46.705696, 14.109452", "doc_type": "addresses"}
{"source": "OSM", "region": "Kärnten", "osm_type": "node", "osm_id": 4519322455, "name": null, "category": null, "address": "Markstein-Siedlung 2, Feldkirchen in Kärnten", "street": "Markstein-Siedlung", "housenumber": "2", "postcode": null, "place": "Feldkirchen in Kärnten", "lat": 46.7053006, "lon": 14.1087388, "tags": {"addr:city": "Feldkirchen in Kärnten", "addr:housenumber": "2", "addr:street": "Markstein-Siedlung"}, "content": "Adresse: Markstein-Siedlung 2, Feldkirchen in Kärnten\nOrt: Feldkirchen in Kärnten\nKoordinaten: 46.705301, 14.108739", "doc_type": "addresses"}
{"source": "OSM", "region": "Kärnten", "osm_type": "node", "osm_id": 4519322456, "name": null, "category": null, "address": "Markstein-Siedlung 4, Feldkirchen in Kärnten", "street": "Markstein-Siedlung", "housenumber": "4", "postcode": null, "place": "Feldkirchen in Kärnten", "lat": 46.705555, "lon": 14.1088927, "tags": {"addr:city": "Feldkirchen in Kärnten", "addr:housenumber": "4", "addr:street": "Markstein-Siedlung"}, "content": "Adresse: Markstein-Siedlung 4, Feldkirchen in Kärnten\nOrt: Feldkirchen in Kärnten\nKoordinaten: 46.705555, 14.108893", "doc_type": "addresses"}
{"source": "OSM", "region": "Kärnten", "osm_type": "node", "osm_id": 4519322457, "name": null, "category": null, "address": "Markstein-Siedlung 5, Feldkirchen in Kärnten", "street": "Markstein-Siedlung", "housenumber": "5", "postcode": null, "place": "Feldkirchen in Kärnten", "lat": 46.7063336, "lon": 14.1090141, "tags": {"addr:city": "Feldkirchen in Kärnten", "addr:housenumber": "5", "addr:street": "Markstein-Siedlung"}, "content": "Adresse: Markstein-Siedlung 5, Feldkirchen in Kärnten\nOrt: Feldkirchen in Kärnten\nKoordinaten: 46.706334, 14.109014", "doc_type": "addresses"}
{"source": "OSM", "region": "Kärnten", "osm_type": "node", "osm_id": 4519322473, "name": "Angelsport Freithofer", "category": "shop:fishing", "address": "Bambergerplatz 12, 9560 Feldkirchen in Kärnten", "street": "Bambergerplatz", "housenumber": "12", "postcode": "9560", "place": "Feldkirchen in Kärnten", "lat": 46.72582, "lon": 14.0906347, "tags": {"addr:city": "Feldkirchen in Kärnten", "addr:housenumber": "12", "addr:postcode": "9560", "addr:street": "Bambergerplatz", "name": "Angelsport Freithofer", "shop": "fishing"}, "content": "Angelsport Freithofer\nKategorie: shop:fishing\nAdresse: Bambergerplatz 12, 9560 Feldkirchen in Kärnten\nOrt: Feldkirchen in Kärnten\nPLZ: 9560\nKoordinaten: 46.725820, 14.090635\nTags: shop=fishing", "doc_type": "addresses"}
{"source": "OSM", "region": "Kärnten", "osm_type": "node", "osm_id": 4524477687, "name": "Spitzer Installationen", "category": "craft:plumber", "address": "10.-Oktober-Straße 14, 9560 Feldkirchen in Kärnten", "street": "10.-Oktober-Straße", "housenumber": "14", "postcode": "9560", "place": "Feldkirchen in Kärnten", "lat": 46.7235241, "lon": 14.0946137, "tags": {"addr:city": "Feldkirchen in Kärnten", "addr:housenumber": "14", "addr:postcode": "9560", "addr:street": "10.-Oktober-Straße", "craft": "plumber", "name": "Spitzer Installationen"}, "content": "Spitzer Installationen\nKategorie: craft:plumber\nAdresse: 10.-Oktober-Straße 14, 9560 Feldkirchen in Kärnten\nOrt: Feldkirchen in Kärnten\nPLZ: 9560\nKoordinaten: 46.723524, 14.094614", "doc_type": "addresses"}
{"source": "OSM", "region": "Kärnten", "osm_type": "node", "osm_id": 4532929900, "name": null, "category": null, "address": "Turracher Straße 29a, 9560 Feldkirchen in Kärnten", "street": "Turracher Straße", "housenumber": "29a", "postcode": "9560", "place": "Feldkirchen in Kärnten", "lat": 46.7328733, "lon": 14.0787622, "tags": {"addr:city": "Feldkirchen in Kärnten", "addr:housenumber": "29a", "addr:postcode": "9560", "addr:street": "Turracher Straße"}, "content": "Adresse: Turracher Straße 29a, 9560 Feldkirchen in Kärnten\nOrt: Feldkirchen in Kärnten\nPLZ: 9560\nKoordinaten: 46.732873, 14.078762", "doc_type": "addresses"}
{"source": "OSM", "region": "Kärnten", "osm_type": "node", "osm_id": 4532929901, "name": null, "category": null, "address": "Turracher Straße 25, 9560 Feldkirchen in Kärnten", "street": "Turracher Straße", "housenumber": "25", "postcode": "9560", "place": "Feldkirchen in Kärnten", "lat": 46.7316967, "lon": 14.0784779, "tags": {"addr:city": "Feldkirchen in Kärnten", "addr:housenumber": "25", "addr:postcode": "9560", "addr:street": "Turracher Straße"}, "content": "Adresse: Turracher Straße 25, 9560 Feldkirchen in Kärnten\nOrt: Feldkirchen in Kärnten\nPLZ: 9560\nKoordinaten: 46.731697, 14.078478", "doc_type": "addresses"}
{"source": "OSM", "region": "Kärnten", "osm_type": "node", "osm_id": 4532929907, "name": null, "category": null, "address": "Neuhofweg 16, 9560 Feldkirchen in Kärnten", "street": "Neuhofweg", "housenumber": "16", "postcode": "9560", "place": "Feldkirchen in Kärnten", "lat": 46.7276259, "lon": 14.0788273, "tags": {"addr:city": "Feldkirchen in Kärnten", "addr:housenumber": "16", "addr:postcode": "9560", "addr:street": "Neuhofweg"}, "content": "Adresse: Neuhofweg 16, 9560 Feldkirchen in Kärnten\nOrt: Feldkirchen in Kärnten\nPLZ: 9560\nKoordinaten: 46.727626, 14.078827", "doc_type": "addresses"}
{"source": "OSM", "region": "Kärnten", "osm_type": "node", "osm_id": 4532929960, "name": null, "category": null, "address": "Bürgergasse 1, 9560 Feldkirchen in Kärnten", "street": "Bürgergasse", "housenumber": "1", "postcode": "9560", "place": "Feldkirchen in Kärnten", "lat": 46.7235872, "lon": 14.0928481, "tags": {"addr:city": "Feldkirchen in Kärnten", "addr:housenumber": "1", "addr:postcode": "9560", "addr:street": "Bürgergasse"}, "content": "Adresse: Bürgergasse 1, 9560 Feldkirchen in Kärnten\nOrt: Feldkirchen in Kärnten\nPLZ: 9560\nKoordinaten: 46.723587, 14.092848", "doc_type": "addresses"}
{"source": "OSM", "region": "Kärnten", "osm_type": "node", "osm_id": 4532929961, "name": null, "category": null, "address": "Hauptplatz 14a, 9560 Feldkirchen in Kärnten", "street": "Hauptplatz", "housenumber": "14a", "postcode": "9560", "place": "Feldkirchen in Kärnten", "lat": 46.7238746, "lon": 14.0926815, "tags": {"addr:city": "Feldkirchen in Kärnten", "addr:housenumber": "14a", "addr:postcode": "9560", "addr:street": "Hauptplatz"}, "content": "Adresse: Hauptplatz 14a, 9560 Feldkirchen in Kärnten\nOrt: Feldkirchen in Kärnten\nPLZ: 9560\nKoordinaten: 46.723875, 14.092681", "doc_type": "addresses"}
{"source": "OSM", "region": "Kärnten", "osm_type": "node", "osm_id": 4532929962, "name": null, "category": null, "address": "Hauptplatz 13a, 9560 Feldkirchen in Kärnten", "street": "Hauptplatz", "housenumber": "13a", "postcode": "9560", "place": "Feldkirchen in Kärnten", "lat": 46.723893, "lon": 14.0928693, "tags": {"addr:city": "Feldkirchen in Kärnten", "addr:housenumber": "13a", "addr:postcode": "9560", "addr:street": "Hauptplatz"}, "content": "Adresse: Hauptplatz 13a, 9560 Feldkirchen in Kärnten\nOrt: Feldkirchen in Kärnten\nPLZ: 9560\nKoordinaten: 46.723893, 14.092869", "doc_type": "addresses"}
{"source": "OSM", "region": "Kärnten", "osm_type": "node", "osm_id": 4532929963, "name": null, "category": null, "address": "Hauptplatz 11, 9560 Feldkirchen in Kärnten", "street": "Hauptplatz", "housenumber": "11", "postcode": "9560", "place": "Feldkirchen in Kärnten", "lat": 46.7233202, "lon": 14.0929364, "tags": {"addr:city": "Feldkirchen in Kärnten", "addr:housenumber": "11", "addr:postcode": "9560", "addr:street": "Hauptplatz"}, "content": "Adresse: Hauptplatz 11, 9560 Feldkirchen in Kärnten\nOrt: Feldkirchen in Kärnten\nPLZ: 9560\nKoordinaten: 46.723320, 14.092936", "doc_type": "addresses"}
{"source": "OSM", "region": "Kärnten", "osm_type": "node", "osm_id": 4532929966, "name": null, "category": null, "address": "Ernst-Schwarz-Weg 12, 9560 Feldkirchen in Kärnten", "street": "Ernst-Schwarz-Weg", "housenumber": "12", "postcode": "9560", "place": "Feldkirchen in Kärnten", "lat": 46.7299769, "lon": 14.0803152, "tags": {"addr:city": "Feldkirchen in Kärnten", "addr:housenumber": "12", "addr:postcode": "9560", "addr:street": "Ernst-Schwarz-Weg"}, "content": "Adresse: Ernst-Schwarz-Weg 12, 9560 Feldkirchen in Kärnten\nOrt: Feldkirchen in Kärnten\nPLZ: 9560\nKoordinaten: 46.729977, 14.080315", "doc_type": "addresses"}
{"source": "OSM", "region": "Kärnten", "osm_type": "node", "osm_id": 4532929985, "name": null, "category": null, "address": "Sparkassenstraße 2, 9560 Feldkirchen in Kärnten", "street": "Sparkassenstraße", "housenumber": "2", "postcode": "9560", "place": "Feldkirchen in Kärnten", "lat": 46.7256183, "lon": 14.0921067, "tags": {"addr:city": "Feldkirchen in Kärnten", "addr:housenumber": "2", "addr:postcode": "9560", "addr:street": "Sparkassenstraße"}, "content": "Adresse: Sparkassenstraße 2, 9560 Feldkirchen in Kärnten\nOrt: Feldkirchen in Kärnten\nPLZ: 9560\nKoordinaten: 46.725618, 14.092107", "doc_type": "addresses"}
{"source": "OSM", "region": "Kärnten", "osm_type": "node", "osm_id": 4540352761, "name": null, "category": null, "address": "Bambergerplatz 9a, 9560 Feldkirchen in Kärnten", "street": "Bambergerplatz", "housenumber": "9a", "postcode": "9560", "place": "Feldkirchen in Kärnten", "lat": 46.7250903, "lon": 14.0920022, "tags": {"addr:city": "Feldkirchen in Kärnten", "addr:housenumber": "9a", "addr:postcode": "9560", "addr:street": "Bambergerplatz"}, "content": "Adresse: Bambergerplatz 9a, 9560 Feldkirchen in Kärnten\nOrt: Feldkirchen in Kärnten\nPLZ: 9560\nKoordinaten: 46.725090, 14.092002", "doc_type": "addresses"}
{"source": "OSM", "region": "Kärnten", "osm_type": "node", "osm_id": 4540352776, "name": null, "category": null, "address": "Bahnhofstraße 3a, 9560 Feldkirchen in Kärnten", "street": "Bahnhofstraße", "housenumber": "3a", "postcode": "9560", "place": "Feldkirchen in Kärnten", "lat": 46.7243622, "lon": 14.0930336, "tags": {"addr:city": "Feldkirchen in Kärnten", "addr:housenumber": "3a", "addr:postcode": "9560", "addr:street": "Bahnhofstraße"}, "content": "Adresse: Bahnhofstraße 3a, 9560 Feldkirchen in Kärnten\nOrt: Feldkirchen in Kärnten\nPLZ: 9560\nKoordinaten: 46.724362, 14.093034", "doc_type": "addresses"}
{"source": "OSM", "region": "Kärnten", "osm_type": "node", "osm_id": 4773517696, "name": "Zum Wirtshaus", "category": "amenity:restaurant", "address": "Hauptplatz 2, 9560 Feldkirchen in Kärnten", "street": "Hauptplatz", "housenumber": "2", "postcode": "9560", "place": "Feldkirchen in Kärnten", "lat": 46.7237135, "lon": 14.0917406, "tags": {"addr:city": "Feldkirchen in Kärnten", "addr:housenumber": "2", "addr:postcode": "9560", "addr:street": "Hauptplatz", "amenity": "restaurant", "name": "Zum Wirtshaus"}, "content": "Zum Wirtshaus\nKategorie: amenity:restaurant\nAdresse: Hauptplatz 2, 9560 Feldkirchen in Kärnten\nOrt: Feldkirchen in Kärnten\nPLZ: 9560\nKoordinaten: 46.723714, 14.091741\nTags: amenity=restaurant", "doc_type": "addresses"}
{"source": "OSM", "region": "Kärnten", "osm_type": "node", "osm_id": 4775007857, "name": "Asterix Pub", "category": "amenity:bar", "address": "Hauptplatz 2, 9560 Feldkirchen in Kärnten", "street": "Hauptplatz", "housenumber": "2", "postcode": "9560", "place": "Feldkirchen in Kärnten", "lat": 46.7237757, "lon": 14.0917736, "tags": {"addr:city": "Feldkirchen in Kärnten", "addr:housenumber": "2", "addr:postcode": "9560", "addr:street": "Hauptplatz", "amenity": "bar", "name": "Asterix Pub", "operator": "Astrid Wurmitzer"}, "content": "Asterix Pub\nKategorie: amenity:bar\nAdresse: Hauptplatz 2, 9560 Feldkirchen in Kärnten\nOrt: Feldkirchen in Kärnten\nPLZ: 9560\nKoordinaten: 46.723776, 14.091774\nTags: amenity=bar, operator=Astrid Wurmitzer", "doc_type": "addresses"}
{"source": "OSM", "region": "Kärnten", "osm_type": "node", "osm_id": 4775010991, "name": "Café Konditorei Walten", "category": "amenity:cafe", "address": "Hauptplatz 4, 9560 Feldkirchen in Kärnten", "street": "Hauptplatz", "housenumber": "4", "postcode": "9560", "place": "Feldkirchen in Kärnten", "lat": 46.7234227, "lon": 14.0918004, "tags": {"addr:city": "Feldkirchen in Kärnten", "addr:housenumber": "4", "addr:postcode": "9560", "addr:street": "Hauptplatz", "amenity": "cafe", "name": "Café Konditorei Walten"}, "content": "Café Konditorei Walten\nKategorie: amenity:cafe\nAdresse: Hauptplatz 4, 9560 Feldkirchen in Kärnten\nOrt: Feldkirchen in Kärnten\nPLZ: 9560\nKoordinaten: 46.723423, 14.091800\nTags: amenity=cafe", "doc_type": "addresses"}
{"source": "OSM", "region": "Kärnten", "osm_type": "node", "osm_id": 4775013121, "name": null, "category": null, "address": "Hauptplatz 8, 9560 Feldkirchen in Kärnten", "street": "Hauptplatz", "housenumber": "8", "postcode": "9560", "place": "Feldkirchen in Kärnten", "lat": 46.7232443, "lon": 14.0925193, "tags": {"addr:city": "Feldkirchen in Kärnten", "addr:housenumber": "8", "addr:postcode": "9560", "addr:street": "Hauptplatz"}, "content": "Adresse: Hauptplatz 8, 9560 Feldkirchen in Kärnten\nOrt: Feldkirchen in Kärnten\nPLZ: 9560\nKoordinaten: 46.723244, 14.092519", "doc_type": "addresses"}
{"source": "OSM", "region": "Kärnten", "osm_type": "node", "osm_id": 4775015713, "name": "Rock-Café Filiale", "category": "amenity:bar", "address": "Hauptplatz 8, 9560 Feldkirchen in Kärnten", "street": "Hauptplatz", "housenumber": "8", "postcode": "9560", "place": "Feldkirchen in Kärnten", "lat": 46.7233252, "lon": 14.0926024, "tags": {"addr:city": "Feldkirchen in Kärnten", "addr:housenumber": "8", "addr:postcode": "9560", "addr:street": "Hauptplatz", "amenity": "bar", "name": "Rock-Café Filiale", "operator": "Gerry Sobian"}, "content": "Rock-Café Filiale\nKategorie: amenity:bar\nAdresse: Hauptplatz 8, 9560 Feldkirchen in Kärnten\nOrt: Feldkirchen in Kärnten\nPLZ: 9560\nKoordinaten: 46.723325, 14.092602\nTags: amenity=bar, operator=Gerry Sobian", "doc_type": "addresses"}
{"source": "OSM", "region": "Kärnten", "osm_type": "node", "osm_id": 4775020189, "name": "Buci´s Kebap", "category": "amenity:fast_food", "address": "Hauptplatz 3, 9560 Feldkirchen in Kärnten", "street": "Hauptplatz", "housenumber": "3", "postcode": "9560", "place": "Feldkirchen in Kärnten", "lat": 46.7236159, "lon": 14.092784, "tags": {"addr:city": "Feldkirchen in Kärnten", "addr:housenumber": "3", "addr:postcode": "9560", "addr:street": "Hauptplatz", "amenity": "fast_food", "name": "Buci´s Kebap", "operator": "Sick Basri"}, "content": "Buci´s Kebap\nKategorie: amenity:fast_food\nAdresse: Hauptplatz 3, 9560 Feldkirchen in Kärnten\nOrt: Feldkirchen in Kärnten\nPLZ: 9560\nKoordinaten: 46.723616, 14.092784\nTags: amenity=fast_food, operator=Sick Basri", "doc_type": "addresses"}
{"source": "OSM", "region": "Kärnten", "osm_type": "node", "osm_id": 4775023646, "name": "The Jukebox", "category": "amenity:bar", "address": "Ossiacherstraße 1a, 9560 Feldkirchen in Kärnten", "street": "Ossiacherstraße", "housenumber": "1a", "postcode": "9560", "place": "Feldkirchen in Kärnten", "lat": 46.7234935, "lon": 14.0914594, "tags": {"addr:city": "Feldkirchen in Kärnten", "addr:housenumber": "1a", "addr:postcode": "9560", "addr:street": "Ossiacherstraße", "amenity": "bar", "name": "The Jukebox", "operator": "Rudolf Gailer"}, "content": "The Jukebox\nKategorie: amenity:bar\nAdresse: Ossiacherstraße 1a, 9560 Feldkirchen in Kärnten\nOrt: Feldkirchen in Kärnten\nPLZ: 9560\nKoordinaten: 46.723493, 14.091459\nTags: amenity=bar, operator=Rudolf Gailer", "doc_type": "addresses"}
{"source": "OSM", "region": "Kärnten", "osm_type": "node", "osm_id": 4775025368, "name": "Chilibar", "category": "amenity:bar", "address": "Rauterplatz 2, 9560 Feldkirchen in Kärnten", "street": "Rauterplatz", "housenumber": "2", "postcode": "9560", "place": "Feldkirchen in Kärnten", "lat": 46.7241379, "lon": 14.0923074, "tags": {"addr:city": "Feldkirchen in Kärnten", "addr:housenumber": "2", "addr:postcode": "9560", "addr:street": "Rauterplatz", "amenity": "bar", "name": "Chilibar", "operator": "Mario Held"}, "content": "Chilibar\nKategorie: amenity:bar\nAdresse: Rauterplatz 2, 9560 Feldkirchen in Kärnten\nOrt: Feldkirchen in Kärnten\nPLZ: 9560\nKoordinaten: 46.724138, 14.092307\nTags: amenity=bar, operator=Mario Held", "doc_type": "addresses"}
{"source": "OSM", "region": "Kärnten", "osm_type": "node", "osm_id": 4775028418, "name": "Piano Bar", "category": "amenity:bar", "address": "Rauterplatz 5, 9560 Feldkirchen in Kärnten", "street": "Rauterplatz", "housenumber": "5", "postcode": "9560", "place": "Feldkirchen in Kärnten", "lat": 46.7240662, "lon": 14.0922886, "tags": {"addr:city": "Feldkirchen in Kärnten", "addr:housenumber": "5", "addr:postcode": "9560", "addr:street": "Rauterplatz", "amenity": "bar", "name": "Piano Bar"}, "content": "Piano Bar\nKategorie: amenity:bar\nAdresse: Rauterplatz 5, 9560 Feldkirchen in Kärnten\nOrt: Feldkirchen in Kärnten\nPLZ: 9560\nKoordinaten: 46.724066, 14.092289\nTags: amenity=bar", "doc_type": "addresses"}
{"source": "OSM", "region": "Kärnten", "osm_type": "node", "osm_id": 4775035915, "name": "Cafe-Bar-Memories", "category": "amenity:bar", "address": "Bahnhofstraße 1, 9560 Feldkirchen in Kärnten", "street": "Bahnhofstraße", "housenumber": "1", "postcode": "9560", "place": "Feldkirchen in Kärnten", "lat": 46.7241563, "lon": 14.0925729, "tags": {"addr:city": "Feldkirchen in Kärnten", "addr:housenumber": "1", "addr:postcode": "9560", "addr:street": "Bahnhofstraße", "amenity": "bar", "name": "Cafe-Bar-Memories", "operator": "Rudolf Gailer"}, "content": "Cafe-Bar-Memories\nKategorie: amenity:bar\nAdresse: Bahnhofstraße 1, 9560 Feldkirchen in Kärnten\nOrt: Feldkirchen in Kärnten\nPLZ: 9560\nKoordinaten: 46.724156, 14.092573\nTags: amenity=bar, operator=Rudolf Gailer", "doc_type": "addresses"}
{"source": "OSM", "region": "Kärnten", "osm_type": "node", "osm_id": 4821313139, "name": "Dr. Wolfgang Albrecht", "category": "amenity:doctors", "address": "Obere Tiebelgasse 7, 9560 Feldkirchen in Kärnten", "street": "Obere Tiebelgasse", "housenumber": "7", "postcode": "9560", "place": "Feldkirchen in Kärnten", "lat": 46.7244745, "lon": 14.0956665, "tags": {"addr:city": "Feldkirchen in Kärnten", "addr:housenumber": "7", "addr:postcode": "9560", "addr:street": "Obere Tiebelgasse", "amenity": "doctors", "healthcare": "doctor", "name": "Dr. Wolfgang Albrecht", "website": "https://www.gyn-albrecht.at/"}, "content": "Dr. Wolfgang Albrecht\nKategorie: amenity:doctors\nAdresse: Obere Tiebelgasse 7, 9560 Feldkirchen in Kärnten\nOrt: Feldkirchen in Kärnten\nPLZ: 9560\nKoordinaten: 46.724474, 14.095667\nTags: amenity=doctors, healthcare=doctor, website=https://www.gyn-albrecht.at/", "doc_type": "addresses"}
{"source": "OSM", "region": "Kärnten", "osm_type": "node", "osm_id": 4833177781, "name": null, "category": null, "address": "11, 9560 Feldkirchen in Kärnten", "street": null, "housenumber": "11", "postcode": "9560", "place": "Feldkirchen in Kärnten", "lat": 46.728798, "lon": 14.1466886, "tags": {"addr:city": "Feldkirchen in Kärnten", "addr:housenumber": "11", "addr:place": "Raunach", "addr:postcode": "9560"}, "content": "Adresse: 11, 9560 Feldkirchen in Kärnten\nOrt: Feldkirchen in Kärnten\nPLZ: 9560\nKoordinaten: 46.728798, 14.146689", "doc_type": "addresses"}
{"source": "OSM", "region": "Kärnten", "osm_type": "node", "osm_id": 4836650434, "name": null, "category": null, "address": "Kindergartenstraße 1, 9560 Feldkirchen in Kärnten", "street": "Kindergartenstraße", "housenumber": "1", "postcode": "9560", "place": "Feldkirchen in Kärnten", "lat": 46.7241706, "lon": 14.0882675, "tags": {"addr:city": "Feldkirchen in Kärnten", "addr:housenumber": "1", "addr:postcode": "9560", "addr:street": "Kindergartenstraße"}, "content": "Adresse: Kindergartenstraße 1, 9560 Feldkirchen in Kärnten\nOrt: Feldkirchen in Kärnten\nPLZ: 9560\nKoordinaten: 46.724171, 14.088268", "doc_type": "addresses"}
{"source": "OSM", "region": "Kärnten", "osm_type": "node", "osm_id": 4836683672, "name": null, "category": null, "address": "1, 9560 Feldkirchen in Kärnten", "street": null, "housenumber": "1", "postcode": "9560", "place": "Feldkirchen in Kärnten", "lat": 46.7334546, "lon": 14.1141223, "tags": {"addr:city": "Feldkirchen in Kärnten", "addr:housenumber": "1", "addr:place": "Tschwarzen", "addr:postcode": "9560"}, "content": "Adresse: 1, 9560 Feldkirchen in Kärnten\nOrt: Feldkirchen in Kärnten\nPLZ: 9560\nKoordinaten: 46.733455, 14.114122", "doc_type": "addresses"}
{"source": "OSM", "region": "Kärnten", "osm_type": "node", "osm_id": 4837681145, "name": null, "category": null, "address": "Himmelberger Straße 2, 9560 Feldkirchen in Kärnten", "street": "Himmelberger Straße", "housenumber": "2", "postcode": "9560", "place": "Feldkirchen in Kärnten", "lat": 46.7245853, "lon": 14.0905892, "tags": {"addr:city": "Feldkirchen in Kärnten", "addr:housenumber": "2", "addr:postcode": "9560", "addr:street": "Himmelberger Straße"}, "content": "Adresse: Himmelberger Straße 2, 9560 Feldkirchen in Kärnten\nOrt: Feldkirchen in Kärnten\nPLZ: 9560\nKoordinaten: 46.724585, 14.090589", "doc_type": "addresses"}
{"source": "OSM", "region": "Kärnten", "osm_type": "node", "osm_id": 4837681146, "name": null, "category": null, "address": "Himmelberger Straße 4a, 9560 Feldkirchen in Kärnten", "street": "Himmelberger Straße", "housenumber": "4a", "postcode": "9560", "place": "Feldkirchen in Kärnten", "lat": 46.7254553, "lon": 14.0884105, "tags": {"addr:city": "Feldkirchen in Kärnten", "addr:housenumber": "4a", "addr:postcode": "9560", "addr:street": "Himmelberger Straße"}, "content": "Adresse: Himmelberger Straße 4a, 9560 Feldkirchen in Kärnten\nOrt: Feldkirchen in Kärnten\nPLZ: 9560\nKoordinaten: 46.725455, 14.088411", "doc_type": "addresses"}
{"source": "OSM", "region": "Kärnten", "osm_type": "node", "osm_id": 4837681147, "name": null, "category": null, "address": "Ossiacherstraße 1, 9560 Feldkirchen in Kärnten", "street": "Ossiacherstraße", "housenumber": "1", "postcode": "9560", "place": "Feldkirchen in Kärnten", "lat": 46.7234194, "lon": 14.0916263, "tags": {"addr:city": "Feldkirchen in Kärnten", "addr:housenumber": "1", "addr:postcode": "9560", "addr:street": "Ossiacherstraße"}, "content": "Adresse: Ossiacherstraße 1, 9560 Feldkirchen in Kärnten\nOrt: Feldkirchen in Kärnten\nPLZ: 9560\nKoordinaten: 46.723419, 14.091626", "doc_type": "addresses"}
{"source": "OSM", "region": "Kärnten", "osm_type": "node", "osm_id": 4837681148, "name": null, "category": null, "address": "Ossiacherstraße 2, 9560 Feldkirchen in Kärnten", "street": "Ossiacherstraße", "housenumber": "2", "postcode": "9560", "place": "Feldkirchen in Kärnten", "lat": 46.7233109, "lon": 14.0915615, "tags": {"addr:city": "Feldkirchen in Kärnten", "addr:housenumber": "2", "addr:postcode": "9560", "addr:street": "Ossiacherstraße"}, "content": "Adresse: Ossiacherstraße 2, 9560 Feldkirchen in Kärnten\nOrt: Feldkirchen in Kärnten\nPLZ: 9560\nKoordinaten: 46.723311, 14.091561", "doc_type": "addresses"}
{"source": "OSM", "region": "Kärnten", "osm_type": "node", "osm_id": 4837681149, "name": null, "category": null, "address": "Heftgasse 2, 9560 Feldkirchen in Kärnten", "street": "Heftgasse", "housenumber": "2", "postcode": "9560", "place": "Feldkirchen in Kärnten", "lat": 46.7232683, "lon": 14.0911955, "tags": {"addr:city": "Feldkirchen in Kärnten", "addr:housenumber": "2", "addr:postcode": "9560", "addr:street": "Heftgasse"}, "content": "Adresse: Heftgasse 2, 9560 Feldkirchen in Kärnten\nOrt: Feldkirchen in Kärnten\nPLZ: 9560\nKoordinaten: 46.723268, 14.091195", "doc_type": "addresses"}
{"source": "OSM", "region": "Kärnten", "osm_type": "node", "osm_id": 4837681163, "name": null, "category": null, "address": "Schüttgasse 4, 9560 Feldkirchen in Kärnten", "street": "Schüttgasse", "housenumber": "4", "postcode": "9560", "place": "Feldkirchen in Kärnten", "lat": 46.7200253, "lon": 14.0956675, "tags": {"addr:city": "Feldkirchen in Kärnten", "addr:housenumber": "4", "addr:postcode": "9560", "addr:street": "Schüttgasse"}, "content": "Adresse: Schüttgasse 4, 9560 Feldkirchen in Kärnten\nOrt: Feldkirchen in Kärnten\nPLZ: 9560\nKoordinaten: 46.720025, 14.095667", "doc_type": "addresses"}
{"source": "OSM", "region": "Kärnten", "osm_type": "node", "osm_id": 4837681164, "name": null, "category": null, "address": "Schüttgasse 3, 9560 Feldkirchen in Kärnten", "street": "Schüttgasse", "housenumber": "3", "postcode": "9560", "place": "Feldkirchen in Kärnten", "lat": 46.7200506, "lon": 14.0960133, "tags": {"addr:city": "Feldkirchen in Kärnten", "addr:housenumber": "3", "addr:postcode": "9560", "addr:street": "Schüttgasse"}, "content": "Adresse: Schüttgasse 3, 9560 Feldkirchen in Kärnten\nOrt: Feldkirchen in Kärnten\nPLZ: 9560\nKoordinaten: 46.720051, 14.096013", "doc_type": "addresses"}
{"source": "OSM", "region": "Kärnten", "osm_type": "node", "osm_id": 4846557470, "name": null, "category": null, "address": "Schlossblick 12, 9560 Feldkirchen in Kärnten", "street": "Schlossblick", "housenumber": "12", "postcode": "9560", "place": "Feldkirchen in Kärnten", "lat": 46.6910276, "lon": 14.1153945, "tags": {"addr:city": "Feldkirchen in Kärnten", "addr:housenumber": "12", "addr:postcode": "9560", "addr:street": "Schlossblick"}, "content": "Adresse: Schlossblick 12, 9560 Feldkirchen in Kärnten\nOrt: Feldkirchen in Kärnten\nPLZ: 9560\nKoordinaten: 46.691028, 14.115395", "doc_type": "addresses"}
{"source": "OSM", "region": "Kärnten", "osm_type": "node", "osm_id": 4957611599, "name": "Wirtschaftskammer", "category": "office:yes", "address": "Dr.-A.-Lemisch-Straße 4, 9560 Feldkirchen in Kärnten", "street": "Dr.-A.-Lemisch-Straße", "housenumber": "4", "postcode": "9560", "place": "Feldkirchen in Kärnten", "lat": 46.7260431, "lon": 14.0903102, "tags": {"addr:city": "Feldkirchen in Kärnten", "addr:housenumber": "4", "addr:postcode": "9560", "addr:street": "Dr.-A.-Lemisch-Straße", "name": "Wirtschaftskammer", "office": "yes", "website": "https://www.wko.at/"}, "content": "Wirtschaftskammer\nKategorie: office:yes\nAdresse: Dr.-A.-Lemisch-Straße 4, 9560 Feldkirchen in Kärnten\nOrt: Feldkirchen in Kärnten\nPLZ: 9560\nKoordinaten: 46.726043, 14.090310\nTags: office=yes, website=https://www.wko.at/", "doc_type": "addresses"}
{"source": "OSM", "region": "Kärnten", "osm_type": "node", "osm_id": 4957611601, "name": null, "category": null, "address": "Gendarmeriegasse 1, 9560 Feldkirchen in Kärnten", "street": "Gendarmeriegasse", "housenumber": "1", "postcode": "9560", "place": "Feldkirchen in Kärnten", "lat": 46.7258439, "lon": 14.0905558, "tags": {"addr:city": "Feldkirchen in Kärnten", "addr:housenumber": "1", "addr:postcode": "9560", "addr:street": "Gendarmeriegasse"}, "content": "Adresse: Gendarmeriegasse 1, 9560 Feldkirchen in Kärnten\nOrt: Feldkirchen in Kärnten\nPLZ: 9560\nKoordinaten: 46.725844, 14.090556", "doc_type": "addresses"}
{"source": "OSM", "region": "Kärnten", "osm_type": "node", "osm_id": 4957611602, "name": null, "category": null, "address": "Obere Tiebelgasse 17, 9560 Feldkirchen in Kärnten", "street": "Obere Tiebelgasse", "housenumber": "17", "postcode": "9560", "place": "Feldkirchen in Kärnten", "lat": 46.7199159, "lon": 14.0932592, "tags": {"addr:city": "Feldkirchen in Kärnten", "addr:housenumber": "17", "addr:postcode": "9560", "addr:street": "Obere Tiebelgasse"}, "content": "Adresse: Obere Tiebelgasse 17, 9560 Feldkirchen in Kärnten\nOrt: Feldkirchen in Kärnten\nPLZ: 9560\nKoordinaten: 46.719916, 14.093259", "doc_type": "addresses"}
{"source": "OSM", "region": "Kärnten", "osm_type": "node", "osm_id": 4957611604, "name": null, "category": null, "address": "10.-Oktober-Straße 28, 9560 Feldkirchen in Kärnten", "street": "10.-Oktober-Straße", "housenumber": "28", "postcode": "9560", "place": "Feldkirchen in Kärnten", "lat": 46.7228938, "lon": 14.096178, "tags": {"addr:city": "Feldkirchen in Kärnten", "addr:housenumber": "28", "addr:postcode": "9560", "addr:street": "10.-Oktober-Straße"}, "content": "Adresse: 10.-Oktober-Straße 28, 9560 Feldkirchen in Kärnten\nOrt: Feldkirchen in Kärnten\nPLZ: 9560\nKoordinaten: 46.722894, 14.096178", "doc_type": "addresses"}
{"source": "OSM", "region": "Kärnten", "osm_type": "node", "osm_id": 4957611605, "name": null, "category": null, "address": "Norika 5, 9560 Feldkirchen in Kärnten", "street": "Norika", "housenumber": "5", "postcode": "9560", "place": "Feldkirchen in Kärnten", "lat": 46.7205639, "lon": 14.0986442, "tags": {"addr:city": "Feldkirchen in Kärnten", "addr:housenumber": "5", "addr:postcode": "9560", "addr:street": "Norika"}, "content": "Adresse: Norika 5, 9560 Feldkirchen in Kärnten\nOrt: Feldkirchen in Kärnten\nPLZ: 9560\nKoordinaten: 46.720564, 14.098644", "doc_type": "addresses"}
{"source": "OSM", "region": "Kärnten", "osm_type": "node", "osm_id": 4957611606, "name": null, "category": "amenity:car_wash", "address": "10.-Oktober-Straße 22, 9560 Feldkirchen in Kärnten", "street": "10.-Oktober-Straße", "housenumber": "22", "postcode": "9560", "place": "Feldkirchen in Kärnten", "lat": 46.7232036, "lon": 14.09668, "tags": {"addr:city": "Feldkirchen in Kärnten", "addr:housenumber": "22", "addr:postcode": "9560", "addr:street": "10.-Oktober-Straße", "amenity": "car_wash"}, "content": "Kategorie: amenity:car_wash\nAdresse: 10.-Oktober-Straße 22, 9560 Feldkirchen in Kärnten\nOrt: Feldkirchen in Kärnten\nPLZ: 9560\nKoordinaten: 46.723204, 14.096680\nTags: amenity=car_wash", "doc_type": "addresses"}
{"source": "OSM", "region": "Kärnten", "osm_type": "node", "osm_id": 4957611607, "name": null, "category": null, "address": "Norika 4, 9560 Feldkirchen in Kärnten", "street": "Norika", "housenumber": "4", "postcode": "9560", "place": "Feldkirchen in Kärnten", "lat": 46.720546, "lon": 14.0986355, "tags": {"addr:city": "Feldkirchen in Kärnten", "addr:housenumber": "4", "addr:postcode": "9560", "addr:street": "Norika"}, "content": "Adresse: Norika 4, 9560 Feldkirchen in Kärnten\nOrt: Feldkirchen in Kärnten\nPLZ: 9560\nKoordinaten: 46.720546, 14.098636", "doc_type": "addresses"}
{"source": "OSM", "region": "Kärnten", "osm_type": "node", "osm_id": 4957611608, "name": "Reblaus", "category": "amenity:restaurant", "address": "10.-Oktober-Straße 20, 9560 Feldkirchen in Kärnten", "street": "10.-Oktober-Straße", "housenumber": "20", "postcode": "9560", "place": "Feldkirchen in Kärnten", "lat": 46.7235344, "lon": 14.0953794, "tags": {"addr:city": "Feldkirchen in Kärnten", "addr:housenumber": "20", "addr:postcode": "9560", "addr:street": "10.-Oktober-Straße", "amenity": "restaurant", "name": "Reblaus"}, "content": "Reblaus\nKategorie: amenity:restaurant\nAdresse: 10.-Oktober-Straße 20, 9560 Feldkirchen in Kärnten\nOrt: Feldkirchen in Kärnten\nPLZ: 9560\nKoordinaten: 46.723534, 14.095379\nTags: amenity=restaurant", "doc_type": "addresses"}
{"source": "OSM", "region": "Kärnten", "osm_type": "node", "osm_id": 4957611609, "name": null, "category": null, "address": "Norika 1, 9560 Feldkirchen in Kärnten", "street": "Norika", "housenumber": "1", "postcode": "9560", "place": "Feldkirchen in Kärnten", "lat": 46.7206201, "lon": 14.0983049, "tags": {"addr:city": "Feldkirchen in Kärnten", "addr:housenumber": "1", "addr:postcode": "9560", "addr:street": "Norika"}, "content": "Adresse: Norika 1, 9560 Feldkirchen in Kärnten\nOrt: Feldkirchen in Kärnten\nPLZ: 9560\nKoordinaten: 46.720620, 14.098305", "doc_type": "addresses"}
{"source": "OSM", "region": "Kärnten", "osm_type": "node", "osm_id": 4957611610, "name": null, "category": null, "address": "10.-Oktober-Straße 2a, 9560 Feldkirchen in Kärnten", "street": "10.-Oktober-Straße", "housenumber": "2a", "postcode": "9560", "place": "Feldkirchen in Kärnten", "lat": 46.7245727, "lon": 14.0931442, "tags": {"addr:city": "Feldkirchen in Kärnten", "addr:housenumber": "2a", "addr:postcode": "9560", "addr:street": "10.-Oktober-Straße"}, "content": "Adresse: 10.-Oktober-Straße 2a, 9560 Feldkirchen in Kärnten\nOrt: Feldkirchen in Kärnten\nPLZ: 9560\nKoordinaten: 46.724573, 14.093144", "doc_type": "addresses"}
{"source": "OSM", "region": "Kärnten", "osm_type": "node", "osm_id": 4957611620, "name": "Getränkemarkt Kanduth", "category": "shop:beverages", "address": "Laboisnerstraße 1b, 9560 Feldkirchen in Kärnten", "street": "Laboisnerstraße", "housenumber": "1b", "postcode": "9560", "place": "Feldkirchen in Kärnten", "lat": 46.7201016, "lon": 14.1056811, "tags": {"addr:city": "Feldkirchen in Kärnten", "addr:housenumber": "1b", "addr:postcode": "9560", "addr:street": "Laboisnerstraße", "name": "Getränkemarkt Kanduth", "shop": "beverages"}, "content": "Getränkemarkt Kanduth\nKategorie: shop:beverages\nAdresse: Laboisnerstraße 1b, 9560 Feldkirchen in Kärnten\nOrt: Feldkirchen in Kärnten\nPLZ: 9560\nKoordinaten: 46.720102, 14.105681\nTags: shop=beverages", "doc_type": "addresses"}
{"source": "OSM", "region": "Kärnten", "osm_type": "node", "osm_id": 4957611824, "name": null, "category": null, "address": "St. Ruprechter Straße 19, 9560 Feldkirchen in Kärnten", "street": "St. Ruprechter Straße", "housenumber": "19", "postcode": "9560", "place": "Feldkirchen in Kärnten", "lat": 46.7243181, "lon": 14.1015261, "tags": {"addr:city": "Feldkirchen in Kärnten", "addr:housenumber": "19", "addr:postcode": "9560", "addr:street": "St. Ruprechter Straße"}, "content": "Adresse: St. Ruprechter Straße 19, 9560 Feldkirchen in Kärnten\nOrt: Feldkirchen in Kärnten\nPLZ: 9560\nKoordinaten: 46.724318, 14.101526", "doc_type": "addresses"}
{"source": "OSM", "region": "Kärnten", "osm_type": "node", "osm_id": 4957611825, "name": null, "category": null, "address": "Muldenweg 8, 9560 Feldkirchen in Kärnten", "street": "Muldenweg", "housenumber": "8", "postcode": "9560", "place": "Feldkirchen in Kärnten", "lat": 46.7170706, "lon": 14.0963846, "tags": {"addr:city": "Feldkirchen in Kärnten", "addr:housenumber": "8", "addr:postcode": "9560", "addr:street": "Muldenweg"}, "content": "Adresse: Muldenweg 8, 9560 Feldkirchen in Kärnten\nOrt: Feldkirchen in Kärnten\nPLZ: 9560\nKoordinaten: 46.717071, 14.096385", "doc_type": "addresses"}
{"source": "OSM", "region": "Kärnten", "osm_type": "node", "osm_id": 4957611826, "name": null, "category": null, "address": "St. Ruprechter Straße 3, 9560 Feldkirchen in Kärnten", "street": "St. Ruprechter Straße", "housenumber": "3", "postcode": "9560", "place": "Feldkirchen in Kärnten", "lat": 46.7241784, "lon": 14.0973077, "tags": {"addr:city": "Feldkirchen in Kärnten", "addr:housenumber": "3", "addr:postcode": "9560", "addr:street": "St. Ruprechter Straße"}, "content": "Adresse: St. Ruprechter Straße 3, 9560 Feldkirchen in Kärnten\nOrt: Feldkirchen in Kärnten\nPLZ: 9560\nKoordinaten: 46.724178, 14.097308", "doc_type": "addresses"}
{"source": "OSM", "region": "Kärnten", "osm_type": "node", "osm_id": 4957611827, "name": null, "category": null, "address": "Kanaltalerhof 8, 9560 Feldkirchen in Kärnten", "street": "Kanaltalerhof", "housenumber": "8", "postcode": "9560", "place": "Feldkirchen in Kärnten", "lat": 46.72392, "lon": 14.0985345, "tags": {"addr:city": "Feldkirchen in Kärnten", "addr:housenumber": "8", "addr:postcode": "9560", "addr:street": "Kanaltalerhof"}, "content": "Adresse: Kanaltalerhof 8, 9560 Feldkirchen in Kärnten\nOrt: Feldkirchen in Kärnten\nPLZ: 9560\nKoordinaten: 46.723920, 14.098534", "doc_type": "addresses"}
{"source": "OSM", "region": "Kärnten", "osm_type": "node", "osm_id": 4957611828, "name": null, "category": null, "address": "Kanaltalerhof 7, 9560 Feldkirchen in Kärnten", "street": "Kanaltalerhof", "housenumber": "7", "postcode": "9560", "place": "Feldkirchen in Kärnten", "lat": 46.7237849, "lon": 14.0985588, "tags": {"addr:city": "Feldkirchen in Kärnten", "addr:housenumber": "7", "addr:postcode": "9560", "addr:street": "Kanaltalerhof"}, "content": "Adresse: Kanaltalerhof 7, 9560 Feldkirchen in Kärnten\nOrt: Feldkirchen in Kärnten\nPLZ: 9560\nKoordinaten: 46.723785, 14.098559", "doc_type": "addresses"}
{"source": "OSM", "region": "Kärnten", "osm_type": "node", "osm_id": 4957611829, "name": null, "category": null, "address": "Kanaltalerhof 6, 9560 Feldkirchen in Kärnten", "street": "Kanaltalerhof", "housenumber": "6", "postcode": "9560", "place": "Feldkirchen in Kärnten", "lat": 46.7236319, "lon": 14.0985697, "tags": {"addr:city": "Feldkirchen in Kärnten", "addr:housenumber": "6", "addr:postcode": "9560", "addr:street": "Kanaltalerhof"}, "content": "Adresse: Kanaltalerhof 6, 9560 Feldkirchen in Kärnten\nOrt: Feldkirchen in Kärnten\nPLZ: 9560\nKoordinaten: 46.723632, 14.098570", "doc_type": "addresses"}
{"source": "OSM", "region": "Kärnten", "osm_type": "node", "osm_id": 4957611830, "name": null, "category": null, "address": "Kanaltalerhof 5, 9560 Feldkirchen in Kärnten", "street": "Kanaltalerhof", "housenumber": "5", "postcode": "9560", "place": "Feldkirchen in Kärnten", "lat": 46.7235148, "lon": 14.0985811, "tags": {"addr:city": "Feldkirchen in Kärnten", "addr:housenumber": "5", "addr:postcode": "9560", "addr:street": "Kanaltalerhof"}, "content": "Adresse: Kanaltalerhof 5, 9560 Feldkirchen in Kärnten\nOrt: Feldkirchen in Kärnten\nPLZ: 9560\nKoordinaten: 46.723515, 14.098581", "doc_type": "addresses"}
{"source": "OSM", "region": "Kärnten", "osm_type": "node", "osm_id": 4957611831, "name": null, "category": null, "address": "Kanaltalerhof 4, 9560 Feldkirchen in Kärnten", "street": "Kanaltalerhof", "housenumber": "4", "postcode": "9560", "place": "Feldkirchen in Kärnten", "lat": 46.7233807, "lon": 14.0984615, "tags": {"addr:city": "Feldkirchen in Kärnten", "addr:housenumber": "4", "addr:postcode": "9560", "addr:street": "Kanaltalerhof"}, "content": "Adresse: Kanaltalerhof 4, 9560 Feldkirchen in Kärnten\nOrt: Feldkirchen in Kärnten\nPLZ: 9560\nKoordinaten: 46.723381, 14.098462", "doc_type": "addresses"}
{"source": "OSM", "region": "Kärnten", "osm_type": "node", "osm_id": 4957611832, "name": null, "category": null, "address": "Kanaltalerhof 3, 9560 Feldkirchen in Kärnten", "street": "Kanaltalerhof", "housenumber": "3", "postcode": "9560", "place": "Feldkirchen in Kärnten", "lat": 46.7235006, "lon": 14.0980185, "tags": {"addr:city": "Feldkirchen in Kärnten", "addr:housenumber": "3", "addr:postcode": "9560", "addr:street": "Kanaltalerhof"}, "content": "Adresse: Kanaltalerhof 3, 9560 Feldkirchen in Kärnten\nOrt: Feldkirchen in Kärnten\nPLZ: 9560\nKoordinaten: 46.723501, 14.098019", "doc_type": "addresses"}
{"source": "OSM", "region": "Kärnten", "osm_type": "node", "osm_id": 4957611833, "name": null, "category": null, "address": "Kanaltalerhof 2, 9560 Feldkirchen in Kärnten", "street": "Kanaltalerhof", "housenumber": "2", "postcode": "9560", "place": "Feldkirchen in Kärnten", "lat": 46.7236626, "lon": 14.0980077, "tags": {"addr:city": "Feldkirchen in Kärnten", "addr:housenumber": "2", "addr:postcode": "9560", "addr:street": "Kanaltalerhof"}, "content": "Adresse: Kanaltalerhof 2, 9560 Feldkirchen in Kärnten\nOrt: Feldkirchen in Kärnten\nPLZ: 9560\nKoordinaten: 46.723663, 14.098008", "doc_type": "addresses"}
{"source": "OSM", "region": "Kärnten", "osm_type": "node", "osm_id": 4957611834, "name": null, "category": null, "address": "Schulhausgasse 7, 9560 Feldkirchen in Kärnten", "street": "Schulhausgasse", "housenumber": "7", "postcode": "9560", "place": "Feldkirchen in Kärnten", "lat": 46.7261152, "lon": 14.0938401, "tags": {"addr:city": "Feldkirchen in Kärnten", "addr:housenumber": "7", "addr:postcode": "9560", "addr:street": "Schulhausgasse"}, "content": "Adresse: Schulhausgasse 7, 9560 Feldkirchen in Kärnten\nOrt: Feldkirchen in Kärnten\nPLZ: 9560\nKoordinaten: 46.726115, 14.093840", "doc_type": "addresses"}
{"source": "OSM", "region": "Kärnten", "osm_type": "node", "osm_id": 4957611835, "name": null, "category": null, "address": "Kanaltalerhof 1, 9560 Feldkirchen in Kärnten", "street": "Kanaltalerhof", "housenumber": "1", "postcode": "9560", "place": "Feldkirchen in Kärnten", "lat": 46.7238067, "lon": 14.0979835, "tags": {"addr:city": "Feldkirchen in Kärnten", "addr:housenumber": "1", "addr:postcode": "9560", "addr:street": "Kanaltalerhof"}, "content": "Adresse: Kanaltalerhof 1, 9560 Feldkirchen in Kärnten\nOrt: Feldkirchen in Kärnten\nPLZ: 9560\nKoordinaten: 46.723807, 14.097983", "doc_type": "addresses"}
{"source": "OSM", "region": "Kärnten", "osm_type": "node", "osm_id": 4957611838, "name": null, "category": null, "address": "Schulhausgasse 1, 9560 Feldkirchen in Kärnten", "street": "Schulhausgasse", "housenumber": "1", "postcode": "9560", "place": "Feldkirchen in Kärnten", "lat": 46.7268814, "lon": 14.0928334, "tags": {"addr:city": "Feldkirchen in Kärnten", "addr:housenumber": "1", "addr:postcode": "9560", "addr:street": "Schulhausgasse"}, "content": "Adresse: Schulhausgasse 1, 9560 Feldkirchen in Kärnten\nOrt: Feldkirchen in Kärnten\nPLZ: 9560\nKoordinaten: 46.726881, 14.092833", "doc_type": "addresses"}
{"source": "OSM", "region": "Kärnten", "osm_type": "node", "osm_id": 4957611840, "name": null, "category": null, "address": "Schillerplatz 2, 9560 Feldkirchen in Kärnten", "street": "Schillerplatz", "housenumber": "2", "postcode": "9560", "place": "Feldkirchen in Kärnten", "lat": 46.7246294, "lon": 14.0929371, "tags": {"addr:city": "Feldkirchen in Kärnten", "addr:housenumber": "2", "addr:postcode": "9560", "addr:street": "Schillerplatz"}, "content": "Adresse: Schillerplatz 2, 9560 Feldkirchen in Kärnten\nOrt: Feldkirchen in Kärnten\nPLZ: 9560\nKoordinaten: 46.724629, 14.092937", "doc_type": "addresses"}
{"source": "OSM", "region": "Kärnten", "osm_type": "node", "osm_id": 4957611841, "name": null, "category": null, "address": "Industriestraße 20, 9560 Feldkirchen in Kärnten", "street": "Industriestraße", "housenumber": "20", "postcode": "9560", "place": "Feldkirchen in Kärnten", "lat": 46.7192016, "lon": 14.1007841, "tags": {"addr:city": "Feldkirchen in Kärnten", "addr:housenumber": "20", "addr:postcode": "9560", "addr:street": "Industriestraße"}, "content": "Adresse: Industriestraße 20, 9560 Feldkirchen in Kärnten\nOrt: Feldkirchen in Kärnten\nPLZ: 9560\nKoordinaten: 46.719202, 14.100784", "doc_type": "addresses"}
{"source": "OSM", "region": "Kärnten", "osm_type": "node", "osm_id": 4957611842, "name": null, "category": null, "address": "Rauterplatz 4, 9560 Feldkirchen in Kärnten", "street": "Rauterplatz", "housenumber": "4", "postcode": "9560", "place": "Feldkirchen in Kärnten", "lat": 46.7244016, "lon": 14.0923801, "tags": {"addr:city": "Feldkirchen in Kärnten", "addr:housenumber": "4", "addr:postcode": "9560", "addr:street": "Rauterplatz"}, "content": "Adresse: Rauterplatz 4, 9560 Feldkirchen in Kärnten\nOrt: Feldkirchen in Kärnten\nPLZ: 9560\nKoordinaten: 46.724402, 14.092380", "doc_type": "addresses"}
{"source": "OSM", "region": "Kärnten", "osm_type": "node", "osm_id": 4957611843, "name": "Lebzelterbehausung", "category": null, "address": "Rauterplatz 3, 9560 Feldkirchen in Kärnten", "street": "Rauterplatz", "housenumber": "3", "postcode": "9560", "place": "Feldkirchen in Kärnten", "lat": 46.7241425, "lon": 14.0921018, "tags": {"addr:city": "Feldkirchen in Kärnten", "addr:housenumber": "3", "addr:postcode": "9560", "addr:street": "Rauterplatz", "name": "Lebzelterbehausung"}, "content": "Lebzelterbehausung\nAdresse: Rauterplatz 3, 9560 Feldkirchen in Kärnten\nOrt: Feldkirchen in Kärnten\nPLZ: 9560\nKoordinaten: 46.724142, 14.092102", "doc_type": "addresses"}
{"source": "OSM", "region": "Kärnten", "osm_type": "node", "osm_id": 4957611847, "name": "Antoniusheim Kindergarten", "category": "amenity:kindergarten", "address": "Himmelberger Straße 5, 9560 Feldkirchen in Kärnten", "street": "Himmelberger Straße", "housenumber": "5", "postcode": "9560", "place": "Feldkirchen in Kärnten", "lat": 46.7241812, "lon": 14.0900081, "tags": {"addr:city": "Feldkirchen in Kärnten", "addr:housenumber": "5", "addr:postcode": "9560", "addr:street": "Himmelberger Straße", "amenity": "kindergarten", "name": "Antoniusheim Kindergarten"}, "content": "Antoniusheim Kindergarten\nKategorie: amenity:kindergarten\nAdresse: Himmelberger Straße 5, 9560 Feldkirchen in Kärnten\nOrt: Feldkirchen in Kärnten\nPLZ: 9560\nKoordinaten: 46.724181, 14.090008\nTags: amenity=kindergarten", "doc_type": "addresses"}
{"source": "OSM", "region": "Kärnten", "osm_type": "node", "osm_id": 4957611850, "name": null, "category": null, "address": "Grenzgasse 13, 9560 Feldkirchen in Kärnten", "street": "Grenzgasse", "housenumber": "13", "postcode": "9560", "place": "Feldkirchen in Kärnten", "lat": 46.7288366, "lon": 14.0896294, "tags": {"addr:city": "Feldkirchen in Kärnten", "addr:housenumber": "13", "addr:postcode": "9560", "addr:street": "Grenzgasse"}, "content": "Adresse: Grenzgasse 13, 9560 Feldkirchen in Kärnten\nOrt: Feldkirchen in Kärnten\nPLZ: 9560\nKoordinaten: 46.728837, 14.089629", "doc_type": "addresses"}
{"source": "OSM", "region": "Kärnten", "osm_type": "node", "osm_id": 4957611852, "name": null, "category": null, "address": "Grabenweg 6, 9560 Feldkirchen in Kärnten", "street": "Grabenweg", "housenumber": "6", "postcode": "9560", "place": "Feldkirchen in Kärnten", "lat": 46.7264232, "lon": 14.1064363, "tags": {"addr:city": "Feldkirchen in Kärnten", "addr:housenumber": "6", "addr:postcode": "9560", "addr:street": "Grabenweg"}, "content": "Adresse: Grabenweg 6, 9560 Feldkirchen in Kärnten\nOrt: Feldkirchen in Kärnten\nPLZ: 9560\nKoordinaten: 46.726423, 14.106436", "doc_type": "addresses"}
{"source": "OSM", "region": "Kärnten", "osm_type": "node", "osm_id": 4957611853, "name": null, "category": null, "address": "Grabenweg 1, 9560 Feldkirchen in Kärnten", "street": "Grabenweg", "housenumber": "1", "postcode": "9560", "place": "Feldkirchen in Kärnten", "lat": 46.7253983, "lon": 14.1055537, "tags": {"addr:city": "Feldkirchen in Kärnten", "addr:housenumber": "1", "addr:postcode": "9560", "addr:street": "Grabenweg"}, "content": "Adresse: Grabenweg 1, 9560 Feldkirchen in Kärnten\nOrt: Feldkirchen in Kärnten\nPLZ: 9560\nKoordinaten: 46.725398, 14.105554", "doc_type": "addresses"}
{"source": "OSM", "region": "Kärnten", "osm_type": "node", "osm_id": 4957611854, "name": null, "category": null, "address": "Lindl 12, 9560 Feldkirchen in Kärnten", "street": "Lindl", "housenumber": "12", "postcode": "9560", "place": "Feldkirchen in Kärnten", "lat": 46.7197208, "lon": 14.0956201, "tags": {"addr:city": "Feldkirchen in Kärnten", "addr:housenumber": "12", "addr:postcode": "9560", "addr:street": "Lindl"}, "content": "Adresse: Lindl 12, 9560 Feldkirchen in Kärnten\nOrt: Feldkirchen in Kärnten\nPLZ: 9560\nKoordinaten: 46.719721, 14.095620", "doc_type": "addresses"}
{"source": "OSM", "region": "Kärnten", "osm_type": "node", "osm_id": 4957611855, "name": null, "category": null, "address": "Lindl 11, 9560 Feldkirchen in Kärnten", "street": "Lindl", "housenumber": "11", "postcode": "9560", "place": "Feldkirchen in Kärnten", "lat": 46.7196563, "lon": 14.0953942, "tags": {"addr:city": "Feldkirchen in Kärnten", "addr:housenumber": "11", "addr:postcode": "9560", "addr:street": "Lindl"}, "content": "Adresse: Lindl 11, 9560 Feldkirchen in Kärnten\nOrt: Feldkirchen in Kärnten\nPLZ: 9560\nKoordinaten: 46.719656, 14.095394", "doc_type": "addresses"}
{"source": "OSM", "region": "Kärnten", "osm_type": "node", "osm_id": 4957611856, "name": null, "category": null, "address": "Lindl 10, 9560 Feldkirchen in Kärnten", "street": "Lindl", "housenumber": "10", "postcode": "9560", "place": "Feldkirchen in Kärnten", "lat": 46.7196735, "lon": 14.0956219, "tags": {"addr:city": "Feldkirchen in Kärnten", "addr:housenumber": "10", "addr:postcode": "9560", "addr:street": "Lindl"}, "content": "Adresse: Lindl 10, 9560 Feldkirchen in Kärnten\nOrt: Feldkirchen in Kärnten\nPLZ: 9560\nKoordinaten: 46.719673, 14.095622", "doc_type": "addresses"}
{"source": "OSM", "region": "Kärnten", "osm_type": "node", "osm_id": 4957611857, "name": null, "category": null, "address": "Lindl 9, 9560 Feldkirchen in Kärnten", "street": "Lindl", "housenumber": "9", "postcode": "9560", "place": "Feldkirchen in Kärnten", "lat": 46.7194767, "lon": 14.0957358, "tags": {"addr:city": "Feldkirchen in Kärnten", "addr:housenumber": "9", "addr:postcode": "9560", "addr:street": "Lindl"}, "content": "Adresse: Lindl 9, 9560 Feldkirchen in Kärnten\nOrt: Feldkirchen in Kärnten\nPLZ: 9560\nKoordinaten: 46.719477, 14.095736", "doc_type": "addresses"}
{"source": "OSM", "region": "Kärnten", "osm_type": "node", "osm_id": 4957611858, "name": null, "category": null, "address": "Lindl 8, 9560 Feldkirchen in Kärnten", "street": "Lindl", "housenumber": "8", "postcode": "9560", "place": "Feldkirchen in Kärnten", "lat": 46.7192113, "lon": 14.0955238, "tags": {"addr:city": "Feldkirchen in Kärnten", "addr:housenumber": "8", "addr:postcode": "9560", "addr:street": "Lindl"}, "content": "Adresse: Lindl 8, 9560 Feldkirchen in Kärnten\nOrt: Feldkirchen in Kärnten\nPLZ: 9560\nKoordinaten: 46.719211, 14.095524", "doc_type": "addresses"}
{"source": "OSM", "region": "Kärnten", "osm_type": "node", "osm_id": 4957611859, "name": null, "category": null, "address": "Lindl 7, 9560 Feldkirchen in Kärnten", "street": "Lindl", "housenumber": "7", "postcode": "9560", "place": "Feldkirchen in Kärnten", "lat": 46.7192705, "lon": 14.0956307, "tags": {"addr:city": "Feldkirchen in Kärnten", "addr:housenumber": "7", "addr:postcode": "9560", "addr:street": "Lindl"}, "content": "Adresse: Lindl 7, 9560 Feldkirchen in Kärnten\nOrt: Feldkirchen in Kärnten\nPLZ: 9560\nKoordinaten: 46.719271, 14.095631", "doc_type": "addresses"}
{"source": "OSM", "region": "Kärnten", "osm_type": "node", "osm_id": 4957611860, "name": null, "category": null, "address": "Lindl 6b, 9560 Feldkirchen in Kärnten", "street": "Lindl", "housenumber": "6b", "postcode": "9560", "place": "Feldkirchen in Kärnten", "lat": 46.7193806, "lon": 14.0963558, "tags": {"addr:city": "Feldkirchen in Kärnten", "addr:housenumber": "6b", "addr:postcode": "9560", "addr:street": "Lindl"}, "content": "Adresse: Lindl 6b, 9560 Feldkirchen in Kärnten\nOrt: Feldkirchen in Kärnten\nPLZ: 9560\nKoordinaten: 46.719381, 14.096356", "doc_type": "addresses"}
{"source": "OSM", "region": "Kärnten", "osm_type": "node", "osm_id": 4957611861, "name": null, "category": null, "address": "Lindl 6a, 9560 Feldkirchen in Kärnten", "street": "Lindl", "housenumber": "6a", "postcode": "9560", "place": "Feldkirchen in Kärnten", "lat": 46.7194468, "lon": 14.0965162, "tags": {"addr:city": "Feldkirchen in Kärnten", "addr:housenumber": "6a", "addr:postcode": "9560", "addr:street": "Lindl"}, "content": "Adresse: Lindl 6a, 9560 Feldkirchen in Kärnten\nOrt: Feldkirchen in Kärnten\nPLZ: 9560\nKoordinaten: 46.719447, 14.096516", "doc_type": "addresses"}
{"source": "OSM", "region": "Kärnten", "osm_type": "node", "osm_id": 4957611862, "name": null, "category": null, "address": "Lindl 6, 9560 Feldkirchen in Kärnten", "street": "Lindl", "housenumber": "6", "postcode": "9560", "place": "Feldkirchen in Kärnten", "lat": 46.7196068, "lon": 14.0964725, "tags": {"addr:city": "Feldkirchen in Kärnten", "addr:housenumber": "6", "addr:postcode": "9560", "addr:street": "Lindl"}, "content": "Adresse: Lindl 6, 9560 Feldkirchen in Kärnten\nOrt: Feldkirchen in Kärnten\nPLZ: 9560\nKoordinaten: 46.719607, 14.096473", "doc_type": "addresses"}
{"source": "OSM", "region": "Kärnten", "osm_type": "node", "osm_id": 4957611865, "name": null, "category": null, "address": "Lindl 4, 9560 Feldkirchen in Kärnten", "street": "Lindl", "housenumber": "4", "postcode": "9560", "place": "Feldkirchen in Kärnten", "lat": 46.7200262, "lon": 14.0956282, "tags": {"addr:city": "Feldkirchen in Kärnten", "addr:housenumber": "4", "addr:postcode": "9560", "addr:street": "Lindl"}, "content": "Adresse: Lindl 4, 9560 Feldkirchen in Kärnten\nOrt: Feldkirchen in Kärnten\nPLZ: 9560\nKoordinaten: 46.720026, 14.095628", "doc_type": "addresses"}
{"source": "OSM", "region": "Kärnten", "osm_type": "node", "osm_id": 4957611866, "name": null, "category": null, "address": "Bahnweg 11b, 9560 Feldkirchen in Kärnten", "street": "Bahnweg", "housenumber": "11b", "postcode": "9560", "place": "Feldkirchen in Kärnten", "lat": 46.7181748, "lon": 14.1047482, "tags": {"addr:city": "Feldkirchen in Kärnten", "addr:housenumber": "11b", "addr:postcode": "9560", "addr:street": "Bahnweg"}, "content": "Adresse: Bahnweg 11b, 9560 Feldkirchen in Kärnten\nOrt: Feldkirchen in Kärnten\nPLZ: 9560\nKoordinaten: 46.718175, 14.104748", "doc_type": "addresses"}
{"source": "OSM", "region": "Kärnten", "osm_type": "node", "osm_id": 4957611867, "name": null, "category": null, "address": "Lindl 3, 9560 Feldkirchen in Kärnten", "street": "Lindl", "housenumber": "3", "postcode": "9560", "place": "Feldkirchen in Kärnten", "lat": 46.7200331, "lon": 14.0961522, "tags": {"addr:city": "Feldkirchen in Kärnten", "addr:housenumber": "3", "addr:postcode": "9560", "addr:street": "Lindl"}, "content": "Adresse: Lindl 3, 9560 Feldkirchen in Kärnten\nOrt: Feldkirchen in Kärnten\nPLZ: 9560\nKoordinaten: 46.720033, 14.096152", "doc_type": "addresses"}
{"source": "OSM", "region": "Kärnten", "osm_type": "node", "osm_id": 4957611868, "name": null, "category": null, "address": "Bahnhofstraße 17, 9560 Feldkirchen in Kärnten", "street": "Bahnhofstraße", "housenumber": "17", "postcode": "9560", "place": "Feldkirchen in Kärnten", "lat": 46.7234332, "lon": 14.0948733, "tags": {"addr:city": "Feldkirchen in Kärnten", "addr:housenumber": "17", "addr:postcode": "9560", "addr:street": "Bahnhofstraße"}, "content": "Adresse: Bahnhofstraße 17, 9560 Feldkirchen in Kärnten\nOrt: Feldkirchen in Kärnten\nPLZ: 9560\nKoordinaten: 46.723433, 14.094873", "doc_type": "addresses"}
{"source": "OSM", "region": "Kärnten", "osm_type": "node", "osm_id": 4957611869, "name": null, "category": null, "address": "Lindl 2, 9560 Feldkirchen in Kärnten", "street": "Lindl", "housenumber": "2", "postcode": "9560", "place": "Feldkirchen in Kärnten", "lat": 46.7199529, "lon": 14.0958234, "tags": {"addr:city": "Feldkirchen in Kärnten", "addr:housenumber": "2", "addr:postcode": "9560", "addr:street": "Lindl"}, "content": "Adresse: Lindl 2, 9560 Feldkirchen in Kärnten\nOrt: Feldkirchen in Kärnten\nPLZ: 9560\nKoordinaten: 46.719953, 14.095823", "doc_type": "addresses"}
{"source": "OSM", "region": "Kärnten", "osm_type": "node", "osm_id": 4957611870, "name": null, "category": null, "address": "Lindl 1, 9560 Feldkirchen in Kärnten", "street": "Lindl", "housenumber": "1", "postcode": "9560", "place": "Feldkirchen in Kärnten", "lat": 46.7199492, "lon": 14.0963858, "tags": {"addr:city": "Feldkirchen in Kärnten", "addr:housenumber": "1", "addr:postcode": "9560", "addr:street": "Lindl"}, "content": "Adresse: Lindl 1, 9560 Feldkirchen in Kärnten\nOrt: Feldkirchen in Kärnten\nPLZ: 9560\nKoordinaten: 46.719949, 14.096386", "doc_type": "addresses"}
{"source": "OSM", "region": "Kärnten", "osm_type": "node", "osm_id": 5120450629, "name": "Polizeiinspektion Feldkirchen", "category": "amenity:police", "address": "10.-Oktober-Straße 27, 9560 Feldkirchen in Kärnten", "street": "10.-Oktober-Straße", "housenumber": "27", "postcode": "9560", "place": "Feldkirchen in Kärnten", "lat": 46.7223259, "lon": 14.0981634, "tags": {"addr:city": "Feldkirchen in Kärnten", "addr:housenumber": "27", "addr:postcode": "9560", "addr:street": "10.-Oktober-Straße", "amenity": "police", "name": "Polizeiinspektion Feldkirchen", "phone": "+43 59133 2200100"}, "content": "Polizeiinspektion Feldkirchen\nKategorie: amenity:police\nAdresse: 10.-Oktober-Straße 27, 9560 Feldkirchen in Kärnten\nOrt: Feldkirchen in Kärnten\nPLZ: 9560\nKoordinaten: 46.722326, 14.098163\nTags: amenity=police, phone=+43 59133 2200100", "doc_type": "addresses"}
{"source": "OSM", "region": "Kärnten", "osm_type": "node", "osm_id": 5143768222, "name": "ARBÖ Prüfzentrum Feldkirchen", "category": "shop:car_repair", "address": "10.-Oktober-Straße 31, 9560 Feldkirchen in Kärnten", "street": "10.-Oktober-Straße", "housenumber": "31", "postcode": "9560", "place": "Feldkirchen in Kärnten", "lat": 46.7224505, "lon": 14.0990089, "tags": {"addr:city": "Feldkirchen in Kärnten", "addr:housenumber": "31", "addr:postcode": "9560", "addr:street": "10.-Oktober-Straße", "name": "ARBÖ Prüfzentrum Feldkirchen", "operator": "ARBÖ", "phone": "+43 50 1232203", "shop": "car_repair"}, "content": "ARBÖ Prüfzentrum Feldkirchen\nKategorie: shop:car_repair\nAdresse: 10.-Oktober-Straße 31, 9560 Feldkirchen in Kärnten\nOrt: Feldkirchen in Kärnten\nPLZ: 9560\nKoordinaten: 46.722451, 14.099009\nTags: shop=car_repair, operator=ARBÖ, phone=+43 50 1232203", "doc_type": "addresses"}
{"source": "OSM", "region": "Kärnten", "osm_type": "node", "osm_id": 5260941041, "name": null, "category": null, "address": "Himmelberger Straße 7, 9560 Feldkirchen in Kärnten", "street": "Himmelberger Straße", "housenumber": "7", "postcode": "9560", "place": "Feldkirchen in Kärnten", "lat": 46.7243466, "lon": 14.0892057, "tags": {"addr:city": "Feldkirchen in Kärnten", "addr:housenumber": "7", "addr:postcode": "9560", "addr:street": "Himmelberger Straße"}, "content": "Adresse: Himmelberger Straße 7, 9560 Feldkirchen in Kärnten\nOrt: Feldkirchen in Kärnten\nPLZ: 9560\nKoordinaten: 46.724347, 14.089206", "doc_type": "addresses"}
{"source": "OSM", "region": "Kärnten", "osm_type": "node", "osm_id": 5260941045, "name": null, "category": null, "address": "Zehenthofgasse 1a, 9560 Feldkirchen in Kärnten", "street": "Zehenthofgasse", "housenumber": "1a", "postcode": "9560", "place": "Feldkirchen in Kärnten", "lat": 46.7215879, "lon": 14.0925302, "tags": {"addr:city": "Feldkirchen in Kärnten", "addr:housenumber": "1a", "addr:postcode": "9560", "addr:street": "Zehenthofgasse"}, "content": "Adresse: Zehenthofgasse 1a, 9560 Feldkirchen in Kärnten\nOrt: Feldkirchen in Kärnten\nPLZ: 9560\nKoordinaten: 46.721588, 14.092530", "doc_type": "addresses"}
{"source": "OSM", "region": "Kärnten", "osm_type": "node", "osm_id": 5260941046, "name": null, "category": null, "address": "Zehenthofgasse 1, 9560 Feldkirchen in Kärnten", "street": "Zehenthofgasse", "housenumber": "1", "postcode": "9560", "place": "Feldkirchen in Kärnten", "lat": 46.7215005, "lon": 14.0927097, "tags": {"addr:city": "Feldkirchen in Kärnten", "addr:housenumber": "1", "addr:postcode": "9560", "addr:street": "Zehenthofgasse"}, "content": "Adresse: Zehenthofgasse 1, 9560 Feldkirchen in Kärnten\nOrt: Feldkirchen in Kärnten\nPLZ: 9560\nKoordinaten: 46.721500, 14.092710", "doc_type": "addresses"}
{"source": "OSM", "region": "Kärnten", "osm_type": "node", "osm_id": 5260941048, "name": null, "category": null, "address": "Obere Tiebelgasse 8, 9560 Feldkirchen in Kärnten", "street": "Obere Tiebelgasse", "housenumber": "8", "postcode": "9560", "place": "Feldkirchen in Kärnten", "lat": 46.7232067, "lon": 14.0935404, "tags": {"addr:city": "Feldkirchen in Kärnten", "addr:housenumber": "8", "addr:postcode": "9560", "addr:street": "Obere Tiebelgasse"}, "content": "Adresse: Obere Tiebelgasse 8, 9560 Feldkirchen in Kärnten\nOrt: Feldkirchen in Kärnten\nPLZ: 9560\nKoordinaten: 46.723207, 14.093540", "doc_type": "addresses"}
{"source": "OSM", "region": "Kärnten", "osm_type": "node", "osm_id": 5260941049, "name": null, "category": null, "address": "Obere Tiebelgasse 12, 9560 Feldkirchen in Kärnten", "street": "Obere Tiebelgasse", "housenumber": "12", "postcode": "9560", "place": "Feldkirchen in Kärnten", "lat": 46.7245654, "lon": 14.0960054, "tags": {"addr:city": "Feldkirchen in Kärnten", "addr:housenumber": "12", "addr:postcode": "9560", "addr:street": "Obere Tiebelgasse"}, "content": "Adresse: Obere Tiebelgasse 12, 9560 Feldkirchen in Kärnten\nOrt: Feldkirchen in Kärnten\nPLZ: 9560\nKoordinaten: 46.724565, 14.096005", "doc_type": "addresses"}
{"source": "OSM", "region": "Kärnten", "osm_type": "node", "osm_id": 5373661716, "name": null, "category": null, "address": "Himmelberger Straße 18, 9560 Feldkirchen in Kärnten", "street": "Himmelberger Straße", "housenumber": "18", "postcode": "9560", "place": "Feldkirchen in Kärnten", "lat": 46.7258469, "lon": 14.086878, "tags": {"addr:city": "Feldkirchen in Kärnten", "addr:housenumber": "18", "addr:postcode": "9560", "addr:street": "Himmelberger Straße"}, "content": "Adresse: Himmelberger Straße 18, 9560 Feldkirchen in Kärnten\nOrt: Feldkirchen in Kärnten\nPLZ: 9560\nKoordinaten: 46.725847, 14.086878", "doc_type": "addresses"}
{"source": "OSM", "region": "Kärnten", "osm_type": "node", "osm_id": 5373661717, "name": null, "category": null, "address": "Himmelberger Straße 16, 9560 Feldkirchen in Kärnten", "street": "Himmelberger Straße", "housenumber": "16", "postcode": "9560", "place": "Feldkirchen in Kärnten", "lat": 46.7256142, "lon": 14.0864862, "tags": {"addr:city": "Feldkirchen in Kärnten", "addr:housenumber": "16", "addr:postcode": "9560", "addr:street": "Himmelberger Straße"}, "content": "Adresse: Himmelberger Straße 16, 9560 Feldkirchen in Kärnten\nOrt: Feldkirchen in Kärnten\nPLZ: 9560\nKoordinaten: 46.725614, 14.086486", "doc_type": "addresses"}
{"source": "OSM", "region": "Kärnten", "osm_type": "node", "osm_id": 5373661718, "name": null, "category": null, "address": "Himmelberger Straße 15, 9560 Feldkirchen in Kärnten", "street": "Himmelberger Straße", "housenumber": "15", "postcode": "9560", "place": "Feldkirchen in Kärnten", "lat": 46.7255094, "lon": 14.0862428, "tags": {"addr:city": "Feldkirchen in Kärnten", "addr:housenumber": "15", "addr:postcode": "9560", "addr:street": "Himmelberger Straße"}, "content": "Adresse: Himmelberger Straße 15, 9560 Feldkirchen in Kärnten\nOrt: Feldkirchen in Kärnten\nPLZ: 9560\nKoordinaten: 46.725509, 14.086243", "doc_type": "addresses"}
{"source": "OSM", "region": "Kärnten", "osm_type": "node", "osm_id": 5373661719, "name": null, "category": null, "address": "Himmelberger Straße 12, 9560 Feldkirchen in Kärnten", "street": "Himmelberger Straße", "housenumber": "12", "postcode": "9560", "place": "Feldkirchen in Kärnten", "lat": 46.7258125, "lon": 14.0864338, "tags": {"addr:city": "Feldkirchen in Kärnten", "addr:housenumber": "12", "addr:postcode": "9560", "addr:street": "Himmelberger Straße"}, "content": "Adresse: Himmelberger Straße 12, 9560 Feldkirchen in Kärnten\nOrt: Feldkirchen in Kärnten\nPLZ: 9560\nKoordinaten: 46.725813, 14.086434", "doc_type": "addresses"}
{"source": "OSM", "region": "Kärnten", "osm_type": "node", "osm_id": 5373661720, "name": null, "category": null, "address": "Himmelberger Straße 14, 9560 Feldkirchen in Kärnten", "street": "Himmelberger Straße", "housenumber": "14", "postcode": "9560", "place": "Feldkirchen in Kärnten", "lat": 46.7256778, "lon": 14.0859535, "tags": {"addr:city": "Feldkirchen in Kärnten", "addr:housenumber": "14", "addr:postcode": "9560", "addr:street": "Himmelberger Straße"}, "content": "Adresse: Himmelberger Straße 14, 9560 Feldkirchen in Kärnten\nOrt: Feldkirchen in Kärnten\nPLZ: 9560\nKoordinaten: 46.725678, 14.085954", "doc_type": "addresses"}
{"source": "OSM", "region": "Kärnten", "osm_type": "node", "osm_id": 5373662021, "name": null, "category": null, "address": "Himmelberger Straße 13, 9560 Feldkirchen in Kärnten", "street": "Himmelberger Straße", "housenumber": "13", "postcode": "9560", "place": "Feldkirchen in Kärnten", "lat": 46.7258334, "lon": 14.0861118, "tags": {"addr:city": "Feldkirchen in Kärnten", "addr:housenumber": "13", "addr:postcode": "9560", "addr:street": "Himmelberger Straße"}, "content": "Adresse: Himmelberger Straße 13, 9560 Feldkirchen in Kärnten\nOrt: Feldkirchen in Kärnten\nPLZ: 9560\nKoordinaten: 46.725833, 14.086112", "doc_type": "addresses"}
{"source": "OSM", "region": "Kärnten", "osm_type": "node", "osm_id": 340516048, "name": "bank99", "category": "amenity:bank", "address": "Bambergerplatz 1, 9560 Feldkirchen in Kärnten", "street": "Bambergerplatz", "housenumber": "1", "postcode": "9560", "place": "Feldkirchen in Kärnten", "lat": 46.7255036, "lon": 14.091028, "tags": {"addr:city": "Feldkirchen in Kärnten", "addr:housenumber": "1", "addr:postcode": "9560", "addr:street": "Bambergerplatz", "amenity": "bank", "brand": "bank99", "name": "bank99", "operator": "bank99 AG", "website": "https://www.bank99.at"}, "content": "bank99\nKategorie: amenity:bank\nAdresse: Bambergerplatz 1, 9560 Feldkirchen in Kärnten\nOrt: Feldkirchen in Kärnten\nPLZ: 9560\nKoordinaten: 46.725504, 14.091028\nTags: amenity=bank, operator=bank99 AG, brand=bank99, website=https://www.bank99.at", "doc_type": "pois"}
{"source": "OSM", "region": "Kärnten", "osm_type": "node", "osm_id": 1203025993, "name": "Bezirkspolizeikommando Feldkirchen", "category": "amenity:police", "address": "10.-Oktober-Straße 27, 9560 Feldkirchen in Kärnten", "street": "10.-Oktober-Straße", "housenumber": "27", "postcode": "9560", "place": "Feldkirchen in Kärnten", "lat": 46.7224243, "lon": 14.0980227, "tags": {"addr:city": "Feldkirchen in Kärnten", "addr:housenumber": "27", "addr:postcode": "9560", "addr:street": "10.-Oktober-Straße", "amenity": "police", "name": "Bezirkspolizeikommando Feldkirchen", "phone": "+43 59133 2200305"}, "content": "Bezirkspolizeikommando Feldkirchen\nKategorie: amenity:police\nAdresse: 10.-Oktober-Straße 27, 9560 Feldkirchen in Kärnten\nOrt: Feldkirchen in Kärnten\nPLZ: 9560\nKoordinaten: 46.722424, 14.098023\nTags: amenity=police, phone=+43 59133 2200305", "doc_type": "pois"}
{"source": "OSM", "region": "Kärnten", "osm_type": "node", "osm_id": 1988815018, "name": "Kreuzwirt", "category": "amenity:restaurant", "address": "Wimitzer Straße 8, 9560 Feldkirchen in Kärnten", "street": "Wimitzer Straße", "housenumber": "8", "postcode": "9560", "place": "Feldkirchen in Kärnten", "lat": 46.7516208, "lon": 14.1090768, "tags": {"addr:city": "Feldkirchen in Kärnten", "addr:housenumber": "8", "addr:postcode": "9560", "addr:street": "Wimitzer Straße", "amenity": "restaurant", "name": "Kreuzwirt"}, "content": "Kreuzwirt\nKategorie: amenity:restaurant\nAdresse: Wimitzer Straße 8, 9560 Feldkirchen in Kärnten\nOrt: Feldkirchen in Kärnten\nPLZ: 9560\nKoordinaten: 46.751621, 14.109077\nTags: amenity=restaurant", "doc_type": "pois"}
{"source": "OSM", "region": "Kärnten", "osm_type": "node", "osm_id": 2392159382, "name": "Eis Cafe Il Gelato", "category": "amenity:ice_cream", "address": "10.-Oktober-Straße 26, 9560 Feldkirchen in Kärnten", "street": "10.-Oktober-Straße", "housenumber": "26", "postcode": "9560", "place": "Feldkirchen in Kärnten", "lat": 46.7230914, "lon": 14.0961383, "tags": {"addr:city": "Feldkirchen in Kärnten", "addr:housenumber": "26", "addr:postcode": "9560", "addr:street": "10.-Oktober-Straße", "amenity": "ice_cream", "name": "Eis Cafe Il Gelato"}, "content": "Eis Cafe Il Gelato\nKategorie: amenity:ice_cream\nAdresse: 10.-Oktober-Straße 26, 9560 Feldkirchen in Kärnten\nOrt: Feldkirchen in Kärnten\nPLZ: 9560\nKoordinaten: 46.723091, 14.096138\nTags: amenity=ice_cream", "doc_type": "pois"}
{"source": "OSM", "region": "Kärnten", "osm_type": "node", "osm_id": 2998019236, "name": "Bäckerei Weissensteiner", "category": "shop:bakery", "address": "Bambergerplatz 3-4, 9560 Feldkirchen in Kärnten", "street": "Bambergerplatz", "housenumber": "3-4", "postcode": "9560", "place": "Feldkirchen in Kärnten", "lat": 46.7255833, "lon": 14.090847, "tags": {"addr:city": "Feldkirchen in Kärnten", "addr:housenumber": "3-4", "addr:postcode": "9560", "addr:street": "Bambergerplatz", "name": "Bäckerei Weissensteiner", "shop": "bakery", "website": "https://www.weissensteiner.at/hier-finden-sie-uns/"}, "content": "Bäckerei Weissensteiner\nKategorie: shop:bakery\nAdresse: Bambergerplatz 3-4, 9560 Feldkirchen in Kärnten\nOrt: Feldkirchen in Kärnten\nPLZ: 9560\nKoordinaten: 46.725583, 14.090847\nTags: shop=bakery, website=https://www.weissensteiner.at/hier-finden-sie-uns/", "doc_type": "pois"}
{"source": "OSM", "region": "Kärnten", "osm_type": "node", "osm_id": 3465878131, "name": "Kramerwirt - Fam. Uhr", "category": "amenity:restaurant", "address": "Klein St. Veit 4, 9560 Feldkirchen in Kärnten", "street": "Klein St. Veit", "housenumber": "4", "postcode": "9560", "place": "Feldkirchen in Kärnten", "lat": 46.6968732, "lon": 14.1665597, "tags": {"addr:city": "Feldkirchen in Kärnten", "addr:housenumber": "4", "addr:place": "Klein St. Veit", "addr:postcode": "9560", "addr:street": "Klein St. Veit", "amenity": "restaurant", "name": "Kramerwirt - Fam. Uhr"}, "content": "Kramerwirt - Fam. Uhr\nKategorie: amenity:restaurant\nAdresse: Klein St. Veit 4, 9560 Feldkirchen in Kärnten\nOrt: Feldkirchen in Kärnten\nPLZ: 9560\nKoordinaten: 46.696873, 14.166560\nTags: amenity=restaurant", "doc_type": "pois"}
{"source": "OSM", "region": "Kärnten", "osm_type": "node", "osm_id": 3923365114, "name": "Hervis", "category": "shop:sports", "address": "10.-Oktober-Straße 12, 9560 Feldkirchen in Kärnten", "street": "10.-Oktober-Straße", "housenumber": "12", "postcode": "9560", "place": "Feldkirchen in Kärnten", "lat": 46.7239786, "lon": 14.0945549, "tags": {"addr:city": "Feldkirchen in Kärnten", "addr:housenumber": "12", "addr:postcode": "9560", "addr:street": "10.-Oktober-Straße", "brand": "Hervis", "name": "Hervis", "shop": "sports"}, "content": "Hervis\nKategorie: shop:sports\nAdresse: 10.-Oktober-Straße 12, 9560 Feldkirchen in Kärnten\nOrt: Feldkirchen in Kärnten\nPLZ: 9560\nKoordinaten: 46.723979, 14.094555\nTags: shop=sports, brand=Hervis", "doc_type": "pois"}
{"source": "OSM", "region": "Kärnten", "osm_type": "node", "osm_id": 3923365119, "name": "Hartlauer", "category": "shop:electronics", "address": "10.-Oktober-Straße 21, 9560 Feldkirchen in Kärnten", "street": "10.-Oktober-Straße", "housenumber": "21", "postcode": "9560", "place": "Feldkirchen in Kärnten", "lat": 46.7234204, "lon": 14.0961588, "tags": {"addr:city": "Feldkirchen in Kärnten", "addr:housenumber": "21", "addr:postcode": "9560", "addr:street": "10.-Oktober-Straße", "brand": "Hartlauer", "name": "Hartlauer", "shop": "electronics"}, "content": "Hartlauer\nKategorie: shop:electronics\nAdresse: 10.-Oktober-Straße 21, 9560 Feldkirchen in Kärnten\nOrt: Feldkirchen in Kärnten\nPLZ: 9560\nKoordinaten: 46.723420, 14.096159\nTags: shop=electronics, brand=Hartlauer", "doc_type": "pois"}
{"source": "OSM", "region": "Kärnten", "osm_type": "node", "osm_id": 3923365128, "name": "Billa", "category": "shop:supermarket", "address": "St. Veiterstraße 2, 9560 Feldkirchen in Kärnten", "street": "St. Veiterstraße", "housenumber": "2", "postcode": "9560", "place": "Feldkirchen in Kärnten", "lat": 46.7223386, "lon": 14.1007482, "tags": {"addr:city": "Feldkirchen in Kärnten", "addr:housenumber": "2", "addr:postcode": "9560", "addr:street": "St. Veiterstraße", "brand": "Billa", "name": "Billa", "shop": "supermarket"}, "content": "Billa\nKategorie: shop:supermarket\nAdresse: St. Veiterstraße 2, 9560 Feldkirchen in Kärnten\nOrt: Feldkirchen in Kärnten\nPLZ: 9560\nKoordinaten: 46.722339, 14.100748\nTags: shop=supermarket, brand=Billa", "doc_type": "pois"}
{"source": "OSM", "region": "Kärnten", "osm_type": "node", "osm_id": 3923365129, "name": "Lagerhaus", "category": "shop:doityourself", "address": "St. Veiterstraße 4, 9560 Feldkirchen in Kärnten", "street": "St. Veiterstraße", "housenumber": "4", "postcode": "9560", "place": "Feldkirchen in Kärnten", "lat": 46.7229548, "lon": 14.1022831, "tags": {"addr:city": "Feldkirchen in Kärnten", "addr:housenumber": "4", "addr:postcode": "9560", "addr:street": "St. Veiterstraße", "brand": "Lagerhaus", "name": "Lagerhaus", "shop": "doityourself"}, "content": "Lagerhaus\nKategorie: shop:doityourself\nAdresse: St. Veiterstraße 4, 9560 Feldkirchen in Kärnten\nOrt: Feldkirchen in Kärnten\nPLZ: 9560\nKoordinaten: 46.722955, 14.102283\nTags: shop=doityourself, brand=Lagerhaus", "doc_type": "pois"}
{"source": "OSM", "region": "Kärnten", "osm_type": "node", "osm_id": 3923365130, "name": "ÖBAU Egger", "category": "shop:doityourself", "address": "Industriestraße 10, 9560 Feldkirchen in Kärnten", "street": "Industriestraße", "housenumber": "10", "postcode": "9560", "place": "Feldkirchen in Kärnten", "lat": 46.7196476, "lon": 14.1009872, "tags": {"addr:city": "Feldkirchen in Kärnten", "addr:housenumber": "10", "addr:postcode": "9560", "addr:street": "Industriestraße", "name": "ÖBAU Egger", "shop": "doityourself"}, "content": "ÖBAU Egger\nKategorie: shop:doityourself\nAdresse: Industriestraße 10, 9560 Feldkirchen in Kärnten\nOrt: Feldkirchen in Kärnten\nPLZ: 9560\nKoordinaten: 46.719648, 14.100987\nTags: shop=doityourself", "doc_type": "pois"}
{"source": "OSM", "region": "Kärnten", "osm_type": "node", "osm_id": 4197015838, "name": "Vitalis Apotheke", "category": "amenity:pharmacy", "address": "Flurweg 7, 9560 Feldkirchen in Kärnten", "street": "Flurweg", "housenumber": "7", "postcode": "9560", "place": "Feldkirchen in Kärnten", "lat": 46.7306678, "lon": 14.0924254, "tags": {"addr:city": "Feldkirchen in Kärnten", "addr:housenumber": "7", "addr:postcode": "9560", "addr:street": "Flurweg", "amenity": "pharmacy", "healthcare": "pharmacy", "name": "Vitalis Apotheke"}, "content": "Vitalis Apotheke\nKategorie: amenity:pharmacy\nAdresse: Flurweg 7, 9560 Feldkirchen in Kärnten\nOrt: Feldkirchen in Kärnten\nPLZ: 9560\nKoordinaten: 46.730668, 14.092425\nTags: amenity=pharmacy, healthcare=pharmacy", "doc_type": "pois"}
{"source": "OSM", "region": "Kärnten", "osm_type": "node", "osm_id": 4197015844, "name": "Stadt Apotheke", "category": "amenity:pharmacy", "address": "10.-Oktober-Straße 19, 9560 Feldkirchen in Kärnten", "street": "10.-Oktober-Straße", "housenumber": "19", "postcode": "9560", "place": "Feldkirchen in Kärnten", "lat": 46.7236073, "lon": 14.0958299, "tags": {"addr:city": "Feldkirchen in Kärnten", "addr:housenumber": "19", "addr:postcode": "9560", "addr:street": "10.-Oktober-Straße", "amenity": "pharmacy", "healthcare": "pharmacy", "name": "Stadt Apotheke"}, "content": "Stadt Apotheke\nKategorie: amenity:pharmacy\nAdresse: 10.-Oktober-Straße 19, 9560 Feldkirchen in Kärnten\nOrt: Feldkirchen in Kärnten\nPLZ: 9560\nKoordinaten: 46.723607, 14.095830\nTags: amenity=pharmacy, healthcare=pharmacy", "doc_type": "pois"}
{"source": "OSM", "region": "Kärnten", "osm_type": "node", "osm_id": 4197015845, "name": "Salvator Apotheke", "category": "amenity:pharmacy", "address": "Hauptplatz 3, 9560 Feldkirchen in Kärnten", "street": "Hauptplatz", "housenumber": "3", "postcode": "9560", "place": "Feldkirchen in Kärnten", "lat": 46.72362, "lon": 14.0917085, "tags": {"addr:city": "Feldkirchen in Kärnten", "addr:housenumber": "3", "addr:postcode": "9560", "addr:street": "Hauptplatz", "amenity": "pharmacy", "healthcare": "pharmacy", "name": "Salvator Apotheke"}, "content": "Salvator Apotheke\nKategorie: amenity:pharmacy\nAdresse: Hauptplatz 3, 9560 Feldkirchen in Kärnten\nOrt: Feldkirchen in Kärnten\nPLZ: 9560\nKoordinaten: 46.723620, 14.091708\nTags: amenity=pharmacy, healthcare=pharmacy", "doc_type": "pois"}
{"source": "OSM", "region": "Kärnten", "osm_type": "node", "osm_id": 4353259325, "name": "T&G", "category": "shop:supermarket", "address": "Milesipark 1, 9560 Feldkirchen in Kärnten", "street": "Milesipark", "housenumber": "1", "postcode": "9560", "place": "Feldkirchen in Kärnten", "lat": 46.7274994, "lon": 14.0907556, "tags": {"addr:city": "Feldkirchen in Kärnten", "addr:housenumber": "1", "addr:postcode": "9560", "addr:street": "Milesipark", "name": "T&G", "operator": "MPREIS Warenvertriebs GmbH", "shop": "supermarket"}, "content": "T&G\nKategorie: shop:supermarket\nAdresse: Milesipark 1, 9560 Feldkirchen in Kärnten\nOrt: Feldkirchen in Kärnten\nPLZ: 9560\nKoordinaten: 46.727499, 14.090756\nTags: shop=supermarket, operator=MPREIS Warenvertriebs GmbH", "doc_type": "pois"}
{"source": "OSM", "region": "Kärnten", "osm_type": "node", "osm_id": 4397889275, "name": "Breschan", "category": "shop:toys", "address": "Kirchgasse 6, 9560 Feldkirchen in Kärnten", "street": "Kirchgasse", "housenumber": "6", "postcode": "9560", "place": "Feldkirchen in Kärnten", "lat": 46.7248666, "lon": 14.0925359, "tags": {"addr:city": "Feldkirchen in Kärnten", "addr:housenumber": "6", "addr:postcode": "9560", "addr:street": "Kirchgasse", "name": "Breschan", "operator": "Mag. Heinz Breschan", "shop": "toys"}, "content": "Breschan\nKategorie: shop:toys\nAdresse: Kirchgasse 6, 9560 Feldkirchen in Kärnten\nOrt: Feldkirchen in Kärnten\nPLZ: 9560\nKoordinaten: 46.724867, 14.092536\nTags: shop=toys, operator=Mag. Heinz Breschan", "doc_type": "pois"}
{"source": "OSM", "region": "Kärnten", "osm_type": "node", "osm_id": 4416793190, "name": "Karawanke Bäckerei", "category": "shop:bakery", "address": "10.-Oktober-Straße 8, 9560 Feldkirchen in Kärnten", "street": "10.-Oktober-Straße", "housenumber": "8", "postcode": "9560", "place": "Feldkirchen in Kärnten", "lat": 46.7243384, "lon": 14.0938687, "tags": {"addr:city": "Feldkirchen in Kärnten", "addr:housenumber": "8", "addr:postcode": "9560", "addr:street": "10.-Oktober-Straße", "name": "Karawanke Bäckerei", "shop": "bakery"}, "content": "Karawanke Bäckerei\nKategorie: shop:bakery\nAdresse: 10.-Oktober-Straße 8, 9560 Feldkirchen in Kärnten\nOrt: Feldkirchen in Kärnten\nPLZ: 9560\nKoordinaten: 46.724338, 14.093869\nTags: shop=bakery", "doc_type": "pois"}
{"source": "OSM", "region": "Kärnten", "osm_type": "node", "osm_id": 4519322473, "name": "Angelsport Freithofer", "category": "shop:fishing", "address": "Bambergerplatz 12, 9560 Feldkirchen in Kärnten", "street": "Bambergerplatz", "housenumber": "12", "postcode": "9560", "place": "Feldkirchen in Kärnten", "lat": 46.72582, "lon": 14.0906347, "tags": {"addr:city": "Feldkirchen in Kärnten", "addr:housenumber": "12", "addr:postcode": "9560", "addr:street": "Bambergerplatz", "name": "Angelsport Freithofer", "shop": "fishing"}, "content": "Angelsport Freithofer\nKategorie: shop:fishing\nAdresse: Bambergerplatz 12, 9560 Feldkirchen in Kärnten\nOrt: Feldkirchen in Kärnten\nPLZ: 9560\nKoordinaten: 46.725820, 14.090635\nTags: shop=fishing", "doc_type": "pois"}
{"source": "OSM", "region": "Kärnten", "osm_type": "node", "osm_id": 4524477687, "name": "Spitzer Installationen", "category": "craft:plumber", "address": "10.-Oktober-Straße 14, 9560 Feldkirchen in Kärnten", "street": "10.-Oktober-Straße", "housenumber": "14", "postcode": "9560", "place": "Feldkirchen in Kärnten", "lat": 46.7235241, "lon": 14.0946137, "tags": {"addr:city": "Feldkirchen in Kärnten", "addr:housenumber": "14", "addr:postcode": "9560", "addr:street": "10.-Oktober-Straße", "craft": "plumber", "name": "Spitzer Installationen"}, "content": "Spitzer Installationen\nKategorie: craft:plumber\nAdresse: 10.-Oktober-Straße 14, 9560 Feldkirchen in Kärnten\nOrt: Feldkirchen in Kärnten\nPLZ: 9560\nKoordinaten: 46.723524, 14.094614", "doc_type": "pois"}
{"source": "OSM", "region": "Kärnten", "osm_type": "node", "osm_id": 4773517696, "name": "Zum Wirtshaus", "category": "amenity:restaurant", "address": "Hauptplatz 2, 9560 Feldkirchen in Kärnten", "street": "Hauptplatz", "housenumber": "2", "postcode": "9560", "place": "Feldkirchen in Kärnten", "lat": 46.7237135, "lon": 14.0917406, "tags": {"addr:city": "Feldkirchen in Kärnten", "addr:housenumber": "2", "addr:postcode": "9560", "addr:street": "Hauptplatz", "amenity": "restaurant", "name": "Zum Wirtshaus"}, "content": "Zum Wirtshaus\nKategorie: amenity:restaurant\nAdresse: Hauptplatz 2, 9560 Feldkirchen in Kärnten\nOrt: Feldkirchen in Kärnten\nPLZ: 9560\nKoordinaten: 46.723714, 14.091741\nTags: amenity=restaurant", "doc_type": "pois"}
{"source": "OSM", "region": "Kärnten", "osm_type": "node", "osm_id": 4775007857, "name": "Asterix Pub", "category": "amenity:bar", "address": "Hauptplatz 2, 9560 Feldkirchen in Kärnten", "street": "Hauptplatz", "housenumber": "2", "postcode": "9560", "place": "Feldkirchen in Kärnten", "lat": 46.7237757, "lon": 14.0917736, "tags": {"addr:city": "Feldkirchen in Kärnten", "addr:housenumber": "2", "addr:postcode": "9560", "addr:street": "Hauptplatz", "amenity": "bar", "name": "Asterix Pub", "operator": "Astrid Wurmitzer"}, "content": "Asterix Pub\nKategorie: amenity:bar\nAdresse: Hauptplatz 2, 9560 Feldkirchen in Kärnten\nOrt: Feldkirchen in Kärnten\nPLZ: 9560\nKoordinaten: 46.723776, 14.091774\nTags: amenity=bar, operator=Astrid Wurmitzer", "doc_type": "pois"}
{"source": "OSM", "region": "Kärnten", "osm_type": "node", "osm_id": 4775010991, "name": "Café Konditorei Walten", "category": "amenity:cafe", "address": "Hauptplatz 4, 9560 Feldkirchen in Kärnten", "street": "Hauptplatz", "housenumber": "4", "postcode": "9560", "place": "Feldkirchen in Kärnten", "lat": 46.7234227, "lon": 14.0918004, "tags": {"addr:city": "Feldkirchen in Kärnten", "addr:housenumber": "4", "addr:postcode": "9560", "addr:street": "Hauptplatz", "amenity": "cafe", "name": "Café Konditorei Walten"}, "content": "Café Konditorei Walten\nKategorie: amenity:cafe\nAdresse: Hauptplatz 4, 9560 Feldkirchen in Kärnten\nOrt: Feldkirchen in Kärnten\nPLZ: 9560\nKoordinaten: 46.723423, 14.091800\nTags: amenity=cafe", "doc_type": "pois"}
{"source": "OSM", "region": "Kärnten", "osm_type": "node", "osm_id": 4775015713, "name": "Rock-Café Filiale", "category": "amenity:bar", "address": "Hauptplatz 8, 9560 Feldkirchen in Kärnten", "street": "Hauptplatz", "housenumber": "8", "postcode": "9560", "place": "Feldkirchen in Kärnten", "lat": 46.7233252, "lon": 14.0926024, "tags": {"addr:city": "Feldkirchen in Kärnten", "addr:housenumber": "8", "addr:postcode": "9560", "addr:street": "Hauptplatz", "amenity": "bar", "name": "Rock-Café Filiale", "operator": "Gerry Sobian"}, "content": "Rock-Café Filiale\nKategorie: amenity:bar\nAdresse: Hauptplatz 8, 9560 Feldkirchen in Kärnten\nOrt: Feldkirchen in Kärnten\nPLZ: 9560\nKoordinaten: 46.723325, 14.092602\nTags: amenity=bar, operator=Gerry Sobian", "doc_type": "pois"}
{"source": "OSM", "region": "Kärnten", "osm_type": "node", "osm_id": 4775020189, "name": "Buci´s Kebap", "category": "amenity:fast_food", "address": "Hauptplatz 3, 9560 Feldkirchen in Kärnten", "street": "Hauptplatz", "housenumber": "3", "postcode": "9560", "place": "Feldkirchen in Kärnten", "lat": 46.7236159, "lon": 14.092784, "tags": {"addr:city": "Feldkirchen in Kärnten", "addr:housenumber": "3", "addr:postcode": "9560", "addr:street": "Hauptplatz", "amenity": "fast_food", "name": "Buci´s Kebap", "operator": "Sick Basri"}, "content": "Buci´s Kebap\nKategorie: amenity:fast_food\nAdresse: Hauptplatz 3, 9560 Feldkirchen in Kärnten\nOrt: Feldkirchen in Kärnten\nPLZ: 9560\nKoordinaten: 46.723616, 14.092784\nTags: amenity=fast_food, operator=Sick Basri", "doc_type": "pois"}
{"source": "OSM", "region": "Kärnten", "osm_type": "node", "osm_id": 4775023646, "name": "The Jukebox", "category": "amenity:bar", "address": "Ossiacherstraße 1a, 9560 Feldkirchen in Kärnten", "street": "Ossiacherstraße", "housenumber": "1a", "postcode": "9560", "place": "Feldkirchen in Kärnten", "lat": 46.7234935, "lon": 14.0914594, "tags": {"addr:city": "Feldkirchen in Kärnten", "addr:housenumber": "1a", "addr:postcode": "9560", "addr:street": "Ossiacherstraße", "amenity": "bar", "name": "The Jukebox", "operator": "Rudolf Gailer"}, "content": "The Jukebox\nKategorie: amenity:bar\nAdresse: Ossiacherstraße 1a, 9560 Feldkirchen in Kärnten\nOrt: Feldkirchen in Kärnten\nPLZ: 9560\nKoordinaten: 46.723493, 14.091459\nTags: amenity=bar, operator=Rudolf Gailer", "doc_type": "pois"}
{"source": "OSM", "region": "Kärnten", "osm_type": "node", "osm_id": 4775025368, "name": "Chilibar", "category": "amenity:bar", "address": "Rauterplatz 2, 9560 Feldkirchen in Kärnten", "street": "Rauterplatz", "housenumber": "2", "postcode": "9560", "place": "Feldkirchen in Kärnten", "lat": 46.7241379, "lon": 14.0923074, "tags": {"addr:city": "Feldkirchen in Kärnten", "addr:housenumber": "2", "addr:postcode": "9560", "addr:street": "Rauterplatz", "amenity": "bar", "name": "Chilibar", "operator": "Mario Held"}, "content": "Chilibar\nKategorie: amenity:bar\nAdresse: Rauterplatz 2, 9560 Feldkirchen in Kärnten\nOrt: Feldkirchen in Kärnten\nPLZ: 9560\nKoordinaten: 46.724138, 14.092307\nTags: amenity=bar, operator=Mario Held", "doc_type": "pois"}
{"source": "OSM", "region": "Kärnten", "osm_type": "node", "osm_id": 4775028418, "name": "Piano Bar", "category": "amenity:bar", "address": "Rauterplatz 5, 9560 Feldkirchen in Kärnten", "street": "Rauterplatz", "housenumber": "5", "postcode": "9560", "place": "Feldkirchen in Kärnten", "lat": 46.7240662, "lon": 14.0922886, "tags": {"addr:city": "Feldkirchen in Kärnten", "addr:housenumber": "5", "addr:postcode": "9560", "addr:street": "Rauterplatz", "amenity": "bar", "name": "Piano Bar"}, "content": "Piano Bar\nKategorie: amenity:bar\nAdresse: Rauterplatz 5, 9560 Feldkirchen in Kärnten\nOrt: Feldkirchen in Kärnten\nPLZ: 9560\nKoordinaten: 46.724066, 14.092289\nTags: amenity=bar", "doc_type": "pois"}
{"source": "OSM", "region": "Kärnten", "osm_type": "node", "osm_id": 4775035915, "name": "Cafe-Bar-Memories", "category": "amenity:bar", "address": "Bahnhofstraße 1, 9560 Feldkirchen in Kärnten", "street": "Bahnhofstraße", "housenumber": "1", "postcode": "9560", "place": "Feldkirchen in Kärnten", "lat": 46.7241563, "lon": 14.0925729, "tags": {"addr:city": "Feldkirchen in Kärnten", "addr:housenumber": "1", "addr:postcode": "9560", "addr:street": "Bahnhofstraße", "amenity": "bar", "name": "Cafe-Bar-Memories", "operator": "Rudolf Gailer"}, "content": "Cafe-Bar-Memories\nKategorie: amenity:bar\nAdresse: Bahnhofstraße 1, 9560 Feldkirchen in Kärnten\nOrt: Feldkirchen in Kärnten\nPLZ: 9560\nKoordinaten: 46.724156, 14.092573\nTags: amenity=bar, operator=Rudolf Gailer", "doc_type": "pois"}
{"source": "OSM", "region": "Kärnten", "osm_type": "node", "osm_id": 4821313139, "name": "Dr. Wolfgang Albrecht", "category": "amenity:doctors", "address": "Obere Tiebelgasse 7, 9560 Feldkirchen in Kärnten", "street": "Obere Tiebelgasse", "housenumber": "7", "postcode": "9560", "place": "Feldkirchen in Kärnten", "lat": 46.7244745, "lon": 14.0956665, "tags": {"addr:city": "Feldkirchen in Kärnten", "addr:housenumber": "7", "addr:postcode": "9560", "addr:street": "Obere Tiebelgasse", "amenity": "doctors", "healthcare": "doctor", "name": "Dr. Wolfgang Albrecht", "website": "https://www.gyn-albrecht.at/"}, "content": "Dr. Wolfgang Albrecht\nKategorie: amenity:doctors\nAdresse: Obere Tiebelgasse 7, 9560 Feldkirchen in Kärnten\nOrt: Feldkirchen in Kärnten\nPLZ: 9560\nKoordinaten: 46.724474, 14.095667\nTags: amenity=doctors, healthcare=doctor, website=https://www.gyn-albrecht.at/", "doc_type": "pois"}
{"source": "OSM", "region": "Kärnten", "osm_type": "node", "osm_id": 4957611599, "name": "Wirtschaftskammer", "category": "office:yes", "address": "Dr.-A.-Lemisch-Straße 4, 9560 Feldkirchen in Kärnten", "street": "Dr.-A.-Lemisch-Straße", "housenumber": "4", "postcode": "9560", "place": "Feldkirchen in Kärnten", "lat": 46.7260431, "lon": 14.0903102, "tags": {"addr:city": "Feldkirchen in Kärnten", "addr:housenumber": "4", "addr:postcode": "9560", "addr:street": "Dr.-A.-Lemisch-Straße", "name": "Wirtschaftskammer", "office": "yes", "website": "https://www.wko.at/"}, "content": "Wirtschaftskammer\nKategorie: office:yes\nAdresse: Dr.-A.-Lemisch-Straße 4, 9560 Feldkirchen in Kärnten\nOrt: Feldkirchen in Kärnten\nPLZ: 9560\nKoordinaten: 46.726043, 14.090310\nTags: office=yes, website=https://www.wko.at/", "doc_type": "pois"}
{"source": "OSM", "region": "Kärnten", "osm_type": "node", "osm_id": 4957611606, "name": null, "category": "amenity:car_wash", "address": "10.-Oktober-Straße 22, 9560 Feldkirchen in Kärnten", "street": "10.-Oktober-Straße", "housenumber": "22", "postcode": "9560", "place": "Feldkirchen in Kärnten", "lat": 46.7232036, "lon": 14.09668, "tags": {"addr:city": "Feldkirchen in Kärnten", "addr:housenumber": "22", "addr:postcode": "9560", "addr:street": "10.-Oktober-Straße", "amenity": "car_wash"}, "content": "Kategorie: amenity:car_wash\nAdresse: 10.-Oktober-Straße 22, 9560 Feldkirchen in Kärnten\nOrt: Feldkirchen in Kärnten\nPLZ: 9560\nKoordinaten: 46.723204, 14.096680\nTags: amenity=car_wash", "doc_type": "pois"}
{"source": "OSM", "region": "Kärnten", "osm_type": "node", "osm_id": 4957611608, "name": "Reblaus", "category": "amenity:restaurant", "address": "10.-Oktober-Straße 20, 9560 Feldkirchen in Kärnten", "street": "10.-Oktober-Straße", "housenumber": "20", "postcode": "9560", "place": "Feldkirchen in Kärnten", "lat": 46.7235344, "lon": 14.0953794, "tags": {"addr:city": "Feldkirchen in Kärnten", "addr:housenumber": "20", "addr:postcode": "9560", "addr:street": "10.-Oktober-Straße", "amenity": "restaurant", "name": "Reblaus"}, "content": "Reblaus\nKategorie: amenity:restaurant\nAdresse: 10.-Oktober-Straße 20, 9560 Feldkirchen in Kärnten\nOrt: Feldkirchen in Kärnten\nPLZ: 9560\nKoordinaten: 46.723534, 14.095379\nTags: amenity=restaurant", "doc_type": "pois"}
{"source": "OSM", "region": "Kärnten", "osm_type": "node", "osm_id": 4957611620, "name": "Getränkemarkt Kanduth", "category": "shop:beverages", "address": "Laboisnerstraße 1b, 9560 Feldkirchen in Kärnten", "street": "Laboisnerstraße", "housenumber": "1b", "postcode": "9560", "place": "Feldkirchen in Kärnten", "lat": 46.7201016, "lon": 14.1056811, "tags": {"addr:city": "Feldkirchen in Kärnten", "addr:housenumber": "1b", "addr:postcode": "9560", "addr:street": "Laboisnerstraße", "name": "Getränkemarkt Kanduth", "shop": "beverages"}, "content": "Getränkemarkt Kanduth\nKategorie: shop:beverages\nAdresse: Laboisnerstraße 1b, 9560 Feldkirchen in Kärnten\nOrt: Feldkirchen in Kärnten\nPLZ: 9560\nKoordinaten: 46.720102, 14.105681\nTags: shop=beverages", "doc_type": "pois"}
{"source": "OSM", "region": "Kärnten", "osm_type": "node", "osm_id": 4957611847, "name": "Antoniusheim Kindergarten", "category": "amenity:kindergarten", "address": "Himmelberger Straße 5, 9560 Feldkirchen in Kärnten", "street": "Himmelberger Straße", "housenumber": "5", "postcode": "9560", "place": "Feldkirchen in Kärnten", "lat": 46.7241812, "lon": 14.0900081, "tags": {"addr:city": "Feldkirchen in Kärnten", "addr:housenumber": "5", "addr:postcode": "9560", "addr:street": "Himmelberger Straße", "amenity": "kindergarten", "name": "Antoniusheim Kindergarten"}, "content": "Antoniusheim Kindergarten\nKategorie: amenity:kindergarten\nAdresse: Himmelberger Straße 5, 9560 Feldkirchen in Kärnten\nOrt: Feldkirchen in Kärnten\nPLZ: 9560\nKoordinaten: 46.724181, 14.090008\nTags: amenity=kindergarten", "doc_type": "pois"}
{"source": "OSM", "region": "Kärnten", "osm_type": "node", "osm_id": 5120450629, "name": "Polizeiinspektion Feldkirchen", "category": "amenity:police", "address": "10.-Oktober-Straße 27, 9560 Feldkirchen in Kärnten", "street": "10.-Oktober-Straße", "housenumber": "27", "postcode": "9560", "place": "Feldkirchen in Kärnten", "lat": 46.7223259, "lon": 14.0981634, "tags": {"addr:city": "Feldkirchen in Kärnten", "addr:housenumber": "27", "addr:postcode": "9560", "addr:street": "10.-Oktober-Straße", "amenity": "police", "name": "Polizeiinspektion Feldkirchen", "phone": "+43 59133 2200100"}, "content": "Polizeiinspektion Feldkirchen\nKategorie: amenity:police\nAdresse: 10.-Oktober-Straße 27, 9560 Feldkirchen in Kärnten\nOrt: Feldkirchen in Kärnten\nPLZ: 9560\nKoordinaten: 46.722326, 14.098163\nTags: amenity=police, phone=+43 59133 2200100", "doc_type": "pois"}
{"source": "OSM", "region": "Kärnten", "osm_type": "node", "osm_id": 5143768222, "name": "ARBÖ Prüfzentrum Feldkirchen", "category": "shop:car_repair", "address": "10.-Oktober-Straße 31, 9560 Feldkirchen in Kärnten", "street": "10.-Oktober-Straße", "housenumber": "31", "postcode": "9560", "place": "Feldkirchen in Kärnten", "lat": 46.7224505, "lon": 14.0990089, "tags": {"addr:city": "Feldkirchen in Kärnten", "addr:housenumber": "31", "addr:postcode": "9560", "addr:street": "10.-Oktober-Straße", "name": "ARBÖ Prüfzentrum Feldkirchen", "operator": "ARBÖ", "phone": "+43 50 1232203", "shop": "car_repair"}, "content": "ARBÖ Prüfzentrum Feldkirchen\nKategorie: shop:car_repair\nAdresse: 10.-Oktober-Straße 31, 9560 Feldkirchen in Kärnten\nOrt: Feldkirchen in Kärnten\nPLZ: 9560\nKoordinaten: 46.722451, 14.099009\nTags: shop=car_repair, operator=ARBÖ, phone=+43 50 1232203", "doc_type": "pois"}
