{"source": "OSM", "region": "Kärnten", "osm_type": "node", "osm_id": 290458361, "name": "Il Lago", "category": "amenity:restaurant", "address": "Seecorso 8, 9220 Velden am Wörther See", "street": "Seecorso", "housenumber": "8", "postcode": "9220", "place": "Velden am Wörther See", "lat": 46.6125552, "lon": 14.0427683, "tags": {"addr:city": "Velden am Wörther See", "addr:housenumber": "8", "addr:postcode": "9220", "addr:street": "Seecorso", "amenity": "restaurant", "name": "Il Lago", "phone": "+43 4274 51109", "website": "https://www.illago.at/"}, "content": "Il Lago\nKategorie: amenity:restaurant\nAdresse: Seecorso 8, 9220 Velden am Wörther See\nOrt: Velden am Wörther See\nPLZ: 9220\nKoordinaten: 46.612555, 14.042768\nTags: amenity=restaurant, phone=+43 4274 51109, website=https://www.illago.at/", "doc_type": "addresses"}
{"source": "OSM", "region": "Kärnten", "osm_type": "node", "osm_id": 295390271, "name": "Volksbank", "category": "amenity:bank", "address": "Am Corso 27, 9220 Velden am Wörther See", "street": "Am Corso", "housenumber": "27", "postcode": "9220", "place": "Velden am Wörther See", "lat": 46.6142094, "lon": 14.0427377, "tags": {"addr:city": "Velden am Wörther See", "addr:housenumber": "27", "addr:postcode": "9220", "addr:street": "Am Corso", "amenity": "bank", "name": "Volksbank", "operator": "Volksbank", "phone": "+43 5 09 09 - 8300", "website": "https://www.volksbank-kaernten.at/"}, "content": "Volksbank\nKategorie: amenity:bank\nAdresse: Am Corso 27, 9220 Velden am Wörther See\nOrt: Velden am Wörther See\nPLZ: 9220\nKoordinaten: 46.614209, 14.042738\nTags: amenity=bank, operator=Volksbank, phone=+43 5 09 09 - 8300, website=https://www.volksbank-kaernten.at/", "doc_type": "addresses"}
{"source": "OSM", "region": "Kärnten", "osm_type": "node", "osm_id": 295390274, "name": "Raiffeisenbank Velden", "category": "amenity:bank", "address": "Karawankenplatz 2, 9220 Velden am Wörther See", "street": "Karawankenplatz", "housenumber": "2", "postcode": "9220", "place": "Velden am Wörther See", "lat": 46.6140187, "lon": 14.0413425, "tags": {"addr:city": "Velden am Wörther See", "addr:housenumber": "2", "addr:postcode": "9220", "addr:street": "Karawankenplatz", "amenity": "bank", "name": "Raiffeisenbank Velden", "operator": "Raiffeisen", "phone": "+43 59 99 39390 00"}, "content": "Raiffeisenbank Velden\nKategorie: amenity:bank\nAdresse: Karawankenplatz 2, 9220 Velden am Wörther See\nOrt: Velden am Wörther See\nPLZ: 9220\nKoordinaten: 46.614019, 14.041343\nTags: amenity=bank, operator=Raiffeisen, phone=+43 59 99 39390 00", "doc_type": "addresses"}
{"source": "OSM", "region": "Kärnten", "osm_type": "node", "osm_id": 300901317, "name": "Gemeindeamt Velden", "category": "amenity:townhall", "address": "Seecorso 2, 9220 Velden am Wörther See", "street": "Seecorso", "housenumber": "2", "postcode": "9220", "place": "Velden am Wörther See", "lat": 46.6131545, "lon": 14.0418693, "tags": {"addr:city": "Velden am Wörther See", "addr:housenumber": "2", "addr:postcode": "9220", "addr:street": "Seecorso", "amenity": "townhall", "name": "Gemeindeamt Velden"}, "content": "Gemeindeamt Velden\nKategorie: amenity:townhall\nAdresse: Seecorso 2, 9220 Velden am Wörther See\nOrt: Velden am Wörther See\nPLZ: 9220\nKoordinaten: 46.613155, 14.041869\nTags: amenity=townhall", "doc_type": "addresses"}
{"source": "OSM", "region": "Kärnten", "osm_type": "node", "osm_id": 502993382, "name": "13er, Casino Bar", "category": "amenity:pub", "address": "Am Corso 17, 9220 Velden am Wörther See", "street": "Am Corso", "housenumber": "17", "postcode": "9220", "place": "Velden am Wörther See", "lat": 46.6150682, "lon": 14.0432026, "tags": {"addr:city": "Velden am Wörther See", "addr:housenumber": "17", "addr:postcode": "9220", "addr:street": "Am Corso", "amenity": "pub", "name": "13er, Casino Bar"}, "content": "13er, Casino Bar\nKategorie: amenity:pub\nAdresse: Am Corso 17, 9220 Velden am Wörther See\nOrt: Velden am Wörther See\nPLZ: 9220\nKoordinaten: 46.615068, 14.043203\nTags: amenity=pub", "doc_type": "addresses"}
{"source": "OSM", "region": "Kärnten", "osm_type": "node", "osm_id": 696751530, "name": "Viva La Diva", "category": "shop:clothes", "address": "Seecorso 4, 9220 Velden am Wörther See", "street": "Seecorso", "housenumber": "4", "postcode": "9220", "place": "Velden am Wörther See", "lat": 46.6129529, "lon": 14.0418555, "tags": {"addr:city": "Velden am Wörther See", "addr:housenumber": "4", "addr:postcode": "9220", "addr:street": "Seecorso", "name": "Viva La Diva", "shop": "clothes"}, "content": "Viva La Diva\nKategorie: shop:clothes\nAdresse: Seecorso 4, 9220 Velden am Wörther See\nOrt: Velden am Wörther See\nPLZ: 9220\nKoordinaten: 46.612953, 14.041856\nTags: shop=clothes", "doc_type": "addresses"}
{"source": "OSM", "region": "Kärnten", "osm_type": "node", "osm_id": 698566571, "name": "Seehotel Vinzenz", "category": "tourism:hotel", "address": "Auen-Süduferstraße 154, 9220 Velden am Wörther See", "street": "Auen-Süduferstraße", "housenumber": "154", "postcode": "9220", "place": "Velden am Wörther See", "lat": 46.6167943, "lon": 14.0925159, "tags": {"addr:city": "Velden am Wörther See", "addr:housenumber": "154", "addr:postcode": "9220", "addr:street": "Auen-Süduferstraße", "name": "Seehotel Vinzenz", "phone": "+4342742889", "tourism": "hotel"}, "content": "Seehotel Vinzenz\nKategorie: tourism:hotel\nAdresse: Auen-Süduferstraße 154, 9220 Velden am Wörther See\nOrt: Velden am Wörther See\nPLZ: 9220\nKoordinaten: 46.616794, 14.092516\nTags: phone=+4342742889", "doc_type": "addresses"}
{"source": "OSM", "region": "Kärnten", "osm_type": "node", "osm_id": 1305293022, "name": "Gasthof Liebentritt", "category": "amenity:restaurant", "address": "Rosseggerstraße 70, 9220 Velden am Wörther See", "street": "Rosseggerstraße", "housenumber": "70", "postcode": "9220", "place": "Velden am Wörther See", "lat": 46.6024972, "lon": 14.0246362, "tags": {"addr:city": "Velden am Wörther See", "addr:housenumber": "70", "addr:postcode": "9220", "addr:street": "Rosseggerstraße", "amenity": "restaurant", "name": "Gasthof Liebentritt"}, "content": "Gasthof Liebentritt\nKategorie: amenity:restaurant\nAdresse: Rosseggerstraße 70, 9220 Velden am Wörther See\nOrt: Velden am Wörther See\nPLZ: 9220\nKoordinaten: 46.602497, 14.024636\nTags: amenity=restaurant", "doc_type": "addresses"}
{"source": "OSM", "region": "Kärnten", "osm_type": "node", "osm_id": 1383604652, "name": "Hotel Restaurant Marko", "category": "tourism:hotel", "address": "Kranzlhofenstraße 70, 9220 Velden am Wörther See", "street": "Kranzlhofenstraße", "housenumber": "70", "postcode": "9220", "place": "Velden am Wörther See", "lat": 46.6246702, "lon": 14.0343744, "tags": {"addr:city": "Velden am Wörther See", "addr:housenumber": "70", "addr:postcode": "9220", "addr:street": "Kranzlhofenstraße", "name": "Hotel Restaurant Marko", "phone": "+4342742443", "tourism": "hotel", "website": "https://www.marko-velden.at/"}, "content": "Hotel Restaurant Marko\nKategorie: tourism:hotel\nAdresse: Kranzlhofenstraße 70, 9220 Velden am Wörther See\nOrt: Velden am Wörther See\nPLZ: 9220\nKoordinaten: 46.624670, 14.034374\nTags: phone=+4342742443, website=https://www.marko-velden.at/", "doc_type": "addresses"}
{"source": "OSM", "region": "Kärnten", "osm_type": "node", "osm_id": 1580174289, "name": "Alban Berg Musikschule Velden", "category": "amenity:school", "address": "Bäckerteichstraße 1, 9220 Velden am Wörther See", "street": "Bäckerteichstraße", "housenumber": "1", "postcode": "9220", "place": "Velden am Wörther See", "lat": 46.6110056, "lon": 14.0396487, "tags": {"addr:city": "Velden am Wörther See", "addr:housenumber": "1", "addr:postcode": "9220", "addr:street": "Bäckerteichstraße", "amenity": "school", "name": "Alban Berg Musikschule Velden"}, "content": "Alban Berg Musikschule Velden\nKategorie: amenity:school\nAdresse: Bäckerteichstraße 1, 9220 Velden am Wörther See\nOrt: Velden am Wörther See\nPLZ: 9220\nKoordinaten: 46.611006, 14.039649\nTags: amenity=school", "doc_type": "addresses"}
{"source": "OSM", "region": "Kärnten", "osm_type": "node", "osm_id": 1606187535, "name": "Uhren Schmuck Fillafer-Reichmann", "category": "shop:jewelry", "address": "Rosentaler Straße 3, 9220 Velden am Wörther See", "street": "Rosentaler Straße", "housenumber": "3", "postcode": "9220", "place": "Velden am Wörther See", "lat": 46.6130189, "lon": 14.0415732, "tags": {"addr:city": "Velden am Wörther See", "addr:housenumber": "3", "addr:postcode": "9220", "addr:street": "Rosentaler Straße", "name": "Uhren Schmuck Fillafer-Reichmann", "shop": "jewelry", "website": "https://www.facebook.com/pg/Uhren-und-Juwelen-Fillafer-Reichmann-285879291505099"}, "content": "Uhren Schmuck Fillafer-Reichmann\nKategorie: shop:jewelry\nAdresse: Rosentaler Straße 3, 9220 Velden am Wörther See\nOrt: Velden am Wörther See\nPLZ: 9220\nKoordinaten: 46.613019, 14.041573\nTags: shop=jewelry, website=https://www.facebook.com/pg/Uhren-und-Juwelen-Fillafer-Reichmann-285879291505099", "doc_type": "addresses"}
{"source": "OSM", "region": "Kärnten", "osm_type": "node", "osm_id": 1665405271, "name": "Gina Drewes", "category": "shop:clothes", "address": "Am Corso 25, 9220 Velden am Wörther See", "street": "Am Corso", "housenumber": "25", "postcode": "9220", "place": "Velden am Wörther See", "lat": 46.6142373, "lon": 14.042722, "tags": {"addr:city": "Velden am Wörther See", "addr:housenumber": "25", "addr:postcode": "9220", "addr:street": "Am Corso", "name": "Gina Drewes", "phone": "+43 (0)699 17 510 510", "shop": "clothes", "website": "https://www.ginadrewes.com"}, "content": "Gina Drewes\nKategorie: shop:clothes\nAdresse: Am Corso 25, 9220 Velden am Wörther See\nOrt: Velden am Wörther See\nPLZ: 9220\nKoordinaten: 46.614237, 14.042722\nTags: shop=clothes, phone=+43 (0)699 17 510 510, website=https://www.ginadrewes.com", "doc_type": "addresses"}
{"source": "OSM", "region": "Kärnten", "osm_type": "node", "osm_id": 1665405275, "name": "Lidl", "category": "shop:supermarket", "address": "Klagenfurter Straße 47, 9220 Velden am Wörther See", "street": "Klagenfurter Straße", "housenumber": "47", "postcode": "9220", "place": "Velden am Wörther See", "lat": 46.6205242, "lon": 14.0599138, "tags": {"addr:city": "Velden am Wörther See", "addr:housenumber": "47", "addr:postcode": "9220", "addr:street": "Klagenfurter Straße", "brand": "Lidl", "name": "Lidl", "shop": "supermarket"}, "content": "Lidl\nKategorie: shop:supermarket\nAdresse: Klagenfurter Straße 47, 9220 Velden am Wörther See\nOrt: Velden am Wörther See\nPLZ: 9220\nKoordinaten: 46.620524, 14.059914\nTags: shop=supermarket, brand=Lidl", "doc_type": "addresses"}
{"source": "OSM", "region": "Kärnten", "osm_type": "node", "osm_id": 1813704658, "name": "Vitalhotel Marienhof", "category": "tourism:hotel", "address": "Marienhofweg 1, 9220 Velden am Wörther See", "street": "Marienhofweg", "housenumber": "1", "postcode": "9220", "place": "Velden am Wörther See", "lat": 46.617384, "lon": 14.0296448, "tags": {"addr:city": "Velden am Wörther See", "addr:housenumber": "1", "addr:postcode": "9220", "addr:street": "Marienhofweg", "name": "Vitalhotel Marienhof", "tourism": "hotel"}, "content": "Vitalhotel Marienhof\nKategorie: tourism:hotel\nAdresse: Marienhofweg 1, 9220 Velden am Wörther See\nOrt: Velden am Wörther See\nPLZ: 9220\nKoordinaten: 46.617384, 14.029645", "doc_type": "addresses"}
{"source": "OSM", "region": "Kärnten", "osm_type": "node", "osm_id": 2019816082, "name": "Do & Ga", "category": "amenity:cafe", "address": "Am Corso 27, 9220 Velden am Wörther See", "street": "Am Corso", "housenumber": "27", "postcode": "9220", "place": "Velden am Wörther See", "lat": 46.6139555, "lon": 14.0426905, "tags": {"addr:city": "Velden am Wörther See", "addr:housenumber": "27", "addr:postcode": "9220", "addr:street": "Am Corso", "amenity": "cafe", "name": "Do & Ga", "phone": "+43 4274 51633", "website": "http://www.doga-cafebar.at"}, "content": "Do & Ga\nKategorie: amenity:cafe\nAdresse: Am Corso 27, 9220 Velden am Wörther See\nOrt: Velden am Wörther See\nPLZ: 9220\nKoordinaten: 46.613956, 14.042691\nTags: amenity=cafe, phone=+43 4274 51633, website=http://www.doga-cafebar.at", "doc_type": "addresses"}
{"source": "OSM", "region": "Kärnten", "osm_type": "node", "osm_id": 2324470315, "name": "Veldener Traumschiff", "category": "amenity:restaurant", "address": "Seecorso 40, 9220 Velden am Wörther See", "street": "Seecorso", "housenumber": "40", "postcode": "9220", "place": "Velden am Wörther See", "lat": 46.6097758, "lon": 14.0465947, "tags": {"addr:city": "Velden am Wörther See", "addr:housenumber": "40", "addr:postcode": "9220", "addr:street": "Seecorso", "amenity": "restaurant", "name": "Veldener Traumschiff", "website": "https://www.veldener-traumschiff.at/"}, "content": "Veldener Traumschiff\nKategorie: amenity:restaurant\nAdresse: Seecorso 40, 9220 Velden am Wörther See\nOrt: Velden am Wörther See\nPLZ: 9220\nKoordinaten: 46.609776, 14.046595\nTags: amenity=restaurant, website=https://www.veldener-traumschiff.at/", "doc_type": "addresses"}
{"source": "OSM", "region": "Kärnten", "osm_type": "node", "osm_id": 2324472533, "name": "Seebar", "category": "amenity:bar", "address": "Seecorso 40, 9220 Velden am Wörther See", "street": "Seecorso", "housenumber": "40", "postcode": "9220", "place": "Velden am Wörther See", "lat": 46.6099429, "lon": 14.0463944, "tags": {"addr:city": "Velden am Wörther See", "addr:housenumber": "40", "addr:postcode": "9220", "addr:street": "Seecorso", "amenity": "bar", "name": "Seebar", "website": "https://www.veldener-traumschiff.at/"}, "content": "Seebar\nKategorie: amenity:bar\nAdresse: Seecorso 40, 9220 Velden am Wörther See\nOrt: Velden am Wörther See\nPLZ: 9220\nKoordinaten: 46.609943, 14.046394\nTags: amenity=bar, website=https://www.veldener-traumschiff.at/", "doc_type": "addresses"}
{"source": "OSM", "region": "Kärnten", "osm_type": "node", "osm_id": 2324472861, "name": "Dancing Lounge", "category": "amenity:bar", "address": "Seecorso 40, 9220 Velden am Wörther See", "street": "Seecorso", "housenumber": "40", "postcode": "9220", "place": "Velden am Wörther See", "lat": 46.6097916, "lon": 14.0464032, "tags": {"addr:city": "Velden am Wörther See", "addr:housenumber": "40", "addr:postcode": "9220", "addr:street": "Seecorso", "amenity": "bar", "name": "Dancing Lounge", "website": "https://www.veldener-traumschiff.at/"}, "content": "Dancing Lounge\nKategorie: amenity:bar\nAdresse: Seecorso 40, 9220 Velden am Wörther See\nOrt: Velden am Wörther See\nPLZ: 9220\nKoordinaten: 46.609792, 14.046403\nTags: amenity=bar, website=https://www.veldener-traumschiff.at/", "doc_type": "addresses"}
{"source": "OSM", "region": "Kärnten", "osm_type": "node", "osm_id": 2324476283, "name": "Hotel Veldener Traumschiff", "category": "tourism:hotel", "address": "Seecorso 40, 9220 Velden am Wörther See", "street": "Seecorso", "housenumber": "40", "postcode": "9220", "place": "Velden am Wörther See", "lat": 46.6096701, "lon": 14.0464488, "tags": {"addr:city": "Velden am Wörther See", "addr:housenumber": "40", "addr:postcode": "9220", "addr:street": "Seecorso", "name": "Hotel Veldener Traumschiff", "operator": "Ernst Lackner", "tourism": "hotel", "website": "https://www.veldener-traumschiff.at/"}, "content": "Hotel Veldener Traumschiff\nKategorie: tourism:hotel\nAdresse: Seecorso 40, 9220 Velden am Wörther See\nOrt: Velden am Wörther See\nPLZ: 9220\nKoordinaten: 46.609670, 14.046449\nTags: operator=Ernst Lackner, website=https://www.veldener-traumschiff.at/", "doc_type": "addresses"}
{"source": "OSM", "region": "Kärnten", "osm_type": "node", "osm_id": 2868991897, "name": "Tabak Trafik Schubert", "category": "shop:newsagent", "address": "Am Corso 27, 9220 Velden am Wörther See", "street": "Am Corso", "housenumber": "27", "postcode": "9220", "place": "Velden am Wörther See", "lat": 46.6140384, "lon": 14.0426097, "tags": {"addr:city": "Velden am Wörther See", "addr:housenumber": "27", "addr:postcode": "9220", "addr:street": "Am Corso", "name": "Tabak Trafik Schubert", "shop": "newsagent"}, "content": "Tabak Trafik Schubert\nKategorie: shop:newsagent\nAdresse: Am Corso 27, 9220 Velden am Wörther See\nOrt: Velden am Wörther See\nPLZ: 9220\nKoordinaten: 46.614038, 14.042610\nTags: shop=newsagent", "doc_type": "addresses"}
{"source": "OSM", "region": "Kärnten", "osm_type": "node", "osm_id": 3518848266, "name": "Rotes Kreuz Ortsrettungsstelle Velden", "category": "emergency:ambulance_station", "address": "Franz-Moro-Weg 2, 9220 Velden am Wörther See", "street": "Franz-Moro-Weg", "housenumber": "2", "postcode": "9220", "place": "Velden am Wörther See", "lat": 46.6146637, "lon": 14.0313265, "tags": {"addr:city": "Velden am Wörther See", "addr:housenumber": "2", "addr:postcode": "9220", "addr:street": "Franz-Moro-Weg", "brand": "Österreichisches Rotes Kreuz", "emergency": "ambulance_station", "name": "Rotes Kreuz Ortsrettungsstelle Velden", "operator": "Rotes Kreuz, Landesverband Kärnten"}, "content": "Rotes Kreuz Ortsrettungsstelle Velden\nKategorie: emergency:ambulance_station\nAdresse: Franz-Moro-Weg 2, 9220 Velden am Wörther See\nOrt: Velden am Wörther See\nPLZ: 9220\nKoordinaten: 46.614664, 14.031327\nTags: emergency=ambulance_station, operator=Rotes Kreuz, Landesverband Kärnten, brand=Österreichisches Rotes Kreuz", "doc_type": "addresses"}
{"source": "OSM", "region": "Kärnten", "osm_type": "node", "osm_id": 3554983895, "name": "Hotel Carinthia", "category": "tourism:hotel", "address": "Karawankenplatz 3, 9220 Velden am Wörther See", "street": "Karawankenplatz", "housenumber": "3", "postcode": "9220", "place": "Velden am Wörther See", "lat": 46.6133725, "lon": 14.0415919, "tags": {"addr:city": "Velden am Wörther See", "addr:housenumber": "3", "addr:postcode": "9220", "addr:street": "Karawankenplatz", "name": "Hotel Carinthia", "operator": "Egger Hotel- & Tourismus OG", "phone": "+43 (0)4274/2171", "tourism": "hotel", "website": "http://www.hotelcarinthia.at/"}, "content": "Hotel Carinthia\nKategorie: tourism:hotel\nAdresse: Karawankenplatz 3, 9220 Velden am Wörther See\nOrt: Velden am Wörther See\nPLZ: 9220\nKoordinaten: 46.613372, 14.041592\nTags: operator=Egger Hotel- & Tourismus OG, phone=+43 (0)4274/2171, website=http://www.hotelcarinthia.at/", "doc_type": "addresses"}
{"source": "OSM", "region": "Kärnten", "osm_type": "node", "osm_id": 3554993505, "name": "Leopold", "category": "tourism:hotel", "address": "Seecorso 18, 9220 Velden am Wörther See", "street": "Seecorso", "housenumber": "18", "postcode": "9220", "place": "Velden am Wörther See", "lat": 46.6106173, "lon": 14.0443125, "tags": {"addr:city": "Velden am Wörther See", "addr:housenumber": "18", "addr:postcode": "9220", "addr:street": "Seecorso", "name": "Leopold", "phone": "+43 4274 26 32", "tourism": "hotel"}, "content": "Leopold\nKategorie: tourism:hotel\nAdresse: Seecorso 18, 9220 Velden am Wörther See\nOrt: Velden am Wörther See\nPLZ: 9220\nKoordinaten: 46.610617, 14.044313\nTags: phone=+43 4274 26 32", "doc_type": "addresses"}
{"source": "OSM", "region": "Kärnten", "osm_type": "node", "osm_id": 3606025408, "name": "Politzky", "category": null, "address": "Am Corso 3, 9220 Velden am Wörther See", "street": "Am Corso", "housenumber": "3", "postcode": "9220", "place": "Velden am Wörther See", "lat": 46.6163362, "lon": 14.0457817, "tags": {"addr:city": "Velden am Wörther See", "addr:housenumber": "3", "addr:postcode": "9220", "addr:street": "Am Corso", "name": "Politzky", "phone": "+43 4274 2430", "website": "https://www.casino-hotel.at/index.php/de/de-recommend/de-pastry"}, "content": "Politzky\nAdresse: Am Corso 3, 9220 Velden am Wörther See\nOrt: Velden am Wörther See\nPLZ: 9220\nKoordinaten: 46.616336, 14.045782\nTags: phone=+43 4274 2430, website=https://www.casino-hotel.at/index.php/de/de-recommend/de-pastry", "doc_type": "addresses"}
{"source": "OSM", "region": "Kärnten", "osm_type": "node", "osm_id": 3676511900, "name": "Old Car's Motel", "category": "amenity:cafe", "address": "Rosegger Straße 108, 9220 Velden am Wörther See", "street": "Rosegger Straße", "housenumber": "108", "postcode": "9220", "place": "Velden am Wörther See", "lat": 46.6018257, "lon": 14.0201006, "tags": {"addr:city": "Velden am Wörther See", "addr:housenumber": "108", "addr:postcode": "9220", "addr:street": "Rosegger Straße", "amenity": "cafe", "name": "Old Car's Motel", "phone": "+43 688 9052629"}, "content": "Old Car's Motel\nKategorie: amenity:cafe\nAdresse: Rosegger Straße 108, 9220 Velden am Wörther See\nOrt: Velden am Wörther See\nPLZ: 9220\nKoordinaten: 46.601826, 14.020101\nTags: amenity=cafe, phone=+43 688 9052629", "doc_type": "addresses"}
{"source": "OSM", "region": "Kärnten", "osm_type": "node", "osm_id": 3682662720, "name": null, "category": null, "address": "Mösslacherstraße 2, 9220 Velden am Wörther See", "street": "Mösslacherstraße", "housenumber": "2", "postcode": "9220", "place": "Velden am Wörther See", "lat": 46.6128476, "lon": 14.0366764, "tags": {"addr:city": "Velden am Wörther See", "addr:housenumber": "2", "addr:postcode": "9220", "addr:street": "Mösslacherstraße"}, "content": "Adresse: Mösslacherstraße 2, 9220 Velden am Wörther See\nOrt: Velden am Wörther See\nPLZ: 9220\nKoordinaten: 46.612848, 14.036676", "doc_type": "addresses"}
{"source": "OSM", "region": "Kärnten", "osm_type": "node", "osm_id": 3682662721, "name": null, "category": null, "address": "Mösslacherstraße 4, 9220 Velden am Wörther See", "street": "Mösslacherstraße", "housenumber": "4", "postcode": "9220", "place": "Velden am Wörther See", "lat": 46.612999, "lon": 14.0366348, "tags": {"addr:city": "Velden am Wörther See", "addr:housenumber": "4", "addr:postcode": "9220", "addr:street": "Mösslacherstraße"}, "content": "Adresse: Mösslacherstraße 4, 9220 Velden am Wörther See\nOrt: Velden am Wörther See\nPLZ: 9220\nKoordinaten: 46.612999, 14.036635", "doc_type": "addresses"}
{"source": "OSM", "region": "Kärnten", "osm_type": "node", "osm_id": 3682662722, "name": null, "category": null, "address": "Mösslacherstraße 6, 9220 Velden am Wörther See", "street": "Mösslacherstraße", "housenumber": "6", "postcode": "9220", "place": "Velden am Wörther See", "lat": 46.6131704, "lon": 14.0365809, "tags": {"addr:city": "Velden am Wörther See", "addr:housenumber": "6", "addr:postcode": "9220", "addr:street": "Mösslacherstraße"}, "content": "Adresse: Mösslacherstraße 6, 9220 Velden am Wörther See\nOrt: Velden am Wörther See\nPLZ: 9220\nKoordinaten: 46.613170, 14.036581", "doc_type": "addresses"}
{"source": "OSM", "region": "Kärnten", "osm_type": "node", "osm_id": 3682662723, "name": null, "category": null, "address": "Mösslacherstraße 8, 9220 Velden am Wörther See", "street": "Mösslacherstraße", "housenumber": "8", "postcode": "9220", "place": "Velden am Wörther See", "lat": 46.6132716, "lon": 14.0365366, "tags": {"addr:city": "Velden am Wörther See", "addr:housenumber": "8", "addr:postcode": "9220", "addr:street": "Mösslacherstraße"}, "content": "Adresse: Mösslacherstraße 8, 9220 Velden am Wörther See\nOrt: Velden am Wörther See\nPLZ: 9220\nKoordinaten: 46.613272, 14.036537", "doc_type": "addresses"}
{"source": "OSM", "region": "Kärnten", "osm_type": "node", "osm_id": 3682662724, "name": null, "category": null, "address": "Mösslacherstraße 10, 9220 Velden am Wörther See", "street": "Mösslacherstraße", "housenumber": "10", "postcode": "9220", "place": "Velden am Wörther See", "lat": 46.6132212, "lon": 14.0361295, "tags": {"addr:city": "Velden am Wörther See", "addr:housenumber": "10", "addr:postcode": "9220", "addr:street": "Mösslacherstraße"}, "content": "Adresse: Mösslacherstraße 10, 9220 Velden am Wörther See\nOrt: Velden am Wörther See\nPLZ: 9220\nKoordinaten: 46.613221, 14.036129", "doc_type": "addresses"}
{"source": "OSM", "region": "Kärnten", "osm_type": "node", "osm_id": 3682662725, "name": null, "category": null, "address": "Mösslacherstraße 12, 9220 Velden am Wörther See", "street": "Mösslacherstraße", "housenumber": "12", "postcode": "9220", "place": "Velden am Wörther See", "lat": 46.6132021, "lon": 14.0359154, "tags": {"addr:city": "Velden am Wörther See", "addr:housenumber": "12", "addr:postcode": "9220", "addr:street": "Mösslacherstraße"}, "content": "Adresse: Mösslacherstraße 12, 9220 Velden am Wörther See\nOrt: Velden am Wörther See\nPLZ: 9220\nKoordinaten: 46.613202, 14.035915", "doc_type": "addresses"}
{"source": "OSM", "region": "Kärnten", "osm_type": "node", "osm_id": 3682662726, "name": null, "category": null, "address": "Mösslacherstraße 14, 9220 Velden am Wörther See", "street": "Mösslacherstraße", "housenumber": "14", "postcode": "9220", "place": "Velden am Wörther See", "lat": 46.6131725, "lon": 14.0356812, "tags": {"addr:city": "Velden am Wörther See", "addr:housenumber": "14", "addr:postcode": "9220", "addr:street": "Mösslacherstraße"}, "content": "Adresse: Mösslacherstraße 14, 9220 Velden am Wörther See\nOrt: Velden am Wörther See\nPLZ: 9220\nKoordinaten: 46.613172, 14.035681", "doc_type": "addresses"}
{"source": "OSM", "region": "Kärnten", "osm_type": "node", "osm_id": 3698936341, "name": null, "category": null, "address": "Seecorso 10, 9220 Velden am Wörther See", "street": "Seecorso", "housenumber": "10", "postcode": "9220", "place": "Velden am Wörther See", "lat": 46.6117913, "lon": 14.0434771, "tags": {"addr:city": "Velden am Wörther See", "addr:housenumber": "10", "addr:postcode": "9220", "addr:street": "Seecorso"}, "content": "Adresse: Seecorso 10, 9220 Velden am Wörther See\nOrt: Velden am Wörther See\nPLZ: 9220\nKoordinaten: 46.611791, 14.043477", "doc_type": "addresses"}
{"source": "OSM", "region": "Kärnten", "osm_type": "node", "osm_id": 3698936342, "name": null, "category": null, "address": "Schloßweg 2, 9220 Velden am Wörther See", "street": "Schloßweg", "housenumber": "2", "postcode": "9220", "place": "Velden am Wörther See", "lat": 46.6120245, "lon": 14.0428526, "tags": {"addr:city": "Velden am Wörther See", "addr:housenumber": "2", "addr:postcode": "9220", "addr:street": "Schloßweg"}, "content": "Adresse: Schloßweg 2, 9220 Velden am Wörther See\nOrt: Velden am Wörther See\nPLZ: 9220\nKoordinaten: 46.612024, 14.042853", "doc_type": "addresses"}
{"source": "OSM", "region": "Kärnten", "osm_type": "node", "osm_id": 3698936343, "name": null, "category": null, "address": "Schloßweg 4, 9220 Velden am Wörther See", "street": "Schloßweg", "housenumber": "4", "postcode": "9220", "place": "Velden am Wörther See", "lat": 46.6120054, "lon": 14.0427186, "tags": {"addr:city": "Velden am Wörther See", "addr:housenumber": "4", "addr:postcode": "9220", "addr:street": "Schloßweg"}, "content": "Adresse: Schloßweg 4, 9220 Velden am Wörther See\nOrt: Velden am Wörther See\nPLZ: 9220\nKoordinaten: 46.612005, 14.042719", "doc_type": "addresses"}
{"source": "OSM", "region": "Kärnten", "osm_type": "node", "osm_id": 3698936344, "name": null, "category": null, "address": "Schloßweg 6, 9220 Velden am Wörther See", "street": "Schloßweg", "housenumber": "6", "postcode": "9220", "place": "Velden am Wörther See", "lat": 46.6119748, "lon": 14.0425698, "tags": {"addr:city": "Velden am Wörther See", "addr:housenumber": "6", "addr:postcode": "9220", "addr:street": "Schloßweg"}, "content": "Adresse: Schloßweg 6, 9220 Velden am Wörther See\nOrt: Velden am Wörther See\nPLZ: 9220\nKoordinaten: 46.611975, 14.042570", "doc_type": "addresses"}
{"source": "OSM", "region": "Kärnten", "osm_type": "node", "osm_id": 3698936345, "name": null, "category": null, "address": "Schloßweg 8, 9220 Velden am Wörther See", "street": "Schloßweg", "housenumber": "8", "postcode": "9220", "place": "Velden am Wörther See", "lat": 46.6119462, "lon": 14.042449, "tags": {"addr:city": "Velden am Wörther See", "addr:housenumber": "8", "addr:postcode": "9220", "addr:street": "Schloßweg"}, "content": "Adresse: Schloßweg 8, 9220 Velden am Wörther See\nOrt: Velden am Wörther See\nPLZ: 9220\nKoordinaten: 46.611946, 14.042449", "doc_type": "addresses"}
{"source": "OSM", "region": "Kärnten", "osm_type": "node", "osm_id": 3698936346, "name": null, "category": null, "address": "Schloßweg 12, 9220 Velden am Wörther See", "street": "Schloßweg", "housenumber": "12", "postcode": "9220", "place": "Velden am Wörther See", "lat": 46.6118708, "lon": 14.0423911, "tags": {"addr:city": "Velden am Wörther See", "addr:housenumber": "12", "addr:postcode": "9220", "addr:street": "Schloßweg"}, "content": "Adresse: Schloßweg 12, 9220 Velden am Wörther See\nOrt: Velden am Wörther See\nPLZ: 9220\nKoordinaten: 46.611871, 14.042391", "doc_type": "addresses"}
{"source": "OSM", "region": "Kärnten", "osm_type": "node", "osm_id": 3698972605, "name": null, "category": null, "address": "Wahlisstraße 5, 9220 Velden am Wörther See", "street": "Wahlisstraße", "housenumber": "5", "postcode": "9220", "place": "Velden am Wörther See", "lat": 46.6124541, "lon": 14.0422903, "tags": {"addr:city": "Velden am Wörther See", "addr:housenumber": "5", "addr:postcode": "9220", "addr:street": "Wahlisstraße"}, "content": "Adresse: Wahlisstraße 5, 9220 Velden am Wörther See\nOrt: Velden am Wörther See\nPLZ: 9220\nKoordinaten: 46.612454, 14.042290", "doc_type": "addresses"}
{"source": "OSM", "region": "Kärnten", "osm_type": "node", "osm_id": 3698972607, "name": null, "category": null, "address": "Rosentaler Straße 3, 9220 Velden am Wörther See", "street": "Rosentaler Straße", "housenumber": "3", "postcode": "9220", "place": "Velden am Wörther See", "lat": 46.6132009, "lon": 14.0417123, "tags": {"addr:city": "Velden am Wörther See", "addr:housenumber": "3", "addr:postcode": "9220", "addr:street": "Rosentaler Straße"}, "content": "Adresse: Rosentaler Straße 3, 9220 Velden am Wörther See\nOrt: Velden am Wörther See\nPLZ: 9220\nKoordinaten: 46.613201, 14.041712", "doc_type": "addresses"}
{"source": "OSM", "region": "Kärnten", "osm_type": "node", "osm_id": 4524745655, "name": "Tierärzte Team Velden - Wörthersee", "category": "amenity:veterinary", "address": "Fichtenhainstraße 1, 9220 Velden am Wörther See", "street": "Fichtenhainstraße", "housenumber": "1", "postcode": "9220", "place": "Velden am Wörther See", "lat": 46.6043325, "lon": 14.0343301, "tags": {"addr:city": "Velden am Wörther See", "addr:housenumber": "1", "addr:postcode": "9220", "addr:street": "Fichtenhainstraße", "amenity": "veterinary", "name": "Tierärzte Team Velden - Wörthersee", "operator": "Dr. med. vet. Kristina Pfeiffer", "phone": "+43 4274 50193", "website": "http://www.tierarzt-velden.at/"}, "content": "Tierärzte Team Velden - Wörthersee\nKategorie: amenity:veterinary\nAdresse: Fichtenhainstraße 1, 9220 Velden am Wörther See\nOrt: Velden am Wörther See\nPLZ: 9220\nKoordinaten: 46.604332, 14.034330\nTags: amenity=veterinary, operator=Dr. med. vet. Kristina Pfeiffer, phone=+43 4274 50193, website=http://www.tierarzt-velden.at/", "doc_type": "addresses"}
{"source": "OSM", "region": "Kärnten", "osm_type": "node", "osm_id": 4524745656, "name": "Volksbank", "category": "amenity:bank", "address": "Rosegger Straße 17, 9220 Velden am Wörther See", "street": "Rosegger Straße", "housenumber": "17", "postcode": "9220", "place": "Velden am Wörther See", "lat": 46.6040742, "lon": 14.0348909, "tags": {"addr:city": "Velden am Wörther See", "addr:housenumber": "17", "addr:postcode": "9220", "addr:street": "Rosegger Straße", "amenity": "bank", "name": "Volksbank", "website": "https://www.volksbank-kaernten.at/"}, "content": "Volksbank\nKategorie: amenity:bank\nAdresse: Rosegger Straße 17, 9220 Velden am Wörther See\nOrt: Velden am Wörther See\nPLZ: 9220\nKoordinaten: 46.604074, 14.034891\nTags: amenity=bank, website=https://www.volksbank-kaernten.at/", "doc_type": "addresses"}
{"source": "OSM", "region": "Kärnten", "osm_type": "node", "osm_id": 4524745672, "name": "dm", "category": "shop:chemist", "address": "Fichtenhainstraße 2, 9220 Velden am Wörther See", "street": "Fichtenhainstraße", "housenumber": "2", "postcode": "9220", "place": "Velden am Wörther See", "lat": 46.6046161, "lon": 14.0351674, "tags": {"addr:city": "Velden am Wörther See", "addr:housenumber": "2", "addr:postcode": "9220", "addr:street": "Fichtenhainstraße", "brand": "dm", "name": "dm", "shop": "chemist", "website": "https://www.dm-drogeriemarkt.at/"}, "content": "dm\nKategorie: shop:chemist\nAdresse: Fichtenhainstraße 2, 9220 Velden am Wörther See\nOrt: Velden am Wörther See\nPLZ: 9220\nKoordinaten: 46.604616, 14.035167\nTags: shop=chemist, brand=dm, website=https://www.dm-drogeriemarkt.at/", "doc_type": "addresses"}
{"source": "OSM", "region": "Kärnten", "osm_type": "node", "osm_id": 4524745673, "name": "PERRO Shop Velden", "category": "shop:pet", "address": "Fichtenhainstraße 2, 9220 Velden am Wörther See", "street": "Fichtenhainstraße", "housenumber": "2", "postcode": "9220", "place": "Velden am Wörther See", "lat": 46.6048198, "lon": 14.0350659, "tags": {"addr:city": "Velden am Wörther See", "addr:housenumber": "2", "addr:postcode": "9220", "addr:street": "Fichtenhainstraße", "name": "PERRO Shop Velden", "operator": "Patricia Rassl", "shop": "pet", "website": "https://www.perro.at/perro-welt/perro-shops/velden/"}, "content": "PERRO Shop Velden\nKategorie: shop:pet\nAdresse: Fichtenhainstraße 2, 9220 Velden am Wörther See\nOrt: Velden am Wörther See\nPLZ: 9220\nKoordinaten: 46.604820, 14.035066\nTags: shop=pet, operator=Patricia Rassl, website=https://www.perro.at/perro-welt/perro-shops/velden/", "doc_type": "addresses"}
{"source": "OSM", "region": "Kärnten", "osm_type": "node", "osm_id": 4524745674, "name": "Klipp", "category": "shop:hairdresser", "address": "Fichtenhainstraße 2, 9220 Velden am Wörther See", "street": "Fichtenhainstraße", "housenumber": "2", "postcode": "9220", "place": "Velden am Wörther See", "lat": 46.6048811, "lon": 14.0350226, "tags": {"addr:city": "Velden am Wörther See", "addr:housenumber": "2", "addr:postcode": "9220", "addr:street": "Fichtenhainstraße", "brand": "Klipp", "name": "Klipp", "shop": "hairdresser", "website": "https://klipp.at/"}, "content": "Klipp\nKategorie: shop:hairdresser\nAdresse: Fichtenhainstraße 2, 9220 Velden am Wörther See\nOrt: Velden am Wörther See\nPLZ: 9220\nKoordinaten: 46.604881, 14.035023\nTags: shop=hairdresser, brand=Klipp, website=https://klipp.at/", "doc_type": "addresses"}
{"source": "OSM", "region": "Kärnten", "osm_type": "node", "osm_id": 4524792618, "name": "HAARschneiderei", "category": "shop:hairdresser", "address": "Bäckerteichstraße 4, 9220 Velden am Wörther See", "street": "Bäckerteichstraße", "housenumber": "4", "postcode": "9220", "place": "Velden am Wörther See", "lat": 46.6114275, "lon": 14.0398389, "tags": {"addr:city": "Velden am Wörther See", "addr:housenumber": "4", "addr:postcode": "9220", "addr:street": "Bäckerteichstraße", "name": "HAARschneiderei", "shop": "hairdresser"}, "content": "HAARschneiderei\nKategorie: shop:hairdresser\nAdresse: Bäckerteichstraße 4, 9220 Velden am Wörther See\nOrt: Velden am Wörther See\nPLZ: 9220\nKoordinaten: 46.611427, 14.039839\nTags: shop=hairdresser", "doc_type": "addresses"}
{"source": "OSM", "region": "Kärnten", "osm_type": "node", "osm_id": 4524827456, "name": "Dr. Siding", "category": "amenity:doctors", "address": "Bäckerteichstraße 1, 9220 Velden am Wörther See", "street": "Bäckerteichstraße", "housenumber": "1", "postcode": "9220", "place": "Velden am Wörther See", "lat": 46.6110413, "lon": 14.0396398, "tags": {"addr:city": "Velden am Wörther See", "addr:housenumber": "1", "addr:postcode": "9220", "addr:street": "Bäckerteichstraße", "amenity": "doctors", "name": "Dr. Siding"}, "content": "Dr. Siding\nKategorie: amenity:doctors\nAdresse: Bäckerteichstraße 1, 9220 Velden am Wörther See\nOrt: Velden am Wörther See\nPLZ: 9220\nKoordinaten: 46.611041, 14.039640\nTags: amenity=doctors", "doc_type": "addresses"}
{"source": "OSM", "region": "Kärnten", "osm_type": "node", "osm_id": 4606734784, "name": null, "category": null, "address": "Klagenfurter Straße 104, 9220 Velden am Wörther See", "street": "Klagenfurter Straße", "housenumber": "104", "postcode": "9220", "place": "Velden am Wörther See", "lat": 46.6223421, "lon": 14.0715752, "tags": {"addr:city": "Velden am Wörther See", "addr:housenumber": "104", "addr:postcode": "9220", "addr:street": "Klagenfurter Straße"}, "content": "Adresse: Klagenfurter Straße 104, 9220 Velden am Wörther See\nOrt: Velden am Wörther See\nPLZ: 9220\nKoordinaten: 46.622342, 14.071575", "doc_type": "addresses"}
{"source": "OSM", "region": "Kärnten", "osm_type": "node", "osm_id": 4797442346, "name": null, "category": "shop:tobacco", "address": "Rosegger Straße 29, 9220 Velden am Wörther See", "street": "Rosegger Straße", "housenumber": "29", "postcode": "9220", "place": "Velden am Wörther See", "lat": 46.6039764, "lon": 14.0340627, "tags": {"addr:city": "Velden am Wörther See", "addr:housenumber": "29", "addr:postcode": "9220", "addr:street": "Rosegger Straße", "shop": "tobacco"}, "content": "Kategorie: shop:tobacco\nAdresse: Rosegger Straße 29, 9220 Velden am Wörther See\nOrt: Velden am Wörther See\nPLZ: 9220\nKoordinaten: 46.603976, 14.034063\nTags: shop=tobacco", "doc_type": "addresses"}
{"source": "OSM", "region": "Kärnten", "osm_type": "node", "osm_id": 4797451741, "name": "Bluesiana Rock Cafe", "category": "amenity:bar", "address": "Franzosenallee 9, 9220 Velden am Wörther See", "street": "Franzosenallee", "housenumber": "9", "postcode": "9220", "place": "Velden am Wörther See", "lat": 46.619479, "lon": 14.0593707, "tags": {"addr:city": "Velden am Wörther See", "addr:housenumber": "9", "addr:postcode": "9220", "addr:street": "Franzosenallee", "amenity": "bar", "name": "Bluesiana Rock Cafe"}, "content": "Bluesiana Rock Cafe\nKategorie: amenity:bar\nAdresse: Franzosenallee 9, 9220 Velden am Wörther See\nOrt: Velden am Wörther See\nPLZ: 9220\nKoordinaten: 46.619479, 14.059371\nTags: amenity=bar", "doc_type": "addresses"}
{"source": "OSM", "region": "Kärnten", "osm_type": "node", "osm_id": 4800506913, "name": "Las Palmas Latin Club", "category": "amenity:nightclub", "address": "Seecorso 8, 9220 Velden am Wörther See", "street": "Seecorso", "housenumber": "8", "postcode": "9220", "place": "Velden am Wörther See", "lat": 46.612636, "lon": 14.0427336, "tags": {"addr:city": "Velden am Wörther See", "addr:housenumber": "8", "addr:postcode": "9220", "addr:street": "Seecorso", "amenity": "nightclub", "name": "Las Palmas Latin Club"}, "content": "Las Palmas Latin Club\nKategorie: amenity:nightclub\nAdresse: Seecorso 8, 9220 Velden am Wörther See\nOrt: Velden am Wörther See\nPLZ: 9220\nKoordinaten: 46.612636, 14.042734\nTags: amenity=nightclub", "doc_type": "addresses"}
{"source": "OSM", "region": "Kärnten", "osm_type": "node", "osm_id": 5118023481, "name": "Polizeiinspektion Velden", "category": "amenity:police", "address": "10.-Oktober-Straße 3, 9220 Velden am Wörther See", "street": "10.-Oktober-Straße", "housenumber": "3", "postcode": "9220", "place": "Velden am Wörther See", "lat": 46.6131877, "lon": 14.0377647, "tags": {"addr:city": "Velden am Wörther See", "addr:housenumber": "3", "addr:postcode": "9220", "addr:street": "10.-Oktober-Straße", "amenity": "police", "name": "Polizeiinspektion Velden", "phone": "+43 59133 2259-100"}, "content": "Polizeiinspektion Velden\nKategorie: amenity:police\nAdresse: 10.-Oktober-Straße 3, 9220 Velden am Wörther See\nOrt: Velden am Wörther See\nPLZ: 9220\nKoordinaten: 46.613188, 14.037765\nTags: amenity=police, phone=+43 59133 2259-100", "doc_type": "addresses"}
{"source": "OSM", "region": "Kärnten", "osm_type": "node", "osm_id": 5310701101, "name": "Galerie am See", "category": "shop:jewelry", "address": "Seecorso 1, 9220 Velden am Wörther See", "street": "Seecorso", "housenumber": "1", "postcode": "9220", "place": "Velden am Wörther See", "lat": 46.613195, "lon": 14.0422397, "tags": {"addr:city": "Velden am Wörther See", "addr:housenumber": "1", "addr:postcode": "9220", "addr:street": "Seecorso", "name": "Galerie am See", "phone": "+43 4274 52255", "shop": "jewelry", "website": "https://www.galerie-am-see.at"}, "content": "Galerie am See\nKategorie: shop:jewelry\nAdresse: Seecorso 1, 9220 Velden am Wörther See\nOrt: Velden am Wörther See\nPLZ: 9220\nKoordinaten: 46.613195, 14.042240\nTags: shop=jewelry, phone=+43 4274 52255, website=https://www.galerie-am-see.at", "doc_type": "addresses"}
{"source": "OSM", "region": "Kärnten", "osm_type": "node", "osm_id": 5310701102, "name": "Nessmann Shop", "category": "shop:sports", "address": "Seecorso 1, 9220 Velden am Wörther See", "street": "Seecorso", "housenumber": "1", "postcode": "9220", "place": "Velden am Wörther See", "lat": 46.6131266, "lon": 14.0423613, "tags": {"addr:city": "Velden am Wörther See", "addr:housenumber": "1", "addr:postcode": "9220", "addr:street": "Seecorso", "name": "Nessmann Shop", "shop": "sports", "website": "https://www.mietboote.at/"}, "content": "Nessmann Shop\nKategorie: shop:sports\nAdresse: Seecorso 1, 9220 Velden am Wörther See\nOrt: Velden am Wörther See\nPLZ: 9220\nKoordinaten: 46.613127, 14.042361\nTags: shop=sports, website=https://www.mietboote.at/", "doc_type": "addresses"}
{"source": "OSM", "region": "Kärnten", "osm_type": "node", "osm_id": 5318159375, "name": "Seeappartements Excelsior", "category": "tourism:apartment", "address": "Seecorso 33-35, 9220 Velden am Wörther See", "street": "Seecorso", "housenumber": "33-35", "postcode": "9220", "place": "Velden am Wörther See", "lat": 46.6105591, "lon": 14.0633903, "tags": {"addr:city": "Velden am Wörther See", "addr:housenumber": "33-35", "addr:postcode": "9220", "addr:street": "Seecorso", "name": "Seeappartements Excelsior", "phone": "+43 (0) 42 74 / 20 42", "tourism": "apartment", "website": "http://excelsior.co.at"}, "content": "Seeappartements Excelsior\nKategorie: tourism:apartment\nAdresse: Seecorso 33-35, 9220 Velden am Wörther See\nOrt: Velden am Wörther See\nPLZ: 9220\nKoordinaten: 46.610559, 14.063390\nTags: phone=+43 (0) 42 74 / 20 42, website=http://excelsior.co.at", "doc_type": "addresses"}
{"source": "OSM", "region": "Kärnten", "osm_type": "node", "osm_id": 5320383356, "name": "SOL BEACHCLUB", "category": "amenity:bar", "address": "Seecorso 19, 9220 Velden am Wörther See", "street": "Seecorso", "housenumber": "19", "postcode": "9220", "place": "Velden am Wörther See", "lat": 46.6101734, "lon": 14.0539409, "tags": {"addr:city": "Velden am Wörther See", "addr:housenumber": "19", "addr:postcode": "9220", "addr:street": "Seecorso", "amenity": "bar", "name": "SOL BEACHCLUB", "website": "https://www.solbeachclub.at/"}, "content": "SOL BEACHCLUB\nKategorie: amenity:bar\nAdresse: Seecorso 19, 9220 Velden am Wörther See\nOrt: Velden am Wörther See\nPLZ: 9220\nKoordinaten: 46.610173, 14.053941\nTags: amenity=bar, website=https://www.solbeachclub.at/", "doc_type": "addresses"}
{"source": "OSM", "region": "Kärnten", "osm_type": "node", "osm_id": 5329521158, "name": "Schullin", "category": "shop:jewelry", "address": "Am Corso 21, 9220 Velden am Wörther See", "street": "Am Corso", "housenumber": "21", "postcode": "9220", "place": "Velden am Wörther See", "lat": 46.6146028, "lon": 14.0428034, "tags": {"addr:city": "Velden am Wörther See", "addr:housenumber": "21", "addr:postcode": "9220", "addr:street": "Am Corso", "name": "Schullin", "shop": "jewelry", "website": "https://schullin.at/"}, "content": "Schullin\nKategorie: shop:jewelry\nAdresse: Am Corso 21, 9220 Velden am Wörther See\nOrt: Velden am Wörther See\nPLZ: 9220\nKoordinaten: 46.614603, 14.042803\nTags: shop=jewelry, website=https://schullin.at/", "doc_type": "addresses"}
{"source": "OSM", "region": "Kärnten", "osm_type": "node", "osm_id": 5329521159, "name": "Fischer's by the see", "category": "shop:clothes", "address": "Am Corso 21, 9220 Velden am Wörther See", "street": "Am Corso", "housenumber": "21", "postcode": "9220", "place": "Velden am Wörther See", "lat": 46.6146596, "lon": 14.0428412, "tags": {"addr:city": "Velden am Wörther See", "addr:housenumber": "21", "addr:postcode": "9220", "addr:street": "Am Corso", "name": "Fischer's by the see", "phone": "+43 4274 52623", "shop": "clothes", "website": "https://fishersfocus.com/"}, "content": "Fischer's by the see\nKategorie: shop:clothes\nAdresse: Am Corso 21, 9220 Velden am Wörther See\nOrt: Velden am Wörther See\nPLZ: 9220\nKoordinaten: 46.614660, 14.042841\nTags: shop=clothes, phone=+43 4274 52623, website=https://fishersfocus.com/", "doc_type": "addresses"}
{"source": "OSM", "region": "Kärnten", "osm_type": "node", "osm_id": 5331528661, "name": "Weinbar & Vinothek Carinthia", "category": "amenity:bar", "address": "Karawankenplatz 3, 9220 Velden am Wörther See", "street": "Karawankenplatz", "housenumber": "3", "postcode": "9220", "place": "Velden am Wörther See", "lat": 46.6134326, "lon": 14.0416132, "tags": {"addr:city": "Velden am Wörther See", "addr:housenumber": "3", "addr:postcode": "9220", "addr:street": "Karawankenplatz", "amenity": "bar", "name": "Weinbar & Vinothek Carinthia", "operator": "Egger Hotel- & Tourismus OG", "phone": "+43 (0)664 4719350", "website": "https://www.weincarinthia.at/"}, "content": "Weinbar & Vinothek Carinthia\nKategorie: amenity:bar\nAdresse: Karawankenplatz 3, 9220 Velden am Wörther See\nOrt: Velden am Wörther See\nPLZ: 9220\nKoordinaten: 46.613433, 14.041613\nTags: amenity=bar, operator=Egger Hotel- & Tourismus OG, phone=+43 (0)664 4719350, website=https://www.weincarinthia.at/", "doc_type": "addresses"}
{"source": "OSM", "region": "Kärnten", "osm_type": "node", "osm_id": 5331528662, "name": "Seidl Immobilien", "category": "office:estate_agent", "address": "Karawankenplatz 3, 9220 Velden am Wörther See", "street": "Karawankenplatz", "housenumber": "3", "postcode": "9220", "place": "Velden am Wörther See", "lat": 46.6135785, "lon": 14.0416373, "tags": {"addr:city": "Velden am Wörther See", "addr:housenumber": "3", "addr:postcode": "9220", "addr:street": "Karawankenplatz", "name": "Seidl Immobilien", "office": "estate_agent", "phone": "+43 664 14 11 580", "website": "https://www.seidl-immobilien.at"}, "content": "Seidl Immobilien\nKategorie: office:estate_agent\nAdresse: Karawankenplatz 3, 9220 Velden am Wörther See\nOrt: Velden am Wörther See\nPLZ: 9220\nKoordinaten: 46.613579, 14.041637\nTags: office=estate_agent, phone=+43 664 14 11 580, website=https://www.seidl-immobilien.at", "doc_type": "addresses"}
{"source": "OSM", "region": "Kärnten", "osm_type": "node", "osm_id": 5331528663, "name": "Schatzi Wörthersee", "category": "amenity:pub", "address": "Karawankenplatz 3, 9220 Velden am Wörther See", "street": "Karawankenplatz", "housenumber": "3", "postcode": "9220", "place": "Velden am Wörther See", "lat": 46.6136289, "lon": 14.0415798, "tags": {"addr:city": "Velden am Wörther See", "addr:housenumber": "3", "addr:postcode": "9220", "addr:street": "Karawankenplatz", "amenity": "pub", "name": "Schatzi Wörthersee"}, "content": "Schatzi Wörthersee\nKategorie: amenity:pub\nAdresse: Karawankenplatz 3, 9220 Velden am Wörther See\nOrt: Velden am Wörther See\nPLZ: 9220\nKoordinaten: 46.613629, 14.041580\nTags: amenity=pub", "doc_type": "addresses"}
{"source": "OSM", "region": "Kärnten", "osm_type": "node", "osm_id": 5331528664, "name": "Die Pashminaria", "category": "shop:clothes", "address": "Karawankenplatz, 9220 Velden am Wörther See", "street": "Karawankenplatz", "housenumber": null, "postcode": "9220", "place": "Velden am Wörther See", "lat": 46.6136505, "lon": 14.0415209, "tags": {"addr:city": "Velden am Wörther See", "addr:postcode": "9220", "addr:street": "Karawankenplatz", "name": "Die Pashminaria", "shop": "clothes"}, "content": "Die Pashminaria\nKategorie: shop:clothes\nAdresse: Karawankenplatz, 9220 Velden am Wörther See\nOrt: Velden am Wörther See\nPLZ: 9220\nKoordinaten: 46.613650, 14.041521\nTags: shop=clothes", "doc_type": "addresses"}
{"source": "OSM", "region": "Kärnten", "osm_type": "node", "osm_id": 5340914838, "name": "Gerry Weber", "category": "shop:clothes", "address": "Klagenfurter Straße 2, 9220 Velden am Wörther See", "street": "Klagenfurter Straße", "housenumber": "2", "postcode": "9220", "place": "Velden am Wörther See", "lat": 46.6165431, "lon": 14.0463256, "tags": {"addr:city": "Velden am Wörther See", "addr:housenumber": "2", "addr:postcode": "9220", "addr:street": "Klagenfurter Straße", "brand": "Gerry Weber", "name": "Gerry Weber", "shop": "clothes"}, "content": "Gerry Weber\nKategorie: shop:clothes\nAdresse: Klagenfurter Straße 2, 9220 Velden am Wörther See\nOrt: Velden am Wörther See\nPLZ: 9220\nKoordinaten: 46.616543, 14.046326\nTags: shop=clothes, brand=Gerry Weber", "doc_type": "addresses"}
{"source": "OSM", "region": "Kärnten", "osm_type": "node", "osm_id": 5340914839, "name": "Herz Schlag", "category": "shop:clothes", "address": "Am Corso 1, 9220 Velden am Wörther See", "street": "Am Corso", "housenumber": "1", "postcode": "9220", "place": "Velden am Wörther See", "lat": 46.6164394, "lon": 14.0461702, "tags": {"addr:city": "Velden am Wörther See", "addr:housenumber": "1", "addr:postcode": "9220", "addr:street": "Am Corso", "name": "Herz Schlag", "shop": "clothes"}, "content": "Herz Schlag\nKategorie: shop:clothes\nAdresse: Am Corso 1, 9220 Velden am Wörther See\nOrt: Velden am Wörther See\nPLZ: 9220\nKoordinaten: 46.616439, 14.046170\nTags: shop=clothes", "doc_type": "addresses"}
{"source": "OSM", "region": "Kärnten", "osm_type": "node", "osm_id": 5340914840, "name": "immoreal", "category": "office:estate_agent", "address": "Am Corso 1, 9220 Velden am Wörther See", "street": "Am Corso", "housenumber": "1", "postcode": "9220", "place": "Velden am Wörther See", "lat": 46.616408, "lon": 14.0460543, "tags": {"addr:city": "Velden am Wörther See", "addr:housenumber": "1", "addr:postcode": "9220", "addr:street": "Am Corso", "name": "immoreal", "office": "estate_agent", "phone": "+43(0) 676 / 790 24 11", "website": "https://www.immoreal-kaernten.at/"}, "content": "immoreal\nKategorie: office:estate_agent\nAdresse: Am Corso 1, 9220 Velden am Wörther See\nOrt: Velden am Wörther See\nPLZ: 9220\nKoordinaten: 46.616408, 14.046054\nTags: office=estate_agent, phone=+43(0) 676 / 790 24 11, website=https://www.immoreal-kaernten.at/", "doc_type": "addresses"}
{"source": "OSM", "region": "Kärnten", "osm_type": "node", "osm_id": 5340914855, "name": "Safe Immobilien", "category": "office:estate_agent", "address": "Am Corso 2, 9220 Velden am Wörther See", "street": "Am Corso", "housenumber": "2", "postcode": "9220", "place": "Velden am Wörther See", "lat": 46.6165857, "lon": 14.0455241, "tags": {"addr:city": "Velden am Wörther See", "addr:housenumber": "2", "addr:postcode": "9220", "addr:street": "Am Corso", "name": "Safe Immobilien", "office": "estate_agent", "phone": "+43 4274 32 60", "website": "https://www.safe-immo.at/"}, "content": "Safe Immobilien\nKategorie: office:estate_agent\nAdresse: Am Corso 2, 9220 Velden am Wörther See\nOrt: Velden am Wörther See\nPLZ: 9220\nKoordinaten: 46.616586, 14.045524\nTags: office=estate_agent, phone=+43 4274 32 60, website=https://www.safe-immo.at/", "doc_type": "addresses"}
{"source": "OSM", "region": "Kärnten", "osm_type": "node", "osm_id": 5340914865, "name": "Wienerroither", "category": "shop:bakery", "address": "Am Corso 5, 9220 Velden am Wörther See", "street": "Am Corso", "housenumber": "5", "postcode": "9220", "place": "Velden am Wörther See", "lat": 46.6162891, "lon": 14.0455394, "tags": {"addr:city": "Velden am Wörther See", "addr:housenumber": "5", "addr:postcode": "9220", "addr:street": "Am Corso", "brand": "Wienerroither", "name": "Wienerroither", "phone": "+43 (0)4274 50 6 56", "shop": "bakery", "website": "https://www.wienerroither.com/"}, "content": "Wienerroither\nKategorie: shop:bakery\nAdresse: Am Corso 5, 9220 Velden am Wörther See\nOrt: Velden am Wörther See\nPLZ: 9220\nKoordinaten: 46.616289, 14.045539\nTags: shop=bakery, brand=Wienerroither, phone=+43 (0)4274 50 6 56, website=https://www.wienerroither.com/", "doc_type": "addresses"}
{"source": "OSM", "region": "Kärnten", "osm_type": "node", "osm_id": 5340914866, "name": "Antonio Rella", "category": "amenity:cafe", "address": "Am Corso 5, 9220 Velden am Wörther See", "street": "Am Corso", "housenumber": "5", "postcode": "9220", "place": "Velden am Wörther See", "lat": 46.6163021, "lon": 14.0456088, "tags": {"addr:city": "Velden am Wörther See", "addr:housenumber": "5", "addr:postcode": "9220", "addr:street": "Am Corso", "amenity": "cafe", "name": "Antonio Rella"}, "content": "Antonio Rella\nKategorie: amenity:cafe\nAdresse: Am Corso 5, 9220 Velden am Wörther See\nOrt: Velden am Wörther See\nPLZ: 9220\nKoordinaten: 46.616302, 14.045609\nTags: amenity=cafe", "doc_type": "addresses"}
{"source": "OSM", "region": "Kärnten", "osm_type": "node", "osm_id": 5340914868, "name": null, "category": "shop:vacant", "address": "Am Corso 4, 9220 Velden am Wörther See", "street": "Am Corso", "housenumber": "4", "postcode": "9220", "place": "Velden am Wörther See", "lat": 46.6163343, "lon": 14.0451754, "tags": {"addr:city": "Velden am Wörther See", "addr:housenumber": "4", "addr:postcode": "9220", "addr:street": "Am Corso", "shop": "vacant"}, "content": "Kategorie: shop:vacant\nAdresse: Am Corso 4, 9220 Velden am Wörther See\nOrt: Velden am Wörther See\nPLZ: 9220\nKoordinaten: 46.616334, 14.045175\nTags: shop=vacant", "doc_type": "addresses"}
{"source": "OSM", "region": "Kärnten", "osm_type": "node", "osm_id": 5340914869, "name": "El Florado", "category": "shop:florist", "address": "Am Corso 4, 9220 Velden am Wörther See", "street": "Am Corso", "housenumber": "4", "postcode": "9220", "place": "Velden am Wörther See", "lat": 46.6163577, "lon": 14.0452795, "tags": {"addr:city": "Velden am Wörther See", "addr:housenumber": "4", "addr:postcode": "9220", "addr:street": "Am Corso", "name": "El Florado", "shop": "florist", "website": "https://www.pichler-koban.at"}, "content": "El Florado\nKategorie: shop:florist\nAdresse: Am Corso 4, 9220 Velden am Wörther See\nOrt: Velden am Wörther See\nPLZ: 9220\nKoordinaten: 46.616358, 14.045279\nTags: shop=florist, website=https://www.pichler-koban.at", "doc_type": "addresses"}
{"source": "OSM", "region": "Kärnten", "osm_type": "node", "osm_id": 5342736312, "name": null, "category": null, "address": "Klagenfurter Straße 2, 9220 Velden am Wörther See", "street": "Klagenfurter Straße", "housenumber": "2", "postcode": "9220", "place": "Velden am Wörther See", "lat": 46.6165542, "lon": 14.0462585, "tags": {"addr:city": "Velden am Wörther See", "addr:housenumber": "2", "addr:postcode": "9220", "addr:street": "Klagenfurter Straße"}, "content": "Adresse: Klagenfurter Straße 2, 9220 Velden am Wörther See\nOrt: Velden am Wörther See\nPLZ: 9220\nKoordinaten: 46.616554, 14.046259", "doc_type": "addresses"}
{"source": "OSM", "region": "Kärnten", "osm_type": "node", "osm_id": 5342736830, "name": "Martin Auer", "category": "shop:bakery", "address": "Am Corso 6, 9220 Velden am Wörther See", "street": "Am Corso", "housenumber": "6", "postcode": "9220", "place": "Velden am Wörther See", "lat": 46.6163919, "lon": 14.0447611, "tags": {"addr:city": "Velden am Wörther See", "addr:housenumber": "6", "addr:postcode": "9220", "addr:street": "Am Corso", "brand": "Martin Auer", "name": "Martin Auer", "shop": "bakery"}, "content": "Martin Auer\nKategorie: shop:bakery\nAdresse: Am Corso 6, 9220 Velden am Wörther See\nOrt: Velden am Wörther See\nPLZ: 9220\nKoordinaten: 46.616392, 14.044761\nTags: shop=bakery, brand=Martin Auer", "doc_type": "addresses"}
{"source": "OSM", "region": "Kärnten", "osm_type": "node", "osm_id": 5342736831, "name": "K.u.K", "category": "shop:gift", "address": "Europaplatz 4, 9220 Velden am Wörther See", "street": "Europaplatz", "housenumber": "4", "postcode": "9220", "place": "Velden am Wörther See", "lat": 46.6160064, "lon": 14.0442439, "tags": {"addr:city": "Velden am Wörther See", "addr:housenumber": "4", "addr:postcode": "9220", "addr:street": "Europaplatz", "name": "K.u.K", "shop": "gift", "website": "https://www.kukshop.at/"}, "content": "K.u.K\nKategorie: shop:gift\nAdresse: Europaplatz 4, 9220 Velden am Wörther See\nOrt: Velden am Wörther See\nPLZ: 9220\nKoordinaten: 46.616006, 14.044244\nTags: shop=gift, website=https://www.kukshop.at/", "doc_type": "addresses"}
{"source": "OSM", "region": "Kärnten", "osm_type": "node", "osm_id": 5342736838, "name": "Vianello", "category": "shop:shoes", "address": "Europaplatz 4, 9220 Velden am Wörther See", "street": "Europaplatz", "housenumber": "4", "postcode": "9220", "place": "Velden am Wörther See", "lat": 46.6160644, "lon": 14.0443185, "tags": {"addr:city": "Velden am Wörther See", "addr:housenumber": "4", "addr:postcode": "9220", "addr:street": "Europaplatz", "name": "Vianello", "shop": "shoes"}, "content": "Vianello\nKategorie: shop:shoes\nAdresse: Europaplatz 4, 9220 Velden am Wörther See\nOrt: Velden am Wörther See\nPLZ: 9220\nKoordinaten: 46.616064, 14.044318\nTags: shop=shoes", "doc_type": "addresses"}
{"source": "OSM", "region": "Kärnten", "osm_type": "node", "osm_id": 5342736840, "name": "K.u.K", "category": "shop:gift", "address": "Seecorso 4, 9220 Velden am Wörther See", "street": "Seecorso", "housenumber": "4", "postcode": "9220", "place": "Velden am Wörther See", "lat": 46.6128377, "lon": 14.0423782, "tags": {"addr:city": "Velden am Wörther See", "addr:housenumber": "4", "addr:postcode": "9220", "addr:street": "Seecorso", "name": "K.u.K", "shop": "gift"}, "content": "K.u.K\nKategorie: shop:gift\nAdresse: Seecorso 4, 9220 Velden am Wörther See\nOrt: Velden am Wörther See\nPLZ: 9220\nKoordinaten: 46.612838, 14.042378\nTags: shop=gift", "doc_type": "addresses"}
{"source": "OSM", "region": "Kärnten", "osm_type": "node", "osm_id": 5342736841, "name": "Wörthersee Immobilien", "category": "office:estate_agent", "address": "Europaplatz 4, 9220 Velden am Wörther See", "street": "Europaplatz", "housenumber": "4", "postcode": "9220", "place": "Velden am Wörther See", "lat": 46.6153871, "lon": 14.042573, "tags": {"addr:city": "Velden am Wörther See", "addr:housenumber": "4", "addr:postcode": "9220", "addr:street": "Europaplatz", "name": "Wörthersee Immobilien", "office": "estate_agent", "phone": "+43 664 2600726", "website": "http://www.woerthersee-immobilien.gmbh"}, "content": "Wörthersee Immobilien\nKategorie: office:estate_agent\nAdresse: Europaplatz 4, 9220 Velden am Wörther See\nOrt: Velden am Wörther See\nPLZ: 9220\nKoordinaten: 46.615387, 14.042573\nTags: office=estate_agent, phone=+43 664 2600726, website=http://www.woerthersee-immobilien.gmbh", "doc_type": "addresses"}
{"source": "OSM", "region": "Kärnten", "osm_type": "node", "osm_id": 5344648313, "name": "Reinhold Optik", "category": "shop:optician", "address": "Europaplatz 3, 9220 Velden am Wörther See", "street": "Europaplatz", "housenumber": "3", "postcode": "9220", "place": "Velden am Wörther See", "lat": 46.6159123, "lon": 14.043847, "tags": {"addr:city": "Velden am Wörther See", "addr:housenumber": "3", "addr:postcode": "9220", "addr:street": "Europaplatz", "name": "Reinhold Optik", "phone": "+43 (0) 664 | 341 342 4", "shop": "optician", "website": "http://reinhold-optik.at"}, "content": "Reinhold Optik\nKategorie: shop:optician\nAdresse: Europaplatz 3, 9220 Velden am Wörther See\nOrt: Velden am Wörther See\nPLZ: 9220\nKoordinaten: 46.615912, 14.043847\nTags: shop=optician, phone=+43 (0) 664 | 341 342 4, website=http://reinhold-optik.at", "doc_type": "addresses"}
{"source": "OSM", "region": "Kärnten", "osm_type": "node", "osm_id": 5344648314, "name": "Boutique Sheryn", "category": "shop:clothes", "address": "Europaplatz 3, 9220 Velden am Wörther See", "street": "Europaplatz", "housenumber": "3", "postcode": "9220", "place": "Velden am Wörther See", "lat": 46.6159472, "lon": 14.0438474, "tags": {"addr:city": "Velden am Wörther See", "addr:housenumber": "3", "addr:postcode": "9220", "addr:street": "Europaplatz", "name": "Boutique Sheryn", "shop": "clothes"}, "content": "Boutique Sheryn\nKategorie: shop:clothes\nAdresse: Europaplatz 3, 9220 Velden am Wörther See\nOrt: Velden am Wörther See\nPLZ: 9220\nKoordinaten: 46.615947, 14.043847\nTags: shop=clothes", "doc_type": "addresses"}
{"source": "OSM", "region": "Kärnten", "osm_type": "node", "osm_id": 5346673607, "name": "Pizzeria Moro", "category": "amenity:restaurant", "address": "Am Corso 15, 9220 Velden am Wörther See", "street": "Am Corso", "housenumber": "15", "postcode": "9220", "place": "Velden am Wörther See", "lat": 46.6155323, "lon": 14.0438271, "tags": {"addr:city": "Velden am Wörther See", "addr:housenumber": "15", "addr:postcode": "9220", "addr:street": "Am Corso", "amenity": "restaurant", "name": "Pizzeria Moro", "phone": "+43 4274 2279", "website": "https://www.moro.at/"}, "content": "Pizzeria Moro\nKategorie: amenity:restaurant\nAdresse: Am Corso 15, 9220 Velden am Wörther See\nOrt: Velden am Wörther See\nPLZ: 9220\nKoordinaten: 46.615532, 14.043827\nTags: amenity=restaurant, phone=+43 4274 2279, website=https://www.moro.at/", "doc_type": "addresses"}
{"source": "OSM", "region": "Kärnten", "osm_type": "node", "osm_id": 5346673608, "name": "Café Moro", "category": "amenity:pub", "address": "Am Corso 8, 9220 Velden am Wörther See", "street": "Am Corso", "housenumber": "8", "postcode": "9220", "place": "Velden am Wörther See", "lat": 46.6156409, "lon": 14.043616, "tags": {"addr:city": "Velden am Wörther See", "addr:housenumber": "8", "addr:postcode": "9220", "addr:street": "Am Corso", "amenity": "pub", "name": "Café Moro", "phone": "+43 4274 2279", "website": "https://www.moro.at/"}, "content": "Café Moro\nKategorie: amenity:pub\nAdresse: Am Corso 8, 9220 Velden am Wörther See\nOrt: Velden am Wörther See\nPLZ: 9220\nKoordinaten: 46.615641, 14.043616\nTags: amenity=pub, phone=+43 4274 2279, website=https://www.moro.at/", "doc_type": "addresses"}
{"source": "OSM", "region": "Kärnten", "osm_type": "node", "osm_id": 5346673609, "name": "Moro", "category": "amenity:ice_cream", "address": "Am Corso 185, 9220 Velden am Wörther See", "street": "Am Corso", "housenumber": "185", "postcode": "9220", "place": "Velden am Wörther See", "lat": 46.6154886, "lon": 14.0437495, "tags": {"addr:city": "Velden am Wörther See", "addr:housenumber": "185", "addr:postcode": "9220", "addr:street": "Am Corso", "amenity": "ice_cream", "name": "Moro", "phone": "+43 4274 2279", "website": "https://www.moro.at/"}, "content": "Moro\nKategorie: amenity:ice_cream\nAdresse: Am Corso 185, 9220 Velden am Wörther See\nOrt: Velden am Wörther See\nPLZ: 9220\nKoordinaten: 46.615489, 14.043750\nTags: amenity=ice_cream, phone=+43 4274 2279, website=https://www.moro.at/", "doc_type": "addresses"}
{"source": "OSM", "region": "Kärnten", "osm_type": "node", "osm_id": 5346673610, "name": "Moro", "category": "amenity:ice_cream", "address": "Am Corso 8, 9220 Velden am Wörther See", "street": "Am Corso", "housenumber": "8", "postcode": "9220", "place": "Velden am Wörther See", "lat": 46.615615, "lon": 14.0435595, "tags": {"addr:city": "Velden am Wörther See", "addr:housenumber": "8", "addr:postcode": "9220", "addr:street": "Am Corso", "amenity": "ice_cream", "name": "Moro", "phone": "+43 4274 2279", "website": "https://www.moro.at/"}, "content": "Moro\nKategorie: amenity:ice_cream\nAdresse: Am Corso 8, 9220 Velden am Wörther See\nOrt: Velden am Wörther See\nPLZ: 9220\nKoordinaten: 46.615615, 14.043560\nTags: amenity=ice_cream, phone=+43 4274 2279, website=https://www.moro.at/", "doc_type": "addresses"}
{"source": "OSM", "region": "Kärnten", "osm_type": "node", "osm_id": 5346673615, "name": "Stamperl", "category": "amenity:bar", "address": "Am Corso 8, 9220 Velden am Wörther See", "street": "Am Corso", "housenumber": "8", "postcode": "9220", "place": "Velden am Wörther See", "lat": 46.6155878, "lon": 14.0434913, "tags": {"addr:city": "Velden am Wörther See", "addr:housenumber": "8", "addr:postcode": "9220", "addr:street": "Am Corso", "amenity": "bar", "name": "Stamperl", "phone": "+43 (0)664 1803030", "website": "https://www.stamperl.at/"}, "content": "Stamperl\nKategorie: amenity:bar\nAdresse: Am Corso 8, 9220 Velden am Wörther See\nOrt: Velden am Wörther See\nPLZ: 9220\nKoordinaten: 46.615588, 14.043491\nTags: amenity=bar, phone=+43 (0)664 1803030, website=https://www.stamperl.at/", "doc_type": "addresses"}
{"source": "OSM", "region": "Kärnten", "osm_type": "node", "osm_id": 5346673616, "name": null, "category": null, "address": "Am Corso 3, 9220 Velden am Wörther See", "street": "Am Corso", "housenumber": "3", "postcode": "9220", "place": "Velden am Wörther See", "lat": 46.616397, "lon": 14.0459426, "tags": {"addr:city": "Velden am Wörther See", "addr:housenumber": "3", "addr:postcode": "9220", "addr:street": "Am Corso"}, "content": "Adresse: Am Corso 3, 9220 Velden am Wörther See\nOrt: Velden am Wörther See\nPLZ: 9220\nKoordinaten: 46.616397, 14.045943", "doc_type": "addresses"}
{"source": "OSM", "region": "Kärnten", "osm_type": "node", "osm_id": 5348585051, "name": "Gig", "category": "amenity:bar", "address": "Am Corso 17, 9220 Velden am Wörther See", "street": "Am Corso", "housenumber": "17", "postcode": "9220", "place": "Velden am Wörther See", "lat": 46.6153074, "lon": 14.0434292, "tags": {"addr:city": "Velden am Wörther See", "addr:housenumber": "17", "addr:postcode": "9220", "addr:street": "Am Corso", "amenity": "bar", "name": "Gig", "phone": "+43 4274 52 555", "website": "https://www.gig-bar.at/"}, "content": "Gig\nKategorie: amenity:bar\nAdresse: Am Corso 17, 9220 Velden am Wörther See\nOrt: Velden am Wörther See\nPLZ: 9220\nKoordinaten: 46.615307, 14.043429\nTags: amenity=bar, phone=+43 4274 52 555, website=https://www.gig-bar.at/", "doc_type": "addresses"}
{"source": "OSM", "region": "Kärnten", "osm_type": "node", "osm_id": 5348585052, "name": "Die Yacht", "category": "amenity:restaurant", "address": "Am Corso 17, 9220 Velden am Wörther See", "street": "Am Corso", "housenumber": "17", "postcode": "9220", "place": "Velden am Wörther See", "lat": 46.6148211, "lon": 14.0438224, "tags": {"addr:city": "Velden am Wörther See", "addr:housenumber": "17", "addr:postcode": "9220", "addr:street": "Am Corso", "amenity": "restaurant", "name": "Die Yacht", "phone": "+43 664 2064 515", "website": "https://www.casinos.at/de/velden/restaurants"}, "content": "Die Yacht\nKategorie: amenity:restaurant\nAdresse: Am Corso 17, 9220 Velden am Wörther See\nOrt: Velden am Wörther See\nPLZ: 9220\nKoordinaten: 46.614821, 14.043822\nTags: amenity=restaurant, phone=+43 664 2064 515, website=https://www.casinos.at/de/velden/restaurants", "doc_type": "addresses"}
{"source": "OSM", "region": "Kärnten", "osm_type": "node", "osm_id": 5348585053, "name": "Casino Hotel", "category": "tourism:hotel", "address": "Am Corso 10, 9220 Velden am Wörther See", "street": "Am Corso", "housenumber": "10", "postcode": "9220", "place": "Velden am Wörther See", "lat": 46.6152485, "lon": 14.0425716, "tags": {"addr:city": "Velden am Wörther See", "addr:housenumber": "10", "addr:postcode": "9220", "addr:street": "Am Corso", "name": "Casino Hotel", "phone": "+43 4274 51233", "tourism": "hotel", "website": "https://www.casino-hotel.at/"}, "content": "Casino Hotel\nKategorie: tourism:hotel\nAdresse: Am Corso 10, 9220 Velden am Wörther See\nOrt: Velden am Wörther See\nPLZ: 9220\nKoordinaten: 46.615248, 14.042572\nTags: phone=+43 4274 51233, website=https://www.casino-hotel.at/", "doc_type": "addresses"}
{"source": "OSM", "region": "Kärnten", "osm_type": "node", "osm_id": 5348585054, "name": "Le Cafe", "category": "amenity:cafe", "address": "Am Corso 10, 9220 Velden am Wörther See", "street": "Am Corso", "housenumber": "10", "postcode": "9220", "place": "Velden am Wörther See", "lat": 46.6154508, "lon": 14.0429702, "tags": {"addr:city": "Velden am Wörther See", "addr:housenumber": "10", "addr:postcode": "9220", "addr:street": "Am Corso", "amenity": "cafe", "name": "Le Cafe", "website": "https://www.casino-hotel.at/index.php/en/en-recommend/en-lecafe"}, "content": "Le Cafe\nKategorie: amenity:cafe\nAdresse: Am Corso 10, 9220 Velden am Wörther See\nOrt: Velden am Wörther See\nPLZ: 9220\nKoordinaten: 46.615451, 14.042970\nTags: amenity=cafe, website=https://www.casino-hotel.at/index.php/en/en-recommend/en-lecafe", "doc_type": "addresses"}
{"source": "OSM", "region": "Kärnten", "osm_type": "node", "osm_id": 5354229375, "name": "Switch", "category": "amenity:bar", "address": "Am Corso 10, 9220 Velden am Wörther See", "street": "Am Corso", "housenumber": "10", "postcode": "9220", "place": "Velden am Wörther See", "lat": 46.6153081, "lon": 14.0427782, "tags": {"addr:city": "Velden am Wörther See", "addr:housenumber": "10", "addr:postcode": "9220", "addr:street": "Am Corso", "amenity": "bar", "name": "Switch", "phone": "+43 676 9530099", "website": "https://www.switch-velden.at/"}, "content": "Switch\nKategorie: amenity:bar\nAdresse: Am Corso 10, 9220 Velden am Wörther See\nOrt: Velden am Wörther See\nPLZ: 9220\nKoordinaten: 46.615308, 14.042778\nTags: amenity=bar, phone=+43 676 9530099, website=https://www.switch-velden.at/", "doc_type": "addresses"}
{"source": "OSM", "region": "Kärnten", "osm_type": "node", "osm_id": 5354229376, "name": "Caramé", "category": "amenity:restaurant", "address": "Am Corso 10, 9220 Velden am Wörther See", "street": "Am Corso", "housenumber": "10", "postcode": "9220", "place": "Velden am Wörther See", "lat": 46.6154733, "lon": 14.0431779, "tags": {"addr:city": "Velden am Wörther See", "addr:housenumber": "10", "addr:postcode": "9220", "addr:street": "Am Corso", "amenity": "restaurant", "name": "Caramé", "phone": "+43 4274 / 3000", "website": "http://www.restaurant-carame.at"}, "content": "Caramé\nKategorie: amenity:restaurant\nAdresse: Am Corso 10, 9220 Velden am Wörther See\nOrt: Velden am Wörther See\nPLZ: 9220\nKoordinaten: 46.615473, 14.043178\nTags: amenity=restaurant, phone=+43 4274 / 3000, website=http://www.restaurant-carame.at", "doc_type": "addresses"}
{"source": "OSM", "region": "Kärnten", "osm_type": "node", "osm_id": 5354229377, "name": "American Bar", "category": "amenity:bar", "address": "Am Corso 10, 9220 Velden am Wörther See", "street": "Am Corso", "housenumber": "10", "postcode": "9220", "place": "Velden am Wörther See", "lat": 46.6153786, "lon": 14.0428636, "tags": {"addr:city": "Velden am Wörther See", "addr:housenumber": "10", "addr:postcode": "9220", "addr:street": "Am Corso", "amenity": "bar", "name": "American Bar", "operator": "Switch", "phone": "+43 676 9530099", "website": "https://www.switch-velden.at"}, "content": "American Bar\nKategorie: amenity:bar\nAdresse: Am Corso 10, 9220 Velden am Wörther See\nOrt: Velden am Wörther See\nPLZ: 9220\nKoordinaten: 46.615379, 14.042864\nTags: amenity=bar, operator=Switch, phone=+43 676 9530099, website=https://www.switch-velden.at", "doc_type": "addresses"}
{"source": "OSM", "region": "Kärnten", "osm_type": "node", "osm_id": 5354229381, "name": "Rocket Bistro", "category": "amenity:fast_food", "address": "Koschatpromenade 2, 9220 Velden am Wörther See", "street": "Koschatpromenade", "housenumber": "2", "postcode": "9220", "place": "Velden am Wörther See", "lat": 46.614538, "lon": 14.0423028, "tags": {"addr:city": "Velden am Wörther See", "addr:housenumber": "2", "addr:postcode": "9220", "addr:street": "Koschatpromenade", "amenity": "fast_food", "name": "Rocket Bistro", "website": "https://www.rocket-rooms.at/de/restaurant.html"}, "content": "Rocket Bistro\nKategorie: amenity:fast_food\nAdresse: Koschatpromenade 2, 9220 Velden am Wörther See\nOrt: Velden am Wörther See\nPLZ: 9220\nKoordinaten: 46.614538, 14.042303\nTags: amenity=fast_food, website=https://www.rocket-rooms.at/de/restaurant.html", "doc_type": "addresses"}
{"source": "OSM", "region": "Kärnten", "osm_type": "node", "osm_id": 5354229386, "name": null, "category": "shop:clothes", "address": "Am Corso 27, 9220 Velden am Wörther See", "street": "Am Corso", "housenumber": "27", "postcode": "9220", "place": "Velden am Wörther See", "lat": 46.6141582, "lon": 14.0427188, "tags": {"addr:city": "Velden am Wörther See", "addr:housenumber": "27", "addr:postcode": "9220", "addr:street": "Am Corso", "shop": "clothes"}, "content": "Kategorie: shop:clothes\nAdresse: Am Corso 27, 9220 Velden am Wörther See\nOrt: Velden am Wörther See\nPLZ: 9220\nKoordinaten: 46.614158, 14.042719\nTags: shop=clothes", "doc_type": "addresses"}
{"source": "OSM", "region": "Kärnten", "osm_type": "node", "osm_id": 5354229387, "name": "Antiques", "category": "shop:antiques", "address": "Am Corso 27, 9220 Velden am Wörther See", "street": "Am Corso", "housenumber": "27", "postcode": "9220", "place": "Velden am Wörther See", "lat": 46.6141181, "lon": 14.0426888, "tags": {"addr:city": "Velden am Wörther See", "addr:housenumber": "27", "addr:postcode": "9220", "addr:street": "Am Corso", "name": "Antiques", "shop": "antiques"}, "content": "Antiques\nKategorie: shop:antiques\nAdresse: Am Corso 27, 9220 Velden am Wörther See\nOrt: Velden am Wörther See\nPLZ: 9220\nKoordinaten: 46.614118, 14.042689\nTags: shop=antiques", "doc_type": "addresses"}
{"source": "OSM", "region": "Kärnten", "osm_type": "node", "osm_id": 5354229392, "name": "Börserl Bistro-Café", "category": "amenity:fast_food", "address": "Am Corso 25, 9220 Velden am Wörther See", "street": "Am Corso", "housenumber": "25", "postcode": "9220", "place": "Velden am Wörther See", "lat": 46.6143022, "lon": 14.0427018, "tags": {"addr:city": "Velden am Wörther See", "addr:housenumber": "25", "addr:postcode": "9220", "addr:street": "Am Corso", "amenity": "fast_food", "name": "Börserl Bistro-Café", "phone": "+43 (0) 4274 50 635", "website": "http://www.boerserl.net/"}, "content": "Börserl Bistro-Café\nKategorie: amenity:fast_food\nAdresse: Am Corso 25, 9220 Velden am Wörther See\nOrt: Velden am Wörther See\nPLZ: 9220\nKoordinaten: 46.614302, 14.042702\nTags: amenity=fast_food, phone=+43 (0) 4274 50 635, website=http://www.boerserl.net/", "doc_type": "addresses"}
{"source": "OSM", "region": "Kärnten", "osm_type": "node", "osm_id": 5354229393, "name": "Peter Tschebull", "category": "shop:shoes", "address": "Am Corso 25, 9220 Velden am Wörther See", "street": "Am Corso", "housenumber": "25", "postcode": "9220", "place": "Velden am Wörther See", "lat": 46.6143734, "lon": 14.0426965, "tags": {"addr:city": "Velden am Wörther See", "addr:housenumber": "25", "addr:postcode": "9220", "addr:street": "Am Corso", "name": "Peter Tschebull", "shop": "shoes"}, "content": "Peter Tschebull\nKategorie: shop:shoes\nAdresse: Am Corso 25, 9220 Velden am Wörther See\nOrt: Velden am Wörther See\nPLZ: 9220\nKoordinaten: 46.614373, 14.042696\nTags: shop=shoes", "doc_type": "addresses"}
{"source": "OSM", "region": "Kärnten", "osm_type": "node", "osm_id": 5356396747, "name": "Seidl", "category": "shop:newsagent", "address": "Seecorso 4, 9220 Velden am Wörther See", "street": "Seecorso", "housenumber": "4", "postcode": "9220", "place": "Velden am Wörther See", "lat": 46.6128022, "lon": 14.0424408, "tags": {"addr:city": "Velden am Wörther See", "addr:housenumber": "4", "addr:postcode": "9220", "addr:street": "Seecorso", "name": "Seidl", "shop": "newsagent"}, "content": "Seidl\nKategorie: shop:newsagent\nAdresse: Seecorso 4, 9220 Velden am Wörther See\nOrt: Velden am Wörther See\nPLZ: 9220\nKoordinaten: 46.612802, 14.042441\nTags: shop=newsagent", "doc_type": "addresses"}
{"source": "OSM", "region": "Kärnten", "osm_type": "node", "osm_id": 5356396748, "name": "Play Planet", "category": "leisure:amusement_arcade", "address": "Seecorso 4, 9220 Velden am Wörther See", "street": "Seecorso", "housenumber": "4", "postcode": "9220", "place": "Velden am Wörther See", "lat": 46.6127822, "lon": 14.0422636, "tags": {"addr:city": "Velden am Wörther See", "addr:housenumber": "4", "addr:postcode": "9220", "addr:street": "Seecorso", "leisure": "amusement_arcade", "name": "Play Planet", "phone": "+43 664 333 11 00", "website": "https://www.playplanet-velden.at/"}, "content": "Play Planet\nKategorie: leisure:amusement_arcade\nAdresse: Seecorso 4, 9220 Velden am Wörther See\nOrt: Velden am Wörther See\nPLZ: 9220\nKoordinaten: 46.612782, 14.042264\nTags: phone=+43 664 333 11 00, website=https://www.playplanet-velden.at/", "doc_type": "addresses"}
{"source": "OSM", "region": "Kärnten", "osm_type": "node", "osm_id": 5356396749, "name": "Aqua Cafe Bar", "category": "amenity:pub", "address": "Seecorso 4, 9220 Velden am Wörther See", "street": "Seecorso", "housenumber": "4", "postcode": "9220", "place": "Velden am Wörther See", "lat": 46.6127832, "lon": 14.0421955, "tags": {"addr:city": "Velden am Wörther See", "addr:housenumber": "4", "addr:postcode": "9220", "addr:street": "Seecorso", "amenity": "pub", "name": "Aqua Cafe Bar"}, "content": "Aqua Cafe Bar\nKategorie: amenity:pub\nAdresse: Seecorso 4, 9220 Velden am Wörther See\nOrt: Velden am Wörther See\nPLZ: 9220\nKoordinaten: 46.612783, 14.042196\nTags: amenity=pub", "doc_type": "addresses"}
{"source": "OSM", "region": "Kärnten", "osm_type": "node", "osm_id": 5356396750, "name": "Neuhauser", "category": "leisure:fitness_centre", "address": "Seecorso 4, 9220 Velden am Wörther See", "street": "Seecorso", "housenumber": "4", "postcode": "9220", "place": "Velden am Wörther See", "lat": 46.6128018, "lon": 14.0420388, "tags": {"addr:city": "Velden am Wörther See", "addr:housenumber": "4", "addr:postcode": "9220", "addr:street": "Seecorso", "leisure": "fitness_centre", "name": "Neuhauser"}, "content": "Neuhauser\nKategorie: leisure:fitness_centre\nAdresse: Seecorso 4, 9220 Velden am Wörther See\nOrt: Velden am Wörther See\nPLZ: 9220\nKoordinaten: 46.612802, 14.042039", "doc_type": "addresses"}
{"source": "OSM", "region": "Kärnten", "osm_type": "node", "osm_id": 5356396751, "name": "Ingrid Bein", "category": "shop:hairdresser", "address": "Seecorso 4, 9220 Velden am Wörther See", "street": "Seecorso", "housenumber": "4", "postcode": "9220", "place": "Velden am Wörther See", "lat": 46.61284, "lon": 14.0420297, "tags": {"addr:city": "Velden am Wörther See", "addr:housenumber": "4", "addr:postcode": "9220", "addr:street": "Seecorso", "name": "Ingrid Bein", "phone": "+43 4274 5 17 70", "shop": "hairdresser", "website": "http://www.ingrid-bein.at/"}, "content": "Ingrid Bein\nKategorie: shop:hairdresser\nAdresse: Seecorso 4, 9220 Velden am Wörther See\nOrt: Velden am Wörther See\nPLZ: 9220\nKoordinaten: 46.612840, 14.042030\nTags: shop=hairdresser, phone=+43 4274 5 17 70, website=http://www.ingrid-bein.at/", "doc_type": "addresses"}
{"source": "OSM", "region": "Kärnten", "osm_type": "node", "osm_id": 5356396752, "name": "Kitzglück", "category": "shop:clothes", "address": "Seecorso 3, 9220 Velden am Wörther See", "street": "Seecorso", "housenumber": "3", "postcode": "9220", "place": "Velden am Wörther See", "lat": 46.6128171, "lon": 14.0421148, "tags": {"addr:city": "Velden am Wörther See", "addr:housenumber": "3", "addr:postcode": "9220", "addr:street": "Seecorso", "name": "Kitzglück", "phone": "+43 4274 23401", "shop": "clothes", "website": "https://www.kitzglueck.com/"}, "content": "Kitzglück\nKategorie: shop:clothes\nAdresse: Seecorso 3, 9220 Velden am Wörther See\nOrt: Velden am Wörther See\nPLZ: 9220\nKoordinaten: 46.612817, 14.042115\nTags: shop=clothes, phone=+43 4274 23401, website=https://www.kitzglueck.com/", "doc_type": "addresses"}
{"source": "OSM", "region": "Kärnten", "osm_type": "node", "osm_id": 5356396753, "name": "Dhaler & Company", "category": "office:estate_agent", "address": "Seecorso 4, 9220 Velden am Wörther See", "street": "Seecorso", "housenumber": "4", "postcode": "9220", "place": "Velden am Wörther See", "lat": 46.6127997, "lon": 14.0421514, "tags": {"addr:city": "Velden am Wörther See", "addr:housenumber": "4", "addr:postcode": "9220", "addr:street": "Seecorso", "name": "Dhaler & Company", "office": "estate_agent"}, "content": "Dhaler & Company\nKategorie: office:estate_agent\nAdresse: Seecorso 4, 9220 Velden am Wörther See\nOrt: Velden am Wörther See\nPLZ: 9220\nKoordinaten: 46.612800, 14.042151\nTags: office=estate_agent", "doc_type": "addresses"}
{"source": "OSM", "region": "Kärnten", "osm_type": "node", "osm_id": 5356396754, "name": "Die Brillerei", "category": "shop:optician", "address": "Seecorso 4, 9220 Velden am Wörther See", "street": "Seecorso", "housenumber": "4", "postcode": "9220", "place": "Velden am Wörther See", "lat": 46.6128568, "lon": 14.0419774, "tags": {"addr:city": "Velden am Wörther See", "addr:housenumber": "4", "addr:postcode": "9220", "addr:street": "Seecorso", "name": "Die Brillerei", "phone": "+43 4274 / 23 4 22", "shop": "optician", "website": "https://diebrillerei.at"}, "content": "Die Brillerei\nKategorie: shop:optician\nAdresse: Seecorso 4, 9220 Velden am Wörther See\nOrt: Velden am Wörther See\nPLZ: 9220\nKoordinaten: 46.612857, 14.041977\nTags: shop=optician, phone=+43 4274 / 23 4 22, website=https://diebrillerei.at", "doc_type": "addresses"}
{"source": "OSM", "region": "Kärnten", "osm_type": "node", "osm_id": 5356396755, "name": "Pur Living", "category": "office:architect", "address": "Seecorso 4, 9220 Velden am Wörther See", "street": "Seecorso", "housenumber": "4", "postcode": "9220", "place": "Velden am Wörther See", "lat": 46.6128744, "lon": 14.0419122, "tags": {"addr:city": "Velden am Wörther See", "addr:housenumber": "4", "addr:postcode": "9220", "addr:street": "Seecorso", "name": "Pur Living", "office": "architect", "phone": "+43 (0)676 - 79 69 113", "website": "http://www.innenarchitekturvelden.at/"}, "content": "Pur Living\nKategorie: office:architect\nAdresse: Seecorso 4, 9220 Velden am Wörther See\nOrt: Velden am Wörther See\nPLZ: 9220\nKoordinaten: 46.612874, 14.041912\nTags: office=architect, phone=+43 (0)676 - 79 69 113, website=http://www.innenarchitekturvelden.at/", "doc_type": "addresses"}
{"source": "OSM", "region": "Kärnten", "osm_type": "node", "osm_id": 5389512799, "name": "Restaurant Leopold", "category": "amenity:restaurant", "address": "Seecorso 18, 9220 Velden am Wörther See", "street": "Seecorso", "housenumber": "18", "postcode": "9220", "place": "Velden am Wörther See", "lat": 46.6107274, "lon": 14.0442485, "tags": {"addr:city": "Velden am Wörther See", "addr:housenumber": "18", "addr:postcode": "9220", "addr:street": "Seecorso", "amenity": "restaurant", "name": "Restaurant Leopold", "website": "https://www.strandhotel-leopold.at/restaurant-und-beach/restaurant.html"}, "content": "Restaurant Leopold\nKategorie: amenity:restaurant\nAdresse: Seecorso 18, 9220 Velden am Wörther See\nOrt: Velden am Wörther See\nPLZ: 9220\nKoordinaten: 46.610727, 14.044249\nTags: amenity=restaurant, website=https://www.strandhotel-leopold.at/restaurant-und-beach/restaurant.html", "doc_type": "addresses"}
{"source": "OSM", "region": "Kärnten", "osm_type": "node", "osm_id": 290458361, "name": "Il Lago", "category": "amenity:restaurant", "address": "Seecorso 8, 9220 Velden am Wörther See", "street": "Seecorso", "housenumber": "8", "postcode": "9220", "place": "Velden am Wörther See", "lat": 46.6125552, "lon": 14.0427683, "tags": {"addr:city": "Velden am Wörther See", "addr:housenumber": "8", "addr:postcode": "9220", "addr:street": "Seecorso", "amenity": "restaurant", "name": "Il Lago", "phone": "+43 4274 51109", "website": "https://www.illago.at/"}, "content": "Il Lago\nKategorie: amenity:restaurant\nAdresse: Seecorso 8, 9220 Velden am Wörther See\nOrt: Velden am Wörther See\nPLZ: 9220\nKoordinaten: 46.612555, 14.042768\nTags: amenity=restaurant, phone=+43 4274 51109, website=https://www.illago.at/", "doc_type": "pois"}
{"source": "OSM", "region": "Kärnten", "osm_type": "node", "osm_id": 295390271, "name": "Volksbank", "category": "amenity:bank", "address": "Am Corso 27, 9220 Velden am Wörther See", "street": "Am Corso", "housenumber": "27", "postcode": "9220", "place": "Velden am Wörther See", "lat": 46.6142094, "lon": 14.0427377, "tags": {"addr:city": "Velden am Wörther See", "addr:housenumber": "27", "addr:postcode": "9220", "addr:street": "Am Corso", "amenity": "bank", "name": "Volksbank", "operator": "Volksbank", "phone": "+43 5 09 09 - 8300", "website": "https://www.volksbank-kaernten.at/"}, "content": "Volksbank\nKategorie: amenity:bank\nAdresse: Am Corso 27, 9220 Velden am Wörther See\nOrt: Velden am Wörther See\nPLZ: 9220\nKoordinaten: 46.614209, 14.042738\nTags: amenity=bank, operator=Volksbank, phone=+43 5 09 09 - 8300, website=https://www.volksbank-kaernten.at/", "doc_type": "pois"}
{"source": "OSM", "region": "Kärnten", "osm_type": "node", "osm_id": 295390274, "name": "Raiffeisenbank Velden", "category": "amenity:bank", "address": "Karawankenplatz 2, 9220 Velden am Wörther See", "street": "Karawankenplatz", "housenumber": "2", "postcode": "9220", "place": "Velden am Wörther See", "lat": 46.6140187, "lon": 14.0413425, "tags": {"addr:city": "Velden am Wörther See", "addr:housenumber": "2", "addr:postcode": "9220", "addr:street": "Karawankenplatz", "amenity": "bank", "name": "Raiffeisenbank Velden", "operator": "Raiffeisen", "phone": "+43 59 99 39390 00"}, "content": "Raiffeisenbank Velden\nKategorie: amenity:bank\nAdresse: Karawankenplatz 2, 9220 Velden am Wörther See\nOrt: Velden am Wörther See\nPLZ: 9220\nKoordinaten: 46.614019, 14.041343\nTags: amenity=bank, operator=Raiffeisen, phone=+43 59 99 39390 00", "doc_type": "pois"}
{"source": "OSM", "region": "Kärnten", "osm_type": "node", "osm_id": 300901317, "name": "Gemeindeamt Velden", "category": "amenity:townhall", "address": "Seecorso 2, 9220 Velden am Wörther See", "street": "Seecorso", "housenumber": "2", "postcode": "9220", "place": "Velden am Wörther See", "lat": 46.6131545, "lon": 14.0418693, "tags": {"addr:city": "Velden am Wörther See", "addr:housenumber": "2", "addr:postcode": "9220", "addr:street": "Seecorso", "amenity": "townhall", "name": "Gemeindeamt Velden"}, "content": "Gemeindeamt Velden\nKategorie: amenity:townhall\nAdresse: Seecorso 2, 9220 Velden am Wörther See\nOrt: Velden am Wörther See\nPLZ: 9220\nKoordinaten: 46.613155, 14.041869\nTags: amenity=townhall", "doc_type": "pois"}
{"source": "OSM", "region": "Kärnten", "osm_type": "node", "osm_id": 502993382, "name": "13er, Casino Bar", "category": "amenity:pub", "address": "Am Corso 17, 9220 Velden am Wörther See", "street": "Am Corso", "housenumber": "17", "postcode": "9220", "place": "Velden am Wörther See", "lat": 46.6150682, "lon": 14.0432026, "tags": {"addr:city": "Velden am Wörther See", "addr:housenumber": "17", "addr:postcode": "9220", "addr:street": "Am Corso", "amenity": "pub", "name": "13er, Casino Bar"}, "content": "13er, Casino Bar\nKategorie: amenity:pub\nAdresse: Am Corso 17, 9220 Velden am Wörther See\nOrt: Velden am Wörther See\nPLZ: 9220\nKoordinaten: 46.615068, 14.043203\nTags: amenity=pub", "doc_type": "pois"}
{"source": "OSM", "region": "Kärnten", "osm_type": "node", "osm_id": 696751530, "name": "Viva La Diva", "category": "shop:clothes", "address": "Seecorso 4, 9220 Velden am Wörther See", "street": "Seecorso", "housenumber": "4", "postcode": "9220", "place": "Velden am Wörther See", "lat": 46.6129529, "lon": 14.0418555, "tags": {"addr:city": "Velden am Wörther See", "addr:housenumber": "4", "addr:postcode": "9220", "addr:street": "Seecorso", "name": "Viva La Diva", "shop": "clothes"}, "content": "Viva La Diva\nKategorie: shop:clothes\nAdresse: Seecorso 4, 9220 Velden am Wörther See\nOrt: Velden am Wörther See\nPLZ: 9220\nKoordinaten: 46.612953, 14.041856\nTags: shop=clothes", "doc_type": "pois"}
{"source": "OSM", "region": "Kärnten", "osm_type": "node", "osm_id": 698566571, "name": "Seehotel Vinzenz", "category": "tourism:hotel", "address": "Auen-Süduferstraße 154, 9220 Velden am Wörther See", "street": "Auen-Süduferstraße", "housenumber": "154", "postcode": "9220", "place": "Velden am Wörther See", "lat": 46.6167943, "lon": 14.0925159, "tags": {"addr:city": "Velden am Wörther See", "addr:housenumber": "154", "addr:postcode": "9220", "addr:street": "Auen-Süduferstraße", "name": "Seehotel Vinzenz", "phone": "+4342742889", "tourism": "hotel"}, "content": "Seehotel Vinzenz\nKategorie: tourism:hotel\nAdresse: Auen-Süduferstraße 154, 9220 Velden am Wörther See\nOrt: Velden am Wörther See\nPLZ: 9220\nKoordinaten: 46.616794, 14.092516\nTags: phone=+4342742889", "doc_type": "pois"}
{"source": "OSM", "region": "Kärnten", "osm_type": "node", "osm_id": 1305293022, "name": "Gasthof Liebentritt", "category": "amenity:restaurant", "address": "Rosseggerstraße 70, 9220 Velden am Wörther See", "street": "Rosseggerstraße", "housenumber": "70", "postcode": "9220", "place": "Velden am Wörther See", "lat": 46.6024972, "lon": 14.0246362, "tags": {"addr:city": "Velden am Wörther See", "addr:housenumber": "70", "addr:postcode": "9220", "addr:street": "Rosseggerstraße", "amenity": "restaurant", "name": "Gasthof Liebentritt"}, "content": "Gasthof Liebentritt\nKategorie: amenity:restaurant\nAdresse: Rosseggerstraße 70, 9220 Velden am Wörther See\nOrt: Velden am Wörther See\nPLZ: 9220\nKoordinaten: 46.602497, 14.024636\nTags: amenity=restaurant", "doc_type": "pois"}
{"source": "OSM", "region": "Kärnten", "osm_type": "node", "osm_id": 1383604652, "name": "Hotel Restaurant Marko", "category": "tourism:hotel", "address": "Kranzlhofenstraße 70, 9220 Velden am Wörther See", "street": "Kranzlhofenstraße", "housenumber": "70", "postcode": "9220", "place": "Velden am Wörther See", "lat": 46.6246702, "lon": 14.0343744, "tags": {"addr:city": "Velden am Wörther See", "addr:housenumber": "70", "addr:postcode": "9220", "addr:street": "Kranzlhofenstraße", "name": "Hotel Restaurant Marko", "phone": "+4342742443", "tourism": "hotel", "website": "https://www.marko-velden.at/"}, "content": "Hotel Restaurant Marko\nKategorie: tourism:hotel\nAdresse: Kranzlhofenstraße 70, 9220 Velden am Wörther See\nOrt: Velden am Wörther See\nPLZ: 9220\nKoordinaten: 46.624670, 14.034374\nTags: phone=+4342742443, website=https://www.marko-velden.at/", "doc_type": "pois"}
{"source": "OSM", "region": "Kärnten", "osm_type": "node", "osm_id": 1580174289, "name": "Alban Berg Musikschule Velden", "category": "amenity:school", "address": "Bäckerteichstraße 1, 9220 Velden am Wörther See", "street": "Bäckerteichstraße", "housenumber": "1", "postcode": "9220", "place": "Velden am Wörther See", "lat": 46.6110056, "lon": 14.0396487, "tags": {"addr:city": "Velden am Wörther See", "addr:housenumber": "1", "addr:postcode": "9220", "addr:street": "Bäckerteichstraße", "amenity": "school", "name": "Alban Berg Musikschule Velden"}, "content": "Alban Berg Musikschule Velden\nKategorie: amenity:school\nAdresse: Bäckerteichstraße 1, 9220 Velden am Wörther See\nOrt: Velden am Wörther See\nPLZ: 9220\nKoordinaten: 46.611006, 14.039649\nTags: amenity=school", "doc_type": "pois"}
{"source": "OSM", "region": "Kärnten", "osm_type": "node", "osm_id": 1606187535, "name": "Uhren Schmuck Fillafer-Reichmann", "category": "shop:jewelry", "address": "Rosentaler Straße 3, 9220 Velden am Wörther See", "street": "Rosentaler Straße", "housenumber": "3", "postcode": "9220", "place": "Velden am Wörther See", "lat": 46.6130189, "lon": 14.0415732, "tags": {"addr:city": "Velden am Wörther See", "addr:housenumber": "3", "addr:postcode": "9220", "addr:street": "Rosentaler Straße", "name": "Uhren Schmuck Fillafer-Reichmann", "shop": "jewelry", "website": "https://www.facebook.com/pg/Uhren-und-Juwelen-Fillafer-Reichmann-285879291505099"}, "content": "Uhren Schmuck Fillafer-Reichmann\nKategorie: shop:jewelry\nAdresse: Rosentaler Straße 3, 9220 Velden am Wörther See\nOrt: Velden am Wörther See\nPLZ: 9220\nKoordinaten: 46.613019, 14.041573\nTags: shop=jewelry, website=https://www.facebook.com/pg/Uhren-und-Juwelen-Fillafer-Reichmann-285879291505099", "doc_type": "pois"}
{"source": "OSM", "region": "Kärnten", "osm_type": "node", "osm_id": 1665405271, "name": "Gina Drewes", "category": "shop:clothes", "address": "Am Corso 25, 9220 Velden am Wörther See", "street": "Am Corso", "housenumber": "25", "postcode": "9220", "place": "Velden am Wörther See", "lat": 46.6142373, "lon": 14.042722, "tags": {"addr:city": "Velden am Wörther See", "addr:housenumber": "25", "addr:postcode": "9220", "addr:street": "Am Corso", "name": "Gina Drewes", "phone": "+43 (0)699 17 510 510", "shop": "clothes", "website": "https://www.ginadrewes.com"}, "content": "Gina Drewes\nKategorie: shop:clothes\nAdresse: Am Corso 25, 9220 Velden am Wörther See\nOrt: Velden am Wörther See\nPLZ: 9220\nKoordinaten: 46.614237, 14.042722\nTags: shop=clothes, phone=+43 (0)699 17 510 510, website=https://www.ginadrewes.com", "doc_type": "pois"}
{"source": "OSM", "region": "Kärnten", "osm_type": "node", "osm_id": 1665405275, "name": "Lidl", "category": "shop:supermarket", "address": "Klagenfurter Straße 47, 9220 Velden am Wörther See", "street": "Klagenfurter Straße", "housenumber": "47", "postcode": "9220", "place": "Velden am Wörther See", "lat": 46.6205242, "lon": 14.0599138, "tags": {"addr:city": "Velden am Wörther See", "addr:housenumber": "47", "addr:postcode": "9220", "addr:street": "Klagenfurter Straße", "brand": "Lidl", "name": "Lidl", "shop": "supermarket"}, "content": "Lidl\nKategorie: shop:supermarket\nAdresse: Klagenfurter Straße 47, 9220 Velden am Wörther See\nOrt: Velden am Wörther See\nPLZ: 9220\nKoordinaten: 46.620524, 14.059914\nTags: shop=supermarket, brand=Lidl", "doc_type": "pois"}
{"source": "OSM", "region": "Kärnten", "osm_type": "node", "osm_id": 1813704658, "name": "Vitalhotel Marienhof", "category": "tourism:hotel", "address": "Marienhofweg 1, 9220 Velden am Wörther See", "street": "Marienhofweg", "housenumber": "1", "postcode": "9220", "place": "Velden am Wörther See", "lat": 46.617384, "lon": 14.0296448, "tags": {"addr:city": "Velden am Wörther See", "addr:housenumber": "1", "addr:postcode": "9220", "addr:street": "Marienhofweg", "name": "Vitalhotel Marienhof", "tourism": "hotel"}, "content": "Vitalhotel Marienhof\nKategorie: tourism:hotel\nAdresse: Marienhofweg 1, 9220 Velden am Wörther See\nOrt: Velden am Wörther See\nPLZ: 9220\nKoordinaten: 46.617384, 14.029645", "doc_type": "pois"}
{"source": "OSM", "region": "Kärnten", "osm_type": "node", "osm_id": 2019816082, "name": "Do & Ga", "category": "amenity:cafe", "address": "Am Corso 27, 9220 Velden am Wörther See", "street": "Am Corso", "housenumber": "27", "postcode": "9220", "place": "Velden am Wörther See", "lat": 46.6139555, "lon": 14.0426905, "tags": {"addr:city": "Velden am Wörther See", "addr:housenumber": "27", "addr:postcode": "9220", "addr:street": "Am Corso", "amenity": "cafe", "name": "Do & Ga", "phone": "+43 4274 51633", "website": "http://www.doga-cafebar.at"}, "content": "Do & Ga\nKategorie: amenity:cafe\nAdresse: Am Corso 27, 9220 Velden am Wörther See\nOrt: Velden am Wörther See\nPLZ: 9220\nKoordinaten: 46.613956, 14.042691\nTags: amenity=cafe, phone=+43 4274 51633, website=http://www.doga-cafebar.at", "doc_type": "pois"}
{"source": "OSM", "region": "Kärnten", "osm_type": "node", "osm_id": 2324470315, "name": "Veldener Traumschiff", "category": "amenity:restaurant", "address": "Seecorso 40, 9220 Velden am Wörther See", "street": "Seecorso", "housenumber": "40", "postcode": "9220", "place": "Velden am Wörther See", "lat": 46.6097758, "lon": 14.0465947, "tags": {"addr:city": "Velden am Wörther See", "addr:housenumber": "40", "addr:postcode": "9220", "addr:street": "Seecorso", "amenity": "restaurant", "name": "Veldener Traumschiff", "website": "https://www.veldener-traumschiff.at/"}, "content": "Veldener Traumschiff\nKategorie: amenity:restaurant\nAdresse: Seecorso 40, 9220 Velden am Wörther See\nOrt: Velden am Wörther See\nPLZ: 9220\nKoordinaten: 46.609776, 14.046595\nTags: amenity=restaurant, website=https://www.veldener-traumschiff.at/", "doc_type": "pois"}
{"source": "OSM", "region": "Kärnten", "osm_type": "node", "osm_id": 2324472533, "name": "Seebar", "category": "amenity:bar", "address": "Seecorso 40, 9220 Velden am Wörther See", "street": "Seecorso", "housenumber": "40", "postcode": "9220", "place": "Velden am Wörther See", "lat": 46.6099429, "lon": 14.0463944, "tags": {"addr:city": "Velden am Wörther See", "addr:housenumber": "40", "addr:postcode": "9220", "addr:street": "Seecorso", "amenity": "bar", "name": "Seebar", "website": "https://www.veldener-traumschiff.at/"}, "content": "Seebar\nKategorie: amenity:bar\nAdresse: Seecorso 40, 9220 Velden am Wörther See\nOrt: Velden am Wörther See\nPLZ: 9220\nKoordinaten: 46.609943, 14.046394\nTags: amenity=bar, website=https://www.veldener-traumschiff.at/", "doc_type": "pois"}
{"source": "OSM", "region": "Kärnten", "osm_type": "node", "osm_id": 2324472861, "name": "Dancing Lounge", "category": "amenity:bar", "address": "Seecorso 40, 9220 Velden am Wörther See", "street": "Seecorso", "housenumber": "40", "postcode": "9220", "place": "Velden am Wörther See", "lat": 46.6097916, "lon": 14.0464032, "tags": {"addr:city": "Velden am Wörther See", "addr:housenumber": "40", "addr:postcode": "9220", "addr:street": "Seecorso", "amenity": "bar", "name": "Dancing Lounge", "website": "https://www.veldener-traumschiff.at/"}, "content": "Dancing Lounge\nKategorie: amenity:bar\nAdresse: Seecorso 40, 9220 Velden am Wörther See\nOrt: Velden am Wörther See\nPLZ: 9220\nKoordinaten: 46.609792, 14.046403\nTags: amenity=bar, website=https://www.veldener-traumschiff.at/", "doc_type": "pois"}
{"source": "OSM", "region": "Kärnten", "osm_type": "node", "osm_id": 2324476283, "name": "Hotel Veldener Traumschiff", "category": "tourism:hotel", "address": "Seecorso 40, 9220 Velden am Wörther See", "street": "Seecorso", "housenumber": "40", "postcode": "9220", "place": "Velden am Wörther See", "lat": 46.6096701, "lon": 14.0464488, "tags": {"addr:city": "Velden am Wörther See", "addr:housenumber": "40", "addr:postcode": "9220", "addr:street": "Seecorso", "name": "Hotel Veldener Traumschiff", "operator": "Ernst Lackner", "tourism": "hotel", "website": "https://www.veldener-traumschiff.at/"}, "content": "Hotel Veldener Traumschiff\nKategorie: tourism:hotel\nAdresse: Seecorso 40, 9220 Velden am Wörther See\nOrt: Velden am Wörther See\nPLZ: 9220\nKoordinaten: 46.609670, 14.046449\nTags: operator=Ernst Lackner, website=https://www.veldener-traumschiff.at/", "doc_type": "pois"}
{"source": "OSM", "region": "Kärnten", "osm_type": "node", "osm_id": 2868991897, "name": "Tabak Trafik Schubert", "category": "shop:newsagent", "address": "Am Corso 27, 9220 Velden am Wörther See", "street": "Am Corso", "housenumber": "27", "postcode": "9220", "place": "Velden am Wörther See", "lat": 46.6140384, "lon": 14.0426097, "tags": {"addr:city": "Velden am Wörther See", "addr:housenumber": "27", "addr:postcode": "9220", "addr:street": "Am Corso", "name": "Tabak Trafik Schubert", "shop": "newsagent"}, "content": "Tabak Trafik Schubert\nKategorie: shop:newsagent\nAdresse: Am Corso 27, 9220 Velden am Wörther See\nOrt: Velden am Wörther See\nPLZ: 9220\nKoordinaten: 46.614038, 14.042610\nTags: shop=newsagent", "doc_type": "pois"}
{"source": "OSM", "region": "Kärnten", "osm_type": "node", "osm_id": 3518848266, "name": "Rotes Kreuz Ortsrettungsstelle Velden", "category": "emergency:ambulance_station", "address": "Franz-Moro-Weg 2, 9220 Velden am Wörther See", "street": "Franz-Moro-Weg", "housenumber": "2", "postcode": "9220", "place": "Velden am Wörther See", "lat": 46.6146637, "lon": 14.0313265, "tags": {"addr:city": "Velden am Wörther See", "addr:housenumber": "2", "addr:postcode": "9220", "addr:street": "Franz-Moro-Weg", "brand": "Österreichisches Rotes Kreuz", "emergency": "ambulance_station", "name": "Rotes Kreuz Ortsrettungsstelle Velden", "operator": "Rotes Kreuz, Landesverband Kärnten"}, "content": "Rotes Kreuz Ortsrettungsstelle Velden\nKategorie: emergency:ambulance_station\nAdresse: Franz-Moro-Weg 2, 9220 Velden am Wörther See\nOrt: Velden am Wörther See\nPLZ: 9220\nKoordinaten: 46.614664, 14.031327\nTags: emergency=ambulance_station, operator=Rotes Kreuz, Landesverband Kärnten, brand=Österreichisches Rotes Kreuz", "doc_type": "pois"}
{"source": "OSM", "region": "Kärnten", "osm_type": "node", "osm_id": 3554983895, "name": "Hotel Carinthia", "category": "tourism:hotel", "address": "Karawankenplatz 3, 9220 Velden am Wörther See", "street": "Karawankenplatz", "housenumber": "3", "postcode": "9220", "place": "Velden am Wörther See", "lat": 46.6133725, "lon": 14.0415919, "tags": {"addr:city": "Velden am Wörther See", "addr:housenumber": "3", "addr:postcode": "9220", "addr:street": "Karawankenplatz", "name": "Hotel Carinthia", "operator": "Egger Hotel- & Tourismus OG", "phone": "+43 (0)4274/2171", "tourism": "hotel", "website": "http://www.hotelcarinthia.at/"}, "content": "Hotel Carinthia\nKategorie: tourism:hotel\nAdresse: Karawankenplatz 3, 9220 Velden am Wörther See\nOrt: Velden am Wörther See\nPLZ: 9220\nKoordinaten: 46.613372, 14.041592\nTags: operator=Egger Hotel- & Tourismus OG, phone=+43 (0)4274/2171, website=http://www.hotelcarinthia.at/", "doc_type": "pois"}
{"source": "OSM", "region": "Kärnten", "osm_type": "node", "osm_id": 3554993505, "name": "Leopold", "category": "tourism:hotel", "address": "Seecorso 18, 9220 Velden am Wörther See", "street": "Seecorso", "housenumber": "18", "postcode": "9220", "place": "Velden am Wörther See", "lat": 46.6106173, "lon": 14.0443125, "tags": {"addr:city": "Velden am Wörther See", "addr:housenumber": "18", "addr:postcode": "9220", "addr:street": "Seecorso", "name": "Leopold", "phone": "+43 4274 26 32", "tourism": "hotel"}, "content": "Leopold\nKategorie: tourism:hotel\nAdresse: Seecorso 18, 9220 Velden am Wörther See\nOrt: Velden am Wörther See\nPLZ: 9220\nKoordinaten: 46.610617, 14.044313\nTags: phone=+43 4274 26 32", "doc_type": "pois"}
{"source": "OSM", "region": "Kärnten", "osm_type": "node", "osm_id": 3676511900, "name": "Old Car's Motel", "category": "amenity:cafe", "address": "Rosegger Straße 108, 9220 Velden am Wörther See", "street": "Rosegger Straße", "housenumber": "108", "postcode": "9220", "place": "Velden am Wörther See", "lat": 46.6018257, "lon": 14.0201006, "tags": {"addr:city": "Velden am Wörther See", "addr:housenumber": "108", "addr:postcode": "9220", "addr:street": "Rosegger Straße", "amenity": "cafe", "name": "Old Car's Motel", "phone": "+43 688 9052629"}, "content": "Old Car's Motel\nKategorie: amenity:cafe\nAdresse: Rosegger Straße 108, 9220 Velden am Wörther See\nOrt: Velden am Wörther See\nPLZ: 9220\nKoordinaten: 46.601826, 14.020101\nTags: amenity=cafe, phone=+43 688 9052629", "doc_type": "pois"}
{"source": "OSM", "region": "Kärnten", "osm_type": "node", "osm_id": 4524745655, "name": "Tierärzte Team Velden - Wörthersee", "category": "amenity:veterinary", "address": "Fichtenhainstraße 1, 9220 Velden am Wörther See", "street": "Fichtenhainstraße", "housenumber": "1", "postcode": "9220", "place": "Velden am Wörther See", "lat": 46.6043325, "lon": 14.0343301, "tags": {"addr:city": "Velden am Wörther See", "addr:housenumber": "1", "addr:postcode": "9220", "addr:street": "Fichtenhainstraße", "amenity": "veterinary", "name": "Tierärzte Team Velden - Wörthersee", "operator": "Dr. med. vet. Kristina Pfeiffer", "phone": "+43 4274 50193", "website": "http://www.tierarzt-velden.at/"}, "content": "Tierärzte Team Velden - Wörthersee\nKategorie: amenity:veterinary\nAdresse: Fichtenhainstraße 1, 9220 Velden am Wörther See\nOrt: Velden am Wörther See\nPLZ: 9220\nKoordinaten: 46.604332, 14.034330\nTags: amenity=veterinary, operator=Dr. med. vet. Kristina Pfeiffer, phone=+43 4274 50193, website=http://www.tierarzt-velden.at/", "doc_type": "pois"}
{"source": "OSM", "region": "Kärnten", "osm_type": "node", "osm_id": 4524745656, "name": "Volksbank", "category": "amenity:bank", "address": "Rosegger Straße 17, 9220 Velden am Wörther See", "street": "Rosegger Straße", "housenumber": "17", "postcode": "9220", "place": "Velden am Wörther See", "lat": 46.6040742, "lon": 14.0348909, "tags": {"addr:city": "Velden am Wörther See", "addr:housenumber": "17", "addr:postcode": "9220", "addr:street": "Rosegger Straße", "amenity": "bank", "name": "Volksbank", "website": "https://www.volksbank-kaernten.at/"}, "content": "Volksbank\nKategorie: amenity:bank\nAdresse: Rosegger Straße 17, 9220 Velden am Wörther See\nOrt: Velden am Wörther See\nPLZ: 9220\nKoordinaten: 46.604074, 14.034891\nTags: amenity=bank, website=https://www.volksbank-kaernten.at/", "doc_type": "pois"}
{"source": "OSM", "region": "Kärnten", "osm_type": "node", "osm_id": 4524745672, "name": "dm", "category": "shop:chemist", "address": "Fichtenhainstraße 2, 9220 Velden am Wörther See", "street": "Fichtenhainstraße", "housenumber": "2", "postcode": "9220", "place": "Velden am Wörther See", "lat": 46.6046161, "lon": 14.0351674, "tags": {"addr:city": "Velden am Wörther See", "addr:housenumber": "2", "addr:postcode": "9220", "addr:street": "Fichtenhainstraße", "brand": "dm", "name": "dm", "shop": "chemist", "website": "https://www.dm-drogeriemarkt.at/"}, "content": "dm\nKategorie: shop:chemist\nAdresse: Fichtenhainstraße 2, 9220 Velden am Wörther See\nOrt: Velden am Wörther See\nPLZ: 9220\nKoordinaten: 46.604616, 14.035167\nTags: shop=chemist, brand=dm, website=https://www.dm-drogeriemarkt.at/", "doc_type": "pois"}
{"source": "OSM", "region": "Kärnten", "osm_type": "node", "osm_id": 4524745673, "name": "PERRO Shop Velden", "category": "shop:pet", "address": "Fichtenhainstraße 2, 9220 Velden am Wörther See", "street": "Fichtenhainstraße", "housenumber": "2", "postcode": "9220", "place": "Velden am Wörther See", "lat": 46.6048198, "lon": 14.0350659, "tags": {"addr:city": "Velden am Wörther See", "addr:housenumber": "2", "addr:postcode": "9220", "addr:street": "Fichtenhainstraße", "name": "PERRO Shop Velden", "operator": "Patricia Rassl", "shop": "pet", "website": "https://www.perro.at/perro-welt/perro-shops/velden/"}, "content": "PERRO Shop Velden\nKategorie: shop:pet\nAdresse: Fichtenhainstraße 2, 9220 Velden am Wörther See\nOrt: Velden am Wörther See\nPLZ: 9220\nKoordinaten: 46.604820, 14.035066\nTags: shop=pet, operator=Patricia Rassl, website=https://www.perro.at/perro-welt/perro-shops/velden/", "doc_type": "pois"}
{"source": "OSM", "region": "Kärnten", "osm_type": "node", "osm_id": 4524745674, "name": "Klipp", "category": "shop:hairdresser", "address": "Fichtenhainstraße 2, 9220 Velden am Wörther See", "street": "Fichtenhainstraße", "housenumber": "2", "postcode": "9220", "place": "Velden am Wörther See", "lat": 46.6048811, "lon": 14.0350226, "tags": {"addr:city": "Velden am Wörther See", "addr:housenumber": "2", "addr:postcode": "9220", "addr:street": "Fichtenhainstraße", "brand": "Klipp", "name": "Klipp", "shop": "hairdresser", "website": "https://klipp.at/"}, "content": "Klipp\nKategorie: shop:hairdresser\nAdresse: Fichtenhainstraße 2, 9220 Velden am Wörther See\nOrt: Velden am Wörther See\nPLZ: 9220\nKoordinaten: 46.604881, 14.035023\nTags: shop=hairdresser, brand=Klipp, website=https://klipp.at/", "doc_type": "pois"}
{"source": "OSM", "region": "Kärnten", "osm_type": "node", "osm_id": 4524792618, "name": "HAARschneiderei", "category": "shop:hairdresser", "address": "Bäckerteichstraße 4, 9220 Velden am Wörther See", "street": "Bäckerteichstraße", "housenumber": "4", "postcode": "9220", "place": "Velden am Wörther See", "lat": 46.6114275, "lon": 14.0398389, "tags": {"addr:city": "Velden am Wörther See", "addr:housenumber": "4", "addr:postcode": "9220", "addr:street": "Bäckerteichstraße", "name": "HAARschneiderei", "shop": "hairdresser"}, "content": "HAARschneiderei\nKategorie: shop:hairdresser\nAdresse: Bäckerteichstraße 4, 9220 Velden am Wörther See\nOrt: Velden am Wörther See\nPLZ: 9220\nKoordinaten: 46.611427, 14.039839\nTags: shop=hairdresser", "doc_type": "pois"}
{"source": "OSM", "region": "Kärnten", "osm_type": "node", "osm_id": 4524827456, "name": "Dr. Siding", "category": "amenity:doctors", "address": "Bäckerteichstraße 1, 9220 Velden am Wörther See", "street": "Bäckerteichstraße", "housenumber": "1", "postcode": "9220", "place": "Velden am Wörther See", "lat": 46.6110413, "lon": 14.0396398, "tags": {"addr:city": "Velden am Wörther See", "addr:housenumber": "1", "addr:postcode": "9220", "addr:street": "Bäckerteichstraße", "amenity": "doctors", "name": "Dr. Siding"}, "content": "Dr. Siding\nKategorie: amenity:doctors\nAdresse: Bäckerteichstraße 1, 9220 Velden am Wörther See\nOrt: Velden am Wörther See\nPLZ: 9220\nKoordinaten: 46.611041, 14.039640\nTags: amenity=doctors", "doc_type": "pois"}
{"source": "OSM", "region": "Kärnten", "osm_type": "node", "osm_id": 4797442346, "name": null, "category": "shop:tobacco", "address": "Rosegger Straße 29, 9220 Velden am Wörther See", "street": "Rosegger Straße", "housenumber": "29", "postcode": "9220", "place": "Velden am Wörther See", "lat": 46.6039764, "lon": 14.0340627, "tags": {"addr:city": "Velden am Wörther See", "addr:housenumber": "29", "addr:postcode": "9220", "addr:street": "Rosegger Straße", "shop": "tobacco"}, "content": "Kategorie: shop:tobacco\nAdresse: Rosegger Straße 29, 9220 Velden am Wörther See\nOrt: Velden am Wörther See\nPLZ: 9220\nKoordinaten: 46.603976, 14.034063\nTags: shop=tobacco", "doc_type": "pois"}
{"source": "OSM", "region": "Kärnten", "osm_type": "node", "osm_id": 4797451741, "name": "Bluesiana Rock Cafe", "category": "amenity:bar", "address": "Franzosenallee 9, 9220 Velden am Wörther See", "street": "Franzosenallee", "housenumber": "9", "postcode": "9220", "place": "Velden am Wörther See", "lat": 46.619479, "lon": 14.0593707, "tags": {"addr:city": "Velden am Wörther See", "addr:housenumber": "9", "addr:postcode": "9220", "addr:street": "Franzosenallee", "amenity": "bar", "name": "Bluesiana Rock Cafe"}, "content": "Bluesiana Rock Cafe\nKategorie: amenity:bar\nAdresse: Franzosenallee 9, 9220 Velden am Wörther See\nOrt: Velden am Wörther See\nPLZ: 9220\nKoordinaten: 46.619479, 14.059371\nTags: amenity=bar", "doc_type": "pois"}
{"source": "OSM", "region": "Kärnten", "osm_type": "node", "osm_id": 4800506913, "name": "Las Palmas Latin Club", "category": "amenity:nightclub", "address": "Seecorso 8, 9220 Velden am Wörther See", "street": "Seecorso", "housenumber": "8", "postcode": "9220", "place": "Velden am Wörther See", "lat": 46.612636, "lon": 14.0427336, "tags": {"addr:city": "Velden am Wörther See", "addr:housenumber": "8", "addr:postcode": "9220", "addr:street": "Seecorso", "amenity": "nightclub", "name": "Las Palmas Latin Club"}, "content": "Las Palmas Latin Club\nKategorie: amenity:nightclub\nAdresse: Seecorso 8, 9220 Velden am Wörther See\nOrt: Velden am Wörther See\nPLZ: 9220\nKoordinaten: 46.612636, 14.042734\nTags: amenity=nightclub", "doc_type": "pois"}
{"source": "OSM", "region": "Kärnten", "osm_type": "node", "osm_id": 5118023481, "name": "Polizeiinspektion Velden", "category": "amenity:police", "address": "10.-Oktober-Straße 3, 9220 Velden am Wörther See", "street": "10.-Oktober-Straße", "housenumber": "3", "postcode": "9220", "place": "Velden am Wörther See", "lat": 46.6131877, "lon": 14.0377647, "tags": {"addr:city": "Velden am Wörther See", "addr:housenumber": "3", "addr:postcode": "9220", "addr:street": "10.-Oktober-Straße", "amenity": "police", "name": "Polizeiinspektion Velden", "phone": "+43 59133 2259-100"}, "content": "Polizeiinspektion Velden\nKategorie: amenity:police\nAdresse: 10.-Oktober-Straße 3, 9220 Velden am Wörther See\nOrt: Velden am Wörther See\nPLZ: 9220\nKoordinaten: 46.613188, 14.037765\nTags: amenity=police, phone=+43 59133 2259-100", "doc_type": "pois"}
{"source": "OSM", "region": "Kärnten", "osm_type": "node", "osm_id": 5310701101, "name": "Galerie am See", "category": "shop:jewelry", "address": "Seecorso 1, 9220 Velden am Wörther See", "street": "Seecorso", "housenumber": "1", "postcode": "9220", "place": "Velden am Wörther See", "lat": 46.613195, "lon": 14.0422397, "tags": {"addr:city": "Velden am Wörther See", "addr:housenumber": "1", "addr:postcode": "9220", "addr:street": "Seecorso", "name": "Galerie am See", "phone": "+43 4274 52255", "shop": "jewelry", "website": "https://www.galerie-am-see.at"}, "content": "Galerie am See\nKategorie: shop:jewelry\nAdresse: Seecorso 1, 9220 Velden am Wörther See\nOrt: Velden am Wörther See\nPLZ: 9220\nKoordinaten: 46.613195, 14.042240\nTags: shop=jewelry, phone=+43 4274 52255, website=https://www.galerie-am-see.at", "doc_type": "pois"}
{"source": "OSM", "region": "Kärnten", "osm_type": "node", "osm_id": 5310701102, "name": "Nessmann Shop", "category": "shop:sports", "address": "Seecorso 1, 9220 Velden am Wörther See", "street": "Seecorso", "housenumber": "1", "postcode": "9220", "place": "Velden am Wörther See", "lat": 46.6131266, "lon": 14.0423613, "tags": {"addr:city": "Velden am Wörther See", "addr:housenumber": "1", "addr:postcode": "9220", "addr:street": "Seecorso", "name": "Nessmann Shop", "shop": "sports", "website": "https://www.mietboote.at/"}, "content": "Nessmann Shop\nKategorie: shop:sports\nAdresse: Seecorso 1, 9220 Velden am Wörther See\nOrt: Velden am Wörther See\nPLZ: 9220\nKoordinaten: 46.613127, 14.042361\nTags: shop=sports, website=https://www.mietboote.at/", "doc_type": "pois"}
{"source": "OSM", "region": "Kärnten", "osm_type": "node", "osm_id": 5318159375, "name": "Seeappartements Excelsior", "category": "tourism:apartment", "address": "Seecorso 33-35, 9220 Velden am Wörther See", "street": "Seecorso", "housenumber": "33-35", "postcode": "9220", "place": "Velden am Wörther See", "lat": 46.6105591, "lon": 14.0633903, "tags": {"addr:city": "Velden am Wörther See", "addr:housenumber": "33-35", "addr:postcode": "9220", "addr:street": "Seecorso", "name": "Seeappartements Excelsior", "phone": "+43 (0) 42 74 / 20 42", "tourism": "apartment", "website": "http://excelsior.co.at"}, "content": "Seeappartements Excelsior\nKategorie: tourism:apartment\nAdresse: Seecorso 33-35, 9220 Velden am Wörther See\nOrt: Velden am Wörther See\nPLZ: 9220\nKoordinaten: 46.610559, 14.063390\nTags: phone=+43 (0) 42 74 / 20 42, website=http://excelsior.co.at", "doc_type": "pois"}
{"source": "OSM", "region": "Kärnten", "osm_type": "node", "osm_id": 5320383356, "name": "SOL BEACHCLUB", "category": "amenity:bar", "address": "Seecorso 19, 9220 Velden am Wörther See", "street": "Seecorso", "housenumber": "19", "postcode": "9220", "place": "Velden am Wörther See", "lat": 46.6101734, "lon": 14.0539409, "tags": {"addr:city": "Velden am Wörther See", "addr:housenumber": "19", "addr:postcode": "9220", "addr:street": "Seecorso", "amenity": "bar", "name": "SOL BEACHCLUB", "website": "https://www.solbeachclub.at/"}, "content": "SOL BEACHCLUB\nKategorie: amenity:bar\nAdresse: Seecorso 19, 9220 Velden am Wörther See\nOrt: Velden am Wörther See\nPLZ: 9220\nKoordinaten: 46.610173, 14.053941\nTags: amenity=bar, website=https://www.solbeachclub.at/", "doc_type": "pois"}
{"source": "OSM", "region": "Kärnten", "osm_type": "node", "osm_id": 5329521158, "name": "Schullin", "category": "shop:jewelry", "address": "Am Corso 21, 9220 Velden am Wörther See", "street": "Am Corso", "housenumber": "21", "postcode": "9220", "place": "Velden am Wörther See", "lat": 46.6146028, "lon": 14.0428034, "tags": {"addr:city": "Velden am Wörther See", "addr:housenumber": "21", "addr:postcode": "9220", "addr:street": "Am Corso", "name": "Schullin", "shop": "jewelry", "website": "https://schullin.at/"}, "content": "Schullin\nKategorie: shop:jewelry\nAdresse: Am Corso 21, 9220 Velden am Wörther See\nOrt: Velden am Wörther See\nPLZ: 9220\nKoordinaten: 46.614603, 14.042803\nTags: shop=jewelry, website=https://schullin.at/", "doc_type": "pois"}
{"source": "OSM", "region": "Kärnten", "osm_type": "node", "osm_id": 5329521159, "name": "Fischer's by the see", "category": "shop:clothes", "address": "Am Corso 21, 9220 Velden am Wörther See", "street": "Am Corso", "housenumber": "21", "postcode": "9220", "place": "Velden am Wörther See", "lat": 46.6146596, "lon": 14.0428412, "tags": {"addr:city": "Velden am Wörther See", "addr:housenumber": "21", "addr:postcode": "9220", "addr:street": "Am Corso", "name": "Fischer's by the see", "phone": "+43 4274 52623", "shop": "clothes", "website": "https://fishersfocus.com/"}, "content": "Fischer's by the see\nKategorie: shop:clothes\nAdresse: Am Corso 21, 9220 Velden am Wörther See\nOrt: Velden am Wörther See\nPLZ: 9220\nKoordinaten: 46.614660, 14.042841\nTags: shop=clothes, phone=+43 4274 52623, website=https://fishersfocus.com/", "doc_type": "pois"}
{"source": "OSM", "region": "Kärnten", "osm_type": "node", "osm_id": 5331528661, "name": "Weinbar & Vinothek Carinthia", "category": "amenity:bar", "address": "Karawankenplatz 3, 9220 Velden am Wörther See", "street": "Karawankenplatz", "housenumber": "3", "postcode": "9220", "place": "Velden am Wörther See", "lat": 46.6134326, "lon": 14.0416132, "tags": {"addr:city": "Velden am Wörther See", "addr:housenumber": "3", "addr:postcode": "9220", "addr:street": "Karawankenplatz", "amenity": "bar", "name": "Weinbar & Vinothek Carinthia", "operator": "Egger Hotel- & Tourismus OG", "phone": "+43 (0)664 4719350", "website": "https://www.weincarinthia.at/"}, "content": "Weinbar & Vinothek Carinthia\nKategorie: amenity:bar\nAdresse: Karawankenplatz 3, 9220 Velden am Wörther See\nOrt: Velden am Wörther See\nPLZ: 9220\nKoordinaten: 46.613433, 14.041613\nTags: amenity=bar, operator=Egger Hotel- & Tourismus OG, phone=+43 (0)664 4719350, website=https://www.weincarinthia.at/", "doc_type": "pois"}
{"source": "OSM", "region": "Kärnten", "osm_type": "node", "osm_id": 5331528662, "name": "Seidl Immobilien", "category": "office:estate_agent", "address": "Karawankenplatz 3, 9220 Velden am Wörther See", "street": "Karawankenplatz", "housenumber": "3", "postcode": "9220", "place": "Velden am Wörther See", "lat": 46.6135785, "lon": 14.0416373, "tags": {"addr:city": "Velden am Wörther See", "addr:housenumber": "3", "addr:postcode": "9220", "addr:street": "Karawankenplatz", "name": "Seidl Immobilien", "office": "estate_agent", "phone": "+43 664 14 11 580", "website": "https://www.seidl-immobilien.at"}, "content": "Seidl Immobilien\nKategorie: office:estate_agent\nAdresse: Karawankenplatz 3, 9220 Velden am Wörther See\nOrt: Velden am Wörther See\nPLZ: 9220\nKoordinaten: 46.613579, 14.041637\nTags: office=estate_agent, phone=+43 664 14 11 580, website=https://www.seidl-immobilien.at", "doc_type": "pois"}
{"source": "OSM", "region": "Kärnten", "osm_type": "node", "osm_id": 5331528663, "name": "Schatzi Wörthersee", "category": "amenity:pub", "address": "Karawankenplatz 3, 9220 Velden am Wörther See", "street": "Karawankenplatz", "housenumber": "3", "postcode": "9220", "place": "Velden am Wörther See", "lat": 46.6136289, "lon": 14.0415798, "tags": {"addr:city": "Velden am Wörther See", "addr:housenumber": "3", "addr:postcode": "9220", "addr:street": "Karawankenplatz", "amenity": "pub", "name": "Schatzi Wörthersee"}, "content": "Schatzi Wörthersee\nKategorie: amenity:pub\nAdresse: Karawankenplatz 3, 9220 Velden am Wörther See\nOrt: Velden am Wörther See\nPLZ: 9220\nKoordinaten: 46.613629, 14.041580\nTags: amenity=pub", "doc_type": "pois"}
{"source": "OSM", "region": "Kärnten", "osm_type": "node", "osm_id": 5331528664, "name": "Die Pashminaria", "category": "shop:clothes", "address": "Karawankenplatz, 9220 Velden am Wörther See", "street": "Karawankenplatz", "housenumber": null, "postcode": "9220", "place": "Velden am Wörther See", "lat": 46.6136505, "lon": 14.0415209, "tags": {"addr:city": "Velden am Wörther See", "addr:postcode": "9220", "addr:street": "Karawankenplatz", "name": "Die Pashminaria", "shop": "clothes"}, "content": "Die Pashminaria\nKategorie: shop:clothes\nAdresse: Karawankenplatz, 9220 Velden am Wörther See\nOrt: Velden am Wörther See\nPLZ: 9220\nKoordinaten: 46.613650, 14.041521\nTags: shop=clothes", "doc_type": "pois"}
{"source": "OSM", "region": "Kärnten", "osm_type": "node", "osm_id": 5340914838, "name": "Gerry Weber", "category": "shop:clothes", "address": "Klagenfurter Straße 2, 9220 Velden am Wörther See", "street": "Klagenfurter Straße", "housenumber": "2", "postcode": "9220", "place": "Velden am Wörther See", "lat": 46.6165431, "lon": 14.0463256, "tags": {"addr:city": "Velden am Wörther See", "addr:housenumber": "2", "addr:postcode": "9220", "addr:street": "Klagenfurter Straße", "brand": "Gerry Weber", "name": "Gerry Weber", "shop": "clothes"}, "content": "Gerry Weber\nKategorie: shop:clothes\nAdresse: Klagenfurter Straße 2, 9220 Velden am Wörther See\nOrt: Velden am Wörther See\nPLZ: 9220\nKoordinaten: 46.616543, 14.046326\nTags: shop=clothes, brand=Gerry Weber", "doc_type": "pois"}
{"source": "OSM", "region": "Kärnten", "osm_type": "node", "osm_id": 5340914839, "name": "Herz Schlag", "category": "shop:clothes", "address": "Am Corso 1, 9220 Velden am Wörther See", "street": "Am Corso", "housenumber": "1", "postcode": "9220", "place": "Velden am Wörther See", "lat": 46.6164394, "lon": 14.0461702, "tags": {"addr:city": "Velden am Wörther See", "addr:housenumber": "1", "addr:postcode": "9220", "addr:street": "Am Corso", "name": "Herz Schlag", "shop": "clothes"}, "content": "Herz Schlag\nKategorie: shop:clothes\nAdresse: Am Corso 1, 9220 Velden am Wörther See\nOrt: Velden am Wörther See\nPLZ: 9220\nKoordinaten: 46.616439, 14.046170\nTags: shop=clothes", "doc_type": "pois"}
{"source": "OSM", "region": "Kärnten", "osm_type": "node", "osm_id": 5340914840, "name": "immoreal", "category": "office:estate_agent", "address": "Am Corso 1, 9220 Velden am Wörther See", "street": "Am Corso", "housenumber": "1", "postcode": "9220", "place": "Velden am Wörther See", "lat": 46.616408, "lon": 14.0460543, "tags": {"addr:city": "Velden am Wörther See", "addr:housenumber": "1", "addr:postcode": "9220", "addr:street": "Am Corso", "name": "immoreal", "office": "estate_agent", "phone": "+43(0) 676 / 790 24 11", "website": "https://www.immoreal-kaernten.at/"}, "content": "immoreal\nKategorie: office:estate_agent\nAdresse: Am Corso 1, 9220 Velden am Wörther See\nOrt: Velden am Wörther See\nPLZ: 9220\nKoordinaten: 46.616408, 14.046054\nTags: office=estate_agent, phone=+43(0) 676 / 790 24 11, website=https://www.immoreal-kaernten.at/", "doc_type": "pois"}
{"source": "OSM", "region": "Kärnten", "osm_type": "node", "osm_id": 5340914855, "name": "Safe Immobilien", "category": "office:estate_agent", "address": "Am Corso 2, 9220 Velden am Wörther See", "street": "Am Corso", "housenumber": "2", "postcode": "9220", "place": "Velden am Wörther See", "lat": 46.6165857, "lon": 14.0455241, "tags": {"addr:city": "Velden am Wörther See", "addr:housenumber": "2", "addr:postcode": "9220", "addr:street": "Am Corso", "name": "Safe Immobilien", "office": "estate_agent", "phone": "+43 4274 32 60", "website": "https://www.safe-immo.at/"}, "content": "Safe Immobilien\nKategorie: office:estate_agent\nAdresse: Am Corso 2, 9220 Velden am Wörther See\nOrt: Velden am Wörther See\nPLZ: 9220\nKoordinaten: 46.616586, 14.045524\nTags: office=estate_agent, phone=+43 4274 32 60, website=https://www.safe-immo.at/", "doc_type": "pois"}
{"source": "OSM", "region": "Kärnten", "osm_type": "node", "osm_id": 5340914865, "name": "Wienerroither", "category": "shop:bakery", "address": "Am Corso 5, 9220 Velden am Wörther See", "street": "Am Corso", "housenumber": "5", "postcode": "9220", "place": "Velden am Wörther See", "lat": 46.6162891, "lon": 14.0455394, "tags": {"addr:city": "Velden am Wörther See", "addr:housenumber": "5", "addr:postcode": "9220", "addr:street": "Am Corso", "brand": "Wienerroither", "name": "Wienerroither", "phone": "+43 (0)4274 50 6 56", "shop": "bakery", "website": "https://www.wienerroither.com/"}, "content": "Wienerroither\nKategorie: shop:bakery\nAdresse: Am Corso 5, 9220 Velden am Wörther See\nOrt: Velden am Wörther See\nPLZ: 9220\nKoordinaten: 46.616289, 14.045539\nTags: shop=bakery, brand=Wienerroither, phone=+43 (0)4274 50 6 56, website=https://www.wienerroither.com/", "doc_type": "pois"}
{"source": "OSM", "region": "Kärnten", "osm_type": "node", "osm_id": 5340914866, "name": "Antonio Rella", "category": "amenity:cafe", "address": "Am Corso 5, 9220 Velden am Wörther See", "street": "Am Corso", "housenumber": "5", "postcode": "9220", "place": "Velden am Wörther See", "lat": 46.6163021, "lon": 14.0456088, "tags": {"addr:city": "Velden am Wörther See", "addr:housenumber": "5", "addr:postcode": "9220", "addr:street": "Am Corso", "amenity": "cafe", "name": "Antonio Rella"}, "content": "Antonio Rella\nKategorie: amenity:cafe\nAdresse: Am Corso 5, 9220 Velden am Wörther See\nOrt: Velden am Wörther See\nPLZ: 9220\nKoordinaten: 46.616302, 14.045609\nTags: amenity=cafe", "doc_type": "pois"}
{"source": "OSM", "region": "Kärnten", "osm_type": "node", "osm_id": 5340914868, "name": null, "category": "shop:vacant", "address": "Am Corso 4, 9220 Velden am Wörther See", "street": "Am Corso", "housenumber": "4", "postcode": "9220", "place": "Velden am Wörther See", "lat": 46.6163343, "lon": 14.0451754, "tags": {"addr:city": "Velden am Wörther See", "addr:housenumber": "4", "addr:postcode": "9220", "addr:street": "Am Corso", "shop": "vacant"}, "content": "Kategorie: shop:vacant\nAdresse: Am Corso 4, 9220 Velden am Wörther See\nOrt: Velden am Wörther See\nPLZ: 9220\nKoordinaten: 46.616334, 14.045175\nTags: shop=vacant", "doc_type": "pois"}
{"source": "OSM", "region": "Kärnten", "osm_type": "node", "osm_id": 5340914869, "name": "El Florado", "category": "shop:florist", "address": "Am Corso 4, 9220 Velden am Wörther See", "street": "Am Corso", "housenumber": "4", "postcode": "9220", "place": "Velden am Wörther See", "lat": 46.6163577, "lon": 14.0452795, "tags": {"addr:city": "Velden am Wörther See", "addr:housenumber": "4", "addr:postcode": "9220", "addr:street": "Am Corso", "name": "El Florado", "shop": "florist", "website": "https://www.pichler-koban.at"}, "content": "El Florado\nKategorie: shop:florist\nAdresse: Am Corso 4, 9220 Velden am Wörther See\nOrt: Velden am Wörther See\nPLZ: 9220\nKoordinaten: 46.616358, 14.045279\nTags: shop=florist, website=https://www.pichler-koban.at", "doc_type": "pois"}
{"source": "OSM", "region": "Kärnten", "osm_type": "node", "osm_id": 5342736830, "name": "Martin Auer", "category": "shop:bakery", "address": "Am Corso 6, 9220 Velden am Wörther See", "street": "Am Corso", "housenumber": "6", "postcode": "9220", "place": "Velden am Wörther See", "lat": 46.6163919, "lon": 14.0447611, "tags": {"addr:city": "Velden am Wörther See", "addr:housenumber": "6", "addr:postcode": "9220", "addr:street": "Am Corso", "brand": "Martin Auer", "name": "Martin Auer", "shop": "bakery"}, "content": "Martin Auer\nKategorie: shop:bakery\nAdresse: Am Corso 6, 9220 Velden am Wörther See\nOrt: Velden am Wörther See\nPLZ: 9220\nKoordinaten: 46.616392, 14.044761\nTags: shop=bakery, brand=Martin Auer", "doc_type": "pois"}
{"source": "OSM", "region": "Kärnten", "osm_type": "node", "osm_id": 5342736831, "name": "K.u.K", "category": "shop:gift", "address": "Europaplatz 4, 9220 Velden am Wörther See", "street": "Europaplatz", "housenumber": "4", "postcode": "9220", "place": "Velden am Wörther See", "lat": 46.6160064, "lon": 14.0442439, "tags": {"addr:city": "Velden am Wörther See", "addr:housenumber": "4", "addr:postcode": "9220", "addr:street": "Europaplatz", "name": "K.u.K", "shop": "gift", "website": "https://www.kukshop.at/"}, "content": "K.u.K\nKategorie: shop:gift\nAdresse: Europaplatz 4, 9220 Velden am Wörther See\nOrt: Velden am Wörther See\nPLZ: 9220\nKoordinaten: 46.616006, 14.044244\nTags: shop=gift, website=https://www.kukshop.at/", "doc_type": "pois"}
{"source": "OSM", "region": "Kärnten", "osm_type": "node", "osm_id": 5342736838, "name": "Vianello", "category": "shop:shoes", "address": "Europaplatz 4, 9220 Velden am Wörther See", "street": "Europaplatz", "housenumber": "4", "postcode": "9220", "place": "Velden am Wörther See", "lat": 46.6160644, "lon": 14.0443185, "tags": {"addr:city": "Velden am Wörther See", "addr:housenumber": "4", "addr:postcode": "9220", "addr:street": "Europaplatz", "name": "Vianello", "shop": "shoes"}, "content": "Vianello\nKategorie: shop:shoes\nAdresse: Europaplatz 4, 9220 Velden am Wörther See\nOrt: Velden am Wörther See\nPLZ: 9220\nKoordinaten: 46.616064, 14.044318\nTags: shop=shoes", "doc_type": "pois"}
{"source": "OSM", "region": "Kärnten", "osm_type": "node", "osm_id": 5342736840, "name": "K.u.K", "category": "shop:gift", "address": "Seecorso 4, 9220 Velden am Wörther See", "street": "Seecorso", "housenumber": "4", "postcode": "9220", "place": "Velden am Wörther See", "lat": 46.6128377, "lon": 14.0423782, "tags": {"addr:city": "Velden am Wörther See", "addr:housenumber": "4", "addr:postcode": "9220", "addr:street": "Seecorso", "name": "K.u.K", "shop": "gift"}, "content": "K.u.K\nKategorie: shop:gift\nAdresse: Seecorso 4, 9220 Velden am Wörther See\nOrt: Velden am Wörther See\nPLZ: 9220\nKoordinaten: 46.612838, 14.042378\nTags: shop=gift", "doc_type": "pois"}
{"source": "OSM", "region": "Kärnten", "osm_type": "node", "osm_id": 5342736841, "name": "Wörthersee Immobilien", "category": "office:estate_agent", "address": "Europaplatz 4, 9220 Velden am Wörther See", "street": "Europaplatz", "housenumber": "4", "postcode": "9220", "place": "Velden am Wörther See", "lat": 46.6153871, "lon": 14.042573, "tags": {"addr:city": "Velden am Wörther See", "addr:housenumber": "4", "addr:postcode": "9220", "addr:street": "Europaplatz", "name": "Wörthersee Immobilien", "office": "estate_agent", "phone": "+43 664 2600726", "website": "http://www.woerthersee-immobilien.gmbh"}, "content": "Wörthersee Immobilien\nKategorie: office:estate_agent\nAdresse: Europaplatz 4, 9220 Velden am Wörther See\nOrt: Velden am Wörther See\nPLZ: 9220\nKoordinaten: 46.615387, 14.042573\nTags: office=estate_agent, phone=+43 664 2600726, website=http://www.woerthersee-immobilien.gmbh", "doc_type": "pois"}
{"source": "OSM", "region": "Kärnten", "osm_type": "node", "osm_id": 5344648313, "name": "Reinhold Optik", "category": "shop:optician", "address": "Europaplatz 3, 9220 Velden am Wörther See", "street": "Europaplatz", "housenumber": "3", "postcode": "9220", "place": "Velden am Wörther See", "lat": 46.6159123, "lon": 14.043847, "tags": {"addr:city": "Velden am Wörther See", "addr:housenumber": "3", "addr:postcode": "9220", "addr:street": "Europaplatz", "name": "Reinhold Optik", "phone": "+43 (0) 664 | 341 342 4", "shop": "optician", "website": "http://reinhold-optik.at"}, "content": "Reinhold Optik\nKategorie: shop:optician\nAdresse: Europaplatz 3, 9220 Velden am Wörther See\nOrt: Velden am Wörther See\nPLZ: 9220\nKoordinaten: 46.615912, 14.043847\nTags: shop=optician, phone=+43 (0) 664 | 341 342 4, website=http://reinhold-optik.at", "doc_type": "pois"}
{"source": "OSM", "region": "Kärnten", "osm_type": "node", "osm_id": 5344648314, "name": "Boutique Sheryn", "category": "shop:clothes", "address": "Europaplatz 3, 9220 Velden am Wörther See", "street": "Europaplatz", "housenumber": "3", "postcode": "9220", "place": "Velden am Wörther See", "lat": 46.6159472, "lon": 14.0438474, "tags": {"addr:city": "Velden am Wörther See", "addr:housenumber": "3", "addr:postcode": "9220", "addr:street": "Europaplatz", "name": "Boutique Sheryn", "shop": "clothes"}, "content": "Boutique Sheryn\nKategorie: shop:clothes\nAdresse: Europaplatz 3, 9220 Velden am Wörther See\nOrt: Velden am Wörther See\nPLZ: 9220\nKoordinaten: 46.615947, 14.043847\nTags: shop=clothes", "doc_type": "pois"}
{"source": "OSM", "region": "Kärnten", "osm_type": "node", "osm_id": 5346673607, "name": "Pizzeria Moro", "category": "amenity:restaurant", "address": "Am Corso 15, 9220 Velden am Wörther See", "street": "Am Corso", "housenumber": "15", "postcode": "9220", "place": "Velden am Wörther See", "lat": 46.6155323, "lon": 14.0438271, "tags": {"addr:city": "Velden am Wörther See", "addr:housenumber": "15", "addr:postcode": "9220", "addr:street": "Am Corso", "amenity": "restaurant", "name": "Pizzeria Moro", "phone": "+43 4274 2279", "website": "https://www.moro.at/"}, "content": "Pizzeria Moro\nKategorie: amenity:restaurant\nAdresse: Am Corso 15, 9220 Velden am Wörther See\nOrt: Velden am Wörther See\nPLZ: 9220\nKoordinaten: 46.615532, 14.043827\nTags: amenity=restaurant, phone=+43 4274 2279, website=https://www.moro.at/", "doc_type": "pois"}
{"source": "OSM", "region": "Kärnten", "osm_type": "node", "osm_id": 5346673608, "name": "Café Moro", "category": "amenity:pub", "address": "Am Corso 8, 9220 Velden am Wörther See", "street": "Am Corso", "housenumber": "8", "postcode": "9220", "place": "Velden am Wörther See", "lat": 46.6156409, "lon": 14.043616, "tags": {"addr:city": "Velden am Wörther See", "addr:housenumber": "8", "addr:postcode": "9220", "addr:street": "Am Corso", "amenity": "pub", "name": "Café Moro", "phone": "+43 4274 2279", "website": "https://www.moro.at/"}, "content": "Café Moro\nKategorie: amenity:pub\nAdresse: Am Corso 8, 9220 Velden am Wörther See\nOrt: Velden am Wörther See\nPLZ: 9220\nKoordinaten: 46.615641, 14.043616\nTags: amenity=pub, phone=+43 4274 2279, website=https://www.moro.at/", "doc_type": "pois"}
{"source": "OSM", "region": "Kärnten", "osm_type": "node", "osm_id": 5346673609, "name": "Moro", "category": "amenity:ice_cream", "address": "Am Corso 185, 9220 Velden am Wörther See", "street": "Am Corso", "housenumber": "185", "postcode": "9220", "place": "Velden am Wörther See", "lat": 46.6154886, "lon": 14.0437495, "tags": {"addr:city": "Velden am Wörther See", "addr:housenumber": "185", "addr:postcode": "9220", "addr:street": "Am Corso", "amenity": "ice_cream", "name": "Moro", "phone": "+43 4274 2279", "website": "https://www.moro.at/"}, "content": "Moro\nKategorie: amenity:ice_cream\nAdresse: Am Corso 185, 9220 Velden am Wörther See\nOrt: Velden am Wörther See\nPLZ: 9220\nKoordinaten: 46.615489, 14.043750\nTags: amenity=ice_cream, phone=+43 4274 2279, website=https://www.moro.at/", "doc_type": "pois"}
{"source": "OSM", "region": "Kärnten", "osm_type": "node", "osm_id": 5346673610, "name": "Moro", "category": "amenity:ice_cream", "address": "Am Corso 8, 9220 Velden am Wörther See", "street": "Am Corso", "housenumber": "8", "postcode": "9220", "place": "Velden am Wörther See", "lat": 46.615615, "lon": 14.0435595, "tags": {"addr:city": "Velden am Wörther See", "addr:housenumber": "8", "addr:postcode": "9220", "addr:street": "Am Corso", "amenity": "ice_cream", "name": "Moro", "phone": "+43 4274 2279", "website": "https://www.moro.at/"}, "content": "Moro\nKategorie: amenity:ice_cream\nAdresse: Am Corso 8, 9220 Velden am Wörther See\nOrt: Velden am Wörther See\nPLZ: 9220\nKoordinaten: 46.615615, 14.043560\nTags: amenity=ice_cream, phone=+43 4274 2279, website=https://www.moro.at/", "doc_type": "pois"}
{"source": "OSM", "region": "Kärnten", "osm_type": "node", "osm_id": 5346673615, "name": "Stamperl", "category": "amenity:bar", "address": "Am Corso 8, 9220 Velden am Wörther See", "street": "Am Corso", "housenumber": "8", "postcode": "9220", "place": "Velden am Wörther See", "lat": 46.6155878, "lon": 14.0434913, "tags": {"addr:city": "Velden am Wörther See", "addr:housenumber": "8", "addr:postcode": "9220", "addr:street": "Am Corso", "amenity": "bar", "name": "Stamperl", "phone": "+43 (0)664 1803030", "website": "https://www.stamperl.at/"}, "content": "Stamperl\nKategorie: amenity:bar\nAdresse: Am Corso 8, 9220 Velden am Wörther See\nOrt: Velden am Wörther See\nPLZ: 9220\nKoordinaten: 46.615588, 14.043491\nTags: amenity=bar, phone=+43 (0)664 1803030, website=https://www.stamperl.at/", "doc_type": "pois"}
{"source": "OSM", "region": "Kärnten", "osm_type": "node", "osm_id": 5348585051, "name": "Gig", "category": "amenity:bar", "address": "Am Corso 17, 9220 Velden am Wörther See", "street": "Am Corso", "housenumber": "17", "postcode": "9220", "place": "Velden am Wörther See", "lat": 46.6153074, "lon": 14.0434292, "tags": {"addr:city": "Velden am Wörther See", "addr:housenumber": "17", "addr:postcode": "9220", "addr:street": "Am Corso", "amenity": "bar", "name": "Gig", "phone": "+43 4274 52 555", "website": "https://www.gig-bar.at/"}, "content": "Gig\nKategorie: amenity:bar\nAdresse: Am Corso 17, 9220 Velden am Wörther See\nOrt: Velden am Wörther See\nPLZ: 9220\nKoordinaten: 46.615307, 14.043429\nTags: amenity=bar, phone=+43 4274 52 555, website=https://www.gig-bar.at/", "doc_type": "pois"}
{"source": "OSM", "region": "Kärnten", "osm_type": "node", "osm_id": 5348585052, "name": "Die Yacht", "category": "amenity:restaurant", "address": "Am Corso 17, 9220 Velden am Wörther See", "street": "Am Corso", "housenumber": "17", "postcode": "9220", "place": "Velden am Wörther See", "lat": 46.6148211, "lon": 14.0438224, "tags": {"addr:city": "Velden am Wörther See", "addr:housenumber": "17", "addr:postcode": "9220", "addr:street": "Am Corso", "amenity": "restaurant", "name": "Die Yacht", "phone": "+43 664 2064 515", "website": "https://www.casinos.at/de/velden/restaurants"}, "content": "Die Yacht\nKategorie: amenity:restaurant\nAdresse: Am Corso 17, 9220 Velden am Wörther See\nOrt: Velden am Wörther See\nPLZ: 9220\nKoordinaten: 46.614821, 14.043822\nTags: amenity=restaurant, phone=+43 664 2064 515, website=https://www.casinos.at/de/velden/restaurants", "doc_type": "pois"}
{"source": "OSM", "region": "Kärnten", "osm_type": "node", "osm_id": 5348585053, "name": "Casino Hotel", "category": "tourism:hotel", "address": "Am Corso 10, 9220 Velden am Wörther See", "street": "Am Corso", "housenumber": "10", "postcode": "9220", "place": "Velden am Wörther See", "lat": 46.6152485, "lon": 14.0425716, "tags": {"addr:city": "Velden am Wörther See", "addr:housenumber": "10", "addr:postcode": "9220", "addr:street": "Am Corso", "name": "Casino Hotel", "phone": "+43 4274 51233", "tourism": "hotel", "website": "https://www.casino-hotel.at/"}, "content": "Casino Hotel\nKategorie: tourism:hotel\nAdresse: Am Corso 10, 9220 Velden am Wörther See\nOrt: Velden am Wörther See\nPLZ: 9220\nKoordinaten: 46.615248, 14.042572\nTags: phone=+43 4274 51233, website=https://www.casino-hotel.at/", "doc_type": "pois"}
{"source": "OSM", "region": "Kärnten", "osm_type": "node", "osm_id": 5348585054, "name": "Le Cafe", "category": "amenity:cafe", "address": "Am Corso 10, 9220 Velden am Wörther See", "street": "Am Corso", "housenumber": "10", "postcode": "9220", "place": "Velden am Wörther See", "lat": 46.6154508, "lon": 14.0429702, "tags": {"addr:city": "Velden am Wörther See", "addr:housenumber": "10", "addr:postcode": "9220", "addr:street": "Am Corso", "amenity": "cafe", "name": "Le Cafe", "website": "https://www.casino-hotel.at/index.php/en/en-recommend/en-lecafe"}, "content": "Le Cafe\nKategorie: amenity:cafe\nAdresse: Am Corso 10, 9220 Velden am Wörther See\nOrt: Velden am Wörther See\nPLZ: 9220\nKoordinaten: 46.615451, 14.042970\nTags: amenity=cafe, website=https://www.casino-hotel.at/index.php/en/en-recommend/en-lecafe", "doc_type": "pois"}
{"source": "OSM", "region": "Kärnten", "osm_type": "node", "osm_id": 5354229375, "name": "Switch", "category": "amenity:bar", "address": "Am Corso 10, 9220 Velden am Wörther See", "street": "Am Corso", "housenumber": "10", "postcode": "9220", "place": "Velden am Wörther See", "lat": 46.6153081, "lon": 14.0427782, "tags": {"addr:city": "Velden am Wörther See", "addr:housenumber": "10", "addr:postcode": "9220", "addr:street": "Am Corso", "amenity": "bar", "name": "Switch", "phone": "+43 676 9530099", "website": "https://www.switch-velden.at/"}, "content": "Switch\nKategorie: amenity:bar\nAdresse: Am Corso 10, 9220 Velden am Wörther See\nOrt: Velden am Wörther See\nPLZ: 9220\nKoordinaten: 46.615308, 14.042778\nTags: amenity=bar, phone=+43 676 9530099, website=https://www.switch-velden.at/", "doc_type": "pois"}
{"source": "OSM", "region": "Kärnten", "osm_type": "node", "osm_id": 5354229376, "name": "Caramé", "category": "amenity:restaurant", "address": "Am Corso 10, 9220 Velden am Wörther See", "street": "Am Corso", "housenumber": "10", "postcode": "9220", "place": "Velden am Wörther See", "lat": 46.6154733, "lon": 14.0431779, "tags": {"addr:city": "Velden am Wörther See", "addr:housenumber": "10", "addr:postcode": "9220", "addr:street": "Am Corso", "amenity": "restaurant", "name": "Caramé", "phone": "+43 4274 / 3000", "website": "http://www.restaurant-carame.at"}, "content": "Caramé\nKategorie: amenity:restaurant\nAdresse: Am Corso 10, 9220 Velden am Wörther See\nOrt: Velden am Wörther See\nPLZ: 9220\nKoordinaten: 46.615473, 14.043178\nTags: amenity=restaurant, phone=+43 4274 / 3000, website=http://www.restaurant-carame.at", "doc_type": "pois"}
{"source": "OSM", "region": "Kärnten", "osm_type": "node", "osm_id": 5354229377, "name": "American Bar", "category": "amenity:bar", "address": "Am Corso 10, 9220 Velden am Wörther See", "street": "Am Corso", "housenumber": "10", "postcode": "9220", "place": "Velden am Wörther See", "lat": 46.6153786, "lon": 14.0428636, "tags": {"addr:city": "Velden am Wörther See", "addr:housenumber": "10", "addr:postcode": "9220", "addr:street": "Am Corso", "amenity": "bar", "name": "American Bar", "operator": "Switch", "phone": "+43 676 9530099", "website": "https://www.switch-velden.at"}, "content": "American Bar\nKategorie: amenity:bar\nAdresse: Am Corso 10, 9220 Velden am Wörther See\nOrt: Velden am Wörther See\nPLZ: 9220\nKoordinaten: 46.615379, 14.042864\nTags: amenity=bar, operator=Switch, phone=+43 676 9530099, website=https://www.switch-velden.at", "doc_type": "pois"}
{"source": "OSM", "region": "Kärnten", "osm_type": "node", "osm_id": 5354229381, "name": "Rocket Bistro", "category": "amenity:fast_food", "address": "Koschatpromenade 2, 9220 Velden am Wörther See", "street": "Koschatpromenade", "housenumber": "2", "postcode": "9220", "place": "Velden am Wörther See", "lat": 46.614538, "lon": 14.0423028, "tags": {"addr:city": "Velden am Wörther See", "addr:housenumber": "2", "addr:postcode": "9220", "addr:street": "Koschatpromenade", "amenity": "fast_food", "name": "Rocket Bistro", "website": "https://www.rocket-rooms.at/de/restaurant.html"}, "content": "Rocket Bistro\nKategorie: amenity:fast_food\nAdresse: Koschatpromenade 2, 9220 Velden am Wörther See\nOrt: Velden am Wörther See\nPLZ: 9220\nKoordinaten: 46.614538, 14.042303\nTags: amenity=fast_food, website=https://www.rocket-rooms.at/de/restaurant.html", "doc_type": "pois"}
{"source": "OSM", "region": "Kärnten", "osm_type": "node", "osm_id": 5354229386, "name": null, "category": "shop:clothes", "address": "Am Corso 27, 9220 Velden am Wörther See", "street": "Am Corso", "housenumber": "27", "postcode": "9220", "place": "Velden am Wörther See", "lat": 46.6141582, "lon": 14.0427188, "tags": {"addr:city": "Velden am Wörther See", "addr:housenumber": "27", "addr:postcode": "9220", "addr:street": "Am Corso", "shop": "clothes"}, "content": "Kategorie: shop:clothes\nAdresse: Am Corso 27, 9220 Velden am Wörther See\nOrt: Velden am Wörther See\nPLZ: 9220\nKoordinaten: 46.614158, 14.042719\nTags: shop=clothes", "doc_type": "pois"}
{"source": "OSM", "region": "Kärnten", "osm_type": "node", "osm_id": 5354229387, "name": "Antiques", "category": "shop:antiques", "address": "Am Corso 27, 9220 Velden am Wörther See", "street": "Am Corso", "housenumber": "27", "postcode": "9220", "place": "Velden am Wörther See", "lat": 46.6141181, "lon": 14.0426888, "tags": {"addr:city": "Velden am Wörther See", "addr:housenumber": "27", "addr:postcode": "9220", "addr:street": "Am Corso", "name": "Antiques", "shop": "antiques"}, "content": "Antiques\nKategorie: shop:antiques\nAdresse: Am Corso 27, 9220 Velden am Wörther See\nOrt: Velden am Wörther See\nPLZ: 9220\nKoordinaten: 46.614118, 14.042689\nTags: shop=antiques", "doc_type": "pois"}
{"source": "OSM", "region": "Kärnten", "osm_type": "node", "osm_id": 5354229392, "name": "Börserl Bistro-Café", "category": "amenity:fast_food", "address": "Am Corso 25, 9220 Velden am Wörther See", "street": "Am Corso", "housenumber": "25", "postcode": "9220", "place": "Velden am Wörther See", "lat": 46.6143022, "lon": 14.0427018, "tags": {"addr:city": "Velden am Wörther See", "addr:housenumber": "25", "addr:postcode": "9220", "addr:street": "Am Corso", "amenity": "fast_food", "name": "Börserl Bistro-Café", "phone": "+43 (0) 4274 50 635", "website": "http://www.boerserl.net/"}, "content": "Börserl Bistro-Café\nKategorie: amenity:fast_food\nAdresse: Am Corso 25, 9220 Velden am Wörther See\nOrt: Velden am Wörther See\nPLZ: 9220\nKoordinaten: 46.614302, 14.042702\nTags: amenity=fast_food, phone=+43 (0) 4274 50 635, website=http://www.boerserl.net/", "doc_type": "pois"}
{"source": "OSM", "region": "Kärnten", "osm_type": "node", "osm_id": 5354229393, "name": "Peter Tschebull", "category": "shop:shoes", "address": "Am Corso 25, 9220 Velden am Wörther See", "street": "Am Corso", "housenumber": "25", "postcode": "9220", "place": "Velden am Wörther See", "lat": 46.6143734, "lon": 14.0426965, "tags": {"addr:city": "Velden am Wörther See", "addr:housenumber": "25", "addr:postcode": "9220", "addr:street": "Am Corso", "name": "Peter Tschebull", "shop": "shoes"}, "content": "Peter Tschebull\nKategorie: shop:shoes\nAdresse: Am Corso 25, 9220 Velden am Wörther See\nOrt: Velden am Wörther See\nPLZ: 9220\nKoordinaten: 46.614373, 14.042696\nTags: shop=shoes", "doc_type": "pois"}
{"source": "OSM", "region": "Kärnten", "osm_type": "node", "osm_id": 5356396747, "name": "Seidl", "category": "shop:newsagent", "address": "Seecorso 4, 9220 Velden am Wörther See", "street": "Seecorso", "housenumber": "4", "postcode": "9220", "place": "Velden am Wörther See", "lat": 46.6128022, "lon": 14.0424408, "tags": {"addr:city": "Velden am Wörther See", "addr:housenumber": "4", "addr:postcode": "9220", "addr:street": "Seecorso", "name": "Seidl", "shop": "newsagent"}, "content": "Seidl\nKategorie: shop:newsagent\nAdresse: Seecorso 4, 9220 Velden am Wörther See\nOrt: Velden am Wörther See\nPLZ: 9220\nKoordinaten: 46.612802, 14.042441\nTags: shop=newsagent", "doc_type": "pois"}
{"source": "OSM", "region": "Kärnten", "osm_type": "node", "osm_id": 5356396748, "name": "Play Planet", "category": "leisure:amusement_arcade", "address": "Seecorso 4, 9220 Velden am Wörther See", "street": "Seecorso", "housenumber": "4", "postcode": "9220", "place": "Velden am Wörther See", "lat": 46.6127822, "lon": 14.0422636, "tags": {"addr:city": "Velden am Wörther See", "addr:housenumber": "4", "addr:postcode": "9220", "addr:street": "Seecorso", "leisure": "amusement_arcade", "name": "Play Planet", "phone": "+43 664 333 11 00", "website": "https://www.playplanet-velden.at/"}, "content": "Play Planet\nKategorie: leisure:amusement_arcade\nAdresse: Seecorso 4, 9220 Velden am Wörther See\nOrt: Velden am Wörther See\nPLZ: 9220\nKoordinaten: 46.612782, 14.042264\nTags: phone=+43 664 333 11 00, website=https://www.playplanet-velden.at/", "doc_type": "pois"}
{"source": "OSM", "region": "Kärnten", "osm_type": "node", "osm_id": 5356396749, "name": "Aqua Cafe Bar", "category": "amenity:pub", "address": "Seecorso 4, 9220 Velden am Wörther See", "street": "Seecorso", "housenumber": "4", "postcode": "9220", "place": "Velden am Wörther See", "lat": 46.6127832, "lon": 14.0421955, "tags": {"addr:city": "Velden am Wörther See", "addr:housenumber": "4", "addr:postcode": "9220", "addr:street": "Seecorso", "amenity": "pub", "name": "Aqua Cafe Bar"}, "content": "Aqua Cafe Bar\nKategorie: amenity:pub\nAdresse: Seecorso 4, 9220 Velden am Wörther See\nOrt: Velden am Wörther See\nPLZ: 9220\nKoordinaten: 46.612783, 14.042196\nTags: amenity=pub", "doc_type": "pois"}
{"source": "OSM", "region": "Kärnten", "osm_type": "node", "osm_id": 5356396750, "name": "Neuhauser", "category": "leisure:fitness_centre", "address": "Seecorso 4, 9220 Velden am Wörther See", "street": "Seecorso", "housenumber": "4", "postcode": "9220", "place": "Velden am Wörther See", "lat": 46.6128018, "lon": 14.0420388, "tags": {"addr:city": "Velden am Wörther See", "addr:housenumber": "4", "addr:postcode": "9220", "addr:street": "Seecorso", "leisure": "fitness_centre", "name": "Neuhauser"}, "content": "Neuhauser\nKategorie: leisure:fitness_centre\nAdresse: Seecorso 4, 9220 Velden am Wörther See\nOrt: Velden am Wörther See\nPLZ: 9220\nKoordinaten: 46.612802, 14.042039", "doc_type": "pois"}
{"source": "OSM", "region": "Kärnten", "osm_type": "node", "osm_id": 5356396751, "name": "Ingrid Bein", "category": "shop:hairdresser", "address": "Seecorso 4, 9220 Velden am Wörther See", "street": "Seecorso", "housenumber": "4", "postcode": "9220", "place": "Velden am Wörther See", "lat": 46.61284, "lon": 14.0420297, "tags": {"addr:city": "Velden am Wörther See", "addr:housenumber": "4", "addr:postcode": "9220", "addr:street": "Seecorso", "name": "Ingrid Bein", "phone": "+43 4274 5 17 70", "shop": "hairdresser", "website": "http://www.ingrid-bein.at/"}, "content": "Ingrid Bein\nKategorie: shop:hairdresser\nAdresse: Seecorso 4, 9220 Velden am Wörther See\nOrt: Velden am Wörther See\nPLZ: 9220\nKoordinaten: 46.612840, 14.042030\nTags: shop=hairdresser, phone=+43 4274 5 17 70, website=http://www.ingrid-bein.at/", "doc_type": "pois"}
{"source": "OSM", "region": "Kärnten", "osm_type": "node", "osm_id": 5356396752, "name": "Kitzglück", "category": "shop:clothes", "address": "Seecorso 3, 9220 Velden am Wörther See", "street": "Seecorso", "housenumber": "3", "postcode": "9220", "place": "Velden am Wörther See", "lat": 46.6128171, "lon": 14.0421148, "tags": {"addr:city": "Velden am Wörther See", "addr:housenumber": "3", "addr:postcode": "9220", "addr:street": "Seecorso", "name": "Kitzglück", "phone": "+43 4274 23401", "shop": "clothes", "website": "https://www.kitzglueck.com/"}, "content": "Kitzglück\nKategorie: shop:clothes\nAdresse: Seecorso 3, 9220 Velden am Wörther See\nOrt: Velden am Wörther See\nPLZ: 9220\nKoordinaten: 46.612817, 14.042115\nTags: shop=clothes, phone=+43 4274 23401, website=https://www.kitzglueck.com/", "doc_type": "pois"}
{"source": "OSM", "region": "Kärnten", "osm_type": "node", "osm_id": 5356396753, "name": "Dhaler & Company", "category": "office:estate_agent", "address": "Seecorso 4, 9220 Velden am Wörther See", "street": "Seecorso", "housenumber": "4", "postcode": "9220", "place": "Velden am Wörther See", "lat": 46.6127997, "lon": 14.0421514, "tags": {"addr:city": "Velden am Wörther See", "addr:housenumber": "4", "addr:postcode": "9220", "addr:street": "Seecorso", "name": "Dhaler & Company", "office": "estate_agent"}, "content": "Dhaler & Company\nKategorie: office:estate_agent\nAdresse: Seecorso 4, 9220 Velden am Wörther See\nOrt: Velden am Wörther See\nPLZ: 9220\nKoordinaten: 46.612800, 14.042151\nTags: office=estate_agent", "doc_type": "pois"}
{"source": "OSM", "region": "Kärnten", "osm_type": "node", "osm_id": 5356396754, "name": "Die Brillerei", "category": "shop:optician", "address": "Seecorso 4, 9220 Velden am Wörther See", "street": "Seecorso", "housenumber": "4", "postcode": "9220", "place": "Velden am Wörther See", "lat": 46.6128568, "lon": 14.0419774, "tags": {"addr:city": "Velden am Wörther See", "addr:housenumber": "4", "addr:postcode": "9220", "addr:street": "Seecorso", "name": "Die Brillerei", "phone": "+43 4274 / 23 4 22", "shop": "optician", "website": "https://diebrillerei.at"}, "content": "Die Brillerei\nKategorie: shop:optician\nAdresse: Seecorso 4, 9220 Velden am Wörther See\nOrt: Velden am Wörther See\nPLZ: 9220\nKoordinaten: 46.612857, 14.041977\nTags: shop=optician, phone=+43 4274 / 23 4 22, website=https://diebrillerei.at", "doc_type": "pois"}
{"source": "OSM", "region": "Kärnten", "osm_type": "node", "osm_id": 5356396755, "name": "Pur Living", "category": "office:architect", "address": "Seecorso 4, 9220 Velden am Wörther See", "street": "Seecorso", "housenumber": "4", "postcode": "9220", "place": "Velden am Wörther See", "lat": 46.6128744, "lon": 14.0419122, "tags": {"addr:city": "Velden am Wörther See", "addr:housenumber": "4", "addr:postcode": "9220", "addr:street": "Seecorso", "name": "Pur Living", "office": "architect", "phone": "+43 (0)676 - 79 69 113", "website": "http://www.innenarchitekturvelden.at/"}, "content": "Pur Living\nKategorie: office:architect\nAdresse: Seecorso 4, 9220 Velden am Wörther See\nOrt: Velden am Wörther See\nPLZ: 9220\nKoordinaten: 46.612874, 14.041912\nTags: office=architect, phone=+43 (0)676 - 79 69 113, website=http://www.innenarchitekturvelden.at/", "doc_type": "pois"}
{"source": "OSM", "region": "Kärnten", "osm_type": "node", "osm_id": 5389512799, "name": "Restaurant Leopold", "category": "amenity:restaurant", "address": "Seecorso 18, 9220 Velden am Wörther See", "street": "Seecorso", "housenumber": "18", "postcode": "9220", "place": "Velden am Wörther See", "lat": 46.6107274, "lon": 14.0442485, "tags": {"addr:city": "Velden am Wörther See", "addr:housenumber": "18", "addr:postcode": "9220", "addr:street": "Seecorso", "amenity": "restaurant", "name": "Restaurant Leopold", "website": "https://www.strandhotel-leopold.at/restaurant-und-beach/restaurant.html"}, "content": "Restaurant Leopold\nKategorie: amenity:restaurant\nAdresse: Seecorso 18, 9220 Velden am Wörther See\nOrt: Velden am Wörther See\nPLZ: 9220\nKoordinaten: 46.610727, 14.044249\nTags: amenity=restaurant, website=https://www.strandhotel-leopold.at/restaurant-und-beach/restaurant.html", "doc_type": "pois"}
