{"source": "OSM", "region": "Kärnten", "osm_type": "node", "osm_id": 409472966, "name": "Schiffsstation Annenheim", "category": "amenity:ferry_terminal", "address": "Seeuferstraße 18, 9520 Treffen am Ossiacher See", "street": "Seeuferstraße", "housenumber": "18", "postcode": "9520", "place": "Treffen am Ossiacher See", "lat": 46.6579916, "lon": 13.9012485, "tags": {"addr:city": "Treffen am Ossiacher See", "addr:housenumber": "18", "addr:postcode": "9520", "addr:street": "Seeuferstraße", "amenity": "ferry_terminal", "name": "Schiffsstation Annenheim", "operator": "Nageler Schifffahrt & Restaurant GmbH & Co KG Ossiachersee Schifffahrt"}, "content": "Schiffsstation Annenheim\nKategorie: amenity:ferry_terminal\nAdresse: Seeuferstraße 18, 9520 Treffen am Ossiacher See\nOrt: Treffen am Ossiacher See\nPLZ: 9520\nKoordinaten: 46.657992, 13.901248\nTags: amenity=ferry_terminal, operator=Nageler Schifffahrt & Restaurant GmbH & Co KG Ossiachersee Schifffahrt", "doc_type": "addresses"}
{"source": "OSM", "region": "Kärnten", "osm_type": "node", "osm_id": 1166402750, "name": "Restaurant zum Treffner", "category": "amenity:restaurant", "address": "Eichrainweg 7-9, 9521 Treffen am Ossiacher See", "street": "Eichrainweg", "housenumber": "7-9", "postcode": "9521", "place": "Treffen am Ossiacher See", "lat": 46.6562638, "lon": 13.8815984, "tags": {"addr:city": "Treffen am Ossiacher See", "addr:housenumber": "7-9", "addr:postcode": "9521", "addr:street": "Eichrainweg", "amenity": "restaurant", "name": "Restaurant zum Treffner", "website": "https://www.zumtreffner.at/"}, "content": "Restaurant zum Treffner\nKategorie: amenity:restaurant\nAdresse: Eichrainweg 7-9, 9521 Treffen am Ossiacher See\nOrt: Treffen am Ossiacher See\nPLZ: 9521\nKoordinaten: 46.656264, 13.881598\nTags: amenity=restaurant, website=https://www.zumtreffner.at/", "doc_type": "addresses"}
{"source": "OSM", "region": "Kärnten", "osm_type": "node", "osm_id": 1280260500, "name": "Alois", "category": "shop:hairdresser", "address": "Millstätterstraße 13, 9521 Treffen am Ossiacher See", "street": "Millstätterstraße", "housenumber": "13", "postcode": "9521", "place": "Treffen am Ossiacher See", "lat": 46.6677286, "lon": 13.8555612, "tags": {"addr:city": "Treffen am Ossiacher See", "addr:housenumber": "13", "addr:postcode": "9521", "addr:street": "Millstätterstraße", "name": "Alois", "shop": "hairdresser"}, "content": "Alois\nKategorie: shop:hairdresser\nAdresse: Millstätterstraße 13, 9521 Treffen am Ossiacher See\nOrt: Treffen am Ossiacher See\nPLZ: 9521\nKoordinaten: 46.667729, 13.855561\nTags: shop=hairdresser", "doc_type": "addresses"}
{"source": "OSM", "region": "Kärnten", "osm_type": "node", "osm_id": 1280260849, "name": "Hotel-Restaurant Kuchlerwirt", "category": "amenity:restaurant", "address": "Millstätterstraße 11, 9521 Treffen am Ossiacher See", "street": "Millstätterstraße", "housenumber": "11", "postcode": "9521", "place": "Treffen am Ossiacher See", "lat": 46.667627, "lon": 13.8554365, "tags": {"addr:city": "Treffen am Ossiacher See", "addr:housenumber": "11", "addr:postcode": "9521", "addr:street": "Millstätterstraße", "amenity": "restaurant", "name": "Hotel-Restaurant Kuchlerwirt", "phone": "+436764050713", "website": "https://www.kuchlerwirt.at/"}, "content": "Hotel-Restaurant Kuchlerwirt\nKategorie: amenity:restaurant\nAdresse: Millstätterstraße 11, 9521 Treffen am Ossiacher See\nOrt: Treffen am Ossiacher See\nPLZ: 9521\nKoordinaten: 46.667627, 13.855436\nTags: amenity=restaurant, phone=+436764050713, website=https://www.kuchlerwirt.at/", "doc_type": "addresses"}
{"source": "OSM", "region": "Kärnten", "osm_type": "node", "osm_id": 1822668169, "name": "Ebner", "category": "tourism:chalet", "address": "Kanziweg 3, 9520 Treffen am Ossiacher See", "street": "Kanziweg", "housenumber": "3", "postcode": "9520", "place": "Treffen am Ossiacher See", "lat": 46.6678149, "lon": 13.9324344, "tags": {"addr:city": "Treffen am Ossiacher See", "addr:housenumber": "3", "addr:postcode": "9520", "addr:street": "Kanziweg", "name": "Ebner", "tourism": "chalet"}, "content": "Ebner\nKategorie: tourism:chalet\nAdresse: Kanziweg 3, 9520 Treffen am Ossiacher See\nOrt: Treffen am Ossiacher See\nPLZ: 9520\nKoordinaten: 46.667815, 13.932434", "doc_type": "addresses"}
{"source": "OSM", "region": "Kärnten", "osm_type": "node", "osm_id": 2026826728, "name": "Polizeiinspektion Sattendorf", "category": "amenity:police", "address": "Dorfstraße 35, 9520 Treffen am Ossiacher See", "street": "Dorfstraße", "housenumber": "35", "postcode": "9520", "place": "Treffen am Ossiacher See", "lat": 46.6644999, "lon": 13.9199382, "tags": {"addr:city": "Treffen am Ossiacher See", "addr:housenumber": "35", "addr:postcode": "9520", "addr:street": "Dorfstraße", "amenity": "police", "name": "Polizeiinspektion Sattendorf", "phone": "+43 59133 2262-100"}, "content": "Polizeiinspektion Sattendorf\nKategorie: amenity:police\nAdresse: Dorfstraße 35, 9520 Treffen am Ossiacher See\nOrt: Treffen am Ossiacher See\nPLZ: 9520\nKoordinaten: 46.664500, 13.919938\nTags: amenity=police, phone=+43 59133 2262-100", "doc_type": "addresses"}
{"source": "OSM", "region": "Kärnten", "osm_type": "node", "osm_id": 4867100767, "name": null, "category": null, "address": "Birkenallee 4, 9520 Treffen am Ossiacher See", "street": "Birkenallee", "housenumber": "4", "postcode": "9520", "place": "Treffen am Ossiacher See", "lat": 46.6629725, "lon": 13.9203188, "tags": {"addr:city": "Treffen am Ossiacher See", "addr:housenumber": "4", "addr:postcode": "9520", "addr:street": "Birkenallee"}, "content": "Adresse: Birkenallee 4, 9520 Treffen am Ossiacher See\nOrt: Treffen am Ossiacher See\nPLZ: 9520\nKoordinaten: 46.662973, 13.920319", "doc_type": "addresses"}
{"source": "OSM", "region": "Kärnten", "osm_type": "node", "osm_id": 4867100768, "name": null, "category": null, "address": "Birkenallee 4a, 9520 Treffen am Ossiacher See", "street": "Birkenallee", "housenumber": "4a", "postcode": "9520", "place": "Treffen am Ossiacher See", "lat": 46.6629827, "lon": 13.920121, "tags": {"addr:city": "Treffen am Ossiacher See", "addr:housenumber": "4a", "addr:postcode": "9520", "addr:street": "Birkenallee"}, "content": "Adresse: Birkenallee 4a, 9520 Treffen am Ossiacher See\nOrt: Treffen am Ossiacher See\nPLZ: 9520\nKoordinaten: 46.662983, 13.920121", "doc_type": "addresses"}
{"source": "OSM", "region": "Kärnten", "osm_type": "node", "osm_id": 4867106068, "name": null, "category": null, "address": "Wiesenweg 2, 9520 Treffen am Ossiacher See", "street": "Wiesenweg", "housenumber": "2", "postcode": "9520", "place": "Treffen am Ossiacher See", "lat": 46.6654902, "lon": 13.9200824, "tags": {"addr:city": "Treffen am Ossiacher See", "addr:housenumber": "2", "addr:postcode": "9520", "addr:street": "Wiesenweg"}, "content": "Adresse: Wiesenweg 2, 9520 Treffen am Ossiacher See\nOrt: Treffen am Ossiacher See\nPLZ: 9520\nKoordinaten: 46.665490, 13.920082", "doc_type": "addresses"}
{"source": "OSM", "region": "Kärnten", "osm_type": "node", "osm_id": 4867106069, "name": null, "category": null, "address": "Dorfstraße 3, 9520 Treffen am Ossiacher See", "street": "Dorfstraße", "housenumber": "3", "postcode": "9520", "place": "Treffen am Ossiacher See", "lat": 46.6659262, "lon": 13.9260537, "tags": {"addr:city": "Treffen am Ossiacher See", "addr:housenumber": "3", "addr:postcode": "9520", "addr:street": "Dorfstraße"}, "content": "Adresse: Dorfstraße 3, 9520 Treffen am Ossiacher See\nOrt: Treffen am Ossiacher See\nPLZ: 9520\nKoordinaten: 46.665926, 13.926054", "doc_type": "addresses"}
{"source": "OSM", "region": "Kärnten", "osm_type": "node", "osm_id": 409472966, "name": "Schiffsstation Annenheim", "category": "amenity:ferry_terminal", "address": "Seeuferstraße 18, 9520 Treffen am Ossiacher See", "street": "Seeuferstraße", "housenumber": "18", "postcode": "9520", "place": "Treffen am Ossiacher See", "lat": 46.6579916, "lon": 13.9012485, "tags": {"addr:city": "Treffen am Ossiacher See", "addr:housenumber": "18", "addr:postcode": "9520", "addr:street": "Seeuferstraße", "amenity": "ferry_terminal", "name": "Schiffsstation Annenheim", "operator": "Nageler Schifffahrt & Restaurant GmbH & Co KG Ossiachersee Schifffahrt"}, "content": "Schiffsstation Annenheim\nKategorie: amenity:ferry_terminal\nAdresse: Seeuferstraße 18, 9520 Treffen am Ossiacher See\nOrt: Treffen am Ossiacher See\nPLZ: 9520\nKoordinaten: 46.657992, 13.901248\nTags: amenity=ferry_terminal, operator=Nageler Schifffahrt & Restaurant GmbH & Co KG Ossiachersee Schifffahrt", "doc_type": "pois"}
{"source": "OSM", "region": "Kärnten", "osm_type": "node", "osm_id": 1166402750, "name": "Restaurant zum Treffner", "category": "amenity:restaurant", "address": "Eichrainweg 7-9, 9521 Treffen am Ossiacher See", "street": "Eichrainweg", "housenumber": "7-9", "postcode": "9521", "place": "Treffen am Ossiacher See", "lat": 46.6562638, "lon": 13.8815984, "tags": {"addr:city": "Treffen am Ossiacher See", "addr:housenumber": "7-9", "addr:postcode": "9521", "addr:street": "Eichrainweg", "amenity": "restaurant", "name": "Restaurant zum Treffner", "website": "https://www.zumtreffner.at/"}, "content": "Restaurant zum Treffner\nKategorie: amenity:restaurant\nAdresse: Eichrainweg 7-9, 9521 Treffen am Ossiacher See\nOrt: Treffen am Ossiacher See\nPLZ: 9521\nKoordinaten: 46.656264, 13.881598\nTags: amenity=restaurant, website=https://www.zumtreffner.at/", "doc_type": "pois"}
{"source": "OSM", "region": "Kärnten", "osm_type": "node", "osm_id": 1280260500, "name": "Alois", "category": "shop:hairdresser", "address": "Millstätterstraße 13, 9521 Treffen am Ossiacher See", "street": "Millstätterstraße", "housenumber": "13", "postcode": "9521", "place": "Treffen am Ossiacher See", "lat": 46.6677286, "lon": 13.8555612, "tags": {"addr:city": "Treffen am Ossiacher See", "addr:housenumber": "13", "addr:postcode": "9521", "addr:street": "Millstätterstraße", "name": "Alois", "shop": "hairdresser"}, "content": "Alois\nKategorie: shop:hairdresser\nAdresse: Millstätterstraße 13, 9521 Treffen am Ossiacher See\nOrt: Treffen am Ossiacher See\nPLZ: 9521\nKoordinaten: 46.667729, 13.855561\nTags: shop=hairdresser", "doc_type": "pois"}
{"source": "OSM", "region": "Kärnten", "osm_type": "node", "osm_id": 1280260849, "name": "Hotel-Restaurant Kuchlerwirt", "category": "amenity:restaurant", "address": "Millstätterstraße 11, 9521 Treffen am Ossiacher See", "street": "Millstätterstraße", "housenumber": "11", "postcode": "9521", "place": "Treffen am Ossiacher See", "lat": 46.667627, "lon": 13.8554365, "tags": {"addr:city": "Treffen am Ossiacher See", "addr:housenumber": "11", "addr:postcode": "9521", "addr:street": "Millstätterstraße", "amenity": "restaurant", "name": "Hotel-Restaurant Kuchlerwirt", "phone": "+436764050713", "website": "https://www.kuchlerwirt.at/"}, "content": "Hotel-Restaurant Kuchlerwirt\nKategorie: amenity:restaurant\nAdresse: Millstätterstraße 11, 9521 Treffen am Ossiacher See\nOrt: Treffen am Ossiacher See\nPLZ: 9521\nKoordinaten: 46.667627, 13.855436\nTags: amenity=restaurant, phone=+436764050713, website=https://www.kuchlerwirt.at/", "doc_type": "pois"}
{"source": "OSM", "region": "Kärnten", "osm_type": "node", "osm_id": 1822668169, "name": "Ebner", "category": "tourism:chalet", "address": "Kanziweg 3, 9520 Treffen am Ossiacher See", "street": "Kanziweg", "housenumber": "3", "postcode": "9520", "place": "Treffen am Ossiacher See", "lat": 46.6678149, "lon": 13.9324344, "tags": {"addr:city": "Treffen am Ossiacher See", "addr:housenumber": "3", "addr:postcode": "9520", "addr:street": "Kanziweg", "name": "Ebner", "tourism": "chalet"}, "content": "Ebner\nKategorie: tourism:chalet\nAdresse: Kanziweg 3, 9520 Treffen am Ossiacher See\nOrt: Treffen am Ossiacher See\nPLZ: 9520\nKoordinaten: 46.667815, 13.932434", "doc_type": "pois"}
{"source": "OSM", "region": "Kärnten", "osm_type": "node", "osm_id": 2026826728, "name": "Polizeiinspektion Sattendorf", "category": "amenity:police", "address": "Dorfstraße 35, 9520 Treffen am Ossiacher See", "street": "Dorfstraße", "housenumber": "35", "postcode": "9520", "place": "Treffen am Ossiacher See", "lat": 46.6644999, "lon": 13.9199382, "tags": {"addr:city": "Treffen am Ossiacher See", "addr:housenumber": "35", "addr:postcode": "9520", "addr:street": "Dorfstraße", "amenity": "police", "name": "Polizeiinspektion Sattendorf", "phone": "+43 59133 2262-100"}, "content": "Polizeiinspektion Sattendorf\nKategorie: amenity:police\nAdresse: Dorfstraße 35, 9520 Treffen am Ossiacher See\nOrt: Treffen am Ossiacher See\nPLZ: 9520\nKoordinaten: 46.664500, 13.919938\nTags: amenity=police, phone=+43 59133 2262-100", "doc_type": "pois"}
