{"source": "OSM", "region": "Kärnten", "osm_type": "node", "osm_id": 847843118, "name": "Kärntner Freilichtmuseum", "category": "tourism:museum", "address": "Museumweg 10, 9063 Maria Saal", "street": "Museumweg", "housenumber": "10", "postcode": "9063", "place": "Maria Saal", "lat": 46.6852949, "lon": 14.3470211, "tags": {"addr:city": "Maria Saal", "addr:housenumber": "10", "addr:postcode": "9063", "addr:street": "Museumweg", "name": "Kärntner Freilichtmuseum", "tourism": "museum"}, "content": "Kärntner Freilichtmuseum\nKategorie: tourism:museum\nAdresse: Museumweg 10, 9063 Maria Saal\nOrt: Maria Saal\nPLZ: 9063\nKoordinaten: 46.685295, 14.347021", "doc_type": "addresses"}
{"source": "OSM", "region": "Kärnten", "osm_type": "node", "osm_id": 2414394519, "name": "Gasthof Puck", "category": "amenity:restaurant", "address": "1, 9063 Maria Saal", "street": null, "housenumber": "1", "postcode": "9063", "place": "Maria Saal", "lat": 46.6991462, "lon": 14.3557162, "tags": {"addr:city": "Maria Saal", "addr:housenumber": "1", "addr:place": "Zollfeld", "addr:postcode": "9063", "amenity": "restaurant", "name": "Gasthof Puck", "phone": "+43-4223-2235", "website": "https://www.puck.co.at/"}, "content": "Gasthof Puck\nKategorie: amenity:restaurant\nAdresse: 1, 9063 Maria Saal\nOrt: Maria Saal\nPLZ: 9063\nKoordinaten: 46.699146, 14.355716\nTags: amenity=restaurant, phone=+43-4223-2235, website=https://www.puck.co.at/", "doc_type": "addresses"}
{"source": "OSM", "region": "Kärnten", "osm_type": "node", "osm_id": 3216533616, "name": "Kleintierpraxis", "category": "amenity:veterinary", "address": "Maria Saaler Berg Weg 11, 9063 Maria Saal", "street": "Maria Saaler Berg Weg", "housenumber": "11", "postcode": "9063", "place": "Maria Saal", "lat": 46.6791843, "lon": 14.3472729, "tags": {"addr:city": "Maria Saal", "addr:housenumber": "11", "addr:postcode": "9063", "addr:street": "Maria Saaler Berg Weg", "amenity": "veterinary", "name": "Kleintierpraxis"}, "content": "Kleintierpraxis\nKategorie: amenity:veterinary\nAdresse: Maria Saaler Berg Weg 11, 9063 Maria Saal\nOrt: Maria Saal\nPLZ: 9063\nKoordinaten: 46.679184, 14.347273\nTags: amenity=veterinary", "doc_type": "addresses"}
{"source": "OSM", "region": "Kärnten", "osm_type": "node", "osm_id": 3216537133, "name": "Frisiersaloon Ortrun", "category": "shop:hairdresser", "address": "Maria Saaler Berg Weg 8, 9063 Maria Saal", "street": "Maria Saaler Berg Weg", "housenumber": "8", "postcode": "9063", "place": "Maria Saal", "lat": 46.6792947, "lon": 14.3470583, "tags": {"addr:city": "Maria Saal", "addr:housenumber": "8", "addr:postcode": "9063", "addr:street": "Maria Saaler Berg Weg", "name": "Frisiersaloon Ortrun", "shop": "hairdresser"}, "content": "Frisiersaloon Ortrun\nKategorie: shop:hairdresser\nAdresse: Maria Saaler Berg Weg 8, 9063 Maria Saal\nOrt: Maria Saal\nPLZ: 9063\nKoordinaten: 46.679295, 14.347058\nTags: shop=hairdresser", "doc_type": "addresses"}
{"source": "OSM", "region": "Kärnten", "osm_type": "node", "osm_id": 3251015255, "name": "Gasthaus Dobernig \"Wurster\"", "category": "amenity:restaurant", "address": "9, 9063 Maria Saal", "street": null, "housenumber": "9", "postcode": "9063", "place": "Maria Saal", "lat": 46.6999004, "lon": 14.3354573, "tags": {"addr:city": "Maria Saal", "addr:housenumber": "9", "addr:place": "Möderndorf", "addr:postcode": "9063", "amenity": "restaurant", "name": "Gasthaus Dobernig \"Wurster\""}, "content": "Gasthaus Dobernig \"Wurster\"\nKategorie: amenity:restaurant\nAdresse: 9, 9063 Maria Saal\nOrt: Maria Saal\nPLZ: 9063\nKoordinaten: 46.699900, 14.335457\nTags: amenity=restaurant", "doc_type": "addresses"}
{"source": "OSM", "region": "Kärnten", "osm_type": "node", "osm_id": 3252221279, "name": "Polizeiinspektion Maria Saal", "category": "amenity:police", "address": "Hauptplatz 9, 9063 Maria Saal", "street": "Hauptplatz", "housenumber": "9", "postcode": "9063", "place": "Maria Saal", "lat": 46.6811665, "lon": 14.3475566, "tags": {"addr:city": "Maria Saal", "addr:housenumber": "9", "addr:postcode": "9063", "addr:street": "Hauptplatz", "amenity": "police", "name": "Polizeiinspektion Maria Saal", "phone": "+43 59133 2111100"}, "content": "Polizeiinspektion Maria Saal\nKategorie: amenity:police\nAdresse: Hauptplatz 9, 9063 Maria Saal\nOrt: Maria Saal\nPLZ: 9063\nKoordinaten: 46.681167, 14.347557\nTags: amenity=police, phone=+43 59133 2111100", "doc_type": "addresses"}
{"source": "OSM", "region": "Kärnten", "osm_type": "node", "osm_id": 3256294142, "name": "Dr. Ferdinand Kollmitzer", "category": "amenity:doctors", "address": "Maria Saaler Berg Weg 13, 9063 Maria Saal", "street": "Maria Saaler Berg Weg", "housenumber": "13", "postcode": "9063", "place": "Maria Saal", "lat": 46.6789984, "lon": 14.3472318, "tags": {"addr:city": "Maria Saal", "addr:housenumber": "13", "addr:postcode": "9063", "addr:street": "Maria Saaler Berg Weg", "amenity": "doctors", "healthcare": "doctor", "name": "Dr. Ferdinand Kollmitzer", "office": "physician"}, "content": "Dr. Ferdinand Kollmitzer\nKategorie: amenity:doctors\nAdresse: Maria Saaler Berg Weg 13, 9063 Maria Saal\nOrt: Maria Saal\nPLZ: 9063\nKoordinaten: 46.678998, 14.347232\nTags: amenity=doctors, healthcare=doctor, office=physician", "doc_type": "addresses"}
{"source": "OSM", "region": "Kärnten", "osm_type": "node", "osm_id": 3256294147, "name": "Dr. Hermann Wilhelmer", "category": "amenity:doctors", "address": "Maria Saaler Berg Weg 4, 9063 Maria Saal", "street": "Maria Saaler Berg Weg", "housenumber": "4", "postcode": "9063", "place": "Maria Saal", "lat": 46.6797345, "lon": 14.3471566, "tags": {"addr:city": "Maria Saal", "addr:housenumber": "4", "addr:postcode": "9063", "addr:street": "Maria Saaler Berg Weg", "amenity": "doctors", "healthcare": "doctor", "name": "Dr. Hermann Wilhelmer", "office": "physician"}, "content": "Dr. Hermann Wilhelmer\nKategorie: amenity:doctors\nAdresse: Maria Saaler Berg Weg 4, 9063 Maria Saal\nOrt: Maria Saal\nPLZ: 9063\nKoordinaten: 46.679735, 14.347157\nTags: amenity=doctors, healthcare=doctor, office=physician", "doc_type": "addresses"}
{"source": "OSM", "region": "Kärnten", "osm_type": "node", "osm_id": 3256294156, "name": "Dr. Andreas Perko, Zahnarzt", "category": "amenity:dentist", "address": "Hauptplatz 9, 9063 Maria Saal", "street": "Hauptplatz", "housenumber": "9", "postcode": "9063", "place": "Maria Saal", "lat": 46.6811989, "lon": 14.3474775, "tags": {"addr:city": "Maria Saal", "addr:housenumber": "9", "addr:postcode": "9063", "addr:street": "Hauptplatz", "amenity": "dentist", "healthcare": "dentist", "name": "Dr. Andreas Perko, Zahnarzt", "office": "physician"}, "content": "Dr. Andreas Perko, Zahnarzt\nKategorie: amenity:dentist\nAdresse: Hauptplatz 9, 9063 Maria Saal\nOrt: Maria Saal\nPLZ: 9063\nKoordinaten: 46.681199, 14.347478\nTags: amenity=dentist, healthcare=dentist, office=physician", "doc_type": "addresses"}
{"source": "OSM", "region": "Kärnten", "osm_type": "node", "osm_id": 3974068402, "name": null, "category": null, "address": "Glanweg 20, 9063 Maria Saal", "street": "Glanweg", "housenumber": "20", "postcode": "9063", "place": "Maria Saal", "lat": 46.6837565, "lon": 14.3214615, "tags": {"addr:city": "Maria Saal", "addr:housenumber": "20", "addr:postcode": "9063", "addr:street": "Glanweg"}, "content": "Adresse: Glanweg 20, 9063 Maria Saal\nOrt: Maria Saal\nPLZ: 9063\nKoordinaten: 46.683757, 14.321461", "doc_type": "addresses"}
{"source": "OSM", "region": "Kärnten", "osm_type": "node", "osm_id": 4756851489, "name": null, "category": null, "address": "9, 9063 Maria Saal", "street": null, "housenumber": "9", "postcode": "9063", "place": "Maria Saal", "lat": 46.6898588, "lon": 14.2892049, "tags": {"addr:city": "Maria Saal", "addr:housenumber": "9", "addr:place": "Stegendorf", "addr:postcode": "9063"}, "content": "Adresse: 9, 9063 Maria Saal\nOrt: Maria Saal\nPLZ: 9063\nKoordinaten: 46.689859, 14.289205", "doc_type": "addresses"}
{"source": "OSM", "region": "Kärnten", "osm_type": "node", "osm_id": 4862608933, "name": null, "category": null, "address": "Rudolf Lenthe Straße 7, 9063 Maria Saal", "street": "Rudolf Lenthe Straße", "housenumber": "7", "postcode": "9063", "place": "Maria Saal", "lat": 46.6796651, "lon": 14.343918, "tags": {"addr:city": "Maria Saal", "addr:housenumber": "7", "addr:postcode": "9063", "addr:street": "Rudolf Lenthe Straße"}, "content": "Adresse: Rudolf Lenthe Straße 7, 9063 Maria Saal\nOrt: Maria Saal\nPLZ: 9063\nKoordinaten: 46.679665, 14.343918", "doc_type": "addresses"}
{"source": "OSM", "region": "Kärnten", "osm_type": "node", "osm_id": 4862608935, "name": null, "category": null, "address": "Rudolf Lenthe Straße 3, 9063 Maria Saal", "street": "Rudolf Lenthe Straße", "housenumber": "3", "postcode": "9063", "place": "Maria Saal", "lat": 46.6803564, "lon": 14.3436671, "tags": {"addr:city": "Maria Saal", "addr:housenumber": "3", "addr:postcode": "9063", "addr:street": "Rudolf Lenthe Straße"}, "content": "Adresse: Rudolf Lenthe Straße 3, 9063 Maria Saal\nOrt: Maria Saal\nPLZ: 9063\nKoordinaten: 46.680356, 14.343667", "doc_type": "addresses"}
{"source": "OSM", "region": "Kärnten", "osm_type": "node", "osm_id": 4862608936, "name": null, "category": null, "address": "Rudolf Lenthe Straße 1, 9063 Maria Saal", "street": "Rudolf Lenthe Straße", "housenumber": "1", "postcode": "9063", "place": "Maria Saal", "lat": 46.6803314, "lon": 14.3433635, "tags": {"addr:city": "Maria Saal", "addr:housenumber": "1", "addr:postcode": "9063", "addr:street": "Rudolf Lenthe Straße"}, "content": "Adresse: Rudolf Lenthe Straße 1, 9063 Maria Saal\nOrt: Maria Saal\nPLZ: 9063\nKoordinaten: 46.680331, 14.343364", "doc_type": "addresses"}
{"source": "OSM", "region": "Kärnten", "osm_type": "node", "osm_id": 4870601214, "name": null, "category": null, "address": "Türkgasse 16, 9063 Maria Saal", "street": "Türkgasse", "housenumber": "16", "postcode": "9063", "place": "Maria Saal", "lat": 46.6772698, "lon": 14.342877, "tags": {"addr:city": "Maria Saal", "addr:housenumber": "16", "addr:postcode": "9063", "addr:street": "Türkgasse"}, "content": "Adresse: Türkgasse 16, 9063 Maria Saal\nOrt: Maria Saal\nPLZ: 9063\nKoordinaten: 46.677270, 14.342877", "doc_type": "addresses"}
{"source": "OSM", "region": "Kärnten", "osm_type": "node", "osm_id": 4870601215, "name": null, "category": null, "address": "Türkgasse 20, 9063 Maria Saal", "street": "Türkgasse", "housenumber": "20", "postcode": "9063", "place": "Maria Saal", "lat": 46.6774476, "lon": 14.3421398, "tags": {"addr:city": "Maria Saal", "addr:housenumber": "20", "addr:postcode": "9063", "addr:street": "Türkgasse"}, "content": "Adresse: Türkgasse 20, 9063 Maria Saal\nOrt: Maria Saal\nPLZ: 9063\nKoordinaten: 46.677448, 14.342140", "doc_type": "addresses"}
{"source": "OSM", "region": "Kärnten", "osm_type": "node", "osm_id": 4870601216, "name": null, "category": null, "address": "Türkgasse 17, 9063 Maria Saal", "street": "Türkgasse", "housenumber": "17", "postcode": "9063", "place": "Maria Saal", "lat": 46.6769293, "lon": 14.3422493, "tags": {"addr:city": "Maria Saal", "addr:housenumber": "17", "addr:postcode": "9063", "addr:street": "Türkgasse"}, "content": "Adresse: Türkgasse 17, 9063 Maria Saal\nOrt: Maria Saal\nPLZ: 9063\nKoordinaten: 46.676929, 14.342249", "doc_type": "addresses"}
{"source": "OSM", "region": "Kärnten", "osm_type": "node", "osm_id": 4870601217, "name": null, "category": null, "address": "Türkgasse 15, 9063 Maria Saal", "street": "Türkgasse", "housenumber": "15", "postcode": "9063", "place": "Maria Saal", "lat": 46.6766989, "lon": 14.3423716, "tags": {"addr:city": "Maria Saal", "addr:housenumber": "15", "addr:postcode": "9063", "addr:street": "Türkgasse"}, "content": "Adresse: Türkgasse 15, 9063 Maria Saal\nOrt: Maria Saal\nPLZ: 9063\nKoordinaten: 46.676699, 14.342372", "doc_type": "addresses"}
{"source": "OSM", "region": "Kärnten", "osm_type": "node", "osm_id": 4870601218, "name": null, "category": null, "address": "Keltenweg 12, 9063 Maria Saal", "street": "Keltenweg", "housenumber": "12", "postcode": "9063", "place": "Maria Saal", "lat": 46.6767207, "lon": 14.3441877, "tags": {"addr:city": "Maria Saal", "addr:housenumber": "12", "addr:postcode": "9063", "addr:street": "Keltenweg"}, "content": "Adresse: Keltenweg 12, 9063 Maria Saal\nOrt: Maria Saal\nPLZ: 9063\nKoordinaten: 46.676721, 14.344188", "doc_type": "addresses"}
{"source": "OSM", "region": "Kärnten", "osm_type": "node", "osm_id": 4870646123, "name": null, "category": null, "address": "Keltenweg 19, 9063 Maria Saal", "street": "Keltenweg", "housenumber": "19", "postcode": "9063", "place": "Maria Saal", "lat": 46.675886, "lon": 14.3437869, "tags": {"addr:city": "Maria Saal", "addr:housenumber": "19", "addr:postcode": "9063", "addr:street": "Keltenweg"}, "content": "Adresse: Keltenweg 19, 9063 Maria Saal\nOrt: Maria Saal\nPLZ: 9063\nKoordinaten: 46.675886, 14.343787", "doc_type": "addresses"}
{"source": "OSM", "region": "Kärnten", "osm_type": "node", "osm_id": 4870668335, "name": null, "category": null, "address": "Ferdinand Raunegger Straße 7, 9063 Maria Saal", "street": "Ferdinand Raunegger Straße", "housenumber": "7", "postcode": "9063", "place": "Maria Saal", "lat": 46.6803573, "lon": 14.3557881, "tags": {"addr:city": "Maria Saal", "addr:housenumber": "7", "addr:postcode": "9063", "addr:street": "Ferdinand Raunegger Straße"}, "content": "Adresse: Ferdinand Raunegger Straße 7, 9063 Maria Saal\nOrt: Maria Saal\nPLZ: 9063\nKoordinaten: 46.680357, 14.355788", "doc_type": "addresses"}
{"source": "OSM", "region": "Kärnten", "osm_type": "node", "osm_id": 4870668336, "name": null, "category": null, "address": "Ferdinand Raunegger Straße 24, 9063 Maria Saal", "street": "Ferdinand Raunegger Straße", "housenumber": "24", "postcode": "9063", "place": "Maria Saal", "lat": 46.6799869, "lon": 14.3556363, "tags": {"addr:city": "Maria Saal", "addr:housenumber": "24", "addr:postcode": "9063", "addr:street": "Ferdinand Raunegger Straße"}, "content": "Adresse: Ferdinand Raunegger Straße 24, 9063 Maria Saal\nOrt: Maria Saal\nPLZ: 9063\nKoordinaten: 46.679987, 14.355636", "doc_type": "addresses"}
{"source": "OSM", "region": "Kärnten", "osm_type": "node", "osm_id": 4870668342, "name": null, "category": null, "address": "Ferdinand Raunegger Straße 4, 9063 Maria Saal", "street": "Ferdinand Raunegger Straße", "housenumber": "4", "postcode": "9063", "place": "Maria Saal", "lat": 46.6804224, "lon": 14.3534808, "tags": {"addr:city": "Maria Saal", "addr:housenumber": "4", "addr:postcode": "9063", "addr:street": "Ferdinand Raunegger Straße"}, "content": "Adresse: Ferdinand Raunegger Straße 4, 9063 Maria Saal\nOrt: Maria Saal\nPLZ: 9063\nKoordinaten: 46.680422, 14.353481", "doc_type": "addresses"}
{"source": "OSM", "region": "Kärnten", "osm_type": "node", "osm_id": 4870676361, "name": null, "category": null, "address": "Zeller Straße 15, 9063 Maria Saal", "street": "Zeller Straße", "housenumber": "15", "postcode": "9063", "place": "Maria Saal", "lat": 46.6821127, "lon": 14.3552907, "tags": {"addr:city": "Maria Saal", "addr:housenumber": "15", "addr:postcode": "9063", "addr:street": "Zeller Straße"}, "content": "Adresse: Zeller Straße 15, 9063 Maria Saal\nOrt: Maria Saal\nPLZ: 9063\nKoordinaten: 46.682113, 14.355291", "doc_type": "addresses"}
{"source": "OSM", "region": "Kärnten", "osm_type": "node", "osm_id": 4874627971, "name": null, "category": null, "address": "Arndorfer Straße 3, 9063 Maria Saal", "street": "Arndorfer Straße", "housenumber": "3", "postcode": "9063", "place": "Maria Saal", "lat": 46.6819383, "lon": 14.3476284, "tags": {"addr:city": "Maria Saal", "addr:housenumber": "3", "addr:postcode": "9063", "addr:street": "Arndorfer Straße"}, "content": "Adresse: Arndorfer Straße 3, 9063 Maria Saal\nOrt: Maria Saal\nPLZ: 9063\nKoordinaten: 46.681938, 14.347628", "doc_type": "addresses"}
{"source": "OSM", "region": "Kärnten", "osm_type": "node", "osm_id": 4874628010, "name": null, "category": null, "address": "Bichlweg 1, 9063 Maria Saal", "street": "Bichlweg", "housenumber": "1", "postcode": "9063", "place": "Maria Saal", "lat": 46.6822344, "lon": 14.3498865, "tags": {"addr:city": "Maria Saal", "addr:housenumber": "1", "addr:postcode": "9063", "addr:street": "Bichlweg"}, "content": "Adresse: Bichlweg 1, 9063 Maria Saal\nOrt: Maria Saal\nPLZ: 9063\nKoordinaten: 46.682234, 14.349887", "doc_type": "addresses"}
{"source": "OSM", "region": "Kärnten", "osm_type": "node", "osm_id": 4874640538, "name": null, "category": null, "address": "Walter Rogatschnig Straße 18, 9063 Maria Saal", "street": "Walter Rogatschnig Straße", "housenumber": "18", "postcode": "9063", "place": "Maria Saal", "lat": 46.6863961, "lon": 14.3542109, "tags": {"addr:city": "Maria Saal", "addr:housenumber": "18", "addr:postcode": "9063", "addr:street": "Walter Rogatschnig Straße"}, "content": "Adresse: Walter Rogatschnig Straße 18, 9063 Maria Saal\nOrt: Maria Saal\nPLZ: 9063\nKoordinaten: 46.686396, 14.354211", "doc_type": "addresses"}
{"source": "OSM", "region": "Kärnten", "osm_type": "node", "osm_id": 4874694977, "name": null, "category": null, "address": "Modestusweg 2, 9063 Maria Saal", "street": "Modestusweg", "housenumber": "2", "postcode": "9063", "place": "Maria Saal", "lat": 46.6818411, "lon": 14.347409, "tags": {"addr:city": "Maria Saal", "addr:housenumber": "2", "addr:postcode": "9063", "addr:street": "Modestusweg"}, "content": "Adresse: Modestusweg 2, 9063 Maria Saal\nOrt: Maria Saal\nPLZ: 9063\nKoordinaten: 46.681841, 14.347409", "doc_type": "addresses"}
{"source": "OSM", "region": "Kärnten", "osm_type": "node", "osm_id": 4874694978, "name": null, "category": null, "address": "Arndorfer Straße 1, 9063 Maria Saal", "street": "Arndorfer Straße", "housenumber": "1", "postcode": "9063", "place": "Maria Saal", "lat": 46.68149, "lon": 14.3475776, "tags": {"addr:city": "Maria Saal", "addr:housenumber": "1", "addr:postcode": "9063", "addr:street": "Arndorfer Straße"}, "content": "Adresse: Arndorfer Straße 1, 9063 Maria Saal\nOrt: Maria Saal\nPLZ: 9063\nKoordinaten: 46.681490, 14.347578", "doc_type": "addresses"}
{"source": "OSM", "region": "Kärnten", "osm_type": "node", "osm_id": 4874772758, "name": null, "category": null, "address": "Seiserweg 2, 9063 Maria Saal", "street": "Seiserweg", "housenumber": "2", "postcode": "9063", "place": "Maria Saal", "lat": 46.6785738, "lon": 14.3455716, "tags": {"addr:city": "Maria Saal", "addr:housenumber": "2", "addr:postcode": "9063", "addr:street": "Seiserweg"}, "content": "Adresse: Seiserweg 2, 9063 Maria Saal\nOrt: Maria Saal\nPLZ: 9063\nKoordinaten: 46.678574, 14.345572", "doc_type": "addresses"}
{"source": "OSM", "region": "Kärnten", "osm_type": "node", "osm_id": 4874772770, "name": null, "category": null, "address": "Virgilweg 3, 9063 Maria Saal", "street": "Virgilweg", "housenumber": "3", "postcode": "9063", "place": "Maria Saal", "lat": 46.6781084, "lon": 14.344176, "tags": {"addr:city": "Maria Saal", "addr:housenumber": "3", "addr:postcode": "9063", "addr:street": "Virgilweg"}, "content": "Adresse: Virgilweg 3, 9063 Maria Saal\nOrt: Maria Saal\nPLZ: 9063\nKoordinaten: 46.678108, 14.344176", "doc_type": "addresses"}
{"source": "OSM", "region": "Kärnten", "osm_type": "node", "osm_id": 4874772773, "name": null, "category": null, "address": "Virgilweg 2, 9063 Maria Saal", "street": "Virgilweg", "housenumber": "2", "postcode": "9063", "place": "Maria Saal", "lat": 46.6783002, "lon": 14.344028, "tags": {"addr:city": "Maria Saal", "addr:housenumber": "2", "addr:postcode": "9063", "addr:street": "Virgilweg"}, "content": "Adresse: Virgilweg 2, 9063 Maria Saal\nOrt: Maria Saal\nPLZ: 9063\nKoordinaten: 46.678300, 14.344028", "doc_type": "addresses"}
{"source": "OSM", "region": "Kärnten", "osm_type": "node", "osm_id": 4922988300, "name": null, "category": null, "address": "48, 9063 Maria Saal", "street": null, "housenumber": "48", "postcode": "9063", "place": "Maria Saal", "lat": 46.6766728, "lon": 14.3051776, "tags": {"addr:city": "Maria Saal", "addr:housenumber": "48", "addr:place": "Wrießnitz", "addr:postcode": "9063"}, "content": "Adresse: 48, 9063 Maria Saal\nOrt: Maria Saal\nPLZ: 9063\nKoordinaten: 46.676673, 14.305178", "doc_type": "addresses"}
{"source": "OSM", "region": "Kärnten", "osm_type": "node", "osm_id": 4922988333, "name": null, "category": null, "address": "6, 9063 Maria Saal", "street": null, "housenumber": "6", "postcode": "9063", "place": "Maria Saal", "lat": 46.6762729, "lon": 14.2982717, "tags": {"addr:city": "Maria Saal", "addr:housenumber": "6", "addr:place": "Wrießnitz", "addr:postcode": "9063"}, "content": "Adresse: 6, 9063 Maria Saal\nOrt: Maria Saal\nPLZ: 9063\nKoordinaten: 46.676273, 14.298272", "doc_type": "addresses"}
{"source": "OSM", "region": "Kärnten", "osm_type": "node", "osm_id": 4923004198, "name": null, "category": null, "address": "8, 9063 Maria Saal", "street": null, "housenumber": "8", "postcode": "9063", "place": "Maria Saal", "lat": 46.7192019, "lon": 14.3796636, "tags": {"addr:city": "Maria Saal", "addr:housenumber": "8", "addr:place": "St. Michael am Zollfeld", "addr:postcode": "9063"}, "content": "Adresse: 8, 9063 Maria Saal\nOrt: Maria Saal\nPLZ: 9063\nKoordinaten: 46.719202, 14.379664", "doc_type": "addresses"}
{"source": "OSM", "region": "Kärnten", "osm_type": "node", "osm_id": 4923004821, "name": null, "category": null, "address": "13, 9063 Maria Saal", "street": null, "housenumber": "13", "postcode": "9063", "place": "Maria Saal", "lat": 46.7107659, "lon": 14.3765639, "tags": {"addr:city": "Maria Saal", "addr:housenumber": "13", "addr:place": "Willersdorf", "addr:postcode": "9063"}, "content": "Adresse: 13, 9063 Maria Saal\nOrt: Maria Saal\nPLZ: 9063\nKoordinaten: 46.710766, 14.376564", "doc_type": "addresses"}
{"source": "OSM", "region": "Kärnten", "osm_type": "node", "osm_id": 4924036084, "name": null, "category": null, "address": "Schnerichweg 18, 9063 Maria Saal", "street": "Schnerichweg", "housenumber": "18", "postcode": "9063", "place": "Maria Saal", "lat": 46.6810436, "lon": 14.3518775, "tags": {"addr:city": "Maria Saal", "addr:housenumber": "18", "addr:postcode": "9063", "addr:street": "Schnerichweg"}, "content": "Adresse: Schnerichweg 18, 9063 Maria Saal\nOrt: Maria Saal\nPLZ: 9063\nKoordinaten: 46.681044, 14.351878", "doc_type": "addresses"}
{"source": "OSM", "region": "Kärnten", "osm_type": "node", "osm_id": 4924036089, "name": null, "category": null, "address": "Gerhard Lampersberg Weg 8, 9063 Maria Saal", "street": "Gerhard Lampersberg Weg", "housenumber": "8", "postcode": "9063", "place": "Maria Saal", "lat": 46.680502, "lon": 14.3517302, "tags": {"addr:city": "Maria Saal", "addr:housenumber": "8", "addr:postcode": "9063", "addr:street": "Gerhard Lampersberg Weg"}, "content": "Adresse: Gerhard Lampersberg Weg 8, 9063 Maria Saal\nOrt: Maria Saal\nPLZ: 9063\nKoordinaten: 46.680502, 14.351730", "doc_type": "addresses"}
{"source": "OSM", "region": "Kärnten", "osm_type": "node", "osm_id": 4924036091, "name": null, "category": null, "address": "Gerhard Lampersberg Weg 6, 9063 Maria Saal", "street": "Gerhard Lampersberg Weg", "housenumber": "6", "postcode": "9063", "place": "Maria Saal", "lat": 46.6805244, "lon": 14.3513417, "tags": {"addr:city": "Maria Saal", "addr:housenumber": "6", "addr:postcode": "9063", "addr:street": "Gerhard Lampersberg Weg"}, "content": "Adresse: Gerhard Lampersberg Weg 6, 9063 Maria Saal\nOrt: Maria Saal\nPLZ: 9063\nKoordinaten: 46.680524, 14.351342", "doc_type": "addresses"}
{"source": "OSM", "region": "Kärnten", "osm_type": "node", "osm_id": 4924036092, "name": null, "category": null, "address": "Gerhard Lampersberg Weg 5, 9063 Maria Saal", "street": "Gerhard Lampersberg Weg", "housenumber": "5", "postcode": "9063", "place": "Maria Saal", "lat": 46.6808303, "lon": 14.3513457, "tags": {"addr:city": "Maria Saal", "addr:housenumber": "5", "addr:postcode": "9063", "addr:street": "Gerhard Lampersberg Weg"}, "content": "Adresse: Gerhard Lampersberg Weg 5, 9063 Maria Saal\nOrt: Maria Saal\nPLZ: 9063\nKoordinaten: 46.680830, 14.351346", "doc_type": "addresses"}
{"source": "OSM", "region": "Kärnten", "osm_type": "node", "osm_id": 4924036093, "name": null, "category": null, "address": "Gerhard Lampersberg Weg 4, 9063 Maria Saal", "street": "Gerhard Lampersberg Weg", "housenumber": "4", "postcode": "9063", "place": "Maria Saal", "lat": 46.6805413, "lon": 14.350994, "tags": {"addr:city": "Maria Saal", "addr:housenumber": "4", "addr:postcode": "9063", "addr:street": "Gerhard Lampersberg Weg"}, "content": "Adresse: Gerhard Lampersberg Weg 4, 9063 Maria Saal\nOrt: Maria Saal\nPLZ: 9063\nKoordinaten: 46.680541, 14.350994", "doc_type": "addresses"}
{"source": "OSM", "region": "Kärnten", "osm_type": "node", "osm_id": 4924036095, "name": null, "category": null, "address": "Gerhard Lampersberg Weg 2, 9063 Maria Saal", "street": "Gerhard Lampersberg Weg", "housenumber": "2", "postcode": "9063", "place": "Maria Saal", "lat": 46.6805441, "lon": 14.3505808, "tags": {"addr:city": "Maria Saal", "addr:housenumber": "2", "addr:postcode": "9063", "addr:street": "Gerhard Lampersberg Weg"}, "content": "Adresse: Gerhard Lampersberg Weg 2, 9063 Maria Saal\nOrt: Maria Saal\nPLZ: 9063\nKoordinaten: 46.680544, 14.350581", "doc_type": "addresses"}
{"source": "OSM", "region": "Kärnten", "osm_type": "node", "osm_id": 5627114943, "name": null, "category": null, "address": "1, 9063 Maria Saal", "street": null, "housenumber": "1", "postcode": "9063", "place": "Maria Saal", "lat": 46.6783744, "lon": 14.2970645, "tags": {"addr:city": "Maria Saal", "addr:housenumber": "1", "addr:place": "Wrießnitz", "addr:postcode": "9063"}, "content": "Adresse: 1, 9063 Maria Saal\nOrt: Maria Saal\nPLZ: 9063\nKoordinaten: 46.678374, 14.297064", "doc_type": "addresses"}
{"source": "OSM", "region": "Kärnten", "osm_type": "node", "osm_id": 5627395857, "name": null, "category": null, "address": "1, 9063 Maria Saal", "street": null, "housenumber": "1", "postcode": "9063", "place": "Maria Saal", "lat": 46.6783781, "lon": 14.2970887, "tags": {"addr:city": "Maria Saal", "addr:housenumber": "1", "addr:place": "Wrießnitz", "addr:postcode": "9063"}, "content": "Adresse: 1, 9063 Maria Saal\nOrt: Maria Saal\nPLZ: 9063\nKoordinaten: 46.678378, 14.297089", "doc_type": "addresses"}
{"source": "OSM", "region": "Kärnten", "osm_type": "node", "osm_id": 847843118, "name": "Kärntner Freilichtmuseum", "category": "tourism:museum", "address": "Museumweg 10, 9063 Maria Saal", "street": "Museumweg", "housenumber": "10", "postcode": "9063", "place": "Maria Saal", "lat": 46.6852949, "lon": 14.3470211, "tags": {"addr:city": "Maria Saal", "addr:housenumber": "10", "addr:postcode": "9063", "addr:street": "Museumweg", "name": "Kärntner Freilichtmuseum", "tourism": "museum"}, "content": "Kärntner Freilichtmuseum\nKategorie: tourism:museum\nAdresse: Museumweg 10, 9063 Maria Saal\nOrt: Maria Saal\nPLZ: 9063\nKoordinaten: 46.685295, 14.347021", "doc_type": "pois"}
{"source": "OSM", "region": "Kärnten", "osm_type": "node", "osm_id": 2414394519, "name": "Gasthof Puck", "category": "amenity:restaurant", "address": "1, 9063 Maria Saal", "street": null, "housenumber": "1", "postcode": "9063", "place": "Maria Saal", "lat": 46.6991462, "lon": 14.3557162, "tags": {"addr:city": "Maria Saal", "addr:housenumber": "1", "addr:place": "Zollfeld", "addr:postcode": "9063", "amenity": "restaurant", "name": "Gasthof Puck", "phone": "+43-4223-2235", "website": "https://www.puck.co.at/"}, "content": "Gasthof Puck\nKategorie: amenity:restaurant\nAdresse: 1, 9063 Maria Saal\nOrt: Maria Saal\nPLZ: 9063\nKoordinaten: 46.699146, 14.355716\nTags: amenity=restaurant, phone=+43-4223-2235, website=https://www.puck.co.at/", "doc_type": "pois"}
{"source": "OSM", "region": "Kärnten", "osm_type": "node", "osm_id": 3216533616, "name": "Kleintierpraxis", "category": "amenity:veterinary", "address": "Maria Saaler Berg Weg 11, 9063 Maria Saal", "street": "Maria Saaler Berg Weg", "housenumber": "11", "postcode": "9063", "place": "Maria Saal", "lat": 46.6791843, "lon": 14.3472729, "tags": {"addr:city": "Maria Saal", "addr:housenumber": "11", "addr:postcode": "9063", "addr:street": "Maria Saaler Berg Weg", "amenity": "veterinary", "name": "Kleintierpraxis"}, "content": "Kleintierpraxis\nKategorie: amenity:veterinary\nAdresse: Maria Saaler Berg Weg 11, 9063 Maria Saal\nOrt: Maria Saal\nPLZ: 9063\nKoordinaten: 46.679184, 14.347273\nTags: amenity=veterinary", "doc_type": "pois"}
{"source": "OSM", "region": "Kärnten", "osm_type": "node", "osm_id": 3216537133, "name": "Frisiersaloon Ortrun", "category": "shop:hairdresser", "address": "Maria Saaler Berg Weg 8, 9063 Maria Saal", "street": "Maria Saaler Berg Weg", "housenumber": "8", "postcode": "9063", "place": "Maria Saal", "lat": 46.6792947, "lon": 14.3470583, "tags": {"addr:city": "Maria Saal", "addr:housenumber": "8", "addr:postcode": "9063", "addr:street": "Maria Saaler Berg Weg", "name": "Frisiersaloon Ortrun", "shop": "hairdresser"}, "content": "Frisiersaloon Ortrun\nKategorie: shop:hairdresser\nAdresse: Maria Saaler Berg Weg 8, 9063 Maria Saal\nOrt: Maria Saal\nPLZ: 9063\nKoordinaten: 46.679295, 14.347058\nTags: shop=hairdresser", "doc_type": "pois"}
{"source": "OSM", "region": "Kärnten", "osm_type": "node", "osm_id": 3251015255, "name": "Gasthaus Dobernig \"Wurster\"", "category": "amenity:restaurant", "address": "9, 9063 Maria Saal", "street": null, "housenumber": "9", "postcode": "9063", "place": "Maria Saal", "lat": 46.6999004, "lon": 14.3354573, "tags": {"addr:city": "Maria Saal", "addr:housenumber": "9", "addr:place": "Möderndorf", "addr:postcode": "9063", "amenity": "restaurant", "name": "Gasthaus Dobernig \"Wurster\""}, "content": "Gasthaus Dobernig \"Wurster\"\nKategorie: amenity:restaurant\nAdresse: 9, 9063 Maria Saal\nOrt: Maria Saal\nPLZ: 9063\nKoordinaten: 46.699900, 14.335457\nTags: amenity=restaurant", "doc_type": "pois"}
{"source": "OSM", "region": "Kärnten", "osm_type": "node", "osm_id": 3252221279, "name": "Polizeiinspektion Maria Saal", "category": "amenity:police", "address": "Hauptplatz 9, 9063 Maria Saal", "street": "Hauptplatz", "housenumber": "9", "postcode": "9063", "place": "Maria Saal", "lat": 46.6811665, "lon": 14.3475566, "tags": {"addr:city": "Maria Saal", "addr:housenumber": "9", "addr:postcode": "9063", "addr:street": "Hauptplatz", "amenity": "police", "name": "Polizeiinspektion Maria Saal", "phone": "+43 59133 2111100"}, "content": "Polizeiinspektion Maria Saal\nKategorie: amenity:police\nAdresse: Hauptplatz 9, 9063 Maria Saal\nOrt: Maria Saal\nPLZ: 9063\nKoordinaten: 46.681167, 14.347557\nTags: amenity=police, phone=+43 59133 2111100", "doc_type": "pois"}
{"source": "OSM", "region": "Kärnten", "osm_type": "node", "osm_id": 3256294142, "name": "Dr. Ferdinand Kollmitzer", "category": "amenity:doctors", "address": "Maria Saaler Berg Weg 13, 9063 Maria Saal", "street": "Maria Saaler Berg Weg", "housenumber": "13", "postcode": "9063", "place": "Maria Saal", "lat": 46.6789984, "lon": 14.3472318, "tags": {"addr:city": "Maria Saal", "addr:housenumber": "13", "addr:postcode": "9063", "addr:street": "Maria Saaler Berg Weg", "amenity": "doctors", "healthcare": "doctor", "name": "Dr. Ferdinand Kollmitzer", "office": "physician"}, "content": "Dr. Ferdinand Kollmitzer\nKategorie: amenity:doctors\nAdresse: Maria Saaler Berg Weg 13, 9063 Maria Saal\nOrt: Maria Saal\nPLZ: 9063\nKoordinaten: 46.678998, 14.347232\nTags: amenity=doctors, healthcare=doctor, office=physician", "doc_type": "pois"}
{"source": "OSM", "region": "Kärnten", "osm_type": "node", "osm_id": 3256294147, "name": "Dr. Hermann Wilhelmer", "category": "amenity:doctors", "address": "Maria Saaler Berg Weg 4, 9063 Maria Saal", "street": "Maria Saaler Berg Weg", "housenumber": "4", "postcode": "9063", "place": "Maria Saal", "lat": 46.6797345, "lon": 14.3471566, "tags": {"addr:city": "Maria Saal", "addr:housenumber": "4", "addr:postcode": "9063", "addr:street": "Maria Saaler Berg Weg", "amenity": "doctors", "healthcare": "doctor", "name": "Dr. Hermann Wilhelmer", "office": "physician"}, "content": "Dr. Hermann Wilhelmer\nKategorie: amenity:doctors\nAdresse: Maria Saaler Berg Weg 4, 9063 Maria Saal\nOrt: Maria Saal\nPLZ: 9063\nKoordinaten: 46.679735, 14.347157\nTags: amenity=doctors, healthcare=doctor, office=physician", "doc_type": "pois"}
{"source": "OSM", "region": "Kärnten", "osm_type": "node", "osm_id": 3256294156, "name": "Dr. Andreas Perko, Zahnarzt", "category": "amenity:dentist", "address": "Hauptplatz 9, 9063 Maria Saal", "street": "Hauptplatz", "housenumber": "9", "postcode": "9063", "place": "Maria Saal", "lat": 46.6811989, "lon": 14.3474775, "tags": {"addr:city": "Maria Saal", "addr:housenumber": "9", "addr:postcode": "9063", "addr:street": "Hauptplatz", "amenity": "dentist", "healthcare": "dentist", "name": "Dr. Andreas Perko, Zahnarzt", "office": "physician"}, "content": "Dr. Andreas Perko, Zahnarzt\nKategorie: amenity:dentist\nAdresse: Hauptplatz 9, 9063 Maria Saal\nOrt: Maria Saal\nPLZ: 9063\nKoordinaten: 46.681199, 14.347478\nTags: amenity=dentist, healthcare=dentist, office=physician", "doc_type": "pois"}
