{"source": "OSM", "region": "Kärnten", "osm_type": "node", "osm_id": 320977846, "name": "Gamskogelhütte", "category": "amenity:restaurant", "address": "15, 9863 Rennweg", "street": null, "housenumber": "15", "postcode": "9863", "place": "Rennweg", "lat": 47.0553053, "lon": 13.6021804, "tags": {"addr:city": "Rennweg", "addr:housenumber": "15", "addr:place": "Katschberghöhe", "addr:postcode": "9863", "amenity": "restaurant", "name": "Gamskogelhütte", "operator": "Familie Strafner/Aschbacher"}, "content": "Gamskogelhütte\nKategorie: amenity:restaurant\nAdresse: 15, 9863 Rennweg\nOrt: Rennweg\nPLZ: 9863\nKoordinaten: 47.055305, 13.602180\nTags: amenity=restaurant, operator=Familie Strafner/Aschbacher", "doc_type": "addresses"}
{"source": "OSM", "region": "Kärnten", "osm_type": "node", "osm_id": 472638931, "name": "H. Dullnig", "category": "shop:car_repair", "address": "13, 9863 Rennweg", "street": null, "housenumber": "13", "postcode": "9863", "place": "Rennweg", "lat": 47.0347686, "lon": 13.580725, "tags": {"addr:city": "Rennweg", "addr:housenumber": "13", "addr:place": "Oberdorf", "addr:postcode": "9863", "name": "H. Dullnig", "shop": "car_repair"}, "content": "H. Dullnig\nKategorie: shop:car_repair\nAdresse: 13, 9863 Rennweg\nOrt: Rennweg\nPLZ: 9863\nKoordinaten: 47.034769, 13.580725\nTags: shop=car_repair", "doc_type": "addresses"}
{"source": "OSM", "region": "Kärnten", "osm_type": "node", "osm_id": 472638975, "name": "Campingstüberl", "category": "amenity:restaurant", "address": "24, 9863 Rennweg", "street": null, "housenumber": "24", "postcode": "9863", "place": "Rennweg", "lat": 47.0322685, "lon": 13.5952729, "tags": {"addr:city": "Rennweg", "addr:housenumber": "24", "addr:place": "Gries", "addr:postcode": "9863", "amenity": "restaurant", "name": "Campingstüberl"}, "content": "Campingstüberl\nKategorie: amenity:restaurant\nAdresse: 24, 9863 Rennweg\nOrt: Rennweg\nPLZ: 9863\nKoordinaten: 47.032269, 13.595273\nTags: amenity=restaurant", "doc_type": "addresses"}
{"source": "OSM", "region": "Kärnten", "osm_type": "node", "osm_id": 472639634, "name": null, "category": null, "address": "93, 9863 Rennweg", "street": null, "housenumber": "93", "postcode": "9863", "place": "Rennweg", "lat": 47.0269643, "lon": 13.5961529, "tags": {"addr:city": "Rennweg", "addr:housenumber": "93", "addr:place": "St. Peter", "addr:postcode": "9863"}, "content": "Adresse: 93, 9863 Rennweg\nOrt: Rennweg\nPLZ: 9863\nKoordinaten: 47.026964, 13.596153", "doc_type": "addresses"}
{"source": "OSM", "region": "Kärnten", "osm_type": "node", "osm_id": 472640012, "name": "Elektro Griesser", "category": "shop:electronics", "address": "42, 9863 Rennweg", "street": null, "housenumber": "42", "postcode": "9863", "place": "Rennweg", "lat": 47.0311715, "lon": 13.5945836, "tags": {"addr:city": "Rennweg", "addr:housenumber": "42", "addr:place": "Gries", "addr:postcode": "9863", "name": "Elektro Griesser", "shop": "electronics"}, "content": "Elektro Griesser\nKategorie: shop:electronics\nAdresse: 42, 9863 Rennweg\nOrt: Rennweg\nPLZ: 9863\nKoordinaten: 47.031171, 13.594584\nTags: shop=electronics", "doc_type": "addresses"}
{"source": "OSM", "region": "Kärnten", "osm_type": "node", "osm_id": 472641454, "name": "Laußnitzeralm", "category": "tourism:alpine_hut", "address": "20, 9863 Rennweg", "street": null, "housenumber": "20", "postcode": "9863", "place": "Rennweg", "lat": 47.0216698, "lon": 13.6827363, "tags": {"addr:city": "Rennweg", "addr:housenumber": "20", "addr:place": "Frankenberg", "addr:postcode": "9863", "name": "Laußnitzeralm", "operator": "Michael Pirker & Barbara Ilg", "tourism": "alpine_hut", "website": "https://www.laussnitzer.at/"}, "content": "Laußnitzeralm\nKategorie: tourism:alpine_hut\nAdresse: 20, 9863 Rennweg\nOrt: Rennweg\nPLZ: 9863\nKoordinaten: 47.021670, 13.682736\nTags: operator=Michael Pirker & Barbara Ilg, website=https://www.laussnitzer.at/", "doc_type": "addresses"}
{"source": "OSM", "region": "Kärnten", "osm_type": "node", "osm_id": 472642221, "name": "Pension Edelweiß", "category": "tourism:guest_house", "address": "13, 9863 Rennweg", "street": null, "housenumber": "13", "postcode": "9863", "place": "Rennweg", "lat": 47.0241929, "lon": 13.6122731, "tags": {"addr:city": "Rennweg", "addr:housenumber": "13", "addr:place": "St. Georgen", "addr:postcode": "9863", "name": "Pension Edelweiß", "operator": "Fam. Koch", "phone": "+434734 203", "tourism": "guest_house"}, "content": "Pension Edelweiß\nKategorie: tourism:guest_house\nAdresse: 13, 9863 Rennweg\nOrt: Rennweg\nPLZ: 9863\nKoordinaten: 47.024193, 13.612273\nTags: operator=Fam. Koch, phone=+434734 203", "doc_type": "addresses"}
{"source": "OSM", "region": "Kärnten", "osm_type": "node", "osm_id": 472642392, "name": null, "category": null, "address": "18, 9863 Rennweg", "street": null, "housenumber": "18", "postcode": "9863", "place": "Rennweg", "lat": 47.0221012, "lon": 13.6132403, "tags": {"addr:city": "Rennweg", "addr:housenumber": "18", "addr:place": "St. Georgen", "addr:postcode": "9863"}, "content": "Adresse: 18, 9863 Rennweg\nOrt: Rennweg\nPLZ: 9863\nKoordinaten: 47.022101, 13.613240", "doc_type": "addresses"}
{"source": "OSM", "region": "Kärnten", "osm_type": "node", "osm_id": 1502933792, "name": "Tourismusregion Katschberg - Lieser - Maltatal", "category": "tourism:information", "address": "30, 9863 Rennweg", "street": null, "housenumber": "30", "postcode": "9863", "place": "Rennweg", "lat": 47.0576767, "lon": 13.6144735, "tags": {"addr:city": "Rennweg", "addr:housenumber": "30", "addr:place": "Katschberghöhe", "addr:postcode": "9863", "name": "Tourismusregion Katschberg - Lieser - Maltatal", "phone": "+43 4734 630", "tourism": "information", "website": "https://www.katschberg.at/"}, "content": "Tourismusregion Katschberg - Lieser - Maltatal\nKategorie: tourism:information\nAdresse: 30, 9863 Rennweg\nOrt: Rennweg\nPLZ: 9863\nKoordinaten: 47.057677, 13.614474\nTags: phone=+43 4734 630, website=https://www.katschberg.at/", "doc_type": "addresses"}
{"source": "OSM", "region": "Kärnten", "osm_type": "node", "osm_id": 3069701533, "name": "Hotel Das KATSCHBERG", "category": "tourism:hotel", "address": "4, 9863 Rennweg", "street": null, "housenumber": "4", "postcode": "9863", "place": "Rennweg", "lat": 47.0577729, "lon": 13.6150989, "tags": {"addr:city": "Rennweg", "addr:housenumber": "4", "addr:place": "Katschberghöhe", "addr:postcode": "9863", "name": "Hotel Das KATSCHBERG", "operator": "Wolfgang Hinteregger", "phone": "+43 4734 266", "tourism": "hotel", "website": "https://www.das-katschberg.at/"}, "content": "Hotel Das KATSCHBERG\nKategorie: tourism:hotel\nAdresse: 4, 9863 Rennweg\nOrt: Rennweg\nPLZ: 9863\nKoordinaten: 47.057773, 13.615099\nTags: operator=Wolfgang Hinteregger, phone=+43 4734 266, website=https://www.das-katschberg.at/", "doc_type": "addresses"}
{"source": "OSM", "region": "Kärnten", "osm_type": "node", "osm_id": 4197611239, "name": null, "category": null, "address": "18a, 9863 Rennweg", "street": null, "housenumber": "18a", "postcode": "9863", "place": "Rennweg", "lat": 47.0221347, "lon": 13.6133554, "tags": {"addr:city": "Rennweg", "addr:housenumber": "18a", "addr:place": "St. Georgen", "addr:postcode": "9863"}, "content": "Adresse: 18a, 9863 Rennweg\nOrt: Rennweg\nPLZ: 9863\nKoordinaten: 47.022135, 13.613355", "doc_type": "addresses"}
{"source": "OSM", "region": "Kärnten", "osm_type": "node", "osm_id": 4207658221, "name": null, "category": null, "address": "31, 9863 Rennweg", "street": null, "housenumber": "31", "postcode": "9863", "place": "Rennweg", "lat": 47.026988, "lon": 13.5967386, "tags": {"addr:city": "Rennweg", "addr:housenumber": "31", "addr:place": "St. Peter", "addr:postcode": "9863"}, "content": "Adresse: 31, 9863 Rennweg\nOrt: Rennweg\nPLZ: 9863\nKoordinaten: 47.026988, 13.596739", "doc_type": "addresses"}
{"source": "OSM", "region": "Kärnten", "osm_type": "node", "osm_id": 4207658222, "name": null, "category": null, "address": "32, 9863 Rennweg", "street": null, "housenumber": "32", "postcode": "9863", "place": "Rennweg", "lat": 47.0270446, "lon": 13.5968123, "tags": {"addr:city": "Rennweg", "addr:housenumber": "32", "addr:place": "St. Peter", "addr:postcode": "9863"}, "content": "Adresse: 32, 9863 Rennweg\nOrt: Rennweg\nPLZ: 9863\nKoordinaten: 47.027045, 13.596812", "doc_type": "addresses"}
{"source": "OSM", "region": "Kärnten", "osm_type": "node", "osm_id": 4207658223, "name": null, "category": null, "address": "94, 9863 Rennweg", "street": null, "housenumber": "94", "postcode": "9863", "place": "Rennweg", "lat": 47.0270328, "lon": 13.5962195, "tags": {"addr:city": "Rennweg", "addr:housenumber": "94", "addr:place": "St. Peter", "addr:postcode": "9863"}, "content": "Adresse: 94, 9863 Rennweg\nOrt: Rennweg\nPLZ: 9863\nKoordinaten: 47.027033, 13.596220", "doc_type": "addresses"}
{"source": "OSM", "region": "Kärnten", "osm_type": "node", "osm_id": 4207658224, "name": null, "category": null, "address": "95, 9863 Rennweg", "street": null, "housenumber": "95", "postcode": "9863", "place": "Rennweg", "lat": 47.0270977, "lon": 13.596296, "tags": {"addr:city": "Rennweg", "addr:housenumber": "95", "addr:place": "St. Peter", "addr:postcode": "9863"}, "content": "Adresse: 95, 9863 Rennweg\nOrt: Rennweg\nPLZ: 9863\nKoordinaten: 47.027098, 13.596296", "doc_type": "addresses"}
{"source": "OSM", "region": "Kärnten", "osm_type": "node", "osm_id": 4209030003, "name": null, "category": null, "address": "7, 9863 Rennweg", "street": null, "housenumber": "7", "postcode": "9863", "place": "Rennweg", "lat": 47.0110395, "lon": 13.6045396, "tags": {"addr:city": "Rennweg", "addr:housenumber": "7", "addr:place": "Wirnsberg", "addr:postcode": "9863"}, "content": "Adresse: 7, 9863 Rennweg\nOrt: Rennweg\nPLZ: 9863\nKoordinaten: 47.011040, 13.604540", "doc_type": "addresses"}
{"source": "OSM", "region": "Kärnten", "osm_type": "node", "osm_id": 4209557919, "name": null, "category": null, "address": "13, 9863 Rennweg", "street": null, "housenumber": "13", "postcode": "9863", "place": "Rennweg", "lat": 47.0567923, "lon": 13.6121497, "tags": {"addr:city": "Rennweg", "addr:housenumber": "13", "addr:place": "Katschberghöhe", "addr:postcode": "9863"}, "content": "Adresse: 13, 9863 Rennweg\nOrt: Rennweg\nPLZ: 9863\nKoordinaten: 47.056792, 13.612150", "doc_type": "addresses"}
{"source": "OSM", "region": "Kärnten", "osm_type": "node", "osm_id": 4697938571, "name": null, "category": null, "address": "30a, 9863 Rennweg", "street": null, "housenumber": "30a", "postcode": "9863", "place": "Rennweg", "lat": 47.0297157, "lon": 13.5974028, "tags": {"addr:city": "Rennweg", "addr:housenumber": "30a", "addr:place": "Gries", "addr:postcode": "9863"}, "content": "Adresse: 30a, 9863 Rennweg\nOrt: Rennweg\nPLZ: 9863\nKoordinaten: 47.029716, 13.597403", "doc_type": "addresses"}
{"source": "OSM", "region": "Kärnten", "osm_type": "node", "osm_id": 4697938572, "name": null, "category": null, "address": "30b, 9863 Rennweg", "street": null, "housenumber": "30b", "postcode": "9863", "place": "Rennweg", "lat": 47.0297656, "lon": 13.5972922, "tags": {"addr:city": "Rennweg", "addr:housenumber": "30b", "addr:place": "Gries", "addr:postcode": "9863"}, "content": "Adresse: 30b, 9863 Rennweg\nOrt: Rennweg\nPLZ: 9863\nKoordinaten: 47.029766, 13.597292", "doc_type": "addresses"}
{"source": "OSM", "region": "Kärnten", "osm_type": "node", "osm_id": 5373661679, "name": null, "category": null, "address": "2, 9560 Rennweg", "street": null, "housenumber": "2", "postcode": "9560", "place": "Rennweg", "lat": 46.7316129, "lon": 14.071312, "tags": {"addr:city": "Rennweg", "addr:housenumber": "2", "addr:place": "Rennweg", "addr:postcode": "9560"}, "content": "Adresse: 2, 9560 Rennweg\nOrt: Rennweg\nPLZ: 9560\nKoordinaten: 46.731613, 14.071312", "doc_type": "addresses"}
{"source": "OSM", "region": "Kärnten", "osm_type": "node", "osm_id": 320977846, "name": "Gamskogelhütte", "category": "amenity:restaurant", "address": "15, 9863 Rennweg", "street": null, "housenumber": "15", "postcode": "9863", "place": "Rennweg", "lat": 47.0553053, "lon": 13.6021804, "tags": {"addr:city": "Rennweg", "addr:housenumber": "15", "addr:place": "Katschberghöhe", "addr:postcode": "9863", "amenity": "restaurant", "name": "Gamskogelhütte", "operator": "Familie Strafner/Aschbacher"}, "content": "Gamskogelhütte\nKategorie: amenity:restaurant\nAdresse: 15, 9863 Rennweg\nOrt: Rennweg\nPLZ: 9863\nKoordinaten: 47.055305, 13.602180\nTags: amenity=restaurant, operator=Familie Strafner/Aschbacher", "doc_type": "pois"}
{"source": "OSM", "region": "Kärnten", "osm_type": "node", "osm_id": 472638931, "name": "H. Dullnig", "category": "shop:car_repair", "address": "13, 9863 Rennweg", "street": null, "housenumber": "13", "postcode": "9863", "place": "Rennweg", "lat": 47.0347686, "lon": 13.580725, "tags": {"addr:city": "Rennweg", "addr:housenumber": "13", "addr:place": "Oberdorf", "addr:postcode": "9863", "name": "H. Dullnig", "shop": "car_repair"}, "content": "H. Dullnig\nKategorie: shop:car_repair\nAdresse: 13, 9863 Rennweg\nOrt: Rennweg\nPLZ: 9863\nKoordinaten: 47.034769, 13.580725\nTags: shop=car_repair", "doc_type": "pois"}
{"source": "OSM", "region": "Kärnten", "osm_type": "node", "osm_id": 472638975, "name": "Campingstüberl", "category": "amenity:restaurant", "address": "24, 9863 Rennweg", "street": null, "housenumber": "24", "postcode": "9863", "place": "Rennweg", "lat": 47.0322685, "lon": 13.5952729, "tags": {"addr:city": "Rennweg", "addr:housenumber": "24", "addr:place": "Gries", "addr:postcode": "9863", "amenity": "restaurant", "name": "Campingstüberl"}, "content": "Campingstüberl\nKategorie: amenity:restaurant\nAdresse: 24, 9863 Rennweg\nOrt: Rennweg\nPLZ: 9863\nKoordinaten: 47.032269, 13.595273\nTags: amenity=restaurant", "doc_type": "pois"}
{"source": "OSM", "region": "Kärnten", "osm_type": "node", "osm_id": 472640012, "name": "Elektro Griesser", "category": "shop:electronics", "address": "42, 9863 Rennweg", "street": null, "housenumber": "42", "postcode": "9863", "place": "Rennweg", "lat": 47.0311715, "lon": 13.5945836, "tags": {"addr:city": "Rennweg", "addr:housenumber": "42", "addr:place": "Gries", "addr:postcode": "9863", "name": "Elektro Griesser", "shop": "electronics"}, "content": "Elektro Griesser\nKategorie: shop:electronics\nAdresse: 42, 9863 Rennweg\nOrt: Rennweg\nPLZ: 9863\nKoordinaten: 47.031171, 13.594584\nTags: shop=electronics", "doc_type": "pois"}
{"source": "OSM", "region": "Kärnten", "osm_type": "node", "osm_id": 472641454, "name": "Laußnitzeralm", "category": "tourism:alpine_hut", "address": "20, 9863 Rennweg", "street": null, "housenumber": "20", "postcode": "9863", "place": "Rennweg", "lat": 47.0216698, "lon": 13.6827363, "tags": {"addr:city": "Rennweg", "addr:housenumber": "20", "addr:place": "Frankenberg", "addr:postcode": "9863", "name": "Laußnitzeralm", "operator": "Michael Pirker & Barbara Ilg", "tourism": "alpine_hut", "website": "https://www.laussnitzer.at/"}, "content": "Laußnitzeralm\nKategorie: tourism:alpine_hut\nAdresse: 20, 9863 Rennweg\nOrt: Rennweg\nPLZ: 9863\nKoordinaten: 47.021670, 13.682736\nTags: operator=Michael Pirker & Barbara Ilg, website=https://www.laussnitzer.at/", "doc_type": "pois"}
{"source": "OSM", "region": "Kärnten", "osm_type": "node", "osm_id": 472642221, "name": "Pension Edelweiß", "category": "tourism:guest_house", "address": "13, 9863 Rennweg", "street": null, "housenumber": "13", "postcode": "9863", "place": "Rennweg", "lat": 47.0241929, "lon": 13.6122731, "tags": {"addr:city": "Rennweg", "addr:housenumber": "13", "addr:place": "St. Georgen", "addr:postcode": "9863", "name": "Pension Edelweiß", "operator": "Fam. Koch", "phone": "+434734 203", "tourism": "guest_house"}, "content": "Pension Edelweiß\nKategorie: tourism:guest_house\nAdresse: 13, 9863 Rennweg\nOrt: Rennweg\nPLZ: 9863\nKoordinaten: 47.024193, 13.612273\nTags: operator=Fam. Koch, phone=+434734 203", "doc_type": "pois"}
{"source": "OSM", "region": "Kärnten", "osm_type": "node", "osm_id": 1502933792, "name": "Tourismusregion Katschberg - Lieser - Maltatal", "category": "tourism:information", "address": "30, 9863 Rennweg", "street": null, "housenumber": "30", "postcode": "9863", "place": "Rennweg", "lat": 47.0576767, "lon": 13.6144735, "tags": {"addr:city": "Rennweg", "addr:housenumber": "30", "addr:place": "Katschberghöhe", "addr:postcode": "9863", "name": "Tourismusregion Katschberg - Lieser - Maltatal", "phone": "+43 4734 630", "tourism": "information", "website": "https://www.katschberg.at/"}, "content": "Tourismusregion Katschberg - Lieser - Maltatal\nKategorie: tourism:information\nAdresse: 30, 9863 Rennweg\nOrt: Rennweg\nPLZ: 9863\nKoordinaten: 47.057677, 13.614474\nTags: phone=+43 4734 630, website=https://www.katschberg.at/", "doc_type": "pois"}
{"source": "OSM", "region": "Kärnten", "osm_type": "node", "osm_id": 3069701533, "name": "Hotel Das KATSCHBERG", "category": "tourism:hotel", "address": "4, 9863 Rennweg", "street": null, "housenumber": "4", "postcode": "9863", "place": "Rennweg", "lat": 47.0577729, "lon": 13.6150989, "tags": {"addr:city": "Rennweg", "addr:housenumber": "4", "addr:place": "Katschberghöhe", "addr:postcode": "9863", "name": "Hotel Das KATSCHBERG", "operator": "Wolfgang Hinteregger", "phone": "+43 4734 266", "tourism": "hotel", "website": "https://www.das-katschberg.at/"}, "content": "Hotel Das KATSCHBERG\nKategorie: tourism:hotel\nAdresse: 4, 9863 Rennweg\nOrt: Rennweg\nPLZ: 9863\nKoordinaten: 47.057773, 13.615099\nTags: operator=Wolfgang Hinteregger, phone=+43 4734 266, website=https://www.das-katschberg.at/", "doc_type": "pois"}
