{"source": "OSM", "region": "Kärnten", "osm_type": "node", "osm_id": 297306197, "name": "Polizeiinspektion Winklern", "category": "amenity:police", "address": "81, 9841 Winklern", "street": null, "housenumber": "81", "postcode": "9841", "place": "Winklern", "lat": 46.8691785, "lon": 12.8758146, "tags": {"addr:city": "Winklern", "addr:housenumber": "81", "addr:place": "Winklern", "addr:postcode": "9841", "amenity": "police", "name": "Polizeiinspektion Winklern", "phone": "+43 59133 2241100"}, "content": "Polizeiinspektion Winklern\nKategorie: amenity:police\nAdresse: 81, 9841 Winklern\nOrt: Winklern\nPLZ: 9841\nKoordinaten: 46.869178, 12.875815\nTags: amenity=police, phone=+43 59133 2241100", "doc_type": "addresses"}
{"source": "OSM", "region": "Kärnten", "osm_type": "node", "osm_id": 489872552, "name": "Dr. Tschikof", "category": "amenity:dentist", "address": "112, 9841 Winklern", "street": null, "housenumber": "112", "postcode": "9841", "place": "Winklern", "lat": 46.8688708, "lon": 12.8768854, "tags": {"addr:city": "Winklern", "addr:housenumber": "112", "addr:place": "Winklern", "addr:postcode": "9841", "amenity": "dentist", "name": "Dr. Tschikof"}, "content": "Dr. Tschikof\nKategorie: amenity:dentist\nAdresse: 112, 9841 Winklern\nOrt: Winklern\nPLZ: 9841\nKoordinaten: 46.868871, 12.876885\nTags: amenity=dentist", "doc_type": "addresses"}
{"source": "OSM", "region": "Kärnten", "osm_type": "node", "osm_id": 2352281738, "name": null, "category": null, "address": "37, 9841 Winklern", "street": null, "housenumber": "37", "postcode": "9841", "place": "Winklern", "lat": 46.8656276, "lon": 12.8829731, "tags": {"addr:city": "Winklern", "addr:housenumber": "37", "addr:place": "Langang", "addr:postcode": "9841"}, "content": "Adresse: 37, 9841 Winklern\nOrt: Winklern\nPLZ: 9841\nKoordinaten: 46.865628, 12.882973", "doc_type": "addresses"}
{"source": "OSM", "region": "Kärnten", "osm_type": "node", "osm_id": 2353126371, "name": null, "category": null, "address": "21, 9841 Winklern", "street": null, "housenumber": "21", "postcode": "9841", "place": "Winklern", "lat": 46.8751523, "lon": 12.8798563, "tags": {"addr:city": "Winklern", "addr:housenumber": "21", "addr:place": "Winklern", "addr:postcode": "9841"}, "content": "Adresse: 21, 9841 Winklern\nOrt: Winklern\nPLZ: 9841\nKoordinaten: 46.875152, 12.879856", "doc_type": "addresses"}
{"source": "OSM", "region": "Kärnten", "osm_type": "node", "osm_id": 297306197, "name": "Polizeiinspektion Winklern", "category": "amenity:police", "address": "81, 9841 Winklern", "street": null, "housenumber": "81", "postcode": "9841", "place": "Winklern", "lat": 46.8691785, "lon": 12.8758146, "tags": {"addr:city": "Winklern", "addr:housenumber": "81", "addr:place": "Winklern", "addr:postcode": "9841", "amenity": "police", "name": "Polizeiinspektion Winklern", "phone": "+43 59133 2241100"}, "content": "Polizeiinspektion Winklern\nKategorie: amenity:police\nAdresse: 81, 9841 Winklern\nOrt: Winklern\nPLZ: 9841\nKoordinaten: 46.869178, 12.875815\nTags: amenity=police, phone=+43 59133 2241100", "doc_type": "pois"}
{"source": "OSM", "region": "Kärnten", "osm_type": "node", "osm_id": 489872552, "name": "Dr. Tschikof", "category": "amenity:dentist", "address": "112, 9841 Winklern", "street": null, "housenumber": "112", "postcode": "9841", "place": "Winklern", "lat": 46.8688708, "lon": 12.8768854, "tags": {"addr:city": "Winklern", "addr:housenumber": "112", "addr:place": "Winklern", "addr:postcode": "9841", "amenity": "dentist", "name": "Dr. Tschikof"}, "content": "Dr. Tschikof\nKategorie: amenity:dentist\nAdresse: 112, 9841 Winklern\nOrt: Winklern\nPLZ: 9841\nKoordinaten: 46.868871, 12.876885\nTags: amenity=dentist", "doc_type": "pois"}
