{"source": "OSM", "region": "Kärnten", "osm_type": "node", "osm_id": 4890640034, "name": null, "category": null, "address": "Bachstraße 9, 9556 Liebenfels", "street": "Bachstraße", "housenumber": "9", "postcode": "9556", "place": "Liebenfels", "lat": 46.7372023, "lon": 14.2883421, "tags": {"addr:city": "Liebenfels", "addr:housenumber": "9", "addr:postcode": "9556", "addr:street": "Bachstraße"}, "content": "Adresse: Bachstraße 9, 9556 Liebenfels\nOrt: Liebenfels\nPLZ: 9556\nKoordinaten: 46.737202, 14.288342", "doc_type": "addresses"}
{"source": "OSM", "region": "Kärnten", "osm_type": "node", "osm_id": 4890640035, "name": null, "category": null, "address": "Kirchgasse 2, 9556 Liebenfels", "street": "Kirchgasse", "housenumber": "2", "postcode": "9556", "place": "Liebenfels", "lat": 46.7375027, "lon": 14.2893815, "tags": {"addr:city": "Liebenfels", "addr:housenumber": "2", "addr:postcode": "9556", "addr:street": "Kirchgasse"}, "content": "Adresse: Kirchgasse 2, 9556 Liebenfels\nOrt: Liebenfels\nPLZ: 9556\nKoordinaten: 46.737503, 14.289381", "doc_type": "addresses"}
{"source": "OSM", "region": "Kärnten", "osm_type": "node", "osm_id": 4962539501, "name": null, "category": null, "address": "Liemberger Straße 6, 9556 Liebenfels", "street": "Liemberger Straße", "housenumber": "6", "postcode": "9556", "place": "Liebenfels", "lat": 46.7388404, "lon": 14.286333, "tags": {"addr:city": "Liebenfels", "addr:housenumber": "6", "addr:postcode": "9556", "addr:street": "Liemberger Straße"}, "content": "Adresse: Liemberger Straße 6, 9556 Liebenfels\nOrt: Liebenfels\nPLZ: 9556\nKoordinaten: 46.738840, 14.286333", "doc_type": "addresses"}
{"source": "OSM", "region": "Kärnten", "osm_type": "node", "osm_id": 4998705341, "name": null, "category": null, "address": "Lorberhof 5, 9556 Liebenfels", "street": "Lorberhof", "housenumber": "5", "postcode": "9556", "place": "Liebenfels", "lat": 46.7079768, "lon": 14.2522541, "tags": {"addr:city": "Liebenfels", "addr:housenumber": "5", "addr:postcode": "9556", "addr:street": "Lorberhof"}, "content": "Adresse: Lorberhof 5, 9556 Liebenfels\nOrt: Liebenfels\nPLZ: 9556\nKoordinaten: 46.707977, 14.252254", "doc_type": "addresses"}
{"source": "OSM", "region": "Kärnten", "osm_type": "node", "osm_id": 4998705343, "name": null, "category": null, "address": "Lorberhof 20, 9556 Liebenfels", "street": "Lorberhof", "housenumber": "20", "postcode": "9556", "place": "Liebenfels", "lat": 46.7081656, "lon": 14.2532617, "tags": {"addr:city": "Liebenfels", "addr:housenumber": "20", "addr:postcode": "9556", "addr:street": "Lorberhof"}, "content": "Adresse: Lorberhof 20, 9556 Liebenfels\nOrt: Liebenfels\nPLZ: 9556\nKoordinaten: 46.708166, 14.253262", "doc_type": "addresses"}
{"source": "OSM", "region": "Kärnten", "osm_type": "node", "osm_id": 5016013501, "name": null, "category": null, "address": "Moos 1, 9556 Liebenfels", "street": "Moos", "housenumber": "1", "postcode": "9556", "place": "Liebenfels", "lat": 46.6990065, "lon": 14.2543606, "tags": {"addr:city": "Liebenfels", "addr:housenumber": "1", "addr:postcode": "9556", "addr:street": "Moos"}, "content": "Adresse: Moos 1, 9556 Liebenfels\nOrt: Liebenfels\nPLZ: 9556\nKoordinaten: 46.699007, 14.254361", "doc_type": "addresses"}
{"source": "OSM", "region": "Kärnten", "osm_type": "node", "osm_id": 5016282543, "name": null, "category": null, "address": "Zweikirchen 26, 9556 Liebenfels", "street": "Zweikirchen", "housenumber": "26", "postcode": "9556", "place": "Liebenfels", "lat": 46.7101041, "lon": 14.2573119, "tags": {"addr:city": "Liebenfels", "addr:housenumber": "26", "addr:postcode": "9556", "addr:street": "Zweikirchen"}, "content": "Adresse: Zweikirchen 26, 9556 Liebenfels\nOrt: Liebenfels\nPLZ: 9556\nKoordinaten: 46.710104, 14.257312", "doc_type": "addresses"}
{"source": "OSM", "region": "Kärnten", "osm_type": "node", "osm_id": 5016282544, "name": null, "category": null, "address": "Zweikirchen 20a, 9556 Liebenfels", "street": "Zweikirchen", "housenumber": "20a", "postcode": "9556", "place": "Liebenfels", "lat": 46.7121466, "lon": 14.2599666, "tags": {"addr:city": "Liebenfels", "addr:housenumber": "20a", "addr:postcode": "9556", "addr:street": "Zweikirchen"}, "content": "Adresse: Zweikirchen 20a, 9556 Liebenfels\nOrt: Liebenfels\nPLZ: 9556\nKoordinaten: 46.712147, 14.259967", "doc_type": "addresses"}
{"source": "OSM", "region": "Kärnten", "osm_type": "node", "osm_id": 5016282545, "name": null, "category": null, "address": "Zweikirchen 20, 9556 Liebenfels", "street": "Zweikirchen", "housenumber": "20", "postcode": "9556", "place": "Liebenfels", "lat": 46.7120172, "lon": 14.2600285, "tags": {"addr:city": "Liebenfels", "addr:housenumber": "20", "addr:postcode": "9556", "addr:street": "Zweikirchen"}, "content": "Adresse: Zweikirchen 20, 9556 Liebenfels\nOrt: Liebenfels\nPLZ: 9556\nKoordinaten: 46.712017, 14.260029", "doc_type": "addresses"}
{"source": "OSM", "region": "Kärnten", "osm_type": "node", "osm_id": 5016369471, "name": null, "category": null, "address": "Zweikirchen 57, 9556 Liebenfels", "street": "Zweikirchen", "housenumber": "57", "postcode": "9556", "place": "Liebenfels", "lat": 46.711521, "lon": 14.2621052, "tags": {"addr:city": "Liebenfels", "addr:housenumber": "57", "addr:postcode": "9556", "addr:street": "Zweikirchen"}, "content": "Adresse: Zweikirchen 57, 9556 Liebenfels\nOrt: Liebenfels\nPLZ: 9556\nKoordinaten: 46.711521, 14.262105", "doc_type": "addresses"}
{"source": "OSM", "region": "Kärnten", "osm_type": "node", "osm_id": 5017618166, "name": null, "category": null, "address": "Rohnsdorf 17a, 9556 Liebenfels", "street": "Rohnsdorf", "housenumber": "17a", "postcode": "9556", "place": "Liebenfels", "lat": 46.7213928, "lon": 14.2810217, "tags": {"addr:city": "Liebenfels", "addr:housenumber": "17a", "addr:postcode": "9556", "addr:street": "Rohnsdorf"}, "content": "Adresse: Rohnsdorf 17a, 9556 Liebenfels\nOrt: Liebenfels\nPLZ: 9556\nKoordinaten: 46.721393, 14.281022", "doc_type": "addresses"}
{"source": "OSM", "region": "Kärnten", "osm_type": "node", "osm_id": 5017618167, "name": null, "category": null, "address": "Rohnsdorf 17, 9556 Liebenfels", "street": "Rohnsdorf", "housenumber": "17", "postcode": "9556", "place": "Liebenfels", "lat": 46.7213648, "lon": 14.2807213, "tags": {"addr:city": "Liebenfels", "addr:housenumber": "17", "addr:postcode": "9556", "addr:street": "Rohnsdorf"}, "content": "Adresse: Rohnsdorf 17, 9556 Liebenfels\nOrt: Liebenfels\nPLZ: 9556\nKoordinaten: 46.721365, 14.280721", "doc_type": "addresses"}
{"source": "OSM", "region": "Kärnten", "osm_type": "node", "osm_id": 5017618171, "name": null, "category": null, "address": "Rohnsdorf 13, 9556 Liebenfels", "street": "Rohnsdorf", "housenumber": "13", "postcode": "9556", "place": "Liebenfels", "lat": 46.7203477, "lon": 14.2818808, "tags": {"addr:city": "Liebenfels", "addr:housenumber": "13", "addr:postcode": "9556", "addr:street": "Rohnsdorf"}, "content": "Adresse: Rohnsdorf 13, 9556 Liebenfels\nOrt: Liebenfels\nPLZ: 9556\nKoordinaten: 46.720348, 14.281881", "doc_type": "addresses"}
{"source": "OSM", "region": "Kärnten", "osm_type": "node", "osm_id": 5017618174, "name": null, "category": null, "address": "Rohnsdorf 4a, 9556 Liebenfels", "street": "Rohnsdorf", "housenumber": "4a", "postcode": "9556", "place": "Liebenfels", "lat": 46.719842, "lon": 14.279032, "tags": {"addr:city": "Liebenfels", "addr:housenumber": "4a", "addr:postcode": "9556", "addr:street": "Rohnsdorf"}, "content": "Adresse: Rohnsdorf 4a, 9556 Liebenfels\nOrt: Liebenfels\nPLZ: 9556\nKoordinaten: 46.719842, 14.279032", "doc_type": "addresses"}
{"source": "OSM", "region": "Kärnten", "osm_type": "node", "osm_id": 5017618175, "name": null, "category": null, "address": "Rohnsdorf 4, 9556 Liebenfels", "street": "Rohnsdorf", "housenumber": "4", "postcode": "9556", "place": "Liebenfels", "lat": 46.7198229, "lon": 14.2789809, "tags": {"addr:city": "Liebenfels", "addr:housenumber": "4", "addr:postcode": "9556", "addr:street": "Rohnsdorf"}, "content": "Adresse: Rohnsdorf 4, 9556 Liebenfels\nOrt: Liebenfels\nPLZ: 9556\nKoordinaten: 46.719823, 14.278981", "doc_type": "addresses"}
{"source": "OSM", "region": "Kärnten", "osm_type": "node", "osm_id": 5017618177, "name": null, "category": null, "address": "Rohnsdorf 31, 9556 Liebenfels", "street": "Rohnsdorf", "housenumber": "31", "postcode": "9556", "place": "Liebenfels", "lat": 46.7205964, "lon": 14.2811788, "tags": {"addr:city": "Liebenfels", "addr:housenumber": "31", "addr:postcode": "9556", "addr:street": "Rohnsdorf"}, "content": "Adresse: Rohnsdorf 31, 9556 Liebenfels\nOrt: Liebenfels\nPLZ: 9556\nKoordinaten: 46.720596, 14.281179", "doc_type": "addresses"}
{"source": "OSM", "region": "Kärnten", "osm_type": "node", "osm_id": 5017618178, "name": null, "category": null, "address": "Rohnsdorf 24, 9556 Liebenfels", "street": "Rohnsdorf", "housenumber": "24", "postcode": "9556", "place": "Liebenfels", "lat": 46.720779, "lon": 14.2823935, "tags": {"addr:city": "Liebenfels", "addr:housenumber": "24", "addr:postcode": "9556", "addr:street": "Rohnsdorf"}, "content": "Adresse: Rohnsdorf 24, 9556 Liebenfels\nOrt: Liebenfels\nPLZ: 9556\nKoordinaten: 46.720779, 14.282393", "doc_type": "addresses"}
{"source": "OSM", "region": "Kärnten", "osm_type": "node", "osm_id": 5017618185, "name": null, "category": null, "address": "Rohnsdorf 17b, 9556 Liebenfels", "street": "Rohnsdorf", "housenumber": "17b", "postcode": "9556", "place": "Liebenfels", "lat": 46.721477, "lon": 14.2805525, "tags": {"addr:city": "Liebenfels", "addr:housenumber": "17b", "addr:postcode": "9556", "addr:street": "Rohnsdorf"}, "content": "Adresse: Rohnsdorf 17b, 9556 Liebenfels\nOrt: Liebenfels\nPLZ: 9556\nKoordinaten: 46.721477, 14.280553", "doc_type": "addresses"}
{"source": "OSM", "region": "Kärnten", "osm_type": "node", "osm_id": 5018501990, "name": null, "category": null, "address": "Tschadam 2, 9556 Liebenfels", "street": "Tschadam", "housenumber": "2", "postcode": "9556", "place": "Liebenfels", "lat": 46.7359795, "lon": 14.2756382, "tags": {"addr:city": "Liebenfels", "addr:housenumber": "2", "addr:postcode": "9556", "addr:street": "Tschadam"}, "content": "Adresse: Tschadam 2, 9556 Liebenfels\nOrt: Liebenfels\nPLZ: 9556\nKoordinaten: 46.735979, 14.275638", "doc_type": "addresses"}
{"source": "OSM", "region": "Kärnten", "osm_type": "node", "osm_id": 5018501991, "name": null, "category": null, "address": "Tschadam 1, 9556 Liebenfels", "street": "Tschadam", "housenumber": "1", "postcode": "9556", "place": "Liebenfels", "lat": 46.7361596, "lon": 14.2745161, "tags": {"addr:city": "Liebenfels", "addr:housenumber": "1", "addr:postcode": "9556", "addr:street": "Tschadam"}, "content": "Adresse: Tschadam 1, 9556 Liebenfels\nOrt: Liebenfels\nPLZ: 9556\nKoordinaten: 46.736160, 14.274516", "doc_type": "addresses"}
{"source": "OSM", "region": "Kärnten", "osm_type": "node", "osm_id": 5018501992, "name": null, "category": null, "address": "Sankt Veiter Straße 15, 9556 Liebenfels", "street": "Sankt Veiter Straße", "housenumber": "15", "postcode": "9556", "place": "Liebenfels", "lat": 46.7395536, "lon": 14.2912808, "tags": {"addr:city": "Liebenfels", "addr:housenumber": "15", "addr:postcode": "9556", "addr:street": "Sankt Veiter Straße"}, "content": "Adresse: Sankt Veiter Straße 15, 9556 Liebenfels\nOrt: Liebenfels\nPLZ: 9556\nKoordinaten: 46.739554, 14.291281", "doc_type": "addresses"}
{"source": "OSM", "region": "Kärnten", "osm_type": "node", "osm_id": 5018501993, "name": null, "category": null, "address": "Sportplatzstraße 22, 9556 Liebenfels", "street": "Sportplatzstraße", "housenumber": "22", "postcode": "9556", "place": "Liebenfels", "lat": 46.7353247, "lon": 14.2909636, "tags": {"addr:city": "Liebenfels", "addr:housenumber": "22", "addr:postcode": "9556", "addr:street": "Sportplatzstraße"}, "content": "Adresse: Sportplatzstraße 22, 9556 Liebenfels\nOrt: Liebenfels\nPLZ: 9556\nKoordinaten: 46.735325, 14.290964", "doc_type": "addresses"}
{"source": "OSM", "region": "Kärnten", "osm_type": "node", "osm_id": 5018501994, "name": null, "category": null, "address": "Feldgasse 46, 9556 Liebenfels", "street": "Feldgasse", "housenumber": "46", "postcode": "9556", "place": "Liebenfels", "lat": 46.7380889, "lon": 14.2925337, "tags": {"addr:city": "Liebenfels", "addr:housenumber": "46", "addr:postcode": "9556", "addr:street": "Feldgasse"}, "content": "Adresse: Feldgasse 46, 9556 Liebenfels\nOrt: Liebenfels\nPLZ: 9556\nKoordinaten: 46.738089, 14.292534", "doc_type": "addresses"}
{"source": "OSM", "region": "Kärnten", "osm_type": "node", "osm_id": 5018501995, "name": null, "category": null, "address": "Sankt Veiter Straße 2, 9556 Liebenfels", "street": "Sankt Veiter Straße", "housenumber": "2", "postcode": "9556", "place": "Liebenfels", "lat": 46.7382974, "lon": 14.2879648, "tags": {"addr:city": "Liebenfels", "addr:housenumber": "2", "addr:postcode": "9556", "addr:street": "Sankt Veiter Straße"}, "content": "Adresse: Sankt Veiter Straße 2, 9556 Liebenfels\nOrt: Liebenfels\nPLZ: 9556\nKoordinaten: 46.738297, 14.287965", "doc_type": "addresses"}
{"source": "OSM", "region": "Kärnten", "osm_type": "node", "osm_id": 5379303486, "name": null, "category": null, "address": "Höhenweg 2a, 9556 Liebenfels", "street": "Höhenweg", "housenumber": "2a", "postcode": "9556", "place": "Liebenfels", "lat": 46.7527044, "lon": 14.2852478, "tags": {"addr:city": "Liebenfels", "addr:housenumber": "2a", "addr:postcode": "9556", "addr:street": "Höhenweg"}, "content": "Adresse: Höhenweg 2a, 9556 Liebenfels\nOrt: Liebenfels\nPLZ: 9556\nKoordinaten: 46.752704, 14.285248", "doc_type": "addresses"}
{"source": "OSM", "region": "Kärnten", "osm_type": "node", "osm_id": 5379303487, "name": null, "category": null, "address": "Höhenweg 2, 9556 Liebenfels", "street": "Höhenweg", "housenumber": "2", "postcode": "9556", "place": "Liebenfels", "lat": 46.7526935, "lon": 14.2853667, "tags": {"addr:city": "Liebenfels", "addr:housenumber": "2", "addr:postcode": "9556", "addr:street": "Höhenweg"}, "content": "Adresse: Höhenweg 2, 9556 Liebenfels\nOrt: Liebenfels\nPLZ: 9556\nKoordinaten: 46.752693, 14.285367", "doc_type": "addresses"}
{"source": "OSM", "region": "Kärnten", "osm_type": "node", "osm_id": 5379369985, "name": null, "category": null, "address": "4, 9556 Liebenfels", "street": null, "housenumber": "4", "postcode": "9556", "place": "Liebenfels", "lat": 46.7555732, "lon": 14.2974746, "tags": {"addr:city": "Liebenfels", "addr:housenumber": "4", "addr:place": "Rosenbichl", "addr:postcode": "9556"}, "content": "Adresse: 4, 9556 Liebenfels\nOrt: Liebenfels\nPLZ: 9556\nKoordinaten: 46.755573, 14.297475", "doc_type": "addresses"}
{"source": "OSM", "region": "Kärnten", "osm_type": "node", "osm_id": 5395632235, "name": null, "category": null, "address": "5, 9556 Liebenfels", "street": null, "housenumber": "5", "postcode": "9556", "place": "Liebenfels", "lat": 46.7487124, "lon": 14.2650953, "tags": {"addr:city": "Liebenfels", "addr:housenumber": "5", "addr:place": "Glantschach", "addr:postcode": "9556"}, "content": "Adresse: 5, 9556 Liebenfels\nOrt: Liebenfels\nPLZ: 9556\nKoordinaten: 46.748712, 14.265095", "doc_type": "addresses"}
{"source": "OSM", "region": "Kärnten", "osm_type": "node", "osm_id": 5397088678, "name": null, "category": null, "address": "25, 9556 Liebenfels", "street": null, "housenumber": "25", "postcode": "9556", "place": "Liebenfels", "lat": 46.7497379, "lon": 14.2666537, "tags": {"addr:city": "Liebenfels", "addr:housenumber": "25", "addr:place": "Glantschach", "addr:postcode": "9556"}, "content": "Adresse: 25, 9556 Liebenfels\nOrt: Liebenfels\nPLZ: 9556\nKoordinaten: 46.749738, 14.266654", "doc_type": "addresses"}
{"source": "OSM", "region": "Kärnten", "osm_type": "node", "osm_id": 5397088679, "name": null, "category": null, "address": "4, 9556 Liebenfels", "street": null, "housenumber": "4", "postcode": "9556", "place": "Liebenfels", "lat": 46.7490451, "lon": 14.2663184, "tags": {"addr:city": "Liebenfels", "addr:housenumber": "4", "addr:place": "Glantschach", "addr:postcode": "9556"}, "content": "Adresse: 4, 9556 Liebenfels\nOrt: Liebenfels\nPLZ: 9556\nKoordinaten: 46.749045, 14.266318", "doc_type": "addresses"}
{"source": "OSM", "region": "Kärnten", "osm_type": "node", "osm_id": 5397088680, "name": null, "category": null, "address": "22, 9556 Liebenfels", "street": null, "housenumber": "22", "postcode": "9556", "place": "Liebenfels", "lat": 46.74908, "lon": 14.265845, "tags": {"addr:city": "Liebenfels", "addr:housenumber": "22", "addr:place": "Glantschach", "addr:postcode": "9556"}, "content": "Adresse: 22, 9556 Liebenfels\nOrt: Liebenfels\nPLZ: 9556\nKoordinaten: 46.749080, 14.265845", "doc_type": "addresses"}
{"source": "OSM", "region": "Kärnten", "osm_type": "node", "osm_id": 5397089556, "name": null, "category": null, "address": "2a, 9556 Liebenfels", "street": null, "housenumber": "2a", "postcode": "9556", "place": "Liebenfels", "lat": 46.7491755, "lon": 14.2685232, "tags": {"addr:city": "Liebenfels", "addr:housenumber": "2a", "addr:place": "Glantschach", "addr:postcode": "9556"}, "content": "Adresse: 2a, 9556 Liebenfels\nOrt: Liebenfels\nPLZ: 9556\nKoordinaten: 46.749175, 14.268523", "doc_type": "addresses"}
{"source": "OSM", "region": "Kärnten", "osm_type": "node", "osm_id": 5398174210, "name": null, "category": null, "address": "8a, 9556 Liebenfels", "street": null, "housenumber": "8a", "postcode": "9556", "place": "Liebenfels", "lat": 46.7654993, "lon": 14.2837913, "tags": {"addr:city": "Liebenfels", "addr:housenumber": "8a", "addr:place": "Reidenau", "addr:postcode": "9556"}, "content": "Adresse: 8a, 9556 Liebenfels\nOrt: Liebenfels\nPLZ: 9556\nKoordinaten: 46.765499, 14.283791", "doc_type": "addresses"}
{"source": "OSM", "region": "Kärnten", "osm_type": "node", "osm_id": 5398281212, "name": null, "category": null, "address": "30a, 9556 Liebenfels", "street": null, "housenumber": "30a", "postcode": "9556", "place": "Liebenfels", "lat": 46.7637488, "lon": 14.2889903, "tags": {"addr:city": "Liebenfels", "addr:housenumber": "30a", "addr:place": "Waggendorf", "addr:postcode": "9556"}, "content": "Adresse: 30a, 9556 Liebenfels\nOrt: Liebenfels\nPLZ: 9556\nKoordinaten: 46.763749, 14.288990", "doc_type": "addresses"}
{"source": "OSM", "region": "Kärnten", "osm_type": "node", "osm_id": 5398500085, "name": null, "category": null, "address": "66, 9556 Liebenfels", "street": null, "housenumber": "66", "postcode": "9556", "place": "Liebenfels", "lat": 46.7467411, "lon": 14.26274, "tags": {"addr:city": "Liebenfels", "addr:housenumber": "66", "addr:place": "Glantschach", "addr:postcode": "9556"}, "content": "Adresse: 66, 9556 Liebenfels\nOrt: Liebenfels\nPLZ: 9556\nKoordinaten: 46.746741, 14.262740", "doc_type": "addresses"}
{"source": "OSM", "region": "Kärnten", "osm_type": "node", "osm_id": 5398500762, "name": null, "category": null, "address": "2b, 9556 Liebenfels", "street": null, "housenumber": "2b", "postcode": "9556", "place": "Liebenfels", "lat": 46.7491089, "lon": 14.2685857, "tags": {"addr:city": "Liebenfels", "addr:housenumber": "2b", "addr:place": "Glantschach", "addr:postcode": "9556"}, "content": "Adresse: 2b, 9556 Liebenfels\nOrt: Liebenfels\nPLZ: 9556\nKoordinaten: 46.749109, 14.268586", "doc_type": "addresses"}
{"source": "OSM", "region": "Kärnten", "osm_type": "node", "osm_id": 5398500768, "name": null, "category": null, "address": "20a, 9556 Liebenfels", "street": null, "housenumber": "20a", "postcode": "9556", "place": "Liebenfels", "lat": 46.7460402, "lon": 14.2733299, "tags": {"addr:city": "Liebenfels", "addr:housenumber": "20a", "addr:place": "Glantschach", "addr:postcode": "9556"}, "content": "Adresse: 20a, 9556 Liebenfels\nOrt: Liebenfels\nPLZ: 9556\nKoordinaten: 46.746040, 14.273330", "doc_type": "addresses"}
{"source": "OSM", "region": "Kärnten", "osm_type": "node", "osm_id": 5398500966, "name": null, "category": null, "address": "3, 9556 Liebenfels", "street": null, "housenumber": "3", "postcode": "9556", "place": "Liebenfels", "lat": 46.75584, "lon": 14.2973075, "tags": {"addr:city": "Liebenfels", "addr:housenumber": "3", "addr:place": "Rosenbichl", "addr:postcode": "9556"}, "content": "Adresse: 3, 9556 Liebenfels\nOrt: Liebenfels\nPLZ: 9556\nKoordinaten: 46.755840, 14.297308", "doc_type": "addresses"}
{"source": "OSM", "region": "Kärnten", "osm_type": "node", "osm_id": 5398500995, "name": null, "category": null, "address": "2, 9556 Liebenfels", "street": null, "housenumber": "2", "postcode": "9556", "place": "Liebenfels", "lat": 46.7445394, "lon": 14.2564996, "tags": {"addr:city": "Liebenfels", "addr:housenumber": "2", "addr:place": "Kulm", "addr:postcode": "9556"}, "content": "Adresse: 2, 9556 Liebenfels\nOrt: Liebenfels\nPLZ: 9556\nKoordinaten: 46.744539, 14.256500", "doc_type": "addresses"}
{"source": "OSM", "region": "Kärnten", "osm_type": "node", "osm_id": 5398501042, "name": null, "category": null, "address": "2, 9556 Liebenfels", "street": null, "housenumber": "2", "postcode": "9556", "place": "Liebenfels", "lat": 46.7408233, "lon": 14.2706272, "tags": {"addr:city": "Liebenfels", "addr:housenumber": "2", "addr:place": "Woitsch", "addr:postcode": "9556"}, "content": "Adresse: 2, 9556 Liebenfels\nOrt: Liebenfels\nPLZ: 9556\nKoordinaten: 46.740823, 14.270627", "doc_type": "addresses"}
{"source": "OSM", "region": "Kärnten", "osm_type": "node", "osm_id": 5398501100, "name": null, "category": null, "address": "Burgstraße 34, 9556 Liebenfels", "street": "Burgstraße", "housenumber": "34", "postcode": "9556", "place": "Liebenfels", "lat": 46.7538986, "lon": 14.2864819, "tags": {"addr:city": "Liebenfels", "addr:housenumber": "34", "addr:postcode": "9556", "addr:street": "Burgstraße"}, "content": "Adresse: Burgstraße 34, 9556 Liebenfels\nOrt: Liebenfels\nPLZ: 9556\nKoordinaten: 46.753899, 14.286482", "doc_type": "addresses"}
{"source": "OSM", "region": "Kärnten", "osm_type": "node", "osm_id": 5398501101, "name": null, "category": null, "address": "Brunnenstraße 22, 9556 Liebenfels", "street": "Brunnenstraße", "housenumber": "22", "postcode": "9556", "place": "Liebenfels", "lat": 46.7518331, "lon": 14.2836291, "tags": {"addr:city": "Liebenfels", "addr:housenumber": "22", "addr:postcode": "9556", "addr:street": "Brunnenstraße"}, "content": "Adresse: Brunnenstraße 22, 9556 Liebenfels\nOrt: Liebenfels\nPLZ: 9556\nKoordinaten: 46.751833, 14.283629", "doc_type": "addresses"}
{"source": "OSM", "region": "Kärnten", "osm_type": "node", "osm_id": 5399781197, "name": null, "category": null, "address": "9, 9556 Liebenfels", "street": null, "housenumber": "9", "postcode": "9556", "place": "Liebenfels", "lat": 46.7629586, "lon": 14.2952695, "tags": {"addr:city": "Liebenfels", "addr:housenumber": "9", "addr:place": "Waggendorf", "addr:postcode": "9556"}, "content": "Adresse: 9, 9556 Liebenfels\nOrt: Liebenfels\nPLZ: 9556\nKoordinaten: 46.762959, 14.295269", "doc_type": "addresses"}
{"source": "OSM", "region": "Kärnten", "osm_type": "node", "osm_id": 5399781198, "name": null, "category": null, "address": "71, 9556 Liebenfels", "street": null, "housenumber": "71", "postcode": "9556", "place": "Liebenfels", "lat": 46.7634472, "lon": 14.2951239, "tags": {"addr:city": "Liebenfels", "addr:housenumber": "71", "addr:place": "Waggendorf", "addr:postcode": "9556"}, "content": "Adresse: 71, 9556 Liebenfels\nOrt: Liebenfels\nPLZ: 9556\nKoordinaten: 46.763447, 14.295124", "doc_type": "addresses"}
{"source": "OSM", "region": "Kärnten", "osm_type": "node", "osm_id": 5399781692, "name": null, "category": null, "address": "8, 9556 Liebenfels", "street": null, "housenumber": "8", "postcode": "9556", "place": "Liebenfels", "lat": 46.7655651, "lon": 14.2835675, "tags": {"addr:city": "Liebenfels", "addr:housenumber": "8", "addr:place": "Reidenau", "addr:postcode": "9556"}, "content": "Adresse: 8, 9556 Liebenfels\nOrt: Liebenfels\nPLZ: 9556\nKoordinaten: 46.765565, 14.283568", "doc_type": "addresses"}
{"source": "OSM", "region": "Kärnten", "osm_type": "node", "osm_id": 5399781719, "name": null, "category": null, "address": "37a, 9556 Liebenfels", "street": null, "housenumber": "37a", "postcode": "9556", "place": "Liebenfels", "lat": 46.7617203, "lon": 14.2813627, "tags": {"addr:city": "Liebenfels", "addr:housenumber": "37a", "addr:place": "Waggendorf", "addr:postcode": "9556"}, "content": "Adresse: 37a, 9556 Liebenfels\nOrt: Liebenfels\nPLZ: 9556\nKoordinaten: 46.761720, 14.281363", "doc_type": "addresses"}
{"source": "OSM", "region": "Kärnten", "osm_type": "node", "osm_id": 5399781720, "name": null, "category": null, "address": "37b, 9556 Liebenfels", "street": null, "housenumber": "37b", "postcode": "9556", "place": "Liebenfels", "lat": 46.7617636, "lon": 14.2815363, "tags": {"addr:city": "Liebenfels", "addr:housenumber": "37b", "addr:place": "Waggendorf", "addr:postcode": "9556"}, "content": "Adresse: 37b, 9556 Liebenfels\nOrt: Liebenfels\nPLZ: 9556\nKoordinaten: 46.761764, 14.281536", "doc_type": "addresses"}
{"source": "OSM", "region": "Kärnten", "osm_type": "node", "osm_id": 5399781921, "name": null, "category": null, "address": "37, 9556 Liebenfels", "street": null, "housenumber": "37", "postcode": "9556", "place": "Liebenfels", "lat": 46.7617646, "lon": 14.2816275, "tags": {"addr:city": "Liebenfels", "addr:housenumber": "37", "addr:place": "Waggendorf", "addr:postcode": "9556"}, "content": "Adresse: 37, 9556 Liebenfels\nOrt: Liebenfels\nPLZ: 9556\nKoordinaten: 46.761765, 14.281628", "doc_type": "addresses"}
{"source": "OSM", "region": "Kärnten", "osm_type": "node", "osm_id": 5399782251, "name": null, "category": null, "address": "1, 9556 Liebenfels", "street": null, "housenumber": "1", "postcode": "9556", "place": "Liebenfels", "lat": 46.7508587, "lon": 14.2775714, "tags": {"addr:city": "Liebenfels", "addr:housenumber": "1", "addr:place": "Hoch-Liebenfels", "addr:postcode": "9556"}, "content": "Adresse: 1, 9556 Liebenfels\nOrt: Liebenfels\nPLZ: 9556\nKoordinaten: 46.750859, 14.277571", "doc_type": "addresses"}
{"source": "OSM", "region": "Kärnten", "osm_type": "node", "osm_id": 5399782252, "name": null, "category": null, "address": "3, 9556 Liebenfels", "street": null, "housenumber": "3", "postcode": "9556", "place": "Liebenfels", "lat": 46.7510724, "lon": 14.2778895, "tags": {"addr:city": "Liebenfels", "addr:housenumber": "3", "addr:place": "Hoch-Liebenfels", "addr:postcode": "9556"}, "content": "Adresse: 3, 9556 Liebenfels\nOrt: Liebenfels\nPLZ: 9556\nKoordinaten: 46.751072, 14.277890", "doc_type": "addresses"}
{"source": "OSM", "region": "Kärnten", "osm_type": "node", "osm_id": 5399782286, "name": null, "category": null, "address": "30, 9556 Liebenfels", "street": null, "housenumber": "30", "postcode": "9556", "place": "Liebenfels", "lat": 46.7638658, "lon": 14.288947, "tags": {"addr:city": "Liebenfels", "addr:housenumber": "30", "addr:place": "Waggendorf", "addr:postcode": "9556"}, "content": "Adresse: 30, 9556 Liebenfels\nOrt: Liebenfels\nPLZ: 9556\nKoordinaten: 46.763866, 14.288947", "doc_type": "addresses"}
{"source": "OSM", "region": "Kärnten", "osm_type": "node", "osm_id": 5399782647, "name": null, "category": null, "address": "11, 9556 Liebenfels", "street": null, "housenumber": "11", "postcode": "9556", "place": "Liebenfels", "lat": 46.7514801, "lon": 14.2542651, "tags": {"addr:city": "Liebenfels", "addr:housenumber": "11", "addr:place": "Glantschach", "addr:postcode": "9556"}, "content": "Adresse: 11, 9556 Liebenfels\nOrt: Liebenfels\nPLZ: 9556\nKoordinaten: 46.751480, 14.254265", "doc_type": "addresses"}
{"source": "OSM", "region": "Kärnten", "osm_type": "node", "osm_id": 5399895666, "name": null, "category": null, "address": "49, 9556 Liebenfels", "street": null, "housenumber": "49", "postcode": "9556", "place": "Liebenfels", "lat": 46.7573926, "lon": 14.2851295, "tags": {"addr:city": "Liebenfels", "addr:housenumber": "49", "addr:place": "Waggendorf", "addr:postcode": "9556"}, "content": "Adresse: 49, 9556 Liebenfels\nOrt: Liebenfels\nPLZ: 9556\nKoordinaten: 46.757393, 14.285130", "doc_type": "addresses"}
{"source": "OSM", "region": "Kärnten", "osm_type": "node", "osm_id": 5401356840, "name": null, "category": null, "address": "1, 9556 Liebenfels", "street": null, "housenumber": "1", "postcode": "9556", "place": "Liebenfels", "lat": 46.7414094, "lon": 14.2559779, "tags": {"addr:city": "Liebenfels", "addr:housenumber": "1", "addr:place": "Kulm", "addr:postcode": "9556"}, "content": "Adresse: 1, 9556 Liebenfels\nOrt: Liebenfels\nPLZ: 9556\nKoordinaten: 46.741409, 14.255978", "doc_type": "addresses"}
{"source": "OSM", "region": "Kärnten", "osm_type": "node", "osm_id": 5401750939, "name": null, "category": null, "address": "8, 9556 Liebenfels", "street": null, "housenumber": "8", "postcode": "9556", "place": "Liebenfels", "lat": 46.7617559, "lon": 14.2389387, "tags": {"addr:city": "Liebenfels", "addr:housenumber": "8", "addr:place": "Freundsam", "addr:postcode": "9556"}, "content": "Adresse: 8, 9556 Liebenfels\nOrt: Liebenfels\nPLZ: 9556\nKoordinaten: 46.761756, 14.238939", "doc_type": "addresses"}
{"source": "OSM", "region": "Kärnten", "osm_type": "node", "osm_id": 5401750973, "name": null, "category": null, "address": "7, 9556 Liebenfels", "street": null, "housenumber": "7", "postcode": "9556", "place": "Liebenfels", "lat": 46.7640598, "lon": 14.242934, "tags": {"addr:city": "Liebenfels", "addr:housenumber": "7", "addr:place": "Freundsam", "addr:postcode": "9556"}, "content": "Adresse: 7, 9556 Liebenfels\nOrt: Liebenfels\nPLZ: 9556\nKoordinaten: 46.764060, 14.242934", "doc_type": "addresses"}
{"source": "OSM", "region": "Kärnten", "osm_type": "node", "osm_id": 5402508696, "name": null, "category": null, "address": "2, 9556 Liebenfels", "street": null, "housenumber": "2", "postcode": "9556", "place": "Liebenfels", "lat": 46.751312, "lon": 14.2325681, "tags": {"addr:city": "Liebenfels", "addr:housenumber": "2", "addr:place": "Liemberg", "addr:postcode": "9556"}, "content": "Adresse: 2, 9556 Liebenfels\nOrt: Liebenfels\nPLZ: 9556\nKoordinaten: 46.751312, 14.232568", "doc_type": "addresses"}
{"source": "OSM", "region": "Kärnten", "osm_type": "node", "osm_id": 5403414468, "name": null, "category": null, "address": "22a, 9556 Liebenfels", "street": null, "housenumber": "22a", "postcode": "9556", "place": "Liebenfels", "lat": 46.7515495, "lon": 14.2459884, "tags": {"addr:city": "Liebenfels", "addr:housenumber": "22a", "addr:place": "Gradenegg", "addr:postcode": "9556"}, "content": "Adresse: 22a, 9556 Liebenfels\nOrt: Liebenfels\nPLZ: 9556\nKoordinaten: 46.751550, 14.245988", "doc_type": "addresses"}
{"source": "OSM", "region": "Kärnten", "osm_type": "node", "osm_id": 5403414500, "name": null, "category": null, "address": "8b, 9556 Liebenfels", "street": null, "housenumber": "8b", "postcode": "9556", "place": "Liebenfels", "lat": 46.7549191, "lon": 14.2466129, "tags": {"addr:city": "Liebenfels", "addr:housenumber": "8b", "addr:place": "Gradenegg", "addr:postcode": "9556"}, "content": "Adresse: 8b, 9556 Liebenfels\nOrt: Liebenfels\nPLZ: 9556\nKoordinaten: 46.754919, 14.246613", "doc_type": "addresses"}
{"source": "OSM", "region": "Kärnten", "osm_type": "node", "osm_id": 5403414501, "name": null, "category": null, "address": "8, 9556 Liebenfels", "street": null, "housenumber": "8", "postcode": "9556", "place": "Liebenfels", "lat": 46.7549248, "lon": 14.2465105, "tags": {"addr:city": "Liebenfels", "addr:housenumber": "8", "addr:place": "Gradenegg", "addr:postcode": "9556"}, "content": "Adresse: 8, 9556 Liebenfels\nOrt: Liebenfels\nPLZ: 9556\nKoordinaten: 46.754925, 14.246510", "doc_type": "addresses"}
{"source": "OSM", "region": "Kärnten", "osm_type": "node", "osm_id": 5403414508, "name": null, "category": null, "address": "35, 9556 Liebenfels", "street": null, "housenumber": "35", "postcode": "9556", "place": "Liebenfels", "lat": 46.7550073, "lon": 14.2457056, "tags": {"addr:city": "Liebenfels", "addr:housenumber": "35", "addr:place": "Gradenegg", "addr:postcode": "9556"}, "content": "Adresse: 35, 9556 Liebenfels\nOrt: Liebenfels\nPLZ: 9556\nKoordinaten: 46.755007, 14.245706", "doc_type": "addresses"}
{"source": "OSM", "region": "Kärnten", "osm_type": "node", "osm_id": 5407175984, "name": null, "category": null, "address": "3b, 9556 Liebenfels", "street": null, "housenumber": "3b", "postcode": "9556", "place": "Liebenfels", "lat": 46.7587691, "lon": 14.2756228, "tags": {"addr:city": "Liebenfels", "addr:housenumber": "3b", "addr:place": "Miedling", "addr:postcode": "9556"}, "content": "Adresse: 3b, 9556 Liebenfels\nOrt: Liebenfels\nPLZ: 9556\nKoordinaten: 46.758769, 14.275623", "doc_type": "addresses"}
{"source": "OSM", "region": "Kärnten", "osm_type": "node", "osm_id": 5407175985, "name": null, "category": null, "address": "3a, 9556 Liebenfels", "street": null, "housenumber": "3a", "postcode": "9556", "place": "Liebenfels", "lat": 46.7587371, "lon": 14.2757817, "tags": {"addr:city": "Liebenfels", "addr:housenumber": "3a", "addr:place": "Miedling", "addr:postcode": "9556"}, "content": "Adresse: 3a, 9556 Liebenfels\nOrt: Liebenfels\nPLZ: 9556\nKoordinaten: 46.758737, 14.275782", "doc_type": "addresses"}
{"source": "OSM", "region": "Kärnten", "osm_type": "node", "osm_id": 5407176013, "name": null, "category": null, "address": "8, 9556 Liebenfels", "street": null, "housenumber": "8", "postcode": "9556", "place": "Liebenfels", "lat": 46.7580862, "lon": 14.2774332, "tags": {"addr:city": "Liebenfels", "addr:housenumber": "8", "addr:place": "Hoch-Liebenfels", "addr:postcode": "9556"}, "content": "Adresse: 8, 9556 Liebenfels\nOrt: Liebenfels\nPLZ: 9556\nKoordinaten: 46.758086, 14.277433", "doc_type": "addresses"}
{"source": "OSM", "region": "Kärnten", "osm_type": "node", "osm_id": 5407176208, "name": null, "category": null, "address": "20, 9556 Liebenfels", "street": null, "housenumber": "20", "postcode": "9556", "place": "Liebenfels", "lat": 46.75871, "lon": 14.2794017, "tags": {"addr:city": "Liebenfels", "addr:housenumber": "20", "addr:place": "Hoch-Liebenfels", "addr:postcode": "9556"}, "content": "Adresse: 20, 9556 Liebenfels\nOrt: Liebenfels\nPLZ: 9556\nKoordinaten: 46.758710, 14.279402", "doc_type": "addresses"}
{"source": "OSM", "region": "Kärnten", "osm_type": "node", "osm_id": 5407176209, "name": null, "category": null, "address": "23, 9556 Liebenfels", "street": null, "housenumber": "23", "postcode": "9556", "place": "Liebenfels", "lat": 46.7583402, "lon": 14.2786159, "tags": {"addr:city": "Liebenfels", "addr:housenumber": "23", "addr:place": "Hoch-Liebenfels", "addr:postcode": "9556"}, "content": "Adresse: 23, 9556 Liebenfels\nOrt: Liebenfels\nPLZ: 9556\nKoordinaten: 46.758340, 14.278616", "doc_type": "addresses"}
{"source": "OSM", "region": "Kärnten", "osm_type": "node", "osm_id": 5407465020, "name": null, "category": null, "address": "2, 9556 Liebenfels", "street": null, "housenumber": "2", "postcode": "9556", "place": "Liebenfels", "lat": 46.7702438, "lon": 14.2871711, "tags": {"addr:city": "Liebenfels", "addr:housenumber": "2", "addr:place": "Reidenau", "addr:postcode": "9556"}, "content": "Adresse: 2, 9556 Liebenfels\nOrt: Liebenfels\nPLZ: 9556\nKoordinaten: 46.770244, 14.287171", "doc_type": "addresses"}
{"source": "OSM", "region": "Kärnten", "osm_type": "node", "osm_id": 5407467321, "name": null, "category": null, "address": "11, 9556 Liebenfels", "street": null, "housenumber": "11", "postcode": "9556", "place": "Liebenfels", "lat": 46.762771, "lon": 14.2760895, "tags": {"addr:city": "Liebenfels", "addr:housenumber": "11", "addr:place": "Sörg", "addr:postcode": "9556"}, "content": "Adresse: 11, 9556 Liebenfels\nOrt: Liebenfels\nPLZ: 9556\nKoordinaten: 46.762771, 14.276089", "doc_type": "addresses"}
{"source": "OSM", "region": "Kärnten", "osm_type": "node", "osm_id": 5407467322, "name": null, "category": null, "address": "3, 9556 Liebenfels", "street": null, "housenumber": "3", "postcode": "9556", "place": "Liebenfels", "lat": 46.7584384, "lon": 14.2755179, "tags": {"addr:city": "Liebenfels", "addr:housenumber": "3", "addr:place": "Miedling", "addr:postcode": "9556"}, "content": "Adresse: 3, 9556 Liebenfels\nOrt: Liebenfels\nPLZ: 9556\nKoordinaten: 46.758438, 14.275518", "doc_type": "addresses"}
{"source": "OSM", "region": "Kärnten", "osm_type": "node", "osm_id": 5407467323, "name": null, "category": null, "address": "22, 9556 Liebenfels", "street": null, "housenumber": "22", "postcode": "9556", "place": "Liebenfels", "lat": 46.7579495, "lon": 14.2796086, "tags": {"addr:city": "Liebenfels", "addr:housenumber": "22", "addr:place": "Hoch-Liebenfels", "addr:postcode": "9556"}, "content": "Adresse: 22, 9556 Liebenfels\nOrt: Liebenfels\nPLZ: 9556\nKoordinaten: 46.757950, 14.279609", "doc_type": "addresses"}
{"source": "OSM", "region": "Kärnten", "osm_type": "node", "osm_id": 5408095993, "name": null, "category": null, "address": "3, 9556 Liebenfels", "street": null, "housenumber": "3", "postcode": "9556", "place": "Liebenfels", "lat": 46.7740711, "lon": 14.2707866, "tags": {"addr:city": "Liebenfels", "addr:housenumber": "3", "addr:place": "Pflugern", "addr:postcode": "9556"}, "content": "Adresse: 3, 9556 Liebenfels\nOrt: Liebenfels\nPLZ: 9556\nKoordinaten: 46.774071, 14.270787", "doc_type": "addresses"}
{"source": "OSM", "region": "Kärnten", "osm_type": "node", "osm_id": 5408101029, "name": null, "category": null, "address": "5a, 9556 Liebenfels", "street": null, "housenumber": "5a", "postcode": "9556", "place": "Liebenfels", "lat": 46.7647057, "lon": 14.2648485, "tags": {"addr:city": "Liebenfels", "addr:housenumber": "5a", "addr:place": "Pflausach", "addr:postcode": "9556"}, "content": "Adresse: 5a, 9556 Liebenfels\nOrt: Liebenfels\nPLZ: 9556\nKoordinaten: 46.764706, 14.264848", "doc_type": "addresses"}
{"source": "OSM", "region": "Kärnten", "osm_type": "node", "osm_id": 5408101163, "name": null, "category": null, "address": "2, 9556 Liebenfels", "street": null, "housenumber": "2", "postcode": "9556", "place": "Liebenfels", "lat": 46.7625906, "lon": 14.2624002, "tags": {"addr:city": "Liebenfels", "addr:housenumber": "2", "addr:place": "Pflausach", "addr:postcode": "9556"}, "content": "Adresse: 2, 9556 Liebenfels\nOrt: Liebenfels\nPLZ: 9556\nKoordinaten: 46.762591, 14.262400", "doc_type": "addresses"}
{"source": "OSM", "region": "Kärnten", "osm_type": "node", "osm_id": 5429820177, "name": null, "category": null, "address": "8, 9556 Liebenfels", "street": null, "housenumber": "8", "postcode": "9556", "place": "Liebenfels", "lat": 46.7897347, "lon": 14.2305212, "tags": {"addr:city": "Liebenfels", "addr:housenumber": "8", "addr:place": "Zojach", "addr:postcode": "9556"}, "content": "Adresse: 8, 9556 Liebenfels\nOrt: Liebenfels\nPLZ: 9556\nKoordinaten: 46.789735, 14.230521", "doc_type": "addresses"}
{"source": "OSM", "region": "Kärnten", "osm_type": "node", "osm_id": 5429820691, "name": null, "category": null, "address": "2, 9556 Liebenfels", "street": null, "housenumber": "2", "postcode": "9556", "place": "Liebenfels", "lat": 46.7785622, "lon": 14.2631621, "tags": {"addr:city": "Liebenfels", "addr:housenumber": "2", "addr:place": "Sörgerberg", "addr:postcode": "9556"}, "content": "Adresse: 2, 9556 Liebenfels\nOrt: Liebenfels\nPLZ: 9556\nKoordinaten: 46.778562, 14.263162", "doc_type": "addresses"}
