{"source": "OSM", "region": "Kärnten", "osm_type": "node", "osm_id": 4045784881, "name": null, "category": null, "address": "Göltschacher Straße 11b, 9161 Maria Rain", "street": "Göltschacher Straße", "housenumber": "11b", "postcode": "9161", "place": "Maria Rain", "lat": 46.5613346, "lon": 14.2844038, "tags": {"addr:city": "Maria Rain", "addr:housenumber": "11b", "addr:postcode": "9161", "addr:street": "Göltschacher Straße"}, "content": "Adresse: Göltschacher Straße 11b, 9161 Maria Rain\nOrt: Maria Rain\nPLZ: 9161\nKoordinaten: 46.561335, 14.284404", "doc_type": "addresses"}
{"source": "OSM", "region": "Kärnten", "osm_type": "node", "osm_id": 4045784886, "name": null, "category": null, "address": "Göltschacher Straße 11a, 9161 Maria Rain", "street": "Göltschacher Straße", "housenumber": "11a", "postcode": "9161", "place": "Maria Rain", "lat": 46.5614846, "lon": 14.2843303, "tags": {"addr:city": "Maria Rain", "addr:housenumber": "11a", "addr:postcode": "9161", "addr:street": "Göltschacher Straße"}, "content": "Adresse: Göltschacher Straße 11a, 9161 Maria Rain\nOrt: Maria Rain\nPLZ: 9161\nKoordinaten: 46.561485, 14.284330", "doc_type": "addresses"}
{"source": "OSM", "region": "Kärnten", "osm_type": "node", "osm_id": 4045787330, "name": null, "category": null, "address": "Göltschacher Straße 13a, 9161 Maria Rain", "street": "Göltschacher Straße", "housenumber": "13a", "postcode": "9161", "place": "Maria Rain", "lat": 46.5613708, "lon": 14.2848745, "tags": {"addr:city": "Maria Rain", "addr:housenumber": "13a", "addr:postcode": "9161", "addr:street": "Göltschacher Straße"}, "content": "Adresse: Göltschacher Straße 13a, 9161 Maria Rain\nOrt: Maria Rain\nPLZ: 9161\nKoordinaten: 46.561371, 14.284875", "doc_type": "addresses"}
{"source": "OSM", "region": "Kärnten", "osm_type": "node", "osm_id": 4045787336, "name": null, "category": null, "address": "Göltschacher Straße 13b, 9161 Maria Rain", "street": "Göltschacher Straße", "housenumber": "13b", "postcode": "9161", "place": "Maria Rain", "lat": 46.5612285, "lon": 14.2851121, "tags": {"addr:city": "Maria Rain", "addr:housenumber": "13b", "addr:postcode": "9161", "addr:street": "Göltschacher Straße"}, "content": "Adresse: Göltschacher Straße 13b, 9161 Maria Rain\nOrt: Maria Rain\nPLZ: 9161\nKoordinaten: 46.561228, 14.285112", "doc_type": "addresses"}
{"source": "OSM", "region": "Kärnten", "osm_type": "node", "osm_id": 4045787342, "name": null, "category": null, "address": "Göltschacher Straße 15a, 9161 Maria Rain", "street": "Göltschacher Straße", "housenumber": "15a", "postcode": "9161", "place": "Maria Rain", "lat": 46.5615479, "lon": 14.2852302, "tags": {"addr:city": "Maria Rain", "addr:housenumber": "15a", "addr:postcode": "9161", "addr:street": "Göltschacher Straße"}, "content": "Adresse: Göltschacher Straße 15a, 9161 Maria Rain\nOrt: Maria Rain\nPLZ: 9161\nKoordinaten: 46.561548, 14.285230", "doc_type": "addresses"}
{"source": "OSM", "region": "Kärnten", "osm_type": "node", "osm_id": 4045787348, "name": null, "category": null, "address": "Göltschacher Straße 15b, 9161 Maria Rain", "street": "Göltschacher Straße", "housenumber": "15b", "postcode": "9161", "place": "Maria Rain", "lat": 46.5614049, "lon": 14.2854642, "tags": {"addr:city": "Maria Rain", "addr:housenumber": "15b", "addr:postcode": "9161", "addr:street": "Göltschacher Straße"}, "content": "Adresse: Göltschacher Straße 15b, 9161 Maria Rain\nOrt: Maria Rain\nPLZ: 9161\nKoordinaten: 46.561405, 14.285464", "doc_type": "addresses"}
{"source": "OSM", "region": "Kärnten", "osm_type": "node", "osm_id": 4623295206, "name": null, "category": null, "address": "2, 9161 Maria Rain", "street": null, "housenumber": "2", "postcode": "9161", "place": "Maria Rain", "lat": 46.567118, "lon": 14.3181276, "tags": {"addr:city": "Maria Rain", "addr:housenumber": "2", "addr:place": "Angern", "addr:postcode": "9161"}, "content": "Adresse: 2, 9161 Maria Rain\nOrt: Maria Rain\nPLZ: 9161\nKoordinaten: 46.567118, 14.318128", "doc_type": "addresses"}
{"source": "OSM", "region": "Kärnten", "osm_type": "node", "osm_id": 4623295211, "name": null, "category": null, "address": "2a, 9161 Maria Rain", "street": null, "housenumber": "2a", "postcode": "9161", "place": "Maria Rain", "lat": 46.5673391, "lon": 14.318202, "tags": {"addr:city": "Maria Rain", "addr:housenumber": "2a", "addr:place": "Angern", "addr:postcode": "9161"}, "content": "Adresse: 2a, 9161 Maria Rain\nOrt: Maria Rain\nPLZ: 9161\nKoordinaten: 46.567339, 14.318202", "doc_type": "addresses"}
{"source": "OSM", "region": "Kärnten", "osm_type": "node", "osm_id": 4734762214, "name": null, "category": null, "address": "R. Janschitz Weg 8, Maria Rain", "street": "R. Janschitz Weg", "housenumber": "8", "postcode": null, "place": "Maria Rain", "lat": 46.5683913, "lon": 14.2776611, "tags": {"addr:city": "Maria Rain", "addr:housenumber": "8", "addr:street": "R. Janschitz Weg"}, "content": "Adresse: R. Janschitz Weg 8, Maria Rain\nOrt: Maria Rain\nKoordinaten: 46.568391, 14.277661", "doc_type": "addresses"}
{"source": "OSM", "region": "Kärnten", "osm_type": "node", "osm_id": 4753656221, "name": null, "category": null, "address": "44, 9161 Maria Rain", "street": null, "housenumber": "44", "postcode": "9161", "place": "Maria Rain", "lat": 46.5684379, "lon": 14.2949904, "tags": {"addr:city": "Maria Rain", "addr:housenumber": "44", "addr:place": "Angersbichl", "addr:postcode": "9161"}, "content": "Adresse: 44, 9161 Maria Rain\nOrt: Maria Rain\nPLZ: 9161\nKoordinaten: 46.568438, 14.294990", "doc_type": "addresses"}
{"source": "OSM", "region": "Kärnten", "osm_type": "node", "osm_id": 4826107037, "name": null, "category": null, "address": "Birkenweg 2, 9161 Maria Rain", "street": "Birkenweg", "housenumber": "2", "postcode": "9161", "place": "Maria Rain", "lat": 46.5575073, "lon": 14.2905368, "tags": {"addr:city": "Maria Rain", "addr:housenumber": "2", "addr:postcode": "9161", "addr:street": "Birkenweg"}, "content": "Adresse: Birkenweg 2, 9161 Maria Rain\nOrt: Maria Rain\nPLZ: 9161\nKoordinaten: 46.557507, 14.290537", "doc_type": "addresses"}
{"source": "OSM", "region": "Kärnten", "osm_type": "node", "osm_id": 4839256450, "name": null, "category": null, "address": "W. Rudnigger Straße 28, 9161 Maria Rain", "street": "W. Rudnigger Straße", "housenumber": "28", "postcode": "9161", "place": "Maria Rain", "lat": 46.5604994, "lon": 14.2746741, "tags": {"addr:city": "Maria Rain", "addr:housenumber": "28", "addr:postcode": "9161", "addr:street": "W. Rudnigger Straße"}, "content": "Adresse: W. Rudnigger Straße 28, 9161 Maria Rain\nOrt: Maria Rain\nPLZ: 9161\nKoordinaten: 46.560499, 14.274674", "doc_type": "addresses"}
{"source": "OSM", "region": "Kärnten", "osm_type": "node", "osm_id": 4889578384, "name": null, "category": null, "address": "42, 9161 Maria Rain", "street": null, "housenumber": "42", "postcode": "9161", "place": "Maria Rain", "lat": 46.5624886, "lon": 14.3090035, "tags": {"addr:city": "Maria Rain", "addr:housenumber": "42", "addr:place": "Toppelsdorf", "addr:postcode": "9161"}, "content": "Adresse: 42, 9161 Maria Rain\nOrt: Maria Rain\nPLZ: 9161\nKoordinaten: 46.562489, 14.309003", "doc_type": "addresses"}
{"source": "OSM", "region": "Kärnten", "osm_type": "node", "osm_id": 4889578395, "name": null, "category": null, "address": "8, 9161 Maria Rain", "street": null, "housenumber": "8", "postcode": "9161", "place": "Maria Rain", "lat": 46.5635323, "lon": 14.3101801, "tags": {"addr:city": "Maria Rain", "addr:housenumber": "8", "addr:place": "Toppelsdorf", "addr:postcode": "9161"}, "content": "Adresse: 8, 9161 Maria Rain\nOrt: Maria Rain\nPLZ: 9161\nKoordinaten: 46.563532, 14.310180", "doc_type": "addresses"}
{"source": "OSM", "region": "Kärnten", "osm_type": "node", "osm_id": 4928482564, "name": null, "category": null, "address": "Göltschacher Straße 8c, 9161 Maria Rain", "street": "Göltschacher Straße", "housenumber": "8c", "postcode": "9161", "place": "Maria Rain", "lat": 46.5602306, "lon": 14.2844837, "tags": {"addr:city": "Maria Rain", "addr:housenumber": "8c", "addr:postcode": "9161", "addr:street": "Göltschacher Straße"}, "content": "Adresse: Göltschacher Straße 8c, 9161 Maria Rain\nOrt: Maria Rain\nPLZ: 9161\nKoordinaten: 46.560231, 14.284484", "doc_type": "addresses"}
{"source": "OSM", "region": "Kärnten", "osm_type": "node", "osm_id": 4928482565, "name": null, "category": null, "address": "Göltschacher Straße 8b, 9161 Maria Rain", "street": "Göltschacher Straße", "housenumber": "8b", "postcode": "9161", "place": "Maria Rain", "lat": 46.5604563, "lon": 14.2845766, "tags": {"addr:city": "Maria Rain", "addr:housenumber": "8b", "addr:postcode": "9161", "addr:street": "Göltschacher Straße"}, "content": "Adresse: Göltschacher Straße 8b, 9161 Maria Rain\nOrt: Maria Rain\nPLZ: 9161\nKoordinaten: 46.560456, 14.284577", "doc_type": "addresses"}
{"source": "OSM", "region": "Kärnten", "osm_type": "node", "osm_id": 4928482566, "name": null, "category": null, "address": "Göltschacher Straße 8a, 9161 Maria Rain", "street": "Göltschacher Straße", "housenumber": "8a", "postcode": "9161", "place": "Maria Rain", "lat": 46.5606739, "lon": 14.2844419, "tags": {"addr:city": "Maria Rain", "addr:housenumber": "8a", "addr:postcode": "9161", "addr:street": "Göltschacher Straße"}, "content": "Adresse: Göltschacher Straße 8a, 9161 Maria Rain\nOrt: Maria Rain\nPLZ: 9161\nKoordinaten: 46.560674, 14.284442", "doc_type": "addresses"}
{"source": "OSM", "region": "Kärnten", "osm_type": "node", "osm_id": 4928482567, "name": null, "category": null, "address": "Göltschacher Straße 6b, 9161 Maria Rain", "street": "Göltschacher Straße", "housenumber": "6b", "postcode": "9161", "place": "Maria Rain", "lat": 46.5606979, "lon": 14.2841261, "tags": {"addr:city": "Maria Rain", "addr:housenumber": "6b", "addr:postcode": "9161", "addr:street": "Göltschacher Straße"}, "content": "Adresse: Göltschacher Straße 6b, 9161 Maria Rain\nOrt: Maria Rain\nPLZ: 9161\nKoordinaten: 46.560698, 14.284126", "doc_type": "addresses"}
{"source": "OSM", "region": "Kärnten", "osm_type": "node", "osm_id": 4928482568, "name": null, "category": null, "address": "Göltschacher Straße 6a, 9161 Maria Rain", "street": "Göltschacher Straße", "housenumber": "6a", "postcode": "9161", "place": "Maria Rain", "lat": 46.5605882, "lon": 14.2838513, "tags": {"addr:city": "Maria Rain", "addr:housenumber": "6a", "addr:postcode": "9161", "addr:street": "Göltschacher Straße"}, "content": "Adresse: Göltschacher Straße 6a, 9161 Maria Rain\nOrt: Maria Rain\nPLZ: 9161\nKoordinaten: 46.560588, 14.283851", "doc_type": "addresses"}
{"source": "OSM", "region": "Kärnten", "osm_type": "node", "osm_id": 4928482909, "name": null, "category": null, "address": "Göltschacher Straße 11c, 9161 Maria Rain", "street": "Göltschacher Straße", "housenumber": "11c", "postcode": "9161", "place": "Maria Rain", "lat": 46.5611618, "lon": 14.2846032, "tags": {"addr:city": "Maria Rain", "addr:housenumber": "11c", "addr:postcode": "9161", "addr:street": "Göltschacher Straße"}, "content": "Adresse: Göltschacher Straße 11c, 9161 Maria Rain\nOrt: Maria Rain\nPLZ: 9161\nKoordinaten: 46.561162, 14.284603", "doc_type": "addresses"}
{"source": "OSM", "region": "Kärnten", "osm_type": "node", "osm_id": 4928482920, "name": null, "category": null, "address": "Bahnhofstraße 11a, 9161 Maria Rain", "street": "Bahnhofstraße", "housenumber": "11a", "postcode": "9161", "place": "Maria Rain", "lat": 46.5624026, "lon": 14.2851301, "tags": {"addr:city": "Maria Rain", "addr:housenumber": "11a", "addr:postcode": "9161", "addr:street": "Bahnhofstraße"}, "content": "Adresse: Bahnhofstraße 11a, 9161 Maria Rain\nOrt: Maria Rain\nPLZ: 9161\nKoordinaten: 46.562403, 14.285130", "doc_type": "addresses"}
