{"source": "OSM", "region": "Kärnten", "osm_type": "node", "osm_id": 340516055, "name": "Postpartner 9363", "category": "amenity:post_office", "address": "Metnitz Marktplatz 4, 9363 Metnitz", "street": "Metnitz Marktplatz", "housenumber": "4", "postcode": "9363", "place": "Metnitz", "lat": 46.9810691, "lon": 14.2161556, "tags": {"addr:city": "Metnitz", "addr:housenumber": "4", "addr:postcode": "9363", "addr:street": "Metnitz Marktplatz", "amenity": "post_office", "name": "Postpartner 9363"}, "content": "Postpartner 9363\nKategorie: amenity:post_office\nAdresse: Metnitz Marktplatz 4, 9363 Metnitz\nOrt: Metnitz\nPLZ: 9363\nKoordinaten: 46.981069, 14.216156\nTags: amenity=post_office", "doc_type": "addresses"}
{"source": "OSM", "region": "Kärnten", "osm_type": "node", "osm_id": 4595982440, "name": null, "category": null, "address": "Grades Marktplatz 13, 9362 Metnitz", "street": "Grades Marktplatz", "housenumber": "13", "postcode": "9362", "place": "Metnitz", "lat": 46.9792405, "lon": 14.2540693, "tags": {"addr:city": "Metnitz", "addr:housenumber": "13", "addr:postcode": "9362", "addr:street": "Grades Marktplatz"}, "content": "Adresse: Grades Marktplatz 13, 9362 Metnitz\nOrt: Metnitz\nPLZ: 9362\nKoordinaten: 46.979241, 14.254069", "doc_type": "addresses"}
{"source": "OSM", "region": "Kärnten", "osm_type": "node", "osm_id": 5413492495, "name": null, "category": null, "address": "Grades Marktplatz 15, 9362 Metnitz", "street": "Grades Marktplatz", "housenumber": "15", "postcode": "9362", "place": "Metnitz", "lat": 46.9795021, "lon": 14.2539051, "tags": {"addr:city": "Metnitz", "addr:housenumber": "15", "addr:postcode": "9362", "addr:street": "Grades Marktplatz"}, "content": "Adresse: Grades Marktplatz 15, 9362 Metnitz\nOrt: Metnitz\nPLZ: 9362\nKoordinaten: 46.979502, 14.253905", "doc_type": "addresses"}
{"source": "OSM", "region": "Kärnten", "osm_type": "node", "osm_id": 5413492496, "name": null, "category": null, "address": "Grades Marktplatz 14, 9362 Metnitz", "street": "Grades Marktplatz", "housenumber": "14", "postcode": "9362", "place": "Metnitz", "lat": 46.9793868, "lon": 14.2537415, "tags": {"addr:city": "Metnitz", "addr:housenumber": "14", "addr:postcode": "9362", "addr:street": "Grades Marktplatz"}, "content": "Adresse: Grades Marktplatz 14, 9362 Metnitz\nOrt: Metnitz\nPLZ: 9362\nKoordinaten: 46.979387, 14.253742", "doc_type": "addresses"}
{"source": "OSM", "region": "Kärnten", "osm_type": "node", "osm_id": 5413492497, "name": null, "category": null, "address": "Grades Marktplatz 22, 9362 Metnitz", "street": "Grades Marktplatz", "housenumber": "22", "postcode": "9362", "place": "Metnitz", "lat": 46.9796155, "lon": 14.2527196, "tags": {"addr:city": "Metnitz", "addr:housenumber": "22", "addr:postcode": "9362", "addr:street": "Grades Marktplatz"}, "content": "Adresse: Grades Marktplatz 22, 9362 Metnitz\nOrt: Metnitz\nPLZ: 9362\nKoordinaten: 46.979616, 14.252720", "doc_type": "addresses"}
{"source": "OSM", "region": "Kärnten", "osm_type": "node", "osm_id": 5413492498, "name": null, "category": null, "address": "Grades Marktplatz 21, 9362 Metnitz", "street": "Grades Marktplatz", "housenumber": "21", "postcode": "9362", "place": "Metnitz", "lat": 46.9795991, "lon": 14.2528939, "tags": {"addr:city": "Metnitz", "addr:housenumber": "21", "addr:postcode": "9362", "addr:street": "Grades Marktplatz"}, "content": "Adresse: Grades Marktplatz 21, 9362 Metnitz\nOrt: Metnitz\nPLZ: 9362\nKoordinaten: 46.979599, 14.252894", "doc_type": "addresses"}
{"source": "OSM", "region": "Kärnten", "osm_type": "node", "osm_id": 5413492499, "name": null, "category": null, "address": "Grades Marktplatz 10, 9362 Metnitz", "street": "Grades Marktplatz", "housenumber": "10", "postcode": "9362", "place": "Metnitz", "lat": 46.9788451, "lon": 14.2548707, "tags": {"addr:city": "Metnitz", "addr:housenumber": "10", "addr:postcode": "9362", "addr:street": "Grades Marktplatz"}, "content": "Adresse: Grades Marktplatz 10, 9362 Metnitz\nOrt: Metnitz\nPLZ: 9362\nKoordinaten: 46.978845, 14.254871", "doc_type": "addresses"}
{"source": "OSM", "region": "Kärnten", "osm_type": "node", "osm_id": 5413492500, "name": null, "category": null, "address": "Grades Marktplatz 9, 9362 Metnitz", "street": "Grades Marktplatz", "housenumber": "9", "postcode": "9362", "place": "Metnitz", "lat": 46.9787188, "lon": 14.2547929, "tags": {"addr:city": "Metnitz", "addr:housenumber": "9", "addr:postcode": "9362", "addr:street": "Grades Marktplatz"}, "content": "Adresse: Grades Marktplatz 9, 9362 Metnitz\nOrt: Metnitz\nPLZ: 9362\nKoordinaten: 46.978719, 14.254793", "doc_type": "addresses"}
{"source": "OSM", "region": "Kärnten", "osm_type": "node", "osm_id": 5413492501, "name": null, "category": null, "address": "Hintermarkt 20, 9362 Metnitz", "street": "Hintermarkt", "housenumber": "20", "postcode": "9362", "place": "Metnitz", "lat": 46.9776099, "lon": 14.2530254, "tags": {"addr:city": "Metnitz", "addr:housenumber": "20", "addr:postcode": "9362", "addr:street": "Hintermarkt"}, "content": "Adresse: Hintermarkt 20, 9362 Metnitz\nOrt: Metnitz\nPLZ: 9362\nKoordinaten: 46.977610, 14.253025", "doc_type": "addresses"}
{"source": "OSM", "region": "Kärnten", "osm_type": "node", "osm_id": 5614595629, "name": null, "category": null, "address": "Höhenstraße 26, 9363 Metnitz", "street": "Höhenstraße", "housenumber": "26", "postcode": "9363", "place": "Metnitz", "lat": 46.9828988, "lon": 14.2092832, "tags": {"addr:city": "Metnitz", "addr:housenumber": "26", "addr:postcode": "9363", "addr:street": "Höhenstraße"}, "content": "Adresse: Höhenstraße 26, 9363 Metnitz\nOrt: Metnitz\nPLZ: 9363\nKoordinaten: 46.982899, 14.209283", "doc_type": "addresses"}
{"source": "OSM", "region": "Kärnten", "osm_type": "node", "osm_id": 5614595630, "name": null, "category": null, "address": "Höhenstraße 28, 9363 Metnitz", "street": "Höhenstraße", "housenumber": "28", "postcode": "9363", "place": "Metnitz", "lat": 46.9827579, "lon": 14.2094918, "tags": {"addr:city": "Metnitz", "addr:housenumber": "28", "addr:postcode": "9363", "addr:street": "Höhenstraße"}, "content": "Adresse: Höhenstraße 28, 9363 Metnitz\nOrt: Metnitz\nPLZ: 9363\nKoordinaten: 46.982758, 14.209492", "doc_type": "addresses"}
{"source": "OSM", "region": "Kärnten", "osm_type": "node", "osm_id": 340516055, "name": "Postpartner 9363", "category": "amenity:post_office", "address": "Metnitz Marktplatz 4, 9363 Metnitz", "street": "Metnitz Marktplatz", "housenumber": "4", "postcode": "9363", "place": "Metnitz", "lat": 46.9810691, "lon": 14.2161556, "tags": {"addr:city": "Metnitz", "addr:housenumber": "4", "addr:postcode": "9363", "addr:street": "Metnitz Marktplatz", "amenity": "post_office", "name": "Postpartner 9363"}, "content": "Postpartner 9363\nKategorie: amenity:post_office\nAdresse: Metnitz Marktplatz 4, 9363 Metnitz\nOrt: Metnitz\nPLZ: 9363\nKoordinaten: 46.981069, 14.216156\nTags: amenity=post_office", "doc_type": "pois"}
