{"source": "OSM", "region": "Kärnten", "osm_type": "node", "osm_id": 340517934, "name": "Postpartner 9241, Tabak Trafik Hermann", "category": "amenity:post_office", "address": "Industriestraße 1, 9241 Wernberg", "street": "Industriestraße", "housenumber": "1", "postcode": "9241", "place": "Wernberg", "lat": 46.6206524, "lon": 13.9444576, "tags": {"addr:city": "Wernberg", "addr:housenumber": "1", "addr:postcode": "9241", "addr:street": "Industriestraße", "amenity": "post_office", "name": "Postpartner 9241, Tabak Trafik Hermann"}, "content": "Postpartner 9241, Tabak Trafik Hermann\nKategorie: amenity:post_office\nAdresse: Industriestraße 1, 9241 Wernberg\nOrt: Wernberg\nPLZ: 9241\nKoordinaten: 46.620652, 13.944458\nTags: amenity=post_office", "doc_type": "addresses"}
{"source": "OSM", "region": "Kärnten", "osm_type": "node", "osm_id": 3889705565, "name": "Nonstop Fitness", "category": "leisure:fitness_centre", "address": "Industriestraße 1, 9241 Wernberg", "street": "Industriestraße", "housenumber": "1", "postcode": "9241", "place": "Wernberg", "lat": 46.6204192, "lon": 13.9441942, "tags": {"addr:city": "Wernberg", "addr:housenumber": "1", "addr:postcode": "9241", "addr:street": "Industriestraße", "leisure": "fitness_centre", "name": "Nonstop Fitness", "operator": "Nonstop Fitness Wernberg e.V."}, "content": "Nonstop Fitness\nKategorie: leisure:fitness_centre\nAdresse: Industriestraße 1, 9241 Wernberg\nOrt: Wernberg\nPLZ: 9241\nKoordinaten: 46.620419, 13.944194\nTags: operator=Nonstop Fitness Wernberg e.V.", "doc_type": "addresses"}
{"source": "OSM", "region": "Kärnten", "osm_type": "node", "osm_id": 4156041719, "name": "Gasthaus Dorfschenke", "category": "tourism:guest_house", "address": "Kaltschacher Straße 46, 9241 Wernberg", "street": "Kaltschacher Straße", "housenumber": "46", "postcode": "9241", "place": "Wernberg", "lat": 46.622964, "lon": 13.9543095, "tags": {"addr:city": "Wernberg", "addr:housenumber": "46", "addr:postcode": "9241", "addr:street": "Kaltschacher Straße", "name": "Gasthaus Dorfschenke", "operator": "Karl Fritz Benakovitsch", "tourism": "guest_house"}, "content": "Gasthaus Dorfschenke\nKategorie: tourism:guest_house\nAdresse: Kaltschacher Straße 46, 9241 Wernberg\nOrt: Wernberg\nPLZ: 9241\nKoordinaten: 46.622964, 13.954310\nTags: operator=Karl Fritz Benakovitsch", "doc_type": "addresses"}
{"source": "OSM", "region": "Kärnten", "osm_type": "node", "osm_id": 4156341517, "name": "Denise Schöndorfer", "category": "office:company", "address": "Dorfplatzstraße 19/14, 9241 Wernberg", "street": "Dorfplatzstraße", "housenumber": "19/14", "postcode": "9241", "place": "Wernberg", "lat": 46.6008783, "lon": 13.960759, "tags": {"addr:city": "Wernberg", "addr:housenumber": "19/14", "addr:postcode": "9241", "addr:street": "Dorfplatzstraße", "name": "Denise Schöndorfer", "office": "company"}, "content": "Denise Schöndorfer\nKategorie: office:company\nAdresse: Dorfplatzstraße 19/14, 9241 Wernberg\nOrt: Wernberg\nPLZ: 9241\nKoordinaten: 46.600878, 13.960759\nTags: office=company", "doc_type": "addresses"}
{"source": "OSM", "region": "Kärnten", "osm_type": "node", "osm_id": 4156341518, "name": "Mario Dizep", "category": "office:company", "address": "Dorfplatzstraße 11/16, 9241 Wernberg", "street": "Dorfplatzstraße", "housenumber": "11/16", "postcode": "9241", "place": "Wernberg", "lat": 46.6012303, "lon": 13.960263, "tags": {"addr:city": "Wernberg", "addr:housenumber": "11/16", "addr:postcode": "9241", "addr:street": "Dorfplatzstraße", "name": "Mario Dizep", "office": "company"}, "content": "Mario Dizep\nKategorie: office:company\nAdresse: Dorfplatzstraße 11/16, 9241 Wernberg\nOrt: Wernberg\nPLZ: 9241\nKoordinaten: 46.601230, 13.960263\nTags: office=company", "doc_type": "addresses"}
{"source": "OSM", "region": "Kärnten", "osm_type": "node", "osm_id": 4156341519, "name": "KELAG Wärme GmbH", "category": "office:company", "address": "Dorfplatzstraße 11, 9241 Wernberg", "street": "Dorfplatzstraße", "housenumber": "11", "postcode": "9241", "place": "Wernberg", "lat": 46.6011758, "lon": 13.9601492, "tags": {"addr:city": "Wernberg", "addr:housenumber": "11", "addr:postcode": "9241", "addr:street": "Dorfplatzstraße", "name": "KELAG Wärme GmbH", "office": "company"}, "content": "KELAG Wärme GmbH\nKategorie: office:company\nAdresse: Dorfplatzstraße 11, 9241 Wernberg\nOrt: Wernberg\nPLZ: 9241\nKoordinaten: 46.601176, 13.960149\nTags: office=company", "doc_type": "addresses"}
{"source": "OSM", "region": "Kärnten", "osm_type": "node", "osm_id": 340517934, "name": "Postpartner 9241, Tabak Trafik Hermann", "category": "amenity:post_office", "address": "Industriestraße 1, 9241 Wernberg", "street": "Industriestraße", "housenumber": "1", "postcode": "9241", "place": "Wernberg", "lat": 46.6206524, "lon": 13.9444576, "tags": {"addr:city": "Wernberg", "addr:housenumber": "1", "addr:postcode": "9241", "addr:street": "Industriestraße", "amenity": "post_office", "name": "Postpartner 9241, Tabak Trafik Hermann"}, "content": "Postpartner 9241, Tabak Trafik Hermann\nKategorie: amenity:post_office\nAdresse: Industriestraße 1, 9241 Wernberg\nOrt: Wernberg\nPLZ: 9241\nKoordinaten: 46.620652, 13.944458\nTags: amenity=post_office", "doc_type": "pois"}
{"source": "OSM", "region": "Kärnten", "osm_type": "node", "osm_id": 3889705565, "name": "Nonstop Fitness", "category": "leisure:fitness_centre", "address": "Industriestraße 1, 9241 Wernberg", "street": "Industriestraße", "housenumber": "1", "postcode": "9241", "place": "Wernberg", "lat": 46.6204192, "lon": 13.9441942, "tags": {"addr:city": "Wernberg", "addr:housenumber": "1", "addr:postcode": "9241", "addr:street": "Industriestraße", "leisure": "fitness_centre", "name": "Nonstop Fitness", "operator": "Nonstop Fitness Wernberg e.V."}, "content": "Nonstop Fitness\nKategorie: leisure:fitness_centre\nAdresse: Industriestraße 1, 9241 Wernberg\nOrt: Wernberg\nPLZ: 9241\nKoordinaten: 46.620419, 13.944194\nTags: operator=Nonstop Fitness Wernberg e.V.", "doc_type": "pois"}
{"source": "OSM", "region": "Kärnten", "osm_type": "node", "osm_id": 4156041719, "name": "Gasthaus Dorfschenke", "category": "tourism:guest_house", "address": "Kaltschacher Straße 46, 9241 Wernberg", "street": "Kaltschacher Straße", "housenumber": "46", "postcode": "9241", "place": "Wernberg", "lat": 46.622964, "lon": 13.9543095, "tags": {"addr:city": "Wernberg", "addr:housenumber": "46", "addr:postcode": "9241", "addr:street": "Kaltschacher Straße", "name": "Gasthaus Dorfschenke", "operator": "Karl Fritz Benakovitsch", "tourism": "guest_house"}, "content": "Gasthaus Dorfschenke\nKategorie: tourism:guest_house\nAdresse: Kaltschacher Straße 46, 9241 Wernberg\nOrt: Wernberg\nPLZ: 9241\nKoordinaten: 46.622964, 13.954310\nTags: operator=Karl Fritz Benakovitsch", "doc_type": "pois"}
{"source": "OSM", "region": "Kärnten", "osm_type": "node", "osm_id": 4156341517, "name": "Denise Schöndorfer", "category": "office:company", "address": "Dorfplatzstraße 19/14, 9241 Wernberg", "street": "Dorfplatzstraße", "housenumber": "19/14", "postcode": "9241", "place": "Wernberg", "lat": 46.6008783, "lon": 13.960759, "tags": {"addr:city": "Wernberg", "addr:housenumber": "19/14", "addr:postcode": "9241", "addr:street": "Dorfplatzstraße", "name": "Denise Schöndorfer", "office": "company"}, "content": "Denise Schöndorfer\nKategorie: office:company\nAdresse: Dorfplatzstraße 19/14, 9241 Wernberg\nOrt: Wernberg\nPLZ: 9241\nKoordinaten: 46.600878, 13.960759\nTags: office=company", "doc_type": "pois"}
{"source": "OSM", "region": "Kärnten", "osm_type": "node", "osm_id": 4156341518, "name": "Mario Dizep", "category": "office:company", "address": "Dorfplatzstraße 11/16, 9241 Wernberg", "street": "Dorfplatzstraße", "housenumber": "11/16", "postcode": "9241", "place": "Wernberg", "lat": 46.6012303, "lon": 13.960263, "tags": {"addr:city": "Wernberg", "addr:housenumber": "11/16", "addr:postcode": "9241", "addr:street": "Dorfplatzstraße", "name": "Mario Dizep", "office": "company"}, "content": "Mario Dizep\nKategorie: office:company\nAdresse: Dorfplatzstraße 11/16, 9241 Wernberg\nOrt: Wernberg\nPLZ: 9241\nKoordinaten: 46.601230, 13.960263\nTags: office=company", "doc_type": "pois"}
{"source": "OSM", "region": "Kärnten", "osm_type": "node", "osm_id": 4156341519, "name": "KELAG Wärme GmbH", "category": "office:company", "address": "Dorfplatzstraße 11, 9241 Wernberg", "street": "Dorfplatzstraße", "housenumber": "11", "postcode": "9241", "place": "Wernberg", "lat": 46.6011758, "lon": 13.9601492, "tags": {"addr:city": "Wernberg", "addr:housenumber": "11", "addr:postcode": "9241", "addr:street": "Dorfplatzstraße", "name": "KELAG Wärme GmbH", "office": "company"}, "content": "KELAG Wärme GmbH\nKategorie: office:company\nAdresse: Dorfplatzstraße 11, 9241 Wernberg\nOrt: Wernberg\nPLZ: 9241\nKoordinaten: 46.601176, 13.960149\nTags: office=company", "doc_type": "pois"}
