{"source": "OSM", "region": "Kärnten", "osm_type": "node", "osm_id": 340515650, "name": "Postpartner 9751, Tabak Trafik Zauchner", "category": "amenity:post_office", "address": "Marktplatz 10, 9751 Sachsenburg", "street": "Marktplatz", "housenumber": "10", "postcode": "9751", "place": "Sachsenburg", "lat": 46.8279404, "lon": 13.3505434, "tags": {"addr:city": "Sachsenburg", "addr:housenumber": "10", "addr:postcode": "9751", "addr:street": "Marktplatz", "amenity": "post_office", "name": "Postpartner 9751, Tabak Trafik Zauchner"}, "content": "Postpartner 9751, Tabak Trafik Zauchner\nKategorie: amenity:post_office\nAdresse: Marktplatz 10, 9751 Sachsenburg\nOrt: Sachsenburg\nPLZ: 9751\nKoordinaten: 46.827940, 13.350543\nTags: amenity=post_office", "doc_type": "addresses"}
{"source": "OSM", "region": "Kärnten", "osm_type": "node", "osm_id": 2668973981, "name": "FF Obergottesfeld", "category": "amenity:fire_station", "address": "Obergottesfeld 137, 9751 Sachsenburg", "street": "Obergottesfeld", "housenumber": "137", "postcode": "9751", "place": "Sachsenburg", "lat": 46.8020152, "lon": 13.3478996, "tags": {"addr:city": "Sachsenburg", "addr:housenumber": "137", "addr:postcode": "9751", "addr:street": "Obergottesfeld", "amenity": "fire_station", "name": "FF Obergottesfeld"}, "content": "FF Obergottesfeld\nKategorie: amenity:fire_station\nAdresse: Obergottesfeld 137, 9751 Sachsenburg\nOrt: Sachsenburg\nPLZ: 9751\nKoordinaten: 46.802015, 13.347900\nTags: amenity=fire_station", "doc_type": "addresses"}
{"source": "OSM", "region": "Kärnten", "osm_type": "node", "osm_id": 3894637247, "name": null, "category": null, "address": "Zum Sachsenweg 10, 9751 Sachsenburg", "street": "Zum Sachsenweg", "housenumber": "10", "postcode": "9751", "place": "Sachsenburg", "lat": 46.8302536, "lon": 13.3449937, "tags": {"addr:city": "Sachsenburg", "addr:housenumber": "10", "addr:postcode": "9751", "addr:street": "Zum Sachsenweg"}, "content": "Adresse: Zum Sachsenweg 10, 9751 Sachsenburg\nOrt: Sachsenburg\nPLZ: 9751\nKoordinaten: 46.830254, 13.344994", "doc_type": "addresses"}
{"source": "OSM", "region": "Kärnten", "osm_type": "node", "osm_id": 340515650, "name": "Postpartner 9751, Tabak Trafik Zauchner", "category": "amenity:post_office", "address": "Marktplatz 10, 9751 Sachsenburg", "street": "Marktplatz", "housenumber": "10", "postcode": "9751", "place": "Sachsenburg", "lat": 46.8279404, "lon": 13.3505434, "tags": {"addr:city": "Sachsenburg", "addr:housenumber": "10", "addr:postcode": "9751", "addr:street": "Marktplatz", "amenity": "post_office", "name": "Postpartner 9751, Tabak Trafik Zauchner"}, "content": "Postpartner 9751, Tabak Trafik Zauchner\nKategorie: amenity:post_office\nAdresse: Marktplatz 10, 9751 Sachsenburg\nOrt: Sachsenburg\nPLZ: 9751\nKoordinaten: 46.827940, 13.350543\nTags: amenity=post_office", "doc_type": "pois"}
{"source": "OSM", "region": "Kärnten", "osm_type": "node", "osm_id": 2668973981, "name": "FF Obergottesfeld", "category": "amenity:fire_station", "address": "Obergottesfeld 137, 9751 Sachsenburg", "street": "Obergottesfeld", "housenumber": "137", "postcode": "9751", "place": "Sachsenburg", "lat": 46.8020152, "lon": 13.3478996, "tags": {"addr:city": "Sachsenburg", "addr:housenumber": "137", "addr:postcode": "9751", "addr:street": "Obergottesfeld", "amenity": "fire_station", "name": "FF Obergottesfeld"}, "content": "FF Obergottesfeld\nKategorie: amenity:fire_station\nAdresse: Obergottesfeld 137, 9751 Sachsenburg\nOrt: Sachsenburg\nPLZ: 9751\nKoordinaten: 46.802015, 13.347900\nTags: amenity=fire_station", "doc_type": "pois"}
