{"source": "OSM", "region": "Kärnten", "osm_type": "node", "osm_id": 340515467, "name": "Postpartner 9542, Gemeinde", "category": "amenity:post_office", "address": "Schulstraße 2, 9542 Afritz am See", "street": "Schulstraße", "housenumber": "2", "postcode": "9542", "place": "Afritz am See", "lat": 46.7270954, "lon": 13.7996793, "tags": {"addr:city": "Afritz am See", "addr:housenumber": "2", "addr:postcode": "9542", "addr:street": "Schulstraße", "amenity": "post_office", "name": "Postpartner 9542, Gemeinde"}, "content": "Postpartner 9542, Gemeinde\nKategorie: amenity:post_office\nAdresse: Schulstraße 2, 9542 Afritz am See\nOrt: Afritz am See\nPLZ: 9542\nKoordinaten: 46.727095, 13.799679\nTags: amenity=post_office", "doc_type": "addresses"}
{"source": "OSM", "region": "Kärnten", "osm_type": "node", "osm_id": 4927629455, "name": "Harald Themeßl", "category": "shop:garden_centre", "address": "Millstätter Straße 130, 9542 Afritz am See", "street": "Millstätter Straße", "housenumber": "130", "postcode": "9542", "place": "Afritz am See", "lat": 46.7323163, "lon": 13.7799561, "tags": {"addr:city": "Afritz am See", "addr:housenumber": "130", "addr:postcode": "9542", "addr:street": "Millstätter Straße", "name": "Harald Themeßl", "shop": "garden_centre"}, "content": "Harald Themeßl\nKategorie: shop:garden_centre\nAdresse: Millstätter Straße 130, 9542 Afritz am See\nOrt: Afritz am See\nPLZ: 9542\nKoordinaten: 46.732316, 13.779956\nTags: shop=garden_centre", "doc_type": "addresses"}
{"source": "OSM", "region": "Kärnten", "osm_type": "node", "osm_id": 5116059979, "name": "Polizeiinspektion Afritz am See", "category": "amenity:police", "address": "Millstätter Straße 81, 9542 Afritz am See", "street": "Millstätter Straße", "housenumber": "81", "postcode": "9542", "place": "Afritz am See", "lat": 46.7267944, "lon": 13.7870814, "tags": {"addr:city": "Afritz am See", "addr:housenumber": "81", "addr:postcode": "9542", "addr:street": "Millstätter Straße", "amenity": "police", "name": "Polizeiinspektion Afritz am See", "phone": "+43 59133 2251-100"}, "content": "Polizeiinspektion Afritz am See\nKategorie: amenity:police\nAdresse: Millstätter Straße 81, 9542 Afritz am See\nOrt: Afritz am See\nPLZ: 9542\nKoordinaten: 46.726794, 13.787081\nTags: amenity=police, phone=+43 59133 2251-100", "doc_type": "addresses"}
{"source": "OSM", "region": "Kärnten", "osm_type": "node", "osm_id": 340515467, "name": "Postpartner 9542, Gemeinde", "category": "amenity:post_office", "address": "Schulstraße 2, 9542 Afritz am See", "street": "Schulstraße", "housenumber": "2", "postcode": "9542", "place": "Afritz am See", "lat": 46.7270954, "lon": 13.7996793, "tags": {"addr:city": "Afritz am See", "addr:housenumber": "2", "addr:postcode": "9542", "addr:street": "Schulstraße", "amenity": "post_office", "name": "Postpartner 9542, Gemeinde"}, "content": "Postpartner 9542, Gemeinde\nKategorie: amenity:post_office\nAdresse: Schulstraße 2, 9542 Afritz am See\nOrt: Afritz am See\nPLZ: 9542\nKoordinaten: 46.727095, 13.799679\nTags: amenity=post_office", "doc_type": "pois"}
{"source": "OSM", "region": "Kärnten", "osm_type": "node", "osm_id": 4927629455, "name": "Harald Themeßl", "category": "shop:garden_centre", "address": "Millstätter Straße 130, 9542 Afritz am See", "street": "Millstätter Straße", "housenumber": "130", "postcode": "9542", "place": "Afritz am See", "lat": 46.7323163, "lon": 13.7799561, "tags": {"addr:city": "Afritz am See", "addr:housenumber": "130", "addr:postcode": "9542", "addr:street": "Millstätter Straße", "name": "Harald Themeßl", "shop": "garden_centre"}, "content": "Harald Themeßl\nKategorie: shop:garden_centre\nAdresse: Millstätter Straße 130, 9542 Afritz am See\nOrt: Afritz am See\nPLZ: 9542\nKoordinaten: 46.732316, 13.779956\nTags: shop=garden_centre", "doc_type": "pois"}
{"source": "OSM", "region": "Kärnten", "osm_type": "node", "osm_id": 5116059979, "name": "Polizeiinspektion Afritz am See", "category": "amenity:police", "address": "Millstätter Straße 81, 9542 Afritz am See", "street": "Millstätter Straße", "housenumber": "81", "postcode": "9542", "place": "Afritz am See", "lat": 46.7267944, "lon": 13.7870814, "tags": {"addr:city": "Afritz am See", "addr:housenumber": "81", "addr:postcode": "9542", "addr:street": "Millstätter Straße", "amenity": "police", "name": "Polizeiinspektion Afritz am See", "phone": "+43 59133 2251-100"}, "content": "Polizeiinspektion Afritz am See\nKategorie: amenity:police\nAdresse: Millstätter Straße 81, 9542 Afritz am See\nOrt: Afritz am See\nPLZ: 9542\nKoordinaten: 46.726794, 13.787081\nTags: amenity=police, phone=+43 59133 2251-100", "doc_type": "pois"}
