{"source": "OSM", "region": "Kärnten", "osm_type": "node", "osm_id": 877881472, "name": "Eni", "category": "amenity:fuel", "address": "Förolach 46, 9615 Hermagor-Pressegger See", "street": "Förolach", "housenumber": "46", "postcode": "9615", "place": "Hermagor-Pressegger See", "lat": 46.6285759, "lon": 13.4751214, "tags": {"addr:city": "Hermagor-Pressegger See", "addr:housenumber": "46", "addr:postcode": "9615", "addr:street": "Förolach", "amenity": "fuel", "brand": "Eni", "name": "Eni", "phone": "+43 4283 2270"}, "content": "Eni\nKategorie: amenity:fuel\nAdresse: Förolach 46, 9615 Hermagor-Pressegger See\nOrt: Hermagor-Pressegger See\nPLZ: 9615\nKoordinaten: 46.628576, 13.475121\nTags: amenity=fuel, brand=Eni, phone=+43 4283 2270", "doc_type": "addresses"}
{"source": "OSM", "region": "Kärnten", "osm_type": "node", "osm_id": 885474234, "name": "FF Watschig", "category": "amenity:fire_station", "address": "Watschig 203, 9620 Hermagor-Pressegger See", "street": "Watschig", "housenumber": "203", "postcode": "9620", "place": "Hermagor-Pressegger See", "lat": 46.6188799, "lon": 13.307088, "tags": {"addr:city": "Hermagor-Pressegger See", "addr:housenumber": "203", "addr:postcode": "9620", "addr:street": "Watschig", "amenity": "fire_station", "name": "FF Watschig"}, "content": "FF Watschig\nKategorie: amenity:fire_station\nAdresse: Watschig 203, 9620 Hermagor-Pressegger See\nOrt: Hermagor-Pressegger See\nPLZ: 9620\nKoordinaten: 46.618880, 13.307088\nTags: amenity=fire_station", "doc_type": "addresses"}
{"source": "OSM", "region": "Kärnten", "osm_type": "node", "osm_id": 885575325, "name": "FF Möderndorf", "category": "amenity:fire_station", "address": "1364, 9620 Hermagor-Pressegger See", "street": null, "housenumber": "1364", "postcode": "9620", "place": "Hermagor-Pressegger See", "lat": 46.6112044, "lon": 13.3633904, "tags": {"addr:city": "Hermagor-Pressegger See", "addr:housenumber": "1364", "addr:place": "Möderndorf", "addr:postcode": "9620", "amenity": "fire_station", "name": "FF Möderndorf"}, "content": "FF Möderndorf\nKategorie: amenity:fire_station\nAdresse: 1364, 9620 Hermagor-Pressegger See\nOrt: Hermagor-Pressegger See\nPLZ: 9620\nKoordinaten: 46.611204, 13.363390\nTags: amenity=fire_station", "doc_type": "addresses"}
{"source": "OSM", "region": "Kärnten", "osm_type": "node", "osm_id": 1363093512, "name": "Bezirkspolizeikommando Hermagor", "category": "amenity:police", "address": "Gösseringlände 7, 9620 Hermagor-Pressegger See", "street": "Gösseringlände", "housenumber": "7", "postcode": "9620", "place": "Hermagor-Pressegger See", "lat": 46.6258526, "lon": 13.372501, "tags": {"addr:city": "Hermagor-Pressegger See", "addr:housenumber": "7", "addr:postcode": "9620", "addr:street": "Gösseringlände", "amenity": "police", "name": "Bezirkspolizeikommando Hermagor", "phone": "+43 59133 2210305"}, "content": "Bezirkspolizeikommando Hermagor\nKategorie: amenity:police\nAdresse: Gösseringlände 7, 9620 Hermagor-Pressegger See\nOrt: Hermagor-Pressegger See\nPLZ: 9620\nKoordinaten: 46.625853, 13.372501\nTags: amenity=police, phone=+43 59133 2210305", "doc_type": "addresses"}
{"source": "OSM", "region": "Kärnten", "osm_type": "node", "osm_id": 2495263570, "name": "ÖGK Kundenservice Hermagor", "category": "office:health_insurance", "address": "Egger Straße 7, 9620 Hermagor-Pressegger See", "street": "Egger Straße", "housenumber": "7", "postcode": "9620", "place": "Hermagor-Pressegger See", "lat": 46.626396, "lon": 13.3732389, "tags": {"addr:city": "Hermagor-Pressegger See", "addr:housenumber": "7", "addr:postcode": "9620", "addr:street": "Egger Straße", "name": "ÖGK Kundenservice Hermagor", "office": "health_insurance", "operator": "Österreichische Gesundheitskasse (ÖGK)", "website": "https://www.gesundheitskasse.at/cdscontent/?contentid=10007.824177&portal=oegkkportal&content_contentid=10007.824476"}, "content": "ÖGK Kundenservice Hermagor\nKategorie: office:health_insurance\nAdresse: Egger Straße 7, 9620 Hermagor-Pressegger See\nOrt: Hermagor-Pressegger See\nPLZ: 9620\nKoordinaten: 46.626396, 13.373239\nTags: office=health_insurance, operator=Österreichische Gesundheitskasse (ÖGK), website=https://www.gesundheitskasse.at/cdscontent/?contentid=10007.824177&portal=oegkkportal&content_contentid=10007.824476", "doc_type": "addresses"}
{"source": "OSM", "region": "Kärnten", "osm_type": "node", "osm_id": 3835890509, "name": "Polizei Expositur Hermagor/Nassfeld", "category": "amenity:police", "address": "2, 9620 Hermagor-Pressegger See", "street": null, "housenumber": "2", "postcode": "9620", "place": "Hermagor-Pressegger See", "lat": 46.56017, "lon": 13.2754547, "tags": {"addr:city": "Hermagor-Pressegger See", "addr:housenumber": "2", "addr:place": "Sonnenalpe Nassfeld", "addr:postcode": "9620", "amenity": "police", "name": "Polizei Expositur Hermagor/Nassfeld", "phone": "+43 59133 2217100"}, "content": "Polizei Expositur Hermagor/Nassfeld\nKategorie: amenity:police\nAdresse: 2, 9620 Hermagor-Pressegger See\nOrt: Hermagor-Pressegger See\nPLZ: 9620\nKoordinaten: 46.560170, 13.275455\nTags: amenity=police, phone=+43 59133 2217100", "doc_type": "addresses"}
{"source": "OSM", "region": "Kärnten", "osm_type": "node", "osm_id": 3963824719, "name": "Das Kleine Feriendorf", "category": "tourism:chalet", "address": "41, 9631 Hermagor-Pressegger See", "street": null, "housenumber": "41", "postcode": "9631", "place": "Hermagor-Pressegger See", "lat": 46.6307951, "lon": 13.2500253, "tags": {"addr:city": "Hermagor-Pressegger See", "addr:housenumber": "41", "addr:place": "Jenig", "addr:postcode": "9631", "name": "Das Kleine Feriendorf", "tourism": "chalet"}, "content": "Das Kleine Feriendorf\nKategorie: tourism:chalet\nAdresse: 41, 9631 Hermagor-Pressegger See\nOrt: Hermagor-Pressegger See\nPLZ: 9631\nKoordinaten: 46.630795, 13.250025", "doc_type": "addresses"}
{"source": "OSM", "region": "Kärnten", "osm_type": "node", "osm_id": 5597102297, "name": null, "category": null, "address": "Hauptstraße 34, 9620 Hermagor-Pressegger See", "street": "Hauptstraße", "housenumber": "34", "postcode": "9620", "place": "Hermagor-Pressegger See", "lat": 46.627848, "lon": 13.3660403, "tags": {"addr:city": "Hermagor-Pressegger See", "addr:housenumber": "34", "addr:postcode": "9620", "addr:street": "Hauptstraße"}, "content": "Adresse: Hauptstraße 34, 9620 Hermagor-Pressegger See\nOrt: Hermagor-Pressegger See\nPLZ: 9620\nKoordinaten: 46.627848, 13.366040", "doc_type": "addresses"}
{"source": "OSM", "region": "Kärnten", "osm_type": "node", "osm_id": 5597102298, "name": null, "category": null, "address": "Grabengasse 2, 9620 Hermagor-Pressegger See", "street": "Grabengasse", "housenumber": "2", "postcode": "9620", "place": "Hermagor-Pressegger See", "lat": 46.6280543, "lon": 13.3660497, "tags": {"addr:city": "Hermagor-Pressegger See", "addr:housenumber": "2", "addr:postcode": "9620", "addr:street": "Grabengasse"}, "content": "Adresse: Grabengasse 2, 9620 Hermagor-Pressegger See\nOrt: Hermagor-Pressegger See\nPLZ: 9620\nKoordinaten: 46.628054, 13.366050", "doc_type": "addresses"}
{"source": "OSM", "region": "Kärnten", "osm_type": "node", "osm_id": 5597102317, "name": null, "category": null, "address": "Kurygasse 2, 9620 Hermagor-Pressegger See", "street": "Kurygasse", "housenumber": "2", "postcode": "9620", "place": "Hermagor-Pressegger See", "lat": 46.6276481, "lon": 13.3702406, "tags": {"addr:city": "Hermagor-Pressegger See", "addr:housenumber": "2", "addr:postcode": "9620", "addr:street": "Kurygasse"}, "content": "Adresse: Kurygasse 2, 9620 Hermagor-Pressegger See\nOrt: Hermagor-Pressegger See\nPLZ: 9620\nKoordinaten: 46.627648, 13.370241", "doc_type": "addresses"}
{"source": "OSM", "region": "Kärnten", "osm_type": "node", "osm_id": 5597104249, "name": null, "category": null, "address": "Hauptstraße 10, 9620 Hermagor-Pressegger See", "street": "Hauptstraße", "housenumber": "10", "postcode": "9620", "place": "Hermagor-Pressegger See", "lat": 46.6274732, "lon": 13.3693206, "tags": {"addr:city": "Hermagor-Pressegger See", "addr:housenumber": "10", "addr:postcode": "9620", "addr:street": "Hauptstraße"}, "content": "Adresse: Hauptstraße 10, 9620 Hermagor-Pressegger See\nOrt: Hermagor-Pressegger See\nPLZ: 9620\nKoordinaten: 46.627473, 13.369321", "doc_type": "addresses"}
{"source": "OSM", "region": "Kärnten", "osm_type": "node", "osm_id": 5597104251, "name": null, "category": null, "address": "Hauptstraße 12, 9620 Hermagor-Pressegger See", "street": "Hauptstraße", "housenumber": "12", "postcode": "9620", "place": "Hermagor-Pressegger See", "lat": 46.6275156, "lon": 13.3691677, "tags": {"addr:city": "Hermagor-Pressegger See", "addr:housenumber": "12", "addr:postcode": "9620", "addr:street": "Hauptstraße"}, "content": "Adresse: Hauptstraße 12, 9620 Hermagor-Pressegger See\nOrt: Hermagor-Pressegger See\nPLZ: 9620\nKoordinaten: 46.627516, 13.369168", "doc_type": "addresses"}
{"source": "OSM", "region": "Kärnten", "osm_type": "node", "osm_id": 5597104281, "name": "Kinderschutzzentrum DELFI Hermagor", "category": "amenity:social_facility", "address": "Hauptstraße 61, 9620 Hermagor-Pressegger See", "street": "Hauptstraße", "housenumber": "61", "postcode": "9620", "place": "Hermagor-Pressegger See", "lat": 46.6275395, "lon": 13.3636317, "tags": {"addr:city": "Hermagor-Pressegger See", "addr:housenumber": "61", "addr:postcode": "9620", "addr:street": "Hauptstraße", "amenity": "social_facility", "name": "Kinderschutzzentrum DELFI Hermagor", "phone": "+43 4282 25006", "website": "http://www.kisz-ktn.at/"}, "content": "Kinderschutzzentrum DELFI Hermagor\nKategorie: amenity:social_facility\nAdresse: Hauptstraße 61, 9620 Hermagor-Pressegger See\nOrt: Hermagor-Pressegger See\nPLZ: 9620\nKoordinaten: 46.627539, 13.363632\nTags: amenity=social_facility, phone=+43 4282 25006, website=http://www.kisz-ktn.at/", "doc_type": "addresses"}
{"source": "OSM", "region": "Kärnten", "osm_type": "node", "osm_id": 5597104288, "name": null, "category": null, "address": "11, 9620 Hermagor-Pressegger See", "street": null, "housenumber": "11", "postcode": "9620", "place": "Hermagor-Pressegger See", "lat": 46.6268801, "lon": 13.3654904, "tags": {"addr:city": "Hermagor-Pressegger See", "addr:housenumber": "11", "addr:place": "Neue Heimat", "addr:postcode": "9620"}, "content": "Adresse: 11, 9620 Hermagor-Pressegger See\nOrt: Hermagor-Pressegger See\nPLZ: 9620\nKoordinaten: 46.626880, 13.365490", "doc_type": "addresses"}
{"source": "OSM", "region": "Kärnten", "osm_type": "node", "osm_id": 5597104289, "name": null, "category": null, "address": "13, 9620 Hermagor-Pressegger See", "street": null, "housenumber": "13", "postcode": "9620", "place": "Hermagor-Pressegger See", "lat": 46.6268911, "lon": 13.3651793, "tags": {"addr:city": "Hermagor-Pressegger See", "addr:housenumber": "13", "addr:place": "Neue Heimat", "addr:postcode": "9620"}, "content": "Adresse: 13, 9620 Hermagor-Pressegger See\nOrt: Hermagor-Pressegger See\nPLZ: 9620\nKoordinaten: 46.626891, 13.365179", "doc_type": "addresses"}
{"source": "OSM", "region": "Kärnten", "osm_type": "node", "osm_id": 5597104290, "name": null, "category": null, "address": "9, 9620 Hermagor-Pressegger See", "street": null, "housenumber": "9", "postcode": "9620", "place": "Hermagor-Pressegger See", "lat": 46.6266332, "lon": 13.3654743, "tags": {"addr:city": "Hermagor-Pressegger See", "addr:housenumber": "9", "addr:place": "Neue Heimat", "addr:postcode": "9620"}, "content": "Adresse: 9, 9620 Hermagor-Pressegger See\nOrt: Hermagor-Pressegger See\nPLZ: 9620\nKoordinaten: 46.626633, 13.365474", "doc_type": "addresses"}
{"source": "OSM", "region": "Kärnten", "osm_type": "node", "osm_id": 5597104291, "name": null, "category": null, "address": "8, 9620 Hermagor-Pressegger See", "street": null, "housenumber": "8", "postcode": "9620", "place": "Hermagor-Pressegger See", "lat": 46.6269095, "lon": 13.3659437, "tags": {"addr:city": "Hermagor-Pressegger See", "addr:housenumber": "8", "addr:place": "Neue Heimat", "addr:postcode": "9620"}, "content": "Adresse: 8, 9620 Hermagor-Pressegger See\nOrt: Hermagor-Pressegger See\nPLZ: 9620\nKoordinaten: 46.626909, 13.365944", "doc_type": "addresses"}
{"source": "OSM", "region": "Kärnten", "osm_type": "node", "osm_id": 5597104292, "name": null, "category": null, "address": "4, 9620 Hermagor-Pressegger See", "street": null, "housenumber": "4", "postcode": "9620", "place": "Hermagor-Pressegger See", "lat": 46.6268322, "lon": 13.3664668, "tags": {"addr:city": "Hermagor-Pressegger See", "addr:housenumber": "4", "addr:place": "Neue Heimat", "addr:postcode": "9620"}, "content": "Adresse: 4, 9620 Hermagor-Pressegger See\nOrt: Hermagor-Pressegger See\nPLZ: 9620\nKoordinaten: 46.626832, 13.366467", "doc_type": "addresses"}
{"source": "OSM", "region": "Kärnten", "osm_type": "node", "osm_id": 5597104293, "name": null, "category": null, "address": "6, 9620 Hermagor-Pressegger See", "street": null, "housenumber": "6", "postcode": "9620", "place": "Hermagor-Pressegger See", "lat": 46.6268524, "lon": 13.3662173, "tags": {"addr:city": "Hermagor-Pressegger See", "addr:housenumber": "6", "addr:place": "Neue Heimat", "addr:postcode": "9620"}, "content": "Adresse: 6, 9620 Hermagor-Pressegger See\nOrt: Hermagor-Pressegger See\nPLZ: 9620\nKoordinaten: 46.626852, 13.366217", "doc_type": "addresses"}
{"source": "OSM", "region": "Kärnten", "osm_type": "node", "osm_id": 5597104295, "name": null, "category": null, "address": "1, 9620 Hermagor-Pressegger See", "street": null, "housenumber": "1", "postcode": "9620", "place": "Hermagor-Pressegger See", "lat": 46.6265725, "lon": 13.3668959, "tags": {"addr:city": "Hermagor-Pressegger See", "addr:housenumber": "1", "addr:place": "Neue Heimat", "addr:postcode": "9620"}, "content": "Adresse: 1, 9620 Hermagor-Pressegger See\nOrt: Hermagor-Pressegger See\nPLZ: 9620\nKoordinaten: 46.626573, 13.366896", "doc_type": "addresses"}
{"source": "OSM", "region": "Kärnten", "osm_type": "node", "osm_id": 5597104296, "name": null, "category": null, "address": "3, 9620 Hermagor-Pressegger See", "street": null, "housenumber": "3", "postcode": "9620", "place": "Hermagor-Pressegger See", "lat": 46.6265946, "lon": 13.3665284, "tags": {"addr:city": "Hermagor-Pressegger See", "addr:housenumber": "3", "addr:place": "Neue Heimat", "addr:postcode": "9620"}, "content": "Adresse: 3, 9620 Hermagor-Pressegger See\nOrt: Hermagor-Pressegger See\nPLZ: 9620\nKoordinaten: 46.626595, 13.366528", "doc_type": "addresses"}
{"source": "OSM", "region": "Kärnten", "osm_type": "node", "osm_id": 5597104297, "name": null, "category": null, "address": "5, 9620 Hermagor-Pressegger See", "street": null, "housenumber": "5", "postcode": "9620", "place": "Hermagor-Pressegger See", "lat": 46.626613, "lon": 13.3661824, "tags": {"addr:city": "Hermagor-Pressegger See", "addr:housenumber": "5", "addr:place": "Neue Heimat", "addr:postcode": "9620"}, "content": "Adresse: 5, 9620 Hermagor-Pressegger See\nOrt: Hermagor-Pressegger See\nPLZ: 9620\nKoordinaten: 46.626613, 13.366182", "doc_type": "addresses"}
{"source": "OSM", "region": "Kärnten", "osm_type": "node", "osm_id": 5597104298, "name": null, "category": null, "address": "7, 9620 Hermagor-Pressegger See", "street": null, "housenumber": "7", "postcode": "9620", "place": "Hermagor-Pressegger See", "lat": 46.6266222, "lon": 13.3658284, "tags": {"addr:city": "Hermagor-Pressegger See", "addr:housenumber": "7", "addr:place": "Neue Heimat", "addr:postcode": "9620"}, "content": "Adresse: 7, 9620 Hermagor-Pressegger See\nOrt: Hermagor-Pressegger See\nPLZ: 9620\nKoordinaten: 46.626622, 13.365828", "doc_type": "addresses"}
{"source": "OSM", "region": "Kärnten", "osm_type": "node", "osm_id": 5615949386, "name": null, "category": null, "address": "Hauptstraße 65, 9620 Hermagor-Pressegger See", "street": "Hauptstraße", "housenumber": "65", "postcode": "9620", "place": "Hermagor-Pressegger See", "lat": 46.6281253, "lon": 13.3613464, "tags": {"addr:city": "Hermagor-Pressegger See", "addr:housenumber": "65", "addr:postcode": "9620", "addr:street": "Hauptstraße"}, "content": "Adresse: Hauptstraße 65, 9620 Hermagor-Pressegger See\nOrt: Hermagor-Pressegger See\nPLZ: 9620\nKoordinaten: 46.628125, 13.361346", "doc_type": "addresses"}
{"source": "OSM", "region": "Kärnten", "osm_type": "node", "osm_id": 5615949387, "name": null, "category": null, "address": "Guggenberger Straße 7, 9620 Hermagor-Pressegger See", "street": "Guggenberger Straße", "housenumber": "7", "postcode": "9620", "place": "Hermagor-Pressegger See", "lat": 46.6276463, "lon": 13.3611131, "tags": {"addr:city": "Hermagor-Pressegger See", "addr:housenumber": "7", "addr:postcode": "9620", "addr:street": "Guggenberger Straße"}, "content": "Adresse: Guggenberger Straße 7, 9620 Hermagor-Pressegger See\nOrt: Hermagor-Pressegger See\nPLZ: 9620\nKoordinaten: 46.627646, 13.361113", "doc_type": "addresses"}
{"source": "OSM", "region": "Kärnten", "osm_type": "node", "osm_id": 5615949395, "name": null, "category": null, "address": "Hauptstraße 75, 9620 Hermagor-Pressegger See", "street": "Hauptstraße", "housenumber": "75", "postcode": "9620", "place": "Hermagor-Pressegger See", "lat": 46.6285636, "lon": 13.3605444, "tags": {"addr:city": "Hermagor-Pressegger See", "addr:housenumber": "75", "addr:postcode": "9620", "addr:street": "Hauptstraße"}, "content": "Adresse: Hauptstraße 75, 9620 Hermagor-Pressegger See\nOrt: Hermagor-Pressegger See\nPLZ: 9620\nKoordinaten: 46.628564, 13.360544", "doc_type": "addresses"}
{"source": "OSM", "region": "Kärnten", "osm_type": "node", "osm_id": 5615949396, "name": null, "category": null, "address": "Hauptstraße 77, 9620 Hermagor-Pressegger See", "street": "Hauptstraße", "housenumber": "77", "postcode": "9620", "place": "Hermagor-Pressegger See", "lat": 46.6285931, "lon": 13.3604318, "tags": {"addr:city": "Hermagor-Pressegger See", "addr:housenumber": "77", "addr:postcode": "9620", "addr:street": "Hauptstraße"}, "content": "Adresse: Hauptstraße 77, 9620 Hermagor-Pressegger See\nOrt: Hermagor-Pressegger See\nPLZ: 9620\nKoordinaten: 46.628593, 13.360432", "doc_type": "addresses"}
{"source": "OSM", "region": "Kärnten", "osm_type": "node", "osm_id": 877881472, "name": "Eni", "category": "amenity:fuel", "address": "Förolach 46, 9615 Hermagor-Pressegger See", "street": "Förolach", "housenumber": "46", "postcode": "9615", "place": "Hermagor-Pressegger See", "lat": 46.6285759, "lon": 13.4751214, "tags": {"addr:city": "Hermagor-Pressegger See", "addr:housenumber": "46", "addr:postcode": "9615", "addr:street": "Förolach", "amenity": "fuel", "brand": "Eni", "name": "Eni", "phone": "+43 4283 2270"}, "content": "Eni\nKategorie: amenity:fuel\nAdresse: Förolach 46, 9615 Hermagor-Pressegger See\nOrt: Hermagor-Pressegger See\nPLZ: 9615\nKoordinaten: 46.628576, 13.475121\nTags: amenity=fuel, brand=Eni, phone=+43 4283 2270", "doc_type": "pois"}
{"source": "OSM", "region": "Kärnten", "osm_type": "node", "osm_id": 885474234, "name": "FF Watschig", "category": "amenity:fire_station", "address": "Watschig 203, 9620 Hermagor-Pressegger See", "street": "Watschig", "housenumber": "203", "postcode": "9620", "place": "Hermagor-Pressegger See", "lat": 46.6188799, "lon": 13.307088, "tags": {"addr:city": "Hermagor-Pressegger See", "addr:housenumber": "203", "addr:postcode": "9620", "addr:street": "Watschig", "amenity": "fire_station", "name": "FF Watschig"}, "content": "FF Watschig\nKategorie: amenity:fire_station\nAdresse: Watschig 203, 9620 Hermagor-Pressegger See\nOrt: Hermagor-Pressegger See\nPLZ: 9620\nKoordinaten: 46.618880, 13.307088\nTags: amenity=fire_station", "doc_type": "pois"}
{"source": "OSM", "region": "Kärnten", "osm_type": "node", "osm_id": 885575325, "name": "FF Möderndorf", "category": "amenity:fire_station", "address": "1364, 9620 Hermagor-Pressegger See", "street": null, "housenumber": "1364", "postcode": "9620", "place": "Hermagor-Pressegger See", "lat": 46.6112044, "lon": 13.3633904, "tags": {"addr:city": "Hermagor-Pressegger See", "addr:housenumber": "1364", "addr:place": "Möderndorf", "addr:postcode": "9620", "amenity": "fire_station", "name": "FF Möderndorf"}, "content": "FF Möderndorf\nKategorie: amenity:fire_station\nAdresse: 1364, 9620 Hermagor-Pressegger See\nOrt: Hermagor-Pressegger See\nPLZ: 9620\nKoordinaten: 46.611204, 13.363390\nTags: amenity=fire_station", "doc_type": "pois"}
{"source": "OSM", "region": "Kärnten", "osm_type": "node", "osm_id": 1363093512, "name": "Bezirkspolizeikommando Hermagor", "category": "amenity:police", "address": "Gösseringlände 7, 9620 Hermagor-Pressegger See", "street": "Gösseringlände", "housenumber": "7", "postcode": "9620", "place": "Hermagor-Pressegger See", "lat": 46.6258526, "lon": 13.372501, "tags": {"addr:city": "Hermagor-Pressegger See", "addr:housenumber": "7", "addr:postcode": "9620", "addr:street": "Gösseringlände", "amenity": "police", "name": "Bezirkspolizeikommando Hermagor", "phone": "+43 59133 2210305"}, "content": "Bezirkspolizeikommando Hermagor\nKategorie: amenity:police\nAdresse: Gösseringlände 7, 9620 Hermagor-Pressegger See\nOrt: Hermagor-Pressegger See\nPLZ: 9620\nKoordinaten: 46.625853, 13.372501\nTags: amenity=police, phone=+43 59133 2210305", "doc_type": "pois"}
{"source": "OSM", "region": "Kärnten", "osm_type": "node", "osm_id": 2495263570, "name": "ÖGK Kundenservice Hermagor", "category": "office:health_insurance", "address": "Egger Straße 7, 9620 Hermagor-Pressegger See", "street": "Egger Straße", "housenumber": "7", "postcode": "9620", "place": "Hermagor-Pressegger See", "lat": 46.626396, "lon": 13.3732389, "tags": {"addr:city": "Hermagor-Pressegger See", "addr:housenumber": "7", "addr:postcode": "9620", "addr:street": "Egger Straße", "name": "ÖGK Kundenservice Hermagor", "office": "health_insurance", "operator": "Österreichische Gesundheitskasse (ÖGK)", "website": "https://www.gesundheitskasse.at/cdscontent/?contentid=10007.824177&portal=oegkkportal&content_contentid=10007.824476"}, "content": "ÖGK Kundenservice Hermagor\nKategorie: office:health_insurance\nAdresse: Egger Straße 7, 9620 Hermagor-Pressegger See\nOrt: Hermagor-Pressegger See\nPLZ: 9620\nKoordinaten: 46.626396, 13.373239\nTags: office=health_insurance, operator=Österreichische Gesundheitskasse (ÖGK), website=https://www.gesundheitskasse.at/cdscontent/?contentid=10007.824177&portal=oegkkportal&content_contentid=10007.824476", "doc_type": "pois"}
{"source": "OSM", "region": "Kärnten", "osm_type": "node", "osm_id": 3835890509, "name": "Polizei Expositur Hermagor/Nassfeld", "category": "amenity:police", "address": "2, 9620 Hermagor-Pressegger See", "street": null, "housenumber": "2", "postcode": "9620", "place": "Hermagor-Pressegger See", "lat": 46.56017, "lon": 13.2754547, "tags": {"addr:city": "Hermagor-Pressegger See", "addr:housenumber": "2", "addr:place": "Sonnenalpe Nassfeld", "addr:postcode": "9620", "amenity": "police", "name": "Polizei Expositur Hermagor/Nassfeld", "phone": "+43 59133 2217100"}, "content": "Polizei Expositur Hermagor/Nassfeld\nKategorie: amenity:police\nAdresse: 2, 9620 Hermagor-Pressegger See\nOrt: Hermagor-Pressegger See\nPLZ: 9620\nKoordinaten: 46.560170, 13.275455\nTags: amenity=police, phone=+43 59133 2217100", "doc_type": "pois"}
{"source": "OSM", "region": "Kärnten", "osm_type": "node", "osm_id": 3963824719, "name": "Das Kleine Feriendorf", "category": "tourism:chalet", "address": "41, 9631 Hermagor-Pressegger See", "street": null, "housenumber": "41", "postcode": "9631", "place": "Hermagor-Pressegger See", "lat": 46.6307951, "lon": 13.2500253, "tags": {"addr:city": "Hermagor-Pressegger See", "addr:housenumber": "41", "addr:place": "Jenig", "addr:postcode": "9631", "name": "Das Kleine Feriendorf", "tourism": "chalet"}, "content": "Das Kleine Feriendorf\nKategorie: tourism:chalet\nAdresse: 41, 9631 Hermagor-Pressegger See\nOrt: Hermagor-Pressegger See\nPLZ: 9631\nKoordinaten: 46.630795, 13.250025", "doc_type": "pois"}
{"source": "OSM", "region": "Kärnten", "osm_type": "node", "osm_id": 5597104281, "name": "Kinderschutzzentrum DELFI Hermagor", "category": "amenity:social_facility", "address": "Hauptstraße 61, 9620 Hermagor-Pressegger See", "street": "Hauptstraße", "housenumber": "61", "postcode": "9620", "place": "Hermagor-Pressegger See", "lat": 46.6275395, "lon": 13.3636317, "tags": {"addr:city": "Hermagor-Pressegger See", "addr:housenumber": "61", "addr:postcode": "9620", "addr:street": "Hauptstraße", "amenity": "social_facility", "name": "Kinderschutzzentrum DELFI Hermagor", "phone": "+43 4282 25006", "website": "http://www.kisz-ktn.at/"}, "content": "Kinderschutzzentrum DELFI Hermagor\nKategorie: amenity:social_facility\nAdresse: Hauptstraße 61, 9620 Hermagor-Pressegger See\nOrt: Hermagor-Pressegger See\nPLZ: 9620\nKoordinaten: 46.627539, 13.363632\nTags: amenity=social_facility, phone=+43 4282 25006, website=http://www.kisz-ktn.at/", "doc_type": "pois"}
