{"source": "OSM", "region": "Kärnten", "osm_type": "node", "osm_id": 340516714, "name": "9632 Kirchbach im Gailtal", "category": "amenity:post_office", "address": "19, 9632 Kirchbach", "street": null, "housenumber": "19", "postcode": "9632", "place": "Kirchbach", "lat": 46.6410129, "lon": 13.1859946, "tags": {"addr:city": "Kirchbach", "addr:housenumber": "19", "addr:place": "Kirchbach", "addr:postcode": "9632", "amenity": "post_office", "name": "9632 Kirchbach im Gailtal"}, "content": "9632 Kirchbach im Gailtal\nKategorie: amenity:post_office\nAdresse: 19, 9632 Kirchbach\nOrt: Kirchbach\nPLZ: 9632\nKoordinaten: 46.641013, 13.185995\nTags: amenity=post_office", "doc_type": "addresses"}
{"source": "OSM", "region": "Kärnten", "osm_type": "node", "osm_id": 2526522547, "name": null, "category": null, "address": "1, 9634 Kirchbach", "street": null, "housenumber": "1", "postcode": "9634", "place": "Kirchbach", "lat": 46.64185, "lon": 13.1169092, "tags": {"addr:city": "Kirchbach", "addr:housenumber": "1", "addr:place": "Griminitzen", "addr:postcode": "9634"}, "content": "Adresse: 1, 9634 Kirchbach\nOrt: Kirchbach\nPLZ: 9634\nKoordinaten: 46.641850, 13.116909", "doc_type": "addresses"}
{"source": "OSM", "region": "Kärnten", "osm_type": "node", "osm_id": 2526522551, "name": null, "category": null, "address": "10, 9634 Kirchbach", "street": null, "housenumber": "10", "postcode": "9634", "place": "Kirchbach", "lat": 46.6426915, "lon": 13.1156042, "tags": {"addr:city": "Kirchbach", "addr:housenumber": "10", "addr:place": "Griminitzen", "addr:postcode": "9634"}, "content": "Adresse: 10, 9634 Kirchbach\nOrt: Kirchbach\nPLZ: 9634\nKoordinaten: 46.642691, 13.115604", "doc_type": "addresses"}
{"source": "OSM", "region": "Kärnten", "osm_type": "node", "osm_id": 2526522554, "name": null, "category": null, "address": "11, 9634 Kirchbach", "street": null, "housenumber": "11", "postcode": "9634", "place": "Kirchbach", "lat": 46.6426608, "lon": 13.1151415, "tags": {"addr:city": "Kirchbach", "addr:housenumber": "11", "addr:place": "Griminitzen", "addr:postcode": "9634"}, "content": "Adresse: 11, 9634 Kirchbach\nOrt: Kirchbach\nPLZ: 9634\nKoordinaten: 46.642661, 13.115142", "doc_type": "addresses"}
{"source": "OSM", "region": "Kärnten", "osm_type": "node", "osm_id": 2526522558, "name": null, "category": null, "address": "12, 9634 Kirchbach", "street": null, "housenumber": "12", "postcode": "9634", "place": "Kirchbach", "lat": 46.6430492, "lon": 13.1154724, "tags": {"addr:city": "Kirchbach", "addr:housenumber": "12", "addr:place": "Griminitzen", "addr:postcode": "9634"}, "content": "Adresse: 12, 9634 Kirchbach\nOrt: Kirchbach\nPLZ: 9634\nKoordinaten: 46.643049, 13.115472", "doc_type": "addresses"}
{"source": "OSM", "region": "Kärnten", "osm_type": "node", "osm_id": 2526522562, "name": null, "category": null, "address": "13, 9634 Kirchbach", "street": null, "housenumber": "13", "postcode": "9634", "place": "Kirchbach", "lat": 46.6422457, "lon": 13.1160869, "tags": {"addr:city": "Kirchbach", "addr:housenumber": "13", "addr:place": "Griminitzen", "addr:postcode": "9634"}, "content": "Adresse: 13, 9634 Kirchbach\nOrt: Kirchbach\nPLZ: 9634\nKoordinaten: 46.642246, 13.116087", "doc_type": "addresses"}
{"source": "OSM", "region": "Kärnten", "osm_type": "node", "osm_id": 2526522565, "name": null, "category": null, "address": "14, 9634 Kirchbach", "street": null, "housenumber": "14", "postcode": "9634", "place": "Kirchbach", "lat": 46.6431544, "lon": 13.1146504, "tags": {"addr:city": "Kirchbach", "addr:housenumber": "14", "addr:place": "Griminitzen", "addr:postcode": "9634"}, "content": "Adresse: 14, 9634 Kirchbach\nOrt: Kirchbach\nPLZ: 9634\nKoordinaten: 46.643154, 13.114650", "doc_type": "addresses"}
{"source": "OSM", "region": "Kärnten", "osm_type": "node", "osm_id": 2526522568, "name": null, "category": null, "address": "15, 9634 Kirchbach", "street": null, "housenumber": "15", "postcode": "9634", "place": "Kirchbach", "lat": 46.6432832, "lon": 13.1154034, "tags": {"addr:city": "Kirchbach", "addr:housenumber": "15", "addr:place": "Griminitzen", "addr:postcode": "9634"}, "content": "Adresse: 15, 9634 Kirchbach\nOrt: Kirchbach\nPLZ: 9634\nKoordinaten: 46.643283, 13.115403", "doc_type": "addresses"}
{"source": "OSM", "region": "Kärnten", "osm_type": "node", "osm_id": 2526522572, "name": null, "category": null, "address": "16, 9634 Kirchbach", "street": null, "housenumber": "16", "postcode": "9634", "place": "Kirchbach", "lat": 46.6421459, "lon": 13.1139188, "tags": {"addr:city": "Kirchbach", "addr:housenumber": "16", "addr:place": "Griminitzen", "addr:postcode": "9634"}, "content": "Adresse: 16, 9634 Kirchbach\nOrt: Kirchbach\nPLZ: 9634\nKoordinaten: 46.642146, 13.113919", "doc_type": "addresses"}
{"source": "OSM", "region": "Kärnten", "osm_type": "node", "osm_id": 2526522575, "name": null, "category": null, "address": "17, 9634 Kirchbach", "street": null, "housenumber": "17", "postcode": "9634", "place": "Kirchbach", "lat": 46.6426206, "lon": 13.1142837, "tags": {"addr:city": "Kirchbach", "addr:housenumber": "17", "addr:place": "Griminitzen", "addr:postcode": "9634"}, "content": "Adresse: 17, 9634 Kirchbach\nOrt: Kirchbach\nPLZ: 9634\nKoordinaten: 46.642621, 13.114284", "doc_type": "addresses"}
{"source": "OSM", "region": "Kärnten", "osm_type": "node", "osm_id": 2526522579, "name": null, "category": null, "address": "18, 9634 Kirchbach", "street": null, "housenumber": "18", "postcode": "9634", "place": "Kirchbach", "lat": 46.642748, "lon": 13.1136806, "tags": {"addr:city": "Kirchbach", "addr:housenumber": "18", "addr:place": "Griminitzen", "addr:postcode": "9634"}, "content": "Adresse: 18, 9634 Kirchbach\nOrt: Kirchbach\nPLZ: 9634\nKoordinaten: 46.642748, 13.113681", "doc_type": "addresses"}
{"source": "OSM", "region": "Kärnten", "osm_type": "node", "osm_id": 2526522583, "name": null, "category": null, "address": "19, 9634 Kirchbach", "street": null, "housenumber": "19", "postcode": "9634", "place": "Kirchbach", "lat": 46.6429142, "lon": 13.1160134, "tags": {"addr:city": "Kirchbach", "addr:housenumber": "19", "addr:place": "Griminitzen", "addr:postcode": "9634"}, "content": "Adresse: 19, 9634 Kirchbach\nOrt: Kirchbach\nPLZ: 9634\nKoordinaten: 46.642914, 13.116013", "doc_type": "addresses"}
{"source": "OSM", "region": "Kärnten", "osm_type": "node", "osm_id": 2526522590, "name": null, "category": null, "address": "2, 9634 Kirchbach", "street": null, "housenumber": "2", "postcode": "9634", "place": "Kirchbach", "lat": 46.6418356, "lon": 13.1162727, "tags": {"addr:city": "Kirchbach", "addr:housenumber": "2", "addr:place": "Griminitzen", "addr:postcode": "9634"}, "content": "Adresse: 2, 9634 Kirchbach\nOrt: Kirchbach\nPLZ: 9634\nKoordinaten: 46.641836, 13.116273", "doc_type": "addresses"}
{"source": "OSM", "region": "Kärnten", "osm_type": "node", "osm_id": 2526522594, "name": null, "category": null, "address": "20, 9634 Kirchbach", "street": null, "housenumber": "20", "postcode": "9634", "place": "Kirchbach", "lat": 46.6406582, "lon": 13.1191396, "tags": {"addr:city": "Kirchbach", "addr:housenumber": "20", "addr:place": "Griminitzen", "addr:postcode": "9634"}, "content": "Adresse: 20, 9634 Kirchbach\nOrt: Kirchbach\nPLZ: 9634\nKoordinaten: 46.640658, 13.119140", "doc_type": "addresses"}
{"source": "OSM", "region": "Kärnten", "osm_type": "node", "osm_id": 2526522601, "name": null, "category": null, "address": "21, 9634 Kirchbach", "street": null, "housenumber": "21", "postcode": "9634", "place": "Kirchbach", "lat": 46.643125, "lon": 13.1198119, "tags": {"addr:city": "Kirchbach", "addr:housenumber": "21", "addr:place": "Griminitzen", "addr:postcode": "9634"}, "content": "Adresse: 21, 9634 Kirchbach\nOrt: Kirchbach\nPLZ: 9634\nKoordinaten: 46.643125, 13.119812", "doc_type": "addresses"}
{"source": "OSM", "region": "Kärnten", "osm_type": "node", "osm_id": 2526522606, "name": null, "category": null, "address": "3, 9634 Kirchbach", "street": null, "housenumber": "3", "postcode": "9634", "place": "Kirchbach", "lat": 46.6419381, "lon": 13.1162884, "tags": {"addr:city": "Kirchbach", "addr:housenumber": "3", "addr:place": "Griminitzen", "addr:postcode": "9634"}, "content": "Adresse: 3, 9634 Kirchbach\nOrt: Kirchbach\nPLZ: 9634\nKoordinaten: 46.641938, 13.116288", "doc_type": "addresses"}
{"source": "OSM", "region": "Kärnten", "osm_type": "node", "osm_id": 2526522609, "name": null, "category": null, "address": "4, 9634 Kirchbach", "street": null, "housenumber": "4", "postcode": "9634", "place": "Kirchbach", "lat": 46.6422571, "lon": 13.1164087, "tags": {"addr:city": "Kirchbach", "addr:housenumber": "4", "addr:place": "Griminitzen", "addr:postcode": "9634"}, "content": "Adresse: 4, 9634 Kirchbach\nOrt: Kirchbach\nPLZ: 9634\nKoordinaten: 46.642257, 13.116409", "doc_type": "addresses"}
{"source": "OSM", "region": "Kärnten", "osm_type": "node", "osm_id": 2526522612, "name": null, "category": null, "address": "5, 9634 Kirchbach", "street": null, "housenumber": "5", "postcode": "9634", "place": "Kirchbach", "lat": 46.6427423, "lon": 13.1164983, "tags": {"addr:city": "Kirchbach", "addr:housenumber": "5", "addr:place": "Griminitzen", "addr:postcode": "9634"}, "content": "Adresse: 5, 9634 Kirchbach\nOrt: Kirchbach\nPLZ: 9634\nKoordinaten: 46.642742, 13.116498", "doc_type": "addresses"}
{"source": "OSM", "region": "Kärnten", "osm_type": "node", "osm_id": 2526522616, "name": null, "category": null, "address": "6, 9634 Kirchbach", "street": null, "housenumber": "6", "postcode": "9634", "place": "Kirchbach", "lat": 46.6423751, "lon": 13.1135885, "tags": {"addr:city": "Kirchbach", "addr:housenumber": "6", "addr:place": "Griminitzen", "addr:postcode": "9634"}, "content": "Adresse: 6, 9634 Kirchbach\nOrt: Kirchbach\nPLZ: 9634\nKoordinaten: 46.642375, 13.113589", "doc_type": "addresses"}
{"source": "OSM", "region": "Kärnten", "osm_type": "node", "osm_id": 2526522619, "name": null, "category": null, "address": "7, 9634 Kirchbach", "street": null, "housenumber": "7", "postcode": "9634", "place": "Kirchbach", "lat": 46.6429057, "lon": 13.1163602, "tags": {"addr:city": "Kirchbach", "addr:housenumber": "7", "addr:place": "Griminitzen", "addr:postcode": "9634"}, "content": "Adresse: 7, 9634 Kirchbach\nOrt: Kirchbach\nPLZ: 9634\nKoordinaten: 46.642906, 13.116360", "doc_type": "addresses"}
{"source": "OSM", "region": "Kärnten", "osm_type": "node", "osm_id": 2526522622, "name": null, "category": null, "address": "8, 9634 Kirchbach", "street": null, "housenumber": "8", "postcode": "9634", "place": "Kirchbach", "lat": 46.6424683, "lon": 13.1159201, "tags": {"addr:city": "Kirchbach", "addr:housenumber": "8", "addr:place": "Griminitzen", "addr:postcode": "9634"}, "content": "Adresse: 8, 9634 Kirchbach\nOrt: Kirchbach\nPLZ: 9634\nKoordinaten: 46.642468, 13.115920", "doc_type": "addresses"}
{"source": "OSM", "region": "Kärnten", "osm_type": "node", "osm_id": 2526522626, "name": null, "category": null, "address": "9, 9634 Kirchbach", "street": null, "housenumber": "9", "postcode": "9634", "place": "Kirchbach", "lat": 46.6432906, "lon": 13.1158723, "tags": {"addr:city": "Kirchbach", "addr:housenumber": "9", "addr:place": "Griminitzen", "addr:postcode": "9634"}, "content": "Adresse: 9, 9634 Kirchbach\nOrt: Kirchbach\nPLZ: 9634\nKoordinaten: 46.643291, 13.115872", "doc_type": "addresses"}
{"source": "OSM", "region": "Kärnten", "osm_type": "node", "osm_id": 5434250871, "name": "Forellenhof", "category": "amenity:restaurant", "address": "18, 9634 Kirchbach", "street": null, "housenumber": "18", "postcode": "9634", "place": "Kirchbach", "lat": 46.6478201, "lon": 13.1179059, "tags": {"addr:city": "Kirchbach", "addr:housenumber": "18", "addr:place": "Gundersheim", "addr:postcode": "9634", "amenity": "restaurant", "name": "Forellenhof", "website": "http://forellenhof-waldner.kaernten.tv"}, "content": "Forellenhof\nKategorie: amenity:restaurant\nAdresse: 18, 9634 Kirchbach\nOrt: Kirchbach\nPLZ: 9634\nKoordinaten: 46.647820, 13.117906\nTags: amenity=restaurant, website=http://forellenhof-waldner.kaernten.tv", "doc_type": "addresses"}
{"source": "OSM", "region": "Kärnten", "osm_type": "node", "osm_id": 5434250893, "name": "Dolomiten Bank", "category": "amenity:bank", "address": "67, 9634 Kirchbach", "street": null, "housenumber": "67", "postcode": "9634", "place": "Kirchbach", "lat": 46.6474444, "lon": 13.1186476, "tags": {"addr:city": "Kirchbach", "addr:housenumber": "67", "addr:place": "Gundersheim", "addr:postcode": "9634", "amenity": "bank", "name": "Dolomiten Bank"}, "content": "Dolomiten Bank\nKategorie: amenity:bank\nAdresse: 67, 9634 Kirchbach\nOrt: Kirchbach\nPLZ: 9634\nKoordinaten: 46.647444, 13.118648\nTags: amenity=bank", "doc_type": "addresses"}
{"source": "OSM", "region": "Kärnten", "osm_type": "node", "osm_id": 5434250898, "name": "Raiffeisenbank", "category": "amenity:bank", "address": "66, 9634 Kirchbach", "street": null, "housenumber": "66", "postcode": "9634", "place": "Kirchbach", "lat": 46.6471894, "lon": 13.1194938, "tags": {"addr:city": "Kirchbach", "addr:housenumber": "66", "addr:place": "Gundersheim", "addr:postcode": "9634", "amenity": "bank", "brand": "Raiffeisen", "name": "Raiffeisenbank"}, "content": "Raiffeisenbank\nKategorie: amenity:bank\nAdresse: 66, 9634 Kirchbach\nOrt: Kirchbach\nPLZ: 9634\nKoordinaten: 46.647189, 13.119494\nTags: amenity=bank, brand=Raiffeisen", "doc_type": "addresses"}
{"source": "OSM", "region": "Kärnten", "osm_type": "node", "osm_id": 5434252452, "name": "Aparthotel Forellenhof Waldner", "category": "tourism:hotel", "address": "84, 9634 Kirchbach", "street": null, "housenumber": "84", "postcode": "9634", "place": "Kirchbach", "lat": 46.6475586, "lon": 13.1182586, "tags": {"addr:city": "Kirchbach", "addr:housenumber": "84", "addr:place": "Gundersheim", "addr:postcode": "9634", "name": "Aparthotel Forellenhof Waldner", "tourism": "hotel", "website": "http://forellenhof-waldner.kaernten.tv"}, "content": "Aparthotel Forellenhof Waldner\nKategorie: tourism:hotel\nAdresse: 84, 9634 Kirchbach\nOrt: Kirchbach\nPLZ: 9634\nKoordinaten: 46.647559, 13.118259\nTags: website=http://forellenhof-waldner.kaernten.tv", "doc_type": "addresses"}
{"source": "OSM", "region": "Kärnten", "osm_type": "node", "osm_id": 5434252460, "name": "Billa", "category": "shop:supermarket", "address": "193, 9632 Kirchbach", "street": null, "housenumber": "193", "postcode": "9632", "place": "Kirchbach", "lat": 46.6411574, "lon": 13.1903806, "tags": {"addr:city": "Kirchbach", "addr:housenumber": "193", "addr:place": "Kirchbach", "addr:postcode": "9632", "name": "Billa", "shop": "supermarket"}, "content": "Billa\nKategorie: shop:supermarket\nAdresse: 193, 9632 Kirchbach\nOrt: Kirchbach\nPLZ: 9632\nKoordinaten: 46.641157, 13.190381\nTags: shop=supermarket", "doc_type": "addresses"}
{"source": "OSM", "region": "Kärnten", "osm_type": "node", "osm_id": 5434252462, "name": "Volksschule Kirchbach", "category": "amenity:school", "address": "101, 9632 Kirchbach", "street": null, "housenumber": "101", "postcode": "9632", "place": "Kirchbach", "lat": 46.6410251, "lon": 13.1893966, "tags": {"addr:city": "Kirchbach", "addr:housenumber": "101", "addr:place": "Kirchbach", "addr:postcode": "9632", "amenity": "school", "name": "Volksschule Kirchbach"}, "content": "Volksschule Kirchbach\nKategorie: amenity:school\nAdresse: 101, 9632 Kirchbach\nOrt: Kirchbach\nPLZ: 9632\nKoordinaten: 46.641025, 13.189397\nTags: amenity=school", "doc_type": "addresses"}
{"source": "OSM", "region": "Kärnten", "osm_type": "node", "osm_id": 5434252463, "name": "Hyundai", "category": "shop:car", "address": "70, 9632 Kirchbach", "street": null, "housenumber": "70", "postcode": "9632", "place": "Kirchbach", "lat": 46.6410988, "lon": 13.1913009, "tags": {"addr:city": "Kirchbach", "addr:housenumber": "70", "addr:place": "Kirchbach", "addr:postcode": "9632", "name": "Hyundai", "shop": "car"}, "content": "Hyundai\nKategorie: shop:car\nAdresse: 70, 9632 Kirchbach\nOrt: Kirchbach\nPLZ: 9632\nKoordinaten: 46.641099, 13.191301\nTags: shop=car", "doc_type": "addresses"}
{"source": "OSM", "region": "Kärnten", "osm_type": "node", "osm_id": 5648003309, "name": null, "category": null, "address": "47, 9634 Kirchbach", "street": null, "housenumber": "47", "postcode": "9634", "place": "Kirchbach", "lat": 46.6473997, "lon": 13.1208488, "tags": {"addr:city": "Kirchbach", "addr:housenumber": "47", "addr:place": "Gundersheim", "addr:postcode": "9634"}, "content": "Adresse: 47, 9634 Kirchbach\nOrt: Kirchbach\nPLZ: 9634\nKoordinaten: 46.647400, 13.120849", "doc_type": "addresses"}
{"source": "OSM", "region": "Kärnten", "osm_type": "node", "osm_id": 5648003310, "name": null, "category": null, "address": "87, 9634 Kirchbach", "street": null, "housenumber": "87", "postcode": "9634", "place": "Kirchbach", "lat": 46.6485524, "lon": 13.1229222, "tags": {"addr:city": "Kirchbach", "addr:housenumber": "87", "addr:place": "Gundersheim", "addr:postcode": "9634"}, "content": "Adresse: 87, 9634 Kirchbach\nOrt: Kirchbach\nPLZ: 9634\nKoordinaten: 46.648552, 13.122922", "doc_type": "addresses"}
{"source": "OSM", "region": "Kärnten", "osm_type": "node", "osm_id": 5648003559, "name": null, "category": null, "address": "89, 9634 Kirchbach", "street": null, "housenumber": "89", "postcode": "9634", "place": "Kirchbach", "lat": 46.6476428, "lon": 13.119894, "tags": {"addr:city": "Kirchbach", "addr:housenumber": "89", "addr:place": "Gundersheim", "addr:postcode": "9634"}, "content": "Adresse: 89, 9634 Kirchbach\nOrt: Kirchbach\nPLZ: 9634\nKoordinaten: 46.647643, 13.119894", "doc_type": "addresses"}
{"source": "OSM", "region": "Kärnten", "osm_type": "node", "osm_id": 5648003681, "name": null, "category": null, "address": "91, 9634 Kirchbach", "street": null, "housenumber": "91", "postcode": "9634", "place": "Kirchbach", "lat": 46.6518251, "lon": 13.1142922, "tags": {"addr:city": "Kirchbach", "addr:housenumber": "91", "addr:place": "Grafendorf", "addr:postcode": "9634"}, "content": "Adresse: 91, 9634 Kirchbach\nOrt: Kirchbach\nPLZ: 9634\nKoordinaten: 46.651825, 13.114292", "doc_type": "addresses"}
{"source": "OSM", "region": "Kärnten", "osm_type": "node", "osm_id": 5648003954, "name": null, "category": null, "address": "2, 9634 Kirchbach", "street": null, "housenumber": "2", "postcode": "9634", "place": "Kirchbach", "lat": 46.6636642, "lon": 13.1274632, "tags": {"addr:city": "Kirchbach", "addr:housenumber": "2", "addr:place": "Schmalzgrube", "addr:postcode": "9634"}, "content": "Adresse: 2, 9634 Kirchbach\nOrt: Kirchbach\nPLZ: 9634\nKoordinaten: 46.663664, 13.127463", "doc_type": "addresses"}
{"source": "OSM", "region": "Kärnten", "osm_type": "node", "osm_id": 5648003955, "name": null, "category": null, "address": "1, 9634 Kirchbach", "street": null, "housenumber": "1", "postcode": "9634", "place": "Kirchbach", "lat": 46.6637397, "lon": 13.1273223, "tags": {"addr:city": "Kirchbach", "addr:housenumber": "1", "addr:place": "Schmalzgrube", "addr:postcode": "9634"}, "content": "Adresse: 1, 9634 Kirchbach\nOrt: Kirchbach\nPLZ: 9634\nKoordinaten: 46.663740, 13.127322", "doc_type": "addresses"}
{"source": "OSM", "region": "Kärnten", "osm_type": "node", "osm_id": 5648004238, "name": null, "category": null, "address": "46, 9634 Kirchbach", "street": null, "housenumber": "46", "postcode": "9634", "place": "Kirchbach", "lat": 46.6553443, "lon": 13.1101361, "tags": {"addr:city": "Kirchbach", "addr:housenumber": "46", "addr:place": "Grafendorf", "addr:postcode": "9634"}, "content": "Adresse: 46, 9634 Kirchbach\nOrt: Kirchbach\nPLZ: 9634\nKoordinaten: 46.655344, 13.110136", "doc_type": "addresses"}
{"source": "OSM", "region": "Kärnten", "osm_type": "node", "osm_id": 5648004239, "name": null, "category": null, "address": "84, 9634 Kirchbach", "street": null, "housenumber": "84", "postcode": "9634", "place": "Kirchbach", "lat": 46.6553977, "lon": 13.108972, "tags": {"addr:city": "Kirchbach", "addr:housenumber": "84", "addr:place": "Grafendorf", "addr:postcode": "9634"}, "content": "Adresse: 84, 9634 Kirchbach\nOrt: Kirchbach\nPLZ: 9634\nKoordinaten: 46.655398, 13.108972", "doc_type": "addresses"}
{"source": "OSM", "region": "Kärnten", "osm_type": "node", "osm_id": 5648004240, "name": null, "category": null, "address": "30, 9634 Kirchbach", "street": null, "housenumber": "30", "postcode": "9634", "place": "Kirchbach", "lat": 46.6553499, "lon": 13.1093985, "tags": {"addr:city": "Kirchbach", "addr:housenumber": "30", "addr:place": "Grafendorf", "addr:postcode": "9634"}, "content": "Adresse: 30, 9634 Kirchbach\nOrt: Kirchbach\nPLZ: 9634\nKoordinaten: 46.655350, 13.109398", "doc_type": "addresses"}
{"source": "OSM", "region": "Kärnten", "osm_type": "node", "osm_id": 5648004241, "name": null, "category": null, "address": "155, 9634 Kirchbach", "street": null, "housenumber": "155", "postcode": "9634", "place": "Kirchbach", "lat": 46.6566349, "lon": 13.10931, "tags": {"addr:city": "Kirchbach", "addr:housenumber": "155", "addr:place": "Grafendorf", "addr:postcode": "9634"}, "content": "Adresse: 155, 9634 Kirchbach\nOrt: Kirchbach\nPLZ: 9634\nKoordinaten: 46.656635, 13.109310", "doc_type": "addresses"}
{"source": "OSM", "region": "Kärnten", "osm_type": "node", "osm_id": 5648004244, "name": null, "category": null, "address": "4, 9634 Kirchbach", "street": null, "housenumber": "4", "postcode": "9634", "place": "Kirchbach", "lat": 46.6578076, "lon": 13.112243, "tags": {"addr:city": "Kirchbach", "addr:housenumber": "4", "addr:place": "Grafendorf", "addr:postcode": "9634"}, "content": "Adresse: 4, 9634 Kirchbach\nOrt: Kirchbach\nPLZ: 9634\nKoordinaten: 46.657808, 13.112243", "doc_type": "addresses"}
{"source": "OSM", "region": "Kärnten", "osm_type": "node", "osm_id": 5648004245, "name": null, "category": null, "address": "5, 9634 Kirchbach", "street": null, "housenumber": "5", "postcode": "9634", "place": "Kirchbach", "lat": 46.6577938, "lon": 13.1124924, "tags": {"addr:city": "Kirchbach", "addr:housenumber": "5", "addr:place": "Grafendorf", "addr:postcode": "9634"}, "content": "Adresse: 5, 9634 Kirchbach\nOrt: Kirchbach\nPLZ: 9634\nKoordinaten: 46.657794, 13.112492", "doc_type": "addresses"}
{"source": "OSM", "region": "Kärnten", "osm_type": "node", "osm_id": 340516714, "name": "9632 Kirchbach im Gailtal", "category": "amenity:post_office", "address": "19, 9632 Kirchbach", "street": null, "housenumber": "19", "postcode": "9632", "place": "Kirchbach", "lat": 46.6410129, "lon": 13.1859946, "tags": {"addr:city": "Kirchbach", "addr:housenumber": "19", "addr:place": "Kirchbach", "addr:postcode": "9632", "amenity": "post_office", "name": "9632 Kirchbach im Gailtal"}, "content": "9632 Kirchbach im Gailtal\nKategorie: amenity:post_office\nAdresse: 19, 9632 Kirchbach\nOrt: Kirchbach\nPLZ: 9632\nKoordinaten: 46.641013, 13.185995\nTags: amenity=post_office", "doc_type": "pois"}
{"source": "OSM", "region": "Kärnten", "osm_type": "node", "osm_id": 5434250871, "name": "Forellenhof", "category": "amenity:restaurant", "address": "18, 9634 Kirchbach", "street": null, "housenumber": "18", "postcode": "9634", "place": "Kirchbach", "lat": 46.6478201, "lon": 13.1179059, "tags": {"addr:city": "Kirchbach", "addr:housenumber": "18", "addr:place": "Gundersheim", "addr:postcode": "9634", "amenity": "restaurant", "name": "Forellenhof", "website": "http://forellenhof-waldner.kaernten.tv"}, "content": "Forellenhof\nKategorie: amenity:restaurant\nAdresse: 18, 9634 Kirchbach\nOrt: Kirchbach\nPLZ: 9634\nKoordinaten: 46.647820, 13.117906\nTags: amenity=restaurant, website=http://forellenhof-waldner.kaernten.tv", "doc_type": "pois"}
{"source": "OSM", "region": "Kärnten", "osm_type": "node", "osm_id": 5434250893, "name": "Dolomiten Bank", "category": "amenity:bank", "address": "67, 9634 Kirchbach", "street": null, "housenumber": "67", "postcode": "9634", "place": "Kirchbach", "lat": 46.6474444, "lon": 13.1186476, "tags": {"addr:city": "Kirchbach", "addr:housenumber": "67", "addr:place": "Gundersheim", "addr:postcode": "9634", "amenity": "bank", "name": "Dolomiten Bank"}, "content": "Dolomiten Bank\nKategorie: amenity:bank\nAdresse: 67, 9634 Kirchbach\nOrt: Kirchbach\nPLZ: 9634\nKoordinaten: 46.647444, 13.118648\nTags: amenity=bank", "doc_type": "pois"}
{"source": "OSM", "region": "Kärnten", "osm_type": "node", "osm_id": 5434250898, "name": "Raiffeisenbank", "category": "amenity:bank", "address": "66, 9634 Kirchbach", "street": null, "housenumber": "66", "postcode": "9634", "place": "Kirchbach", "lat": 46.6471894, "lon": 13.1194938, "tags": {"addr:city": "Kirchbach", "addr:housenumber": "66", "addr:place": "Gundersheim", "addr:postcode": "9634", "amenity": "bank", "brand": "Raiffeisen", "name": "Raiffeisenbank"}, "content": "Raiffeisenbank\nKategorie: amenity:bank\nAdresse: 66, 9634 Kirchbach\nOrt: Kirchbach\nPLZ: 9634\nKoordinaten: 46.647189, 13.119494\nTags: amenity=bank, brand=Raiffeisen", "doc_type": "pois"}
{"source": "OSM", "region": "Kärnten", "osm_type": "node", "osm_id": 5434252452, "name": "Aparthotel Forellenhof Waldner", "category": "tourism:hotel", "address": "84, 9634 Kirchbach", "street": null, "housenumber": "84", "postcode": "9634", "place": "Kirchbach", "lat": 46.6475586, "lon": 13.1182586, "tags": {"addr:city": "Kirchbach", "addr:housenumber": "84", "addr:place": "Gundersheim", "addr:postcode": "9634", "name": "Aparthotel Forellenhof Waldner", "tourism": "hotel", "website": "http://forellenhof-waldner.kaernten.tv"}, "content": "Aparthotel Forellenhof Waldner\nKategorie: tourism:hotel\nAdresse: 84, 9634 Kirchbach\nOrt: Kirchbach\nPLZ: 9634\nKoordinaten: 46.647559, 13.118259\nTags: website=http://forellenhof-waldner.kaernten.tv", "doc_type": "pois"}
{"source": "OSM", "region": "Kärnten", "osm_type": "node", "osm_id": 5434252460, "name": "Billa", "category": "shop:supermarket", "address": "193, 9632 Kirchbach", "street": null, "housenumber": "193", "postcode": "9632", "place": "Kirchbach", "lat": 46.6411574, "lon": 13.1903806, "tags": {"addr:city": "Kirchbach", "addr:housenumber": "193", "addr:place": "Kirchbach", "addr:postcode": "9632", "name": "Billa", "shop": "supermarket"}, "content": "Billa\nKategorie: shop:supermarket\nAdresse: 193, 9632 Kirchbach\nOrt: Kirchbach\nPLZ: 9632\nKoordinaten: 46.641157, 13.190381\nTags: shop=supermarket", "doc_type": "pois"}
{"source": "OSM", "region": "Kärnten", "osm_type": "node", "osm_id": 5434252462, "name": "Volksschule Kirchbach", "category": "amenity:school", "address": "101, 9632 Kirchbach", "street": null, "housenumber": "101", "postcode": "9632", "place": "Kirchbach", "lat": 46.6410251, "lon": 13.1893966, "tags": {"addr:city": "Kirchbach", "addr:housenumber": "101", "addr:place": "Kirchbach", "addr:postcode": "9632", "amenity": "school", "name": "Volksschule Kirchbach"}, "content": "Volksschule Kirchbach\nKategorie: amenity:school\nAdresse: 101, 9632 Kirchbach\nOrt: Kirchbach\nPLZ: 9632\nKoordinaten: 46.641025, 13.189397\nTags: amenity=school", "doc_type": "pois"}
{"source": "OSM", "region": "Kärnten", "osm_type": "node", "osm_id": 5434252463, "name": "Hyundai", "category": "shop:car", "address": "70, 9632 Kirchbach", "street": null, "housenumber": "70", "postcode": "9632", "place": "Kirchbach", "lat": 46.6410988, "lon": 13.1913009, "tags": {"addr:city": "Kirchbach", "addr:housenumber": "70", "addr:place": "Kirchbach", "addr:postcode": "9632", "name": "Hyundai", "shop": "car"}, "content": "Hyundai\nKategorie: shop:car\nAdresse: 70, 9632 Kirchbach\nOrt: Kirchbach\nPLZ: 9632\nKoordinaten: 46.641099, 13.191301\nTags: shop=car", "doc_type": "pois"}
