{"source": "OSM", "region": "Kärnten", "osm_type": "node", "osm_id": 3979448086, "name": "RADLDOKTOR", "category": "shop:bicycle", "address": "Preßgasse 8, 9062 Moosburg in Kärnten", "street": "Preßgasse", "housenumber": "8", "postcode": "9062", "place": "Moosburg in Kärnten", "lat": 46.6590783, "lon": 14.1733673, "tags": {"addr:city": "Moosburg in Kärnten", "addr:housenumber": "8", "addr:postcode": "9062", "addr:street": "Preßgasse", "name": "RADLDOKTOR", "operator": "Lanzinger Gerd", "shop": "bicycle", "website": "https://www.radldoktor-moosburg.at"}, "content": "RADLDOKTOR\nKategorie: shop:bicycle\nAdresse: Preßgasse 8, 9062 Moosburg in Kärnten\nOrt: Moosburg in Kärnten\nPLZ: 9062\nKoordinaten: 46.659078, 14.173367\nTags: shop=bicycle, operator=Lanzinger Gerd, website=https://www.radldoktor-moosburg.at", "doc_type": "addresses"}
{"source": "OSM", "region": "Kärnten", "osm_type": "node", "osm_id": 3979448087, "name": "Gästehaus Lanzinger", "category": "tourism:guest_house", "address": "Preßgasse 8, 9062 Moosburg in Kärnten", "street": "Preßgasse", "housenumber": "8", "postcode": "9062", "place": "Moosburg in Kärnten", "lat": 46.6590857, "lon": 14.1731742, "tags": {"addr:city": "Moosburg in Kärnten", "addr:housenumber": "8", "addr:postcode": "9062", "addr:street": "Preßgasse", "name": "Gästehaus Lanzinger", "operator": "Anna-Maria Lanzinger", "tourism": "guest_house"}, "content": "Gästehaus Lanzinger\nKategorie: tourism:guest_house\nAdresse: Preßgasse 8, 9062 Moosburg in Kärnten\nOrt: Moosburg in Kärnten\nPLZ: 9062\nKoordinaten: 46.659086, 14.173174\nTags: operator=Anna-Maria Lanzinger", "doc_type": "addresses"}
{"source": "OSM", "region": "Kärnten", "osm_type": "node", "osm_id": 3979448086, "name": "RADLDOKTOR", "category": "shop:bicycle", "address": "Preßgasse 8, 9062 Moosburg in Kärnten", "street": "Preßgasse", "housenumber": "8", "postcode": "9062", "place": "Moosburg in Kärnten", "lat": 46.6590783, "lon": 14.1733673, "tags": {"addr:city": "Moosburg in Kärnten", "addr:housenumber": "8", "addr:postcode": "9062", "addr:street": "Preßgasse", "name": "RADLDOKTOR", "operator": "Lanzinger Gerd", "shop": "bicycle", "website": "https://www.radldoktor-moosburg.at"}, "content": "RADLDOKTOR\nKategorie: shop:bicycle\nAdresse: Preßgasse 8, 9062 Moosburg in Kärnten\nOrt: Moosburg in Kärnten\nPLZ: 9062\nKoordinaten: 46.659078, 14.173367\nTags: shop=bicycle, operator=Lanzinger Gerd, website=https://www.radldoktor-moosburg.at", "doc_type": "pois"}
{"source": "OSM", "region": "Kärnten", "osm_type": "node", "osm_id": 3979448087, "name": "Gästehaus Lanzinger", "category": "tourism:guest_house", "address": "Preßgasse 8, 9062 Moosburg in Kärnten", "street": "Preßgasse", "housenumber": "8", "postcode": "9062", "place": "Moosburg in Kärnten", "lat": 46.6590857, "lon": 14.1731742, "tags": {"addr:city": "Moosburg in Kärnten", "addr:housenumber": "8", "addr:postcode": "9062", "addr:street": "Preßgasse", "name": "Gästehaus Lanzinger", "operator": "Anna-Maria Lanzinger", "tourism": "guest_house"}, "content": "Gästehaus Lanzinger\nKategorie: tourism:guest_house\nAdresse: Preßgasse 8, 9062 Moosburg in Kärnten\nOrt: Moosburg in Kärnten\nPLZ: 9062\nKoordinaten: 46.659086, 14.173174\nTags: operator=Anna-Maria Lanzinger", "doc_type": "pois"}
