{"source": "OSM", "region": "Kärnten", "osm_type": "node", "osm_id": 698593286, "name": "Pension Singer", "category": "tourism:hotel", "address": "Unterschloßberg 5, 9161 Köttmannsdorf", "street": "Unterschloßberg", "housenumber": "5", "postcode": "9161", "place": "Köttmannsdorf", "lat": 46.5453954, "lon": 14.2535992, "tags": {"addr:city": "Köttmannsdorf", "addr:housenumber": "5", "addr:postcode": "9161", "addr:street": "Unterschloßberg", "name": "Pension Singer", "phone": "+43422784020", "tourism": "hotel"}, "content": "Pension Singer\nKategorie: tourism:hotel\nAdresse: Unterschloßberg 5, 9161 Köttmannsdorf\nOrt: Köttmannsdorf\nPLZ: 9161\nKoordinaten: 46.545395, 14.253599\nTags: phone=+43422784020", "doc_type": "addresses"}
{"source": "OSM", "region": "Kärnten", "osm_type": "node", "osm_id": 4392778106, "name": null, "category": null, "address": "Viktringer Weg 7, 9073 Köttmannsdorf", "street": "Viktringer Weg", "housenumber": "7", "postcode": "9073", "place": "Köttmannsdorf", "lat": 46.5794061, "lon": 14.2753677, "tags": {"addr:city": "Köttmannsdorf", "addr:housenumber": "7", "addr:postcode": "9073", "addr:street": "Viktringer Weg"}, "content": "Adresse: Viktringer Weg 7, 9073 Köttmannsdorf\nOrt: Köttmannsdorf\nPLZ: 9073\nKoordinaten: 46.579406, 14.275368", "doc_type": "addresses"}
{"source": "OSM", "region": "Kärnten", "osm_type": "node", "osm_id": 4526987583, "name": null, "category": "building:yes", "address": "Moosweg 9, 9073 Köttmannsdorf", "street": "Moosweg", "housenumber": "9", "postcode": "9073", "place": "Köttmannsdorf", "lat": 46.5698724, "lon": 14.2648737, "tags": {"addr:city": "Köttmannsdorf", "addr:housenumber": "9", "addr:postcode": "9073", "addr:street": "Moosweg", "building": "yes"}, "content": "Kategorie: building:yes\nAdresse: Moosweg 9, 9073 Köttmannsdorf\nOrt: Köttmannsdorf\nPLZ: 9073\nKoordinaten: 46.569872, 14.264874\nTags: building=yes", "doc_type": "addresses"}
{"source": "OSM", "region": "Kärnten", "osm_type": "node", "osm_id": 4529106469, "name": null, "category": null, "address": "Blumenweg 12, 9071 Köttmannsdorf", "street": "Blumenweg", "housenumber": "12", "postcode": "9071", "place": "Köttmannsdorf", "lat": 46.5599036, "lon": 14.2303781, "tags": {"addr:city": "Köttmannsdorf", "addr:housenumber": "12", "addr:postcode": "9071", "addr:street": "Blumenweg"}, "content": "Adresse: Blumenweg 12, 9071 Köttmannsdorf\nOrt: Köttmannsdorf\nPLZ: 9071\nKoordinaten: 46.559904, 14.230378", "doc_type": "addresses"}
{"source": "OSM", "region": "Kärnten", "osm_type": "node", "osm_id": 4926320548, "name": null, "category": null, "address": "Junoweg 2, 9071 Köttmannsdorf", "street": "Junoweg", "housenumber": "2", "postcode": "9071", "place": "Köttmannsdorf", "lat": 46.5745496, "lon": 14.2818924, "tags": {"addr:city": "Köttmannsdorf", "addr:housenumber": "2", "addr:postcode": "9071", "addr:street": "Junoweg"}, "content": "Adresse: Junoweg 2, 9071 Köttmannsdorf\nOrt: Köttmannsdorf\nPLZ: 9071\nKoordinaten: 46.574550, 14.281892", "doc_type": "addresses"}
{"source": "OSM", "region": "Kärnten", "osm_type": "node", "osm_id": 4926320549, "name": null, "category": null, "address": "Junoweg 3, 9071 Köttmannsdorf", "street": "Junoweg", "housenumber": "3", "postcode": "9071", "place": "Köttmannsdorf", "lat": 46.5741054, "lon": 14.2810783, "tags": {"addr:city": "Köttmannsdorf", "addr:housenumber": "3", "addr:postcode": "9071", "addr:street": "Junoweg"}, "content": "Adresse: Junoweg 3, 9071 Köttmannsdorf\nOrt: Köttmannsdorf\nPLZ: 9071\nKoordinaten: 46.574105, 14.281078", "doc_type": "addresses"}
{"source": "OSM", "region": "Kärnten", "osm_type": "node", "osm_id": 4969308845, "name": null, "category": null, "address": "Bundesstraße 88, 9071 Köttmannsdorf", "street": "Bundesstraße", "housenumber": "88", "postcode": "9071", "place": "Köttmannsdorf", "lat": 46.5739869, "lon": 14.2858235, "tags": {"addr:city": "Köttmannsdorf", "addr:housenumber": "88", "addr:postcode": "9071", "addr:street": "Bundesstraße"}, "content": "Adresse: Bundesstraße 88, 9071 Köttmannsdorf\nOrt: Köttmannsdorf\nPLZ: 9071\nKoordinaten: 46.573987, 14.285823", "doc_type": "addresses"}
{"source": "OSM", "region": "Kärnten", "osm_type": "node", "osm_id": 4969308846, "name": null, "category": null, "address": "Bundesstraße 86, 9071 Köttmannsdorf", "street": "Bundesstraße", "housenumber": "86", "postcode": "9071", "place": "Köttmannsdorf", "lat": 46.5741165, "lon": 14.2857927, "tags": {"addr:city": "Köttmannsdorf", "addr:housenumber": "86", "addr:postcode": "9071", "addr:street": "Bundesstraße"}, "content": "Adresse: Bundesstraße 86, 9071 Köttmannsdorf\nOrt: Köttmannsdorf\nPLZ: 9071\nKoordinaten: 46.574117, 14.285793", "doc_type": "addresses"}
{"source": "OSM", "region": "Kärnten", "osm_type": "node", "osm_id": 4969308848, "name": null, "category": null, "address": "Bundesstraße 62, 9071 Köttmannsdorf", "street": "Bundesstraße", "housenumber": "62", "postcode": "9071", "place": "Köttmannsdorf", "lat": 46.5755651, "lon": 14.28467, "tags": {"addr:city": "Köttmannsdorf", "addr:housenumber": "62", "addr:postcode": "9071", "addr:street": "Bundesstraße"}, "content": "Adresse: Bundesstraße 62, 9071 Köttmannsdorf\nOrt: Köttmannsdorf\nPLZ: 9071\nKoordinaten: 46.575565, 14.284670", "doc_type": "addresses"}
{"source": "OSM", "region": "Kärnten", "osm_type": "node", "osm_id": 4969308849, "name": null, "category": null, "address": "Jupiterweg 1, 9071 Köttmannsdorf", "street": "Jupiterweg", "housenumber": "1", "postcode": "9071", "place": "Köttmannsdorf", "lat": 46.5797284, "lon": 14.2810024, "tags": {"addr:city": "Köttmannsdorf", "addr:housenumber": "1", "addr:postcode": "9071", "addr:street": "Jupiterweg"}, "content": "Adresse: Jupiterweg 1, 9071 Köttmannsdorf\nOrt: Köttmannsdorf\nPLZ: 9071\nKoordinaten: 46.579728, 14.281002", "doc_type": "addresses"}
{"source": "OSM", "region": "Kärnten", "osm_type": "node", "osm_id": 4969308852, "name": null, "category": null, "address": "Bundesstraße 4a, 9071 Köttmannsdorf", "street": "Bundesstraße", "housenumber": "4a", "postcode": "9071", "place": "Köttmannsdorf", "lat": 46.5833241, "lon": 14.2820188, "tags": {"addr:city": "Köttmannsdorf", "addr:housenumber": "4a", "addr:postcode": "9071", "addr:street": "Bundesstraße"}, "content": "Adresse: Bundesstraße 4a, 9071 Köttmannsdorf\nOrt: Köttmannsdorf\nPLZ: 9071\nKoordinaten: 46.583324, 14.282019", "doc_type": "addresses"}
{"source": "OSM", "region": "Kärnten", "osm_type": "node", "osm_id": 4978109300, "name": null, "category": null, "address": "Bachweg 22, 9071 Köttmannsdorf", "street": "Bachweg", "housenumber": "22", "postcode": "9071", "place": "Köttmannsdorf", "lat": 46.5741009, "lon": 14.2654365, "tags": {"addr:city": "Köttmannsdorf", "addr:housenumber": "22", "addr:postcode": "9071", "addr:street": "Bachweg"}, "content": "Adresse: Bachweg 22, 9071 Köttmannsdorf\nOrt: Köttmannsdorf\nPLZ: 9071\nKoordinaten: 46.574101, 14.265436", "doc_type": "addresses"}
{"source": "OSM", "region": "Kärnten", "osm_type": "node", "osm_id": 4978109302, "name": null, "category": null, "address": "Bachweg 20, 9071 Köttmannsdorf", "street": "Bachweg", "housenumber": "20", "postcode": "9071", "place": "Köttmannsdorf", "lat": 46.5740499, "lon": 14.2654748, "tags": {"addr:city": "Köttmannsdorf", "addr:housenumber": "20", "addr:postcode": "9071", "addr:street": "Bachweg"}, "content": "Adresse: Bachweg 20, 9071 Köttmannsdorf\nOrt: Köttmannsdorf\nPLZ: 9071\nKoordinaten: 46.574050, 14.265475", "doc_type": "addresses"}
{"source": "OSM", "region": "Kärnten", "osm_type": "node", "osm_id": 4978109307, "name": null, "category": null, "address": "Kogelweg 11, 9071 Köttmannsdorf", "street": "Kogelweg", "housenumber": "11", "postcode": "9071", "place": "Köttmannsdorf", "lat": 46.5713004, "lon": 14.2686058, "tags": {"addr:city": "Köttmannsdorf", "addr:housenumber": "11", "addr:postcode": "9071", "addr:street": "Kogelweg"}, "content": "Adresse: Kogelweg 11, 9071 Köttmannsdorf\nOrt: Köttmannsdorf\nPLZ: 9071\nKoordinaten: 46.571300, 14.268606", "doc_type": "addresses"}
{"source": "OSM", "region": "Kärnten", "osm_type": "node", "osm_id": 4978109308, "name": null, "category": null, "address": "Schwanein 16, 9071 Köttmannsdorf", "street": "Schwanein", "housenumber": "16", "postcode": "9071", "place": "Köttmannsdorf", "lat": 46.5749527, "lon": 14.2613005, "tags": {"addr:city": "Köttmannsdorf", "addr:housenumber": "16", "addr:postcode": "9071", "addr:street": "Schwanein"}, "content": "Adresse: Schwanein 16, 9071 Köttmannsdorf\nOrt: Köttmannsdorf\nPLZ: 9071\nKoordinaten: 46.574953, 14.261301", "doc_type": "addresses"}
{"source": "OSM", "region": "Kärnten", "osm_type": "node", "osm_id": 4978109316, "name": null, "category": null, "address": "Schwanein 8, 9071 Köttmannsdorf", "street": "Schwanein", "housenumber": "8", "postcode": "9071", "place": "Köttmannsdorf", "lat": 46.5729722, "lon": 14.2596443, "tags": {"addr:city": "Köttmannsdorf", "addr:housenumber": "8", "addr:postcode": "9071", "addr:street": "Schwanein"}, "content": "Adresse: Schwanein 8, 9071 Köttmannsdorf\nOrt: Köttmannsdorf\nPLZ: 9071\nKoordinaten: 46.572972, 14.259644", "doc_type": "addresses"}
{"source": "OSM", "region": "Kärnten", "osm_type": "node", "osm_id": 4979093938, "name": null, "category": null, "address": "Tretram 19, 9071 Köttmannsdorf", "street": "Tretram", "housenumber": "19", "postcode": "9071", "place": "Köttmannsdorf", "lat": 46.5637283, "lon": 14.2626689, "tags": {"addr:city": "Köttmannsdorf", "addr:housenumber": "19", "addr:postcode": "9071", "addr:street": "Tretram"}, "content": "Adresse: Tretram 19, 9071 Köttmannsdorf\nOrt: Köttmannsdorf\nPLZ: 9071\nKoordinaten: 46.563728, 14.262669", "doc_type": "addresses"}
{"source": "OSM", "region": "Kärnten", "osm_type": "node", "osm_id": 4979162327, "name": null, "category": null, "address": "Trabesing 16, 9071 Köttmannsdorf", "street": "Trabesing", "housenumber": "16", "postcode": "9071", "place": "Köttmannsdorf", "lat": 46.566676, "lon": 14.2528202, "tags": {"addr:city": "Köttmannsdorf", "addr:housenumber": "16", "addr:postcode": "9071", "addr:street": "Trabesing"}, "content": "Adresse: Trabesing 16, 9071 Köttmannsdorf\nOrt: Köttmannsdorf\nPLZ: 9071\nKoordinaten: 46.566676, 14.252820", "doc_type": "addresses"}
{"source": "OSM", "region": "Kärnten", "osm_type": "node", "osm_id": 4979162328, "name": null, "category": null, "address": "Trabesing 13a, 9071 Köttmannsdorf", "street": "Trabesing", "housenumber": "13a", "postcode": "9071", "place": "Köttmannsdorf", "lat": 46.5664677, "lon": 14.2519332, "tags": {"addr:city": "Köttmannsdorf", "addr:housenumber": "13a", "addr:postcode": "9071", "addr:street": "Trabesing"}, "content": "Adresse: Trabesing 13a, 9071 Köttmannsdorf\nOrt: Köttmannsdorf\nPLZ: 9071\nKoordinaten: 46.566468, 14.251933", "doc_type": "addresses"}
{"source": "OSM", "region": "Kärnten", "osm_type": "node", "osm_id": 4979162329, "name": null, "category": null, "address": "Trabesing 10, 9071 Köttmannsdorf", "street": "Trabesing", "housenumber": "10", "postcode": "9071", "place": "Köttmannsdorf", "lat": 46.5668635, "lon": 14.2529929, "tags": {"addr:city": "Köttmannsdorf", "addr:housenumber": "10", "addr:postcode": "9071", "addr:street": "Trabesing"}, "content": "Adresse: Trabesing 10, 9071 Köttmannsdorf\nOrt: Köttmannsdorf\nPLZ: 9071\nKoordinaten: 46.566863, 14.252993", "doc_type": "addresses"}
{"source": "OSM", "region": "Kärnten", "osm_type": "node", "osm_id": 4979162339, "name": null, "category": null, "address": "Trabesing 62, 9071 Köttmannsdorf", "street": "Trabesing", "housenumber": "62", "postcode": "9071", "place": "Köttmannsdorf", "lat": 46.5698714, "lon": 14.2541715, "tags": {"addr:city": "Köttmannsdorf", "addr:housenumber": "62", "addr:postcode": "9071", "addr:street": "Trabesing"}, "content": "Adresse: Trabesing 62, 9071 Köttmannsdorf\nOrt: Köttmannsdorf\nPLZ: 9071\nKoordinaten: 46.569871, 14.254171", "doc_type": "addresses"}
{"source": "OSM", "region": "Kärnten", "osm_type": "node", "osm_id": 4980758052, "name": null, "category": null, "address": "Schulweg 4, 9071 Köttmannsdorf", "street": "Schulweg", "housenumber": "4", "postcode": "9071", "place": "Köttmannsdorf", "lat": 46.5620974, "lon": 14.2346827, "tags": {"addr:city": "Köttmannsdorf", "addr:housenumber": "4", "addr:postcode": "9071", "addr:street": "Schulweg"}, "content": "Adresse: Schulweg 4, 9071 Köttmannsdorf\nOrt: Köttmannsdorf\nPLZ: 9071\nKoordinaten: 46.562097, 14.234683", "doc_type": "addresses"}
{"source": "OSM", "region": "Kärnten", "osm_type": "node", "osm_id": 4981067310, "name": null, "category": null, "address": "Am Platz 3, 9071 Köttmannsdorf", "street": "Am Platz", "housenumber": "3", "postcode": "9071", "place": "Köttmannsdorf", "lat": 46.5608536, "lon": 14.2334112, "tags": {"addr:city": "Köttmannsdorf", "addr:housenumber": "3", "addr:postcode": "9071", "addr:street": "Am Platz"}, "content": "Adresse: Am Platz 3, 9071 Köttmannsdorf\nOrt: Köttmannsdorf\nPLZ: 9071\nKoordinaten: 46.560854, 14.233411", "doc_type": "addresses"}
{"source": "OSM", "region": "Kärnten", "osm_type": "node", "osm_id": 4981067312, "name": null, "category": null, "address": "Preliebler Straße 4, 9071 Köttmannsdorf", "street": "Preliebler Straße", "housenumber": "4", "postcode": "9071", "place": "Köttmannsdorf", "lat": 46.5607387, "lon": 14.233557, "tags": {"addr:city": "Köttmannsdorf", "addr:housenumber": "4", "addr:postcode": "9071", "addr:street": "Preliebler Straße"}, "content": "Adresse: Preliebler Straße 4, 9071 Köttmannsdorf\nOrt: Köttmannsdorf\nPLZ: 9071\nKoordinaten: 46.560739, 14.233557", "doc_type": "addresses"}
{"source": "OSM", "region": "Kärnten", "osm_type": "node", "osm_id": 4981067313, "name": null, "category": null, "address": "Lindenweg 2, 9071 Köttmannsdorf", "street": "Lindenweg", "housenumber": "2", "postcode": "9071", "place": "Köttmannsdorf", "lat": 46.5601787, "lon": 14.2332675, "tags": {"addr:city": "Köttmannsdorf", "addr:housenumber": "2", "addr:postcode": "9071", "addr:street": "Lindenweg"}, "content": "Adresse: Lindenweg 2, 9071 Köttmannsdorf\nOrt: Köttmannsdorf\nPLZ: 9071\nKoordinaten: 46.560179, 14.233268", "doc_type": "addresses"}
{"source": "OSM", "region": "Kärnten", "osm_type": "node", "osm_id": 4981067317, "name": null, "category": null, "address": "Schulweg 2, 9071 Köttmannsdorf", "street": "Schulweg", "housenumber": "2", "postcode": "9071", "place": "Köttmannsdorf", "lat": 46.5620373, "lon": 14.2349854, "tags": {"addr:city": "Köttmannsdorf", "addr:housenumber": "2", "addr:postcode": "9071", "addr:street": "Schulweg"}, "content": "Adresse: Schulweg 2, 9071 Köttmannsdorf\nOrt: Köttmannsdorf\nPLZ: 9071\nKoordinaten: 46.562037, 14.234985", "doc_type": "addresses"}
{"source": "OSM", "region": "Kärnten", "osm_type": "node", "osm_id": 4983110962, "name": null, "category": null, "address": "Am Platz 8, 9071 Köttmannsdorf", "street": "Am Platz", "housenumber": "8", "postcode": "9071", "place": "Köttmannsdorf", "lat": 46.5612039, "lon": 14.2321798, "tags": {"addr:city": "Köttmannsdorf", "addr:housenumber": "8", "addr:postcode": "9071", "addr:street": "Am Platz"}, "content": "Adresse: Am Platz 8, 9071 Köttmannsdorf\nOrt: Köttmannsdorf\nPLZ: 9071\nKoordinaten: 46.561204, 14.232180", "doc_type": "addresses"}
{"source": "OSM", "region": "Kärnten", "osm_type": "node", "osm_id": 4986405690, "name": null, "category": null, "address": "Karawankenblick 4, 9071 Köttmannsdorf", "street": "Karawankenblick", "housenumber": "4", "postcode": "9071", "place": "Köttmannsdorf", "lat": 46.5607508, "lon": 14.2293683, "tags": {"addr:city": "Köttmannsdorf", "addr:housenumber": "4", "addr:postcode": "9071", "addr:street": "Karawankenblick"}, "content": "Adresse: Karawankenblick 4, 9071 Köttmannsdorf\nOrt: Köttmannsdorf\nPLZ: 9071\nKoordinaten: 46.560751, 14.229368", "doc_type": "addresses"}
{"source": "OSM", "region": "Kärnten", "osm_type": "node", "osm_id": 4986405691, "name": null, "category": null, "address": "Hauptstraße 60, 9071 Köttmannsdorf", "street": "Hauptstraße", "housenumber": "60", "postcode": "9071", "place": "Köttmannsdorf", "lat": 46.5571175, "lon": 14.2273785, "tags": {"addr:city": "Köttmannsdorf", "addr:housenumber": "60", "addr:postcode": "9071", "addr:street": "Hauptstraße"}, "content": "Adresse: Hauptstraße 60, 9071 Köttmannsdorf\nOrt: Köttmannsdorf\nPLZ: 9071\nKoordinaten: 46.557117, 14.227379", "doc_type": "addresses"}
{"source": "OSM", "region": "Kärnten", "osm_type": "node", "osm_id": 4986405692, "name": null, "category": null, "address": "Flurweg 10, 9071 Köttmannsdorf", "street": "Flurweg", "housenumber": "10", "postcode": "9071", "place": "Köttmannsdorf", "lat": 46.5589388, "lon": 14.2330817, "tags": {"addr:city": "Köttmannsdorf", "addr:housenumber": "10", "addr:postcode": "9071", "addr:street": "Flurweg"}, "content": "Adresse: Flurweg 10, 9071 Köttmannsdorf\nOrt: Köttmannsdorf\nPLZ: 9071\nKoordinaten: 46.558939, 14.233082", "doc_type": "addresses"}
{"source": "OSM", "region": "Kärnten", "osm_type": "node", "osm_id": 4986405693, "name": null, "category": null, "address": "Hauptstraße 50, 9071 Köttmannsdorf", "street": "Hauptstraße", "housenumber": "50", "postcode": "9071", "place": "Köttmannsdorf", "lat": 46.5579013, "lon": 14.2282596, "tags": {"addr:city": "Köttmannsdorf", "addr:housenumber": "50", "addr:postcode": "9071", "addr:street": "Hauptstraße"}, "content": "Adresse: Hauptstraße 50, 9071 Köttmannsdorf\nOrt: Köttmannsdorf\nPLZ: 9071\nKoordinaten: 46.557901, 14.228260", "doc_type": "addresses"}
{"source": "OSM", "region": "Kärnten", "osm_type": "node", "osm_id": 4986405694, "name": null, "category": null, "address": "Blumenweg 18, 9071 Köttmannsdorf", "street": "Blumenweg", "housenumber": "18", "postcode": "9071", "place": "Köttmannsdorf", "lat": 46.5594412, "lon": 14.2303746, "tags": {"addr:city": "Köttmannsdorf", "addr:housenumber": "18", "addr:postcode": "9071", "addr:street": "Blumenweg"}, "content": "Adresse: Blumenweg 18, 9071 Köttmannsdorf\nOrt: Köttmannsdorf\nPLZ: 9071\nKoordinaten: 46.559441, 14.230375", "doc_type": "addresses"}
{"source": "OSM", "region": "Kärnten", "osm_type": "node", "osm_id": 4986405695, "name": null, "category": null, "address": "Hauptstraße 48, 9071 Köttmannsdorf", "street": "Hauptstraße", "housenumber": "48", "postcode": "9071", "place": "Köttmannsdorf", "lat": 46.5588372, "lon": 14.2281825, "tags": {"addr:city": "Köttmannsdorf", "addr:housenumber": "48", "addr:postcode": "9071", "addr:street": "Hauptstraße"}, "content": "Adresse: Hauptstraße 48, 9071 Köttmannsdorf\nOrt: Köttmannsdorf\nPLZ: 9071\nKoordinaten: 46.558837, 14.228183", "doc_type": "addresses"}
{"source": "OSM", "region": "Kärnten", "osm_type": "node", "osm_id": 4986405696, "name": null, "category": null, "address": "Blumenweg 16, 9071 Köttmannsdorf", "street": "Blumenweg", "housenumber": "16", "postcode": "9071", "place": "Köttmannsdorf", "lat": 46.5595953, "lon": 14.2303758, "tags": {"addr:city": "Köttmannsdorf", "addr:housenumber": "16", "addr:postcode": "9071", "addr:street": "Blumenweg"}, "content": "Adresse: Blumenweg 16, 9071 Köttmannsdorf\nOrt: Köttmannsdorf\nPLZ: 9071\nKoordinaten: 46.559595, 14.230376", "doc_type": "addresses"}
{"source": "OSM", "region": "Kärnten", "osm_type": "node", "osm_id": 4986405697, "name": null, "category": null, "address": "Hauptstraße 42, 9071 Köttmannsdorf", "street": "Hauptstraße", "housenumber": "42", "postcode": "9071", "place": "Köttmannsdorf", "lat": 46.55803, "lon": 14.2290572, "tags": {"addr:city": "Köttmannsdorf", "addr:housenumber": "42", "addr:postcode": "9071", "addr:street": "Hauptstraße"}, "content": "Adresse: Hauptstraße 42, 9071 Köttmannsdorf\nOrt: Köttmannsdorf\nPLZ: 9071\nKoordinaten: 46.558030, 14.229057", "doc_type": "addresses"}
{"source": "OSM", "region": "Kärnten", "osm_type": "node", "osm_id": 4986405698, "name": null, "category": null, "address": "Blumenweg 14, 9071 Köttmannsdorf", "street": "Blumenweg", "housenumber": "14", "postcode": "9071", "place": "Köttmannsdorf", "lat": 46.5597495, "lon": 14.2303769, "tags": {"addr:city": "Köttmannsdorf", "addr:housenumber": "14", "addr:postcode": "9071", "addr:street": "Blumenweg"}, "content": "Adresse: Blumenweg 14, 9071 Köttmannsdorf\nOrt: Köttmannsdorf\nPLZ: 9071\nKoordinaten: 46.559750, 14.230377", "doc_type": "addresses"}
{"source": "OSM", "region": "Kärnten", "osm_type": "node", "osm_id": 4986405699, "name": null, "category": null, "address": "Hauptstraße 40, 9071 Köttmannsdorf", "street": "Hauptstraße", "housenumber": "40", "postcode": "9071", "place": "Köttmannsdorf", "lat": 46.5587183, "lon": 14.2296162, "tags": {"addr:city": "Köttmannsdorf", "addr:housenumber": "40", "addr:postcode": "9071", "addr:street": "Hauptstraße"}, "content": "Adresse: Hauptstraße 40, 9071 Köttmannsdorf\nOrt: Köttmannsdorf\nPLZ: 9071\nKoordinaten: 46.558718, 14.229616", "doc_type": "addresses"}
{"source": "OSM", "region": "Kärnten", "osm_type": "node", "osm_id": 4986405701, "name": null, "category": null, "address": "Hauptstraße 36, 9071 Köttmannsdorf", "street": "Hauptstraße", "housenumber": "36", "postcode": "9071", "place": "Köttmannsdorf", "lat": 46.5579784, "lon": 14.2292971, "tags": {"addr:city": "Köttmannsdorf", "addr:housenumber": "36", "addr:postcode": "9071", "addr:street": "Hauptstraße"}, "content": "Adresse: Hauptstraße 36, 9071 Köttmannsdorf\nOrt: Köttmannsdorf\nPLZ: 9071\nKoordinaten: 46.557978, 14.229297", "doc_type": "addresses"}
{"source": "OSM", "region": "Kärnten", "osm_type": "node", "osm_id": 4986610923, "name": null, "category": null, "address": "St. Gandolf 48, 9071 Köttmannsdorf", "street": "St. Gandolf", "housenumber": "48", "postcode": "9071", "place": "Köttmannsdorf", "lat": 46.5581739, "lon": 14.2406276, "tags": {"addr:city": "Köttmannsdorf", "addr:housenumber": "48", "addr:postcode": "9071", "addr:street": "St. Gandolf"}, "content": "Adresse: St. Gandolf 48, 9071 Köttmannsdorf\nOrt: Köttmannsdorf\nPLZ: 9071\nKoordinaten: 46.558174, 14.240628", "doc_type": "addresses"}
{"source": "OSM", "region": "Kärnten", "osm_type": "node", "osm_id": 4986610924, "name": null, "category": null, "address": "St. Gandolf 47, 9071 Köttmannsdorf", "street": "St. Gandolf", "housenumber": "47", "postcode": "9071", "place": "Köttmannsdorf", "lat": 46.5568846, "lon": 14.2422283, "tags": {"addr:city": "Köttmannsdorf", "addr:housenumber": "47", "addr:postcode": "9071", "addr:street": "St. Gandolf"}, "content": "Adresse: St. Gandolf 47, 9071 Köttmannsdorf\nOrt: Köttmannsdorf\nPLZ: 9071\nKoordinaten: 46.556885, 14.242228", "doc_type": "addresses"}
{"source": "OSM", "region": "Kärnten", "osm_type": "node", "osm_id": 4986610925, "name": null, "category": null, "address": "St. Gandolf 8, 9071 Köttmannsdorf", "street": "St. Gandolf", "housenumber": "8", "postcode": "9071", "place": "Köttmannsdorf", "lat": 46.5597272, "lon": 14.2386052, "tags": {"addr:city": "Köttmannsdorf", "addr:housenumber": "8", "addr:postcode": "9071", "addr:street": "St. Gandolf"}, "content": "Adresse: St. Gandolf 8, 9071 Köttmannsdorf\nOrt: Köttmannsdorf\nPLZ: 9071\nKoordinaten: 46.559727, 14.238605", "doc_type": "addresses"}
{"source": "OSM", "region": "Kärnten", "osm_type": "node", "osm_id": 4986610926, "name": null, "category": null, "address": "St. Gandolf 5, 9071 Köttmannsdorf", "street": "St. Gandolf", "housenumber": "5", "postcode": "9071", "place": "Köttmannsdorf", "lat": 46.5605495, "lon": 14.2389706, "tags": {"addr:city": "Köttmannsdorf", "addr:housenumber": "5", "addr:postcode": "9071", "addr:street": "St. Gandolf"}, "content": "Adresse: St. Gandolf 5, 9071 Köttmannsdorf\nOrt: Köttmannsdorf\nPLZ: 9071\nKoordinaten: 46.560550, 14.238971", "doc_type": "addresses"}
{"source": "OSM", "region": "Kärnten", "osm_type": "node", "osm_id": 4986610928, "name": null, "category": null, "address": "St. Gandolf 1, 9071 Köttmannsdorf", "street": "St. Gandolf", "housenumber": "1", "postcode": "9071", "place": "Köttmannsdorf", "lat": 46.5588465, "lon": 14.2396339, "tags": {"addr:city": "Köttmannsdorf", "addr:housenumber": "1", "addr:postcode": "9071", "addr:street": "St. Gandolf"}, "content": "Adresse: St. Gandolf 1, 9071 Köttmannsdorf\nOrt: Köttmannsdorf\nPLZ: 9071\nKoordinaten: 46.558847, 14.239634", "doc_type": "addresses"}
{"source": "OSM", "region": "Kärnten", "osm_type": "node", "osm_id": 4987026415, "name": null, "category": null, "address": "Rekagraben 1, 9071 Köttmannsdorf", "street": "Rekagraben", "housenumber": "1", "postcode": "9071", "place": "Köttmannsdorf", "lat": 46.561791, "lon": 14.2249412, "tags": {"addr:city": "Köttmannsdorf", "addr:housenumber": "1", "addr:postcode": "9071", "addr:street": "Rekagraben"}, "content": "Adresse: Rekagraben 1, 9071 Köttmannsdorf\nOrt: Köttmannsdorf\nPLZ: 9071\nKoordinaten: 46.561791, 14.224941", "doc_type": "addresses"}
{"source": "OSM", "region": "Kärnten", "osm_type": "node", "osm_id": 4987027063, "name": null, "category": null, "address": "St. Margarethener Straße 30, 9071 Köttmannsdorf", "street": "St. Margarethener Straße", "housenumber": "30", "postcode": "9071", "place": "Köttmannsdorf", "lat": 46.5613886, "lon": 14.2245255, "tags": {"addr:city": "Köttmannsdorf", "addr:housenumber": "30", "addr:postcode": "9071", "addr:street": "St. Margarethener Straße"}, "content": "Adresse: St. Margarethener Straße 30, 9071 Köttmannsdorf\nOrt: Köttmannsdorf\nPLZ: 9071\nKoordinaten: 46.561389, 14.224526", "doc_type": "addresses"}
{"source": "OSM", "region": "Kärnten", "osm_type": "node", "osm_id": 4987027064, "name": null, "category": null, "address": "St. Margarethener Straße 28, 9071 Köttmannsdorf", "street": "St. Margarethener Straße", "housenumber": "28", "postcode": "9071", "place": "Köttmannsdorf", "lat": 46.5614408, "lon": 14.2246207, "tags": {"addr:city": "Köttmannsdorf", "addr:housenumber": "28", "addr:postcode": "9071", "addr:street": "St. Margarethener Straße"}, "content": "Adresse: St. Margarethener Straße 28, 9071 Köttmannsdorf\nOrt: Köttmannsdorf\nPLZ: 9071\nKoordinaten: 46.561441, 14.224621", "doc_type": "addresses"}
{"source": "OSM", "region": "Kärnten", "osm_type": "node", "osm_id": 4987027065, "name": null, "category": null, "address": "Rekagraben 1a, 9071 Köttmannsdorf", "street": "Rekagraben", "housenumber": "1a", "postcode": "9071", "place": "Köttmannsdorf", "lat": 46.5617431, "lon": 14.224723, "tags": {"addr:city": "Köttmannsdorf", "addr:housenumber": "1a", "addr:postcode": "9071", "addr:street": "Rekagraben"}, "content": "Adresse: Rekagraben 1a, 9071 Köttmannsdorf\nOrt: Köttmannsdorf\nPLZ: 9071\nKoordinaten: 46.561743, 14.224723", "doc_type": "addresses"}
{"source": "OSM", "region": "Kärnten", "osm_type": "node", "osm_id": 4987027066, "name": null, "category": null, "address": "St. Margarethener Straße 35a, 9071 Köttmannsdorf", "street": "St. Margarethener Straße", "housenumber": "35a", "postcode": "9071", "place": "Köttmannsdorf", "lat": 46.5609641, "lon": 14.2252278, "tags": {"addr:city": "Köttmannsdorf", "addr:housenumber": "35a", "addr:postcode": "9071", "addr:street": "St. Margarethener Straße"}, "content": "Adresse: St. Margarethener Straße 35a, 9071 Köttmannsdorf\nOrt: Köttmannsdorf\nPLZ: 9071\nKoordinaten: 46.560964, 14.225228", "doc_type": "addresses"}
{"source": "OSM", "region": "Kärnten", "osm_type": "node", "osm_id": 4988458700, "name": null, "category": null, "address": "Wurdacher Straße 10, 9071 Köttmannsdorf", "street": "Wurdacher Straße", "housenumber": "10", "postcode": "9071", "place": "Köttmannsdorf", "lat": 46.5629685, "lon": 14.2271445, "tags": {"addr:city": "Köttmannsdorf", "addr:housenumber": "10", "addr:postcode": "9071", "addr:street": "Wurdacher Straße"}, "content": "Adresse: Wurdacher Straße 10, 9071 Köttmannsdorf\nOrt: Köttmannsdorf\nPLZ: 9071\nKoordinaten: 46.562968, 14.227144", "doc_type": "addresses"}
{"source": "OSM", "region": "Kärnten", "osm_type": "node", "osm_id": 4988458701, "name": null, "category": null, "address": "Rekagraben 4, 9071 Köttmannsdorf", "street": "Rekagraben", "housenumber": "4", "postcode": "9071", "place": "Köttmannsdorf", "lat": 46.5621033, "lon": 14.2262591, "tags": {"addr:city": "Köttmannsdorf", "addr:housenumber": "4", "addr:postcode": "9071", "addr:street": "Rekagraben"}, "content": "Adresse: Rekagraben 4, 9071 Köttmannsdorf\nOrt: Köttmannsdorf\nPLZ: 9071\nKoordinaten: 46.562103, 14.226259", "doc_type": "addresses"}
{"source": "OSM", "region": "Kärnten", "osm_type": "node", "osm_id": 4989307417, "name": null, "category": null, "address": "Tschachoritsch 106, 9071 Köttmannsdorf", "street": "Tschachoritsch", "housenumber": "106", "postcode": "9071", "place": "Köttmannsdorf", "lat": 46.5578231, "lon": 14.2227846, "tags": {"addr:city": "Köttmannsdorf", "addr:housenumber": "106", "addr:postcode": "9071", "addr:street": "Tschachoritsch"}, "content": "Adresse: Tschachoritsch 106, 9071 Köttmannsdorf\nOrt: Köttmannsdorf\nPLZ: 9071\nKoordinaten: 46.557823, 14.222785", "doc_type": "addresses"}
{"source": "OSM", "region": "Kärnten", "osm_type": "node", "osm_id": 4989786423, "name": null, "category": null, "address": "Am Teller 14, 9071 Köttmannsdorf", "street": "Am Teller", "housenumber": "14", "postcode": "9071", "place": "Köttmannsdorf", "lat": 46.5546793, "lon": 14.2307627, "tags": {"addr:city": "Köttmannsdorf", "addr:housenumber": "14", "addr:postcode": "9071", "addr:street": "Am Teller"}, "content": "Adresse: Am Teller 14, 9071 Köttmannsdorf\nOrt: Köttmannsdorf\nPLZ: 9071\nKoordinaten: 46.554679, 14.230763", "doc_type": "addresses"}
{"source": "OSM", "region": "Kärnten", "osm_type": "node", "osm_id": 4989786424, "name": null, "category": null, "address": "Am Teller 13, 9071 Köttmannsdorf", "street": "Am Teller", "housenumber": "13", "postcode": "9071", "place": "Köttmannsdorf", "lat": 46.5534873, "lon": 14.2291436, "tags": {"addr:city": "Köttmannsdorf", "addr:housenumber": "13", "addr:postcode": "9071", "addr:street": "Am Teller"}, "content": "Adresse: Am Teller 13, 9071 Köttmannsdorf\nOrt: Köttmannsdorf\nPLZ: 9071\nKoordinaten: 46.553487, 14.229144", "doc_type": "addresses"}
{"source": "OSM", "region": "Kärnten", "osm_type": "node", "osm_id": 4989786425, "name": null, "category": null, "address": "Am Teller 5, 9071 Köttmannsdorf", "street": "Am Teller", "housenumber": "5", "postcode": "9071", "place": "Köttmannsdorf", "lat": 46.5527526, "lon": 14.2286577, "tags": {"addr:city": "Köttmannsdorf", "addr:housenumber": "5", "addr:postcode": "9071", "addr:street": "Am Teller"}, "content": "Adresse: Am Teller 5, 9071 Köttmannsdorf\nOrt: Köttmannsdorf\nPLZ: 9071\nKoordinaten: 46.552753, 14.228658", "doc_type": "addresses"}
{"source": "OSM", "region": "Kärnten", "osm_type": "node", "osm_id": 4989786426, "name": null, "category": null, "address": "Tschachoritsch 107, 9071 Köttmannsdorf", "street": "Tschachoritsch", "housenumber": "107", "postcode": "9071", "place": "Köttmannsdorf", "lat": 46.5540818, "lon": 14.2224723, "tags": {"addr:city": "Köttmannsdorf", "addr:housenumber": "107", "addr:postcode": "9071", "addr:street": "Tschachoritsch"}, "content": "Adresse: Tschachoritsch 107, 9071 Köttmannsdorf\nOrt: Köttmannsdorf\nPLZ: 9071\nKoordinaten: 46.554082, 14.222472", "doc_type": "addresses"}
{"source": "OSM", "region": "Kärnten", "osm_type": "node", "osm_id": 4989915987, "name": null, "category": null, "address": "Tschachoritsch 31, 9071 Köttmannsdorf", "street": "Tschachoritsch", "housenumber": "31", "postcode": "9071", "place": "Köttmannsdorf", "lat": 46.5545488, "lon": 14.218594, "tags": {"addr:city": "Köttmannsdorf", "addr:housenumber": "31", "addr:postcode": "9071", "addr:street": "Tschachoritsch"}, "content": "Adresse: Tschachoritsch 31, 9071 Köttmannsdorf\nOrt: Köttmannsdorf\nPLZ: 9071\nKoordinaten: 46.554549, 14.218594", "doc_type": "addresses"}
{"source": "OSM", "region": "Kärnten", "osm_type": "node", "osm_id": 4989915988, "name": null, "category": null, "address": "Tschachoritsch 27, 9071 Köttmannsdorf", "street": "Tschachoritsch", "housenumber": "27", "postcode": "9071", "place": "Köttmannsdorf", "lat": 46.5544232, "lon": 14.2187363, "tags": {"addr:city": "Köttmannsdorf", "addr:housenumber": "27", "addr:postcode": "9071", "addr:street": "Tschachoritsch"}, "content": "Adresse: Tschachoritsch 27, 9071 Köttmannsdorf\nOrt: Köttmannsdorf\nPLZ: 9071\nKoordinaten: 46.554423, 14.218736", "doc_type": "addresses"}
{"source": "OSM", "region": "Kärnten", "osm_type": "node", "osm_id": 4990063958, "name": null, "category": null, "address": "Tschachoritsch 99, 9071 Köttmannsdorf", "street": "Tschachoritsch", "housenumber": "99", "postcode": "9071", "place": "Köttmannsdorf", "lat": 46.552495, "lon": 14.2114847, "tags": {"addr:city": "Köttmannsdorf", "addr:housenumber": "99", "addr:postcode": "9071", "addr:street": "Tschachoritsch"}, "content": "Adresse: Tschachoritsch 99, 9071 Köttmannsdorf\nOrt: Köttmannsdorf\nPLZ: 9071\nKoordinaten: 46.552495, 14.211485", "doc_type": "addresses"}
{"source": "OSM", "region": "Kärnten", "osm_type": "node", "osm_id": 4990063959, "name": null, "category": null, "address": "Tschachoritsch 28, 9071 Köttmannsdorf", "street": "Tschachoritsch", "housenumber": "28", "postcode": "9071", "place": "Köttmannsdorf", "lat": 46.5531367, "lon": 14.210369, "tags": {"addr:city": "Köttmannsdorf", "addr:housenumber": "28", "addr:postcode": "9071", "addr:street": "Tschachoritsch"}, "content": "Adresse: Tschachoritsch 28, 9071 Köttmannsdorf\nOrt: Köttmannsdorf\nPLZ: 9071\nKoordinaten: 46.553137, 14.210369", "doc_type": "addresses"}
{"source": "OSM", "region": "Kärnten", "osm_type": "node", "osm_id": 4990133661, "name": null, "category": null, "address": "Plöschenberg 17, 9071 Köttmannsdorf", "street": "Plöschenberg", "housenumber": "17", "postcode": "9071", "place": "Köttmannsdorf", "lat": 46.5694929, "lon": 14.2220595, "tags": {"addr:city": "Köttmannsdorf", "addr:housenumber": "17", "addr:postcode": "9071", "addr:street": "Plöschenberg"}, "content": "Adresse: Plöschenberg 17, 9071 Köttmannsdorf\nOrt: Köttmannsdorf\nPLZ: 9071\nKoordinaten: 46.569493, 14.222060", "doc_type": "addresses"}
{"source": "OSM", "region": "Kärnten", "osm_type": "node", "osm_id": 4990133662, "name": null, "category": null, "address": "Plöschenberg 15, 9071 Köttmannsdorf", "street": "Plöschenberg", "housenumber": "15", "postcode": "9071", "place": "Köttmannsdorf", "lat": 46.5718144, "lon": 14.2402415, "tags": {"addr:city": "Köttmannsdorf", "addr:housenumber": "15", "addr:postcode": "9071", "addr:street": "Plöschenberg"}, "content": "Adresse: Plöschenberg 15, 9071 Köttmannsdorf\nOrt: Köttmannsdorf\nPLZ: 9071\nKoordinaten: 46.571814, 14.240241", "doc_type": "addresses"}
{"source": "OSM", "region": "Kärnten", "osm_type": "node", "osm_id": 4990133663, "name": null, "category": null, "address": "Plöschenberg 14, 9071 Köttmannsdorf", "street": "Plöschenberg", "housenumber": "14", "postcode": "9071", "place": "Köttmannsdorf", "lat": 46.5718144, "lon": 14.2401624, "tags": {"addr:city": "Köttmannsdorf", "addr:housenumber": "14", "addr:postcode": "9071", "addr:street": "Plöschenberg"}, "content": "Adresse: Plöschenberg 14, 9071 Köttmannsdorf\nOrt: Köttmannsdorf\nPLZ: 9071\nKoordinaten: 46.571814, 14.240162", "doc_type": "addresses"}
{"source": "OSM", "region": "Kärnten", "osm_type": "node", "osm_id": 4990133664, "name": null, "category": null, "address": "Plöschenberg 9, 9071 Köttmannsdorf", "street": "Plöschenberg", "housenumber": "9", "postcode": "9071", "place": "Köttmannsdorf", "lat": 46.5698746, "lon": 14.2213339, "tags": {"addr:city": "Köttmannsdorf", "addr:housenumber": "9", "addr:postcode": "9071", "addr:street": "Plöschenberg"}, "content": "Adresse: Plöschenberg 9, 9071 Köttmannsdorf\nOrt: Köttmannsdorf\nPLZ: 9071\nKoordinaten: 46.569875, 14.221334", "doc_type": "addresses"}
{"source": "OSM", "region": "Kärnten", "osm_type": "node", "osm_id": 4991283309, "name": null, "category": null, "address": "Rekagraben 17a, 9071 Köttmannsdorf", "street": "Rekagraben", "housenumber": "17a", "postcode": "9071", "place": "Köttmannsdorf", "lat": 46.5631975, "lon": 14.2122328, "tags": {"addr:city": "Köttmannsdorf", "addr:housenumber": "17a", "addr:postcode": "9071", "addr:street": "Rekagraben"}, "content": "Adresse: Rekagraben 17a, 9071 Köttmannsdorf\nOrt: Köttmannsdorf\nPLZ: 9071\nKoordinaten: 46.563198, 14.212233", "doc_type": "addresses"}
{"source": "OSM", "region": "Kärnten", "osm_type": "node", "osm_id": 4991283310, "name": null, "category": null, "address": "Rekagraben 17, 9071 Köttmannsdorf", "street": "Rekagraben", "housenumber": "17", "postcode": "9071", "place": "Köttmannsdorf", "lat": 46.5632248, "lon": 14.2122266, "tags": {"addr:city": "Köttmannsdorf", "addr:housenumber": "17", "addr:postcode": "9071", "addr:street": "Rekagraben"}, "content": "Adresse: Rekagraben 17, 9071 Köttmannsdorf\nOrt: Köttmannsdorf\nPLZ: 9071\nKoordinaten: 46.563225, 14.212227", "doc_type": "addresses"}
{"source": "OSM", "region": "Kärnten", "osm_type": "node", "osm_id": 4991283315, "name": null, "category": null, "address": "Ziegeleiweg 3, 9071 Köttmannsdorf", "street": "Ziegeleiweg", "housenumber": "3", "postcode": "9071", "place": "Köttmannsdorf", "lat": 46.5794639, "lon": 14.2841909, "tags": {"addr:city": "Köttmannsdorf", "addr:housenumber": "3", "addr:postcode": "9071", "addr:street": "Ziegeleiweg"}, "content": "Adresse: Ziegeleiweg 3, 9071 Köttmannsdorf\nOrt: Köttmannsdorf\nPLZ: 9071\nKoordinaten: 46.579464, 14.284191", "doc_type": "addresses"}
{"source": "OSM", "region": "Kärnten", "osm_type": "node", "osm_id": 4991283316, "name": null, "category": null, "address": "Ziegeleiweg 2, 9071 Köttmannsdorf", "street": "Ziegeleiweg", "housenumber": "2", "postcode": "9071", "place": "Köttmannsdorf", "lat": 46.5791577, "lon": 14.2841541, "tags": {"addr:city": "Köttmannsdorf", "addr:housenumber": "2", "addr:postcode": "9071", "addr:street": "Ziegeleiweg"}, "content": "Adresse: Ziegeleiweg 2, 9071 Köttmannsdorf\nOrt: Köttmannsdorf\nPLZ: 9071\nKoordinaten: 46.579158, 14.284154", "doc_type": "addresses"}
{"source": "OSM", "region": "Kärnten", "osm_type": "node", "osm_id": 4991283370, "name": null, "category": null, "address": "Hollenburg 5, 9071 Köttmannsdorf", "street": "Hollenburg", "housenumber": "5", "postcode": "9071", "place": "Köttmannsdorf", "lat": 46.5476497, "lon": 14.2617573, "tags": {"addr:city": "Köttmannsdorf", "addr:housenumber": "5", "addr:postcode": "9071", "addr:street": "Hollenburg"}, "content": "Adresse: Hollenburg 5, 9071 Köttmannsdorf\nOrt: Köttmannsdorf\nPLZ: 9071\nKoordinaten: 46.547650, 14.261757", "doc_type": "addresses"}
{"source": "OSM", "region": "Kärnten", "osm_type": "node", "osm_id": 4991283371, "name": null, "category": null, "address": "Hollenburg 4, 9071 Köttmannsdorf", "street": "Hollenburg", "housenumber": "4", "postcode": "9071", "place": "Köttmannsdorf", "lat": 46.5464803, "lon": 14.2617504, "tags": {"addr:city": "Köttmannsdorf", "addr:housenumber": "4", "addr:postcode": "9071", "addr:street": "Hollenburg"}, "content": "Adresse: Hollenburg 4, 9071 Köttmannsdorf\nOrt: Köttmannsdorf\nPLZ: 9071\nKoordinaten: 46.546480, 14.261750", "doc_type": "addresses"}
{"source": "OSM", "region": "Kärnten", "osm_type": "node", "osm_id": 4991283372, "name": null, "category": null, "address": "Hollenburg 2, 9071 Köttmannsdorf", "street": "Hollenburg", "housenumber": "2", "postcode": "9071", "place": "Köttmannsdorf", "lat": 46.5475499, "lon": 14.2615914, "tags": {"addr:city": "Köttmannsdorf", "addr:housenumber": "2", "addr:postcode": "9071", "addr:street": "Hollenburg"}, "content": "Adresse: Hollenburg 2, 9071 Köttmannsdorf\nOrt: Köttmannsdorf\nPLZ: 9071\nKoordinaten: 46.547550, 14.261591", "doc_type": "addresses"}
{"source": "OSM", "region": "Kärnten", "osm_type": "node", "osm_id": 4991283373, "name": null, "category": null, "address": "Wegscheide 3, 9071 Köttmannsdorf", "street": "Wegscheide", "housenumber": "3", "postcode": "9071", "place": "Köttmannsdorf", "lat": 46.5482844, "lon": 14.2611422, "tags": {"addr:city": "Köttmannsdorf", "addr:housenumber": "3", "addr:postcode": "9071", "addr:street": "Wegscheide"}, "content": "Adresse: Wegscheide 3, 9071 Köttmannsdorf\nOrt: Köttmannsdorf\nPLZ: 9071\nKoordinaten: 46.548284, 14.261142", "doc_type": "addresses"}
{"source": "OSM", "region": "Kärnten", "osm_type": "node", "osm_id": 4991283374, "name": null, "category": null, "address": "Unterschloßberg 10, 9071 Köttmannsdorf", "street": "Unterschloßberg", "housenumber": "10", "postcode": "9071", "place": "Köttmannsdorf", "lat": 46.5464619, "lon": 14.2617023, "tags": {"addr:city": "Köttmannsdorf", "addr:housenumber": "10", "addr:postcode": "9071", "addr:street": "Unterschloßberg"}, "content": "Adresse: Unterschloßberg 10, 9071 Köttmannsdorf\nOrt: Köttmannsdorf\nPLZ: 9071\nKoordinaten: 46.546462, 14.261702", "doc_type": "addresses"}
{"source": "OSM", "region": "Kärnten", "osm_type": "node", "osm_id": 5037863275, "name": null, "category": null, "address": "3, 9071 Köttmannsdorf", "street": null, "housenumber": "3", "postcode": "9071", "place": "Köttmannsdorf", "lat": 46.5594532, "lon": 14.2727041, "tags": {"addr:city": "Köttmannsdorf", "addr:housenumber": "3", "addr:place": "Gaisach", "addr:postcode": "9071"}, "content": "Adresse: 3, 9071 Köttmannsdorf\nOrt: Köttmannsdorf\nPLZ: 9071\nKoordinaten: 46.559453, 14.272704", "doc_type": "addresses"}
{"source": "OSM", "region": "Kärnten", "osm_type": "node", "osm_id": 5037863276, "name": null, "category": null, "address": "1, 9071 Köttmannsdorf", "street": null, "housenumber": "1", "postcode": "9071", "place": "Köttmannsdorf", "lat": 46.5593821, "lon": 14.2727437, "tags": {"addr:city": "Köttmannsdorf", "addr:housenumber": "1", "addr:place": "Gaisach", "addr:postcode": "9071"}, "content": "Adresse: 1, 9071 Köttmannsdorf\nOrt: Köttmannsdorf\nPLZ: 9071\nKoordinaten: 46.559382, 14.272744", "doc_type": "addresses"}
{"source": "OSM", "region": "Kärnten", "osm_type": "node", "osm_id": 5044461102, "name": null, "category": null, "address": "Göriach 3, 9071 Köttmannsdorf", "street": "Göriach", "housenumber": "3", "postcode": "9071", "place": "Köttmannsdorf", "lat": 46.5558419, "lon": 14.2600812, "tags": {"addr:city": "Köttmannsdorf", "addr:housenumber": "3", "addr:postcode": "9071", "addr:street": "Göriach"}, "content": "Adresse: Göriach 3, 9071 Köttmannsdorf\nOrt: Köttmannsdorf\nPLZ: 9071\nKoordinaten: 46.555842, 14.260081", "doc_type": "addresses"}
{"source": "OSM", "region": "Kärnten", "osm_type": "node", "osm_id": 5045501273, "name": null, "category": null, "address": "Preliebl 1, 9071 Köttmannsdorf", "street": "Preliebl", "housenumber": "1", "postcode": "9071", "place": "Köttmannsdorf", "lat": 46.548845, "lon": 14.2473698, "tags": {"addr:city": "Köttmannsdorf", "addr:housenumber": "1", "addr:postcode": "9071", "addr:street": "Preliebl"}, "content": "Adresse: Preliebl 1, 9071 Köttmannsdorf\nOrt: Köttmannsdorf\nPLZ: 9071\nKoordinaten: 46.548845, 14.247370", "doc_type": "addresses"}
{"source": "OSM", "region": "Kärnten", "osm_type": "node", "osm_id": 5045501274, "name": null, "category": null, "address": "Preliebl 31, 9071 Köttmannsdorf", "street": "Preliebl", "housenumber": "31", "postcode": "9071", "place": "Köttmannsdorf", "lat": 46.5514072, "lon": 14.243982, "tags": {"addr:city": "Köttmannsdorf", "addr:housenumber": "31", "addr:postcode": "9071", "addr:street": "Preliebl"}, "content": "Adresse: Preliebl 31, 9071 Köttmannsdorf\nOrt: Köttmannsdorf\nPLZ: 9071\nKoordinaten: 46.551407, 14.243982", "doc_type": "addresses"}
{"source": "OSM", "region": "Kärnten", "osm_type": "node", "osm_id": 5045501275, "name": null, "category": null, "address": "Preliebl 16, 9071 Köttmannsdorf", "street": "Preliebl", "housenumber": "16", "postcode": "9071", "place": "Köttmannsdorf", "lat": 46.5491388, "lon": 14.2477529, "tags": {"addr:city": "Köttmannsdorf", "addr:housenumber": "16", "addr:postcode": "9071", "addr:street": "Preliebl"}, "content": "Adresse: Preliebl 16, 9071 Köttmannsdorf\nOrt: Köttmannsdorf\nPLZ: 9071\nKoordinaten: 46.549139, 14.247753", "doc_type": "addresses"}
{"source": "OSM", "region": "Kärnten", "osm_type": "node", "osm_id": 5045501276, "name": null, "category": null, "address": "Preliebl 14, 9071 Köttmannsdorf", "street": "Preliebl", "housenumber": "14", "postcode": "9071", "place": "Köttmannsdorf", "lat": 46.5492588, "lon": 14.2439736, "tags": {"addr:city": "Köttmannsdorf", "addr:housenumber": "14", "addr:postcode": "9071", "addr:street": "Preliebl"}, "content": "Adresse: Preliebl 14, 9071 Köttmannsdorf\nOrt: Köttmannsdorf\nPLZ: 9071\nKoordinaten: 46.549259, 14.243974", "doc_type": "addresses"}
{"source": "OSM", "region": "Kärnten", "osm_type": "node", "osm_id": 5045501277, "name": null, "category": null, "address": "Preliebl 10, 9071 Köttmannsdorf", "street": "Preliebl", "housenumber": "10", "postcode": "9071", "place": "Köttmannsdorf", "lat": 46.5546572, "lon": 14.241599, "tags": {"addr:city": "Köttmannsdorf", "addr:housenumber": "10", "addr:postcode": "9071", "addr:street": "Preliebl"}, "content": "Adresse: Preliebl 10, 9071 Köttmannsdorf\nOrt: Köttmannsdorf\nPLZ: 9071\nKoordinaten: 46.554657, 14.241599", "doc_type": "addresses"}
{"source": "OSM", "region": "Kärnten", "osm_type": "node", "osm_id": 5045501278, "name": null, "category": null, "address": "Preliebl 9, 9071 Köttmannsdorf", "street": "Preliebl", "housenumber": "9", "postcode": "9071", "place": "Köttmannsdorf", "lat": 46.5521358, "lon": 14.2430566, "tags": {"addr:city": "Köttmannsdorf", "addr:housenumber": "9", "addr:postcode": "9071", "addr:street": "Preliebl"}, "content": "Adresse: Preliebl 9, 9071 Köttmannsdorf\nOrt: Köttmannsdorf\nPLZ: 9071\nKoordinaten: 46.552136, 14.243057", "doc_type": "addresses"}
{"source": "OSM", "region": "Kärnten", "osm_type": "node", "osm_id": 5045501279, "name": null, "category": null, "address": "Preliebl 8, 9071 Köttmannsdorf", "street": "Preliebl", "housenumber": "8", "postcode": "9071", "place": "Köttmannsdorf", "lat": 46.5517743, "lon": 14.2432723, "tags": {"addr:city": "Köttmannsdorf", "addr:housenumber": "8", "addr:postcode": "9071", "addr:street": "Preliebl"}, "content": "Adresse: Preliebl 8, 9071 Köttmannsdorf\nOrt: Köttmannsdorf\nPLZ: 9071\nKoordinaten: 46.551774, 14.243272", "doc_type": "addresses"}
{"source": "OSM", "region": "Kärnten", "osm_type": "node", "osm_id": 5045501280, "name": null, "category": null, "address": "Preliebl 7, 9071 Köttmannsdorf", "street": "Preliebl", "housenumber": "7", "postcode": "9071", "place": "Köttmannsdorf", "lat": 46.5518161, "lon": 14.2425297, "tags": {"addr:city": "Köttmannsdorf", "addr:housenumber": "7", "addr:postcode": "9071", "addr:street": "Preliebl"}, "content": "Adresse: Preliebl 7, 9071 Köttmannsdorf\nOrt: Köttmannsdorf\nPLZ: 9071\nKoordinaten: 46.551816, 14.242530", "doc_type": "addresses"}
{"source": "OSM", "region": "Kärnten", "osm_type": "node", "osm_id": 5045501281, "name": null, "category": null, "address": "Preliebl 6a, 9071 Köttmannsdorf", "street": "Preliebl", "housenumber": "6a", "postcode": "9071", "place": "Köttmannsdorf", "lat": 46.551381, "lon": 14.2431842, "tags": {"addr:city": "Köttmannsdorf", "addr:housenumber": "6a", "addr:postcode": "9071", "addr:street": "Preliebl"}, "content": "Adresse: Preliebl 6a, 9071 Köttmannsdorf\nOrt: Köttmannsdorf\nPLZ: 9071\nKoordinaten: 46.551381, 14.243184", "doc_type": "addresses"}
{"source": "OSM", "region": "Kärnten", "osm_type": "node", "osm_id": 5045501282, "name": null, "category": null, "address": "Preliebl 6, 9071 Köttmannsdorf", "street": "Preliebl", "housenumber": "6", "postcode": "9071", "place": "Köttmannsdorf", "lat": 46.5513082, "lon": 14.243236, "tags": {"addr:city": "Köttmannsdorf", "addr:housenumber": "6", "addr:postcode": "9071", "addr:street": "Preliebl"}, "content": "Adresse: Preliebl 6, 9071 Köttmannsdorf\nOrt: Köttmannsdorf\nPLZ: 9071\nKoordinaten: 46.551308, 14.243236", "doc_type": "addresses"}
{"source": "OSM", "region": "Kärnten", "osm_type": "node", "osm_id": 5045501283, "name": null, "category": null, "address": "Preliebl 4, 9071 Köttmannsdorf", "street": "Preliebl", "housenumber": "4", "postcode": "9071", "place": "Köttmannsdorf", "lat": 46.5493822, "lon": 14.2431672, "tags": {"addr:city": "Köttmannsdorf", "addr:housenumber": "4", "addr:postcode": "9071", "addr:street": "Preliebl"}, "content": "Adresse: Preliebl 4, 9071 Köttmannsdorf\nOrt: Köttmannsdorf\nPLZ: 9071\nKoordinaten: 46.549382, 14.243167", "doc_type": "addresses"}
{"source": "OSM", "region": "Kärnten", "osm_type": "node", "osm_id": 5086725692, "name": null, "category": null, "address": "14, 9071 Köttmannsdorf", "street": null, "housenumber": "14", "postcode": "9071", "place": "Köttmannsdorf", "lat": 46.5568485, "lon": 14.2037648, "tags": {"addr:city": "Köttmannsdorf", "addr:housenumber": "14", "addr:place": "St. Margarethen", "addr:postcode": "9071"}, "content": "Adresse: 14, 9071 Köttmannsdorf\nOrt: Köttmannsdorf\nPLZ: 9071\nKoordinaten: 46.556849, 14.203765", "doc_type": "addresses"}
{"source": "OSM", "region": "Kärnten", "osm_type": "node", "osm_id": 5086725693, "name": null, "category": null, "address": "2, 9071 Köttmannsdorf", "street": null, "housenumber": "2", "postcode": "9071", "place": "Köttmannsdorf", "lat": 46.5569383, "lon": 14.204966, "tags": {"addr:city": "Köttmannsdorf", "addr:housenumber": "2", "addr:place": "St. Margarethen", "addr:postcode": "9071"}, "content": "Adresse: 2, 9071 Köttmannsdorf\nOrt: Köttmannsdorf\nPLZ: 9071\nKoordinaten: 46.556938, 14.204966", "doc_type": "addresses"}
{"source": "OSM", "region": "Kärnten", "osm_type": "node", "osm_id": 5086725694, "name": null, "category": null, "address": "1, 9071 Köttmannsdorf", "street": null, "housenumber": "1", "postcode": "9071", "place": "Köttmannsdorf", "lat": 46.5568882, "lon": 14.2127115, "tags": {"addr:city": "Köttmannsdorf", "addr:housenumber": "1", "addr:place": "St. Margarethen", "addr:postcode": "9071"}, "content": "Adresse: 1, 9071 Köttmannsdorf\nOrt: Köttmannsdorf\nPLZ: 9071\nKoordinaten: 46.556888, 14.212711", "doc_type": "addresses"}
{"source": "OSM", "region": "Kärnten", "osm_type": "node", "osm_id": 5086725695, "name": null, "category": null, "address": "10, 9071 Köttmannsdorf", "street": null, "housenumber": "10", "postcode": "9071", "place": "Köttmannsdorf", "lat": 46.5567111, "lon": 14.2038051, "tags": {"addr:city": "Köttmannsdorf", "addr:housenumber": "10", "addr:place": "St. Margarethen", "addr:postcode": "9071"}, "content": "Adresse: 10, 9071 Köttmannsdorf\nOrt: Köttmannsdorf\nPLZ: 9071\nKoordinaten: 46.556711, 14.203805", "doc_type": "addresses"}
{"source": "OSM", "region": "Kärnten", "osm_type": "node", "osm_id": 5097832928, "name": null, "category": null, "address": "Neusaß 1, 9071 Köttmannsdorf", "street": "Neusaß", "housenumber": "1", "postcode": "9071", "place": "Köttmannsdorf", "lat": 46.5560097, "lon": 14.1944796, "tags": {"addr:city": "Köttmannsdorf", "addr:housenumber": "1", "addr:postcode": "9071", "addr:street": "Neusaß"}, "content": "Adresse: Neusaß 1, 9071 Köttmannsdorf\nOrt: Köttmannsdorf\nPLZ: 9071\nKoordinaten: 46.556010, 14.194480", "doc_type": "addresses"}
{"source": "OSM", "region": "Kärnten", "osm_type": "node", "osm_id": 5097832929, "name": null, "category": null, "address": "Neusaß 27, 9071 Köttmannsdorf", "street": "Neusaß", "housenumber": "27", "postcode": "9071", "place": "Köttmannsdorf", "lat": 46.5604667, "lon": 14.1854197, "tags": {"addr:city": "Köttmannsdorf", "addr:housenumber": "27", "addr:postcode": "9071", "addr:street": "Neusaß"}, "content": "Adresse: Neusaß 27, 9071 Köttmannsdorf\nOrt: Köttmannsdorf\nPLZ: 9071\nKoordinaten: 46.560467, 14.185420", "doc_type": "addresses"}
{"source": "OSM", "region": "Kärnten", "osm_type": "node", "osm_id": 5097832930, "name": null, "category": null, "address": "Neusaß 24, 9071 Köttmannsdorf", "street": "Neusaß", "housenumber": "24", "postcode": "9071", "place": "Köttmannsdorf", "lat": 46.5606267, "lon": 14.1847169, "tags": {"addr:city": "Köttmannsdorf", "addr:housenumber": "24", "addr:postcode": "9071", "addr:street": "Neusaß"}, "content": "Adresse: Neusaß 24, 9071 Köttmannsdorf\nOrt: Köttmannsdorf\nPLZ: 9071\nKoordinaten: 46.560627, 14.184717", "doc_type": "addresses"}
{"source": "OSM", "region": "Kärnten", "osm_type": "node", "osm_id": 5097832931, "name": null, "category": null, "address": "Neusaß 14, 9071 Köttmannsdorf", "street": "Neusaß", "housenumber": "14", "postcode": "9071", "place": "Köttmannsdorf", "lat": 46.5638492, "lon": 14.1794218, "tags": {"addr:city": "Köttmannsdorf", "addr:housenumber": "14", "addr:postcode": "9071", "addr:street": "Neusaß"}, "content": "Adresse: Neusaß 14, 9071 Köttmannsdorf\nOrt: Köttmannsdorf\nPLZ: 9071\nKoordinaten: 46.563849, 14.179422", "doc_type": "addresses"}
{"source": "OSM", "region": "Kärnten", "osm_type": "node", "osm_id": 5097832932, "name": null, "category": null, "address": "Neusaß 8, 9071 Köttmannsdorf", "street": "Neusaß", "housenumber": "8", "postcode": "9071", "place": "Köttmannsdorf", "lat": 46.556092, "lon": 14.1833132, "tags": {"addr:city": "Köttmannsdorf", "addr:housenumber": "8", "addr:postcode": "9071", "addr:street": "Neusaß"}, "content": "Adresse: Neusaß 8, 9071 Köttmannsdorf\nOrt: Köttmannsdorf\nPLZ: 9071\nKoordinaten: 46.556092, 14.183313", "doc_type": "addresses"}
{"source": "OSM", "region": "Kärnten", "osm_type": "node", "osm_id": 5097832933, "name": null, "category": null, "address": "Neusaß 5a, 9071 Köttmannsdorf", "street": "Neusaß", "housenumber": "5a", "postcode": "9071", "place": "Köttmannsdorf", "lat": 46.5559936, "lon": 14.1932852, "tags": {"addr:city": "Köttmannsdorf", "addr:housenumber": "5a", "addr:postcode": "9071", "addr:street": "Neusaß"}, "content": "Adresse: Neusaß 5a, 9071 Köttmannsdorf\nOrt: Köttmannsdorf\nPLZ: 9071\nKoordinaten: 46.555994, 14.193285", "doc_type": "addresses"}
{"source": "OSM", "region": "Kärnten", "osm_type": "node", "osm_id": 5097832934, "name": null, "category": null, "address": "Neusaß 5, 9071 Köttmannsdorf", "street": "Neusaß", "housenumber": "5", "postcode": "9071", "place": "Köttmannsdorf", "lat": 46.5560285, "lon": 14.1931758, "tags": {"addr:city": "Köttmannsdorf", "addr:housenumber": "5", "addr:postcode": "9071", "addr:street": "Neusaß"}, "content": "Adresse: Neusaß 5, 9071 Köttmannsdorf\nOrt: Köttmannsdorf\nPLZ: 9071\nKoordinaten: 46.556028, 14.193176", "doc_type": "addresses"}
{"source": "OSM", "region": "Kärnten", "osm_type": "node", "osm_id": 5097832935, "name": null, "category": null, "address": "Neusaß 3, 9071 Köttmannsdorf", "street": "Neusaß", "housenumber": "3", "postcode": "9071", "place": "Köttmannsdorf", "lat": 46.5551243, "lon": 14.1792736, "tags": {"addr:city": "Köttmannsdorf", "addr:housenumber": "3", "addr:postcode": "9071", "addr:street": "Neusaß"}, "content": "Adresse: Neusaß 3, 9071 Köttmannsdorf\nOrt: Köttmannsdorf\nPLZ: 9071\nKoordinaten: 46.555124, 14.179274", "doc_type": "addresses"}
{"source": "OSM", "region": "Kärnten", "osm_type": "node", "osm_id": 5097832936, "name": null, "category": null, "address": "Neusaß 2, 9071 Köttmannsdorf", "street": "Neusaß", "housenumber": "2", "postcode": "9071", "place": "Köttmannsdorf", "lat": 46.5559368, "lon": 14.193787, "tags": {"addr:city": "Köttmannsdorf", "addr:housenumber": "2", "addr:postcode": "9071", "addr:street": "Neusaß"}, "content": "Adresse: Neusaß 2, 9071 Köttmannsdorf\nOrt: Köttmannsdorf\nPLZ: 9071\nKoordinaten: 46.555937, 14.193787", "doc_type": "addresses"}
{"source": "OSM", "region": "Kärnten", "osm_type": "node", "osm_id": 5100560580, "name": null, "category": null, "address": "8, 9071 Köttmannsdorf", "street": null, "housenumber": "8", "postcode": "9071", "place": "Köttmannsdorf", "lat": 46.5636878, "lon": 14.1974569, "tags": {"addr:city": "Köttmannsdorf", "addr:housenumber": "8", "addr:place": "Tschrestal", "addr:postcode": "9071"}, "content": "Adresse: 8, 9071 Köttmannsdorf\nOrt: Köttmannsdorf\nPLZ: 9071\nKoordinaten: 46.563688, 14.197457", "doc_type": "addresses"}
{"source": "OSM", "region": "Kärnten", "osm_type": "node", "osm_id": 5100560581, "name": null, "category": null, "address": "3, 9071 Köttmannsdorf", "street": null, "housenumber": "3", "postcode": "9071", "place": "Köttmannsdorf", "lat": 46.5636295, "lon": 14.196366, "tags": {"addr:city": "Köttmannsdorf", "addr:housenumber": "3", "addr:place": "Tschrestal", "addr:postcode": "9071"}, "content": "Adresse: 3, 9071 Köttmannsdorf\nOrt: Köttmannsdorf\nPLZ: 9071\nKoordinaten: 46.563629, 14.196366", "doc_type": "addresses"}
{"source": "OSM", "region": "Kärnten", "osm_type": "node", "osm_id": 5100560582, "name": null, "category": null, "address": "2, 9071 Köttmannsdorf", "street": null, "housenumber": "2", "postcode": "9071", "place": "Köttmannsdorf", "lat": 46.5635005, "lon": 14.19648, "tags": {"addr:city": "Köttmannsdorf", "addr:housenumber": "2", "addr:place": "Tschrestal", "addr:postcode": "9071"}, "content": "Adresse: 2, 9071 Köttmannsdorf\nOrt: Köttmannsdorf\nPLZ: 9071\nKoordinaten: 46.563501, 14.196480", "doc_type": "addresses"}
{"source": "OSM", "region": "Kärnten", "osm_type": "node", "osm_id": 5100560584, "name": null, "category": null, "address": "Mostitz 14, 9071 Köttmannsdorf", "street": "Mostitz", "housenumber": "14", "postcode": "9071", "place": "Köttmannsdorf", "lat": 46.5677572, "lon": 14.1958257, "tags": {"addr:city": "Köttmannsdorf", "addr:housenumber": "14", "addr:postcode": "9071", "addr:street": "Mostitz"}, "content": "Adresse: Mostitz 14, 9071 Köttmannsdorf\nOrt: Köttmannsdorf\nPLZ: 9071\nKoordinaten: 46.567757, 14.195826", "doc_type": "addresses"}
{"source": "OSM", "region": "Kärnten", "osm_type": "node", "osm_id": 5100560585, "name": null, "category": null, "address": "Mostitz 13, 9071 Köttmannsdorf", "street": "Mostitz", "housenumber": "13", "postcode": "9071", "place": "Köttmannsdorf", "lat": 46.5681722, "lon": 14.2061658, "tags": {"addr:city": "Köttmannsdorf", "addr:housenumber": "13", "addr:postcode": "9071", "addr:street": "Mostitz"}, "content": "Adresse: Mostitz 13, 9071 Köttmannsdorf\nOrt: Köttmannsdorf\nPLZ: 9071\nKoordinaten: 46.568172, 14.206166", "doc_type": "addresses"}
{"source": "OSM", "region": "Kärnten", "osm_type": "node", "osm_id": 5100560588, "name": null, "category": null, "address": "Mostitz 9, 9071 Köttmannsdorf", "street": "Mostitz", "housenumber": "9", "postcode": "9071", "place": "Köttmannsdorf", "lat": 46.5692168, "lon": 14.1967227, "tags": {"addr:city": "Köttmannsdorf", "addr:housenumber": "9", "addr:postcode": "9071", "addr:street": "Mostitz"}, "content": "Adresse: Mostitz 9, 9071 Köttmannsdorf\nOrt: Köttmannsdorf\nPLZ: 9071\nKoordinaten: 46.569217, 14.196723", "doc_type": "addresses"}
{"source": "OSM", "region": "Kärnten", "osm_type": "node", "osm_id": 5100560590, "name": null, "category": null, "address": "Mostitz 5, 9071 Köttmannsdorf", "street": "Mostitz", "housenumber": "5", "postcode": "9071", "place": "Köttmannsdorf", "lat": 46.5683797, "lon": 14.2058922, "tags": {"addr:city": "Köttmannsdorf", "addr:housenumber": "5", "addr:postcode": "9071", "addr:street": "Mostitz"}, "content": "Adresse: Mostitz 5, 9071 Köttmannsdorf\nOrt: Köttmannsdorf\nPLZ: 9071\nKoordinaten: 46.568380, 14.205892", "doc_type": "addresses"}
{"source": "OSM", "region": "Kärnten", "osm_type": "node", "osm_id": 5100560593, "name": null, "category": null, "address": "Mostitz 2, 9071 Köttmannsdorf", "street": "Mostitz", "housenumber": "2", "postcode": "9071", "place": "Köttmannsdorf", "lat": 46.5681648, "lon": 14.1954539, "tags": {"addr:city": "Köttmannsdorf", "addr:housenumber": "2", "addr:postcode": "9071", "addr:street": "Mostitz"}, "content": "Adresse: Mostitz 2, 9071 Köttmannsdorf\nOrt: Köttmannsdorf\nPLZ: 9071\nKoordinaten: 46.568165, 14.195454", "doc_type": "addresses"}
{"source": "OSM", "region": "Kärnten", "osm_type": "node", "osm_id": 5100560594, "name": null, "category": null, "address": "Mostitz 1, 9071 Köttmannsdorf", "street": "Mostitz", "housenumber": "1", "postcode": "9071", "place": "Köttmannsdorf", "lat": 46.5719401, "lon": 14.1930177, "tags": {"addr:city": "Köttmannsdorf", "addr:housenumber": "1", "addr:postcode": "9071", "addr:street": "Mostitz"}, "content": "Adresse: Mostitz 1, 9071 Köttmannsdorf\nOrt: Köttmannsdorf\nPLZ: 9071\nKoordinaten: 46.571940, 14.193018", "doc_type": "addresses"}
{"source": "OSM", "region": "Kärnten", "osm_type": "node", "osm_id": 5627114316, "name": null, "category": null, "address": "Bundesstraße 12, 9073 Köttmannsdorf", "street": "Bundesstraße", "housenumber": "12", "postcode": "9073", "place": "Köttmannsdorf", "lat": 46.5823729, "lon": 14.2823808, "tags": {"addr:city": "Köttmannsdorf", "addr:housenumber": "12", "addr:postcode": "9073", "addr:street": "Bundesstraße"}, "content": "Adresse: Bundesstraße 12, 9073 Köttmannsdorf\nOrt: Köttmannsdorf\nPLZ: 9073\nKoordinaten: 46.582373, 14.282381", "doc_type": "addresses"}
{"source": "OSM", "region": "Kärnten", "osm_type": "node", "osm_id": 698593286, "name": "Pension Singer", "category": "tourism:hotel", "address": "Unterschloßberg 5, 9161 Köttmannsdorf", "street": "Unterschloßberg", "housenumber": "5", "postcode": "9161", "place": "Köttmannsdorf", "lat": 46.5453954, "lon": 14.2535992, "tags": {"addr:city": "Köttmannsdorf", "addr:housenumber": "5", "addr:postcode": "9161", "addr:street": "Unterschloßberg", "name": "Pension Singer", "phone": "+43422784020", "tourism": "hotel"}, "content": "Pension Singer\nKategorie: tourism:hotel\nAdresse: Unterschloßberg 5, 9161 Köttmannsdorf\nOrt: Köttmannsdorf\nPLZ: 9161\nKoordinaten: 46.545395, 14.253599\nTags: phone=+43422784020", "doc_type": "pois"}
{"source": "OSM", "region": "Kärnten", "osm_type": "node", "osm_id": 4526987583, "name": null, "category": "building:yes", "address": "Moosweg 9, 9073 Köttmannsdorf", "street": "Moosweg", "housenumber": "9", "postcode": "9073", "place": "Köttmannsdorf", "lat": 46.5698724, "lon": 14.2648737, "tags": {"addr:city": "Köttmannsdorf", "addr:housenumber": "9", "addr:postcode": "9073", "addr:street": "Moosweg", "building": "yes"}, "content": "Kategorie: building:yes\nAdresse: Moosweg 9, 9073 Köttmannsdorf\nOrt: Köttmannsdorf\nPLZ: 9073\nKoordinaten: 46.569872, 14.264874\nTags: building=yes", "doc_type": "buildings"}
