{"source": "OSM", "region": "Kärnten", "osm_type": "node", "osm_id": 340515510, "name": "Postpartner 9112", "category": "amenity:post_office", "address": "Völkermarkter Straße 3, 9112 Griffen", "street": "Völkermarkter Straße", "housenumber": "3", "postcode": "9112", "place": "Griffen", "lat": 46.7025555, "lon": 14.7278059, "tags": {"addr:city": "Griffen", "addr:housenumber": "3", "addr:postcode": "9112", "addr:street": "Völkermarkter Straße", "amenity": "post_office", "name": "Postpartner 9112", "operator": "Trafik Kupferschmied Andrea"}, "content": "Postpartner 9112\nKategorie: amenity:post_office\nAdresse: Völkermarkter Straße 3, 9112 Griffen\nOrt: Griffen\nPLZ: 9112\nKoordinaten: 46.702556, 14.727806\nTags: amenity=post_office, operator=Trafik Kupferschmied Andrea", "doc_type": "addresses"}
{"source": "OSM", "region": "Kärnten", "osm_type": "node", "osm_id": 4680033290, "name": "Polizeiinspektion Griffen", "category": "amenity:police", "address": "Hauptplatz 24, 9112 Griffen", "street": "Hauptplatz", "housenumber": "24", "postcode": "9112", "place": "Griffen", "lat": 46.7033264, "lon": 14.7287701, "tags": {"addr:city": "Griffen", "addr:housenumber": "24", "addr:postcode": "9112", "addr:street": "Hauptplatz", "amenity": "police", "name": "Polizeiinspektion Griffen"}, "content": "Polizeiinspektion Griffen\nKategorie: amenity:police\nAdresse: Hauptplatz 24, 9112 Griffen\nOrt: Griffen\nPLZ: 9112\nKoordinaten: 46.703326, 14.728770\nTags: amenity=police", "doc_type": "addresses"}
{"source": "OSM", "region": "Kärnten", "osm_type": "node", "osm_id": 274283667, "name": "BP", "category": "amenity:fuel", "address": "9112 Griffen", "street": null, "housenumber": null, "postcode": "9112", "place": "Griffen", "lat": 46.6958676, "lon": 14.7369796, "tags": {"addr:city": "Griffen", "addr:postcode": "9112", "amenity": "fuel", "brand": "BP", "name": "BP", "operator": "BP"}, "content": "BP\nKategorie: amenity:fuel\nAdresse: 9112 Griffen\nOrt: Griffen\nPLZ: 9112\nKoordinaten: 46.695868, 14.736980\nTags: amenity=fuel, operator=BP, brand=BP", "doc_type": "pois"}
{"source": "OSM", "region": "Kärnten", "osm_type": "node", "osm_id": 340515510, "name": "Postpartner 9112", "category": "amenity:post_office", "address": "Völkermarkter Straße 3, 9112 Griffen", "street": "Völkermarkter Straße", "housenumber": "3", "postcode": "9112", "place": "Griffen", "lat": 46.7025555, "lon": 14.7278059, "tags": {"addr:city": "Griffen", "addr:housenumber": "3", "addr:postcode": "9112", "addr:street": "Völkermarkter Straße", "amenity": "post_office", "name": "Postpartner 9112", "operator": "Trafik Kupferschmied Andrea"}, "content": "Postpartner 9112\nKategorie: amenity:post_office\nAdresse: Völkermarkter Straße 3, 9112 Griffen\nOrt: Griffen\nPLZ: 9112\nKoordinaten: 46.702556, 14.727806\nTags: amenity=post_office, operator=Trafik Kupferschmied Andrea", "doc_type": "pois"}
{"source": "OSM", "region": "Kärnten", "osm_type": "node", "osm_id": 4680033290, "name": "Polizeiinspektion Griffen", "category": "amenity:police", "address": "Hauptplatz 24, 9112 Griffen", "street": "Hauptplatz", "housenumber": "24", "postcode": "9112", "place": "Griffen", "lat": 46.7033264, "lon": 14.7287701, "tags": {"addr:city": "Griffen", "addr:housenumber": "24", "addr:postcode": "9112", "addr:street": "Hauptplatz", "amenity": "police", "name": "Polizeiinspektion Griffen"}, "content": "Polizeiinspektion Griffen\nKategorie: amenity:police\nAdresse: Hauptplatz 24, 9112 Griffen\nOrt: Griffen\nPLZ: 9112\nKoordinaten: 46.703326, 14.728770\nTags: amenity=police", "doc_type": "pois"}
