{"source": "OSM", "region": "Kärnten", "osm_type": "node", "osm_id": 1240278028, "name": "Wassersportzentrum Berghof", "category": "leisure:sports_centre", "address": "Ossiachersee Süduferstraße 243, 9523 Landskron", "street": "Ossiachersee Süduferstraße", "housenumber": "243", "postcode": "9523", "place": "Landskron", "lat": 46.6532821, "lon": 13.9337905, "tags": {"addr:city": "Landskron", "addr:housenumber": "243", "addr:postcode": "9523", "addr:street": "Ossiachersee Süduferstraße", "leisure": "sports_centre", "name": "Wassersportzentrum Berghof", "website": "https://www.seecamping-berghof.at"}, "content": "Wassersportzentrum Berghof\nKategorie: leisure:sports_centre\nAdresse: Ossiachersee Süduferstraße 243, 9523 Landskron\nOrt: Landskron\nPLZ: 9523\nKoordinaten: 46.653282, 13.933791\nTags: website=https://www.seecamping-berghof.at", "doc_type": "addresses"}
{"source": "OSM", "region": "Kärnten", "osm_type": "node", "osm_id": 1280245494, "name": "Strobl's Backstube GmbH", "category": "shop:bakery", "address": "Ossiacher Straße 24, 9523 Landskron", "street": "Ossiacher Straße", "housenumber": "24", "postcode": "9523", "place": "Landskron", "lat": 46.6339971, "lon": 13.8830649, "tags": {"addr:city": "Landskron", "addr:housenumber": "24", "addr:postcode": "9523", "addr:street": "Ossiacher Straße", "name": "Strobl's Backstube GmbH", "shop": "bakery"}, "content": "Strobl's Backstube GmbH\nKategorie: shop:bakery\nAdresse: Ossiacher Straße 24, 9523 Landskron\nOrt: Landskron\nPLZ: 9523\nKoordinaten: 46.633997, 13.883065\nTags: shop=bakery", "doc_type": "addresses"}
{"source": "OSM", "region": "Kärnten", "osm_type": "node", "osm_id": 1311996751, "name": "Bäckerei Konditorei Schmoliner", "category": "shop:bakery", "address": "Ossiacher Straße 61, 9523 Landskron", "street": "Ossiacher Straße", "housenumber": "61", "postcode": "9523", "place": "Landskron", "lat": 46.6355594, "lon": 13.8839028, "tags": {"addr:city": "Landskron", "addr:housenumber": "61", "addr:postcode": "9523", "addr:street": "Ossiacher Straße", "name": "Bäckerei Konditorei Schmoliner", "phone": "+43 680 120 6963", "shop": "bakery", "website": "https://www.konditorei-schmoliner.at"}, "content": "Bäckerei Konditorei Schmoliner\nKategorie: shop:bakery\nAdresse: Ossiacher Straße 61, 9523 Landskron\nOrt: Landskron\nPLZ: 9523\nKoordinaten: 46.635559, 13.883903\nTags: shop=bakery, phone=+43 680 120 6963, website=https://www.konditorei-schmoliner.at", "doc_type": "addresses"}
{"source": "OSM", "region": "Kärnten", "osm_type": "node", "osm_id": 2529600815, "name": "Schiffstation Berghof", "category": "amenity:ferry_terminal", "address": "Ossiachersee Süduferstraße 241, 9523 Landskron", "street": "Ossiachersee Süduferstraße", "housenumber": "241", "postcode": "9523", "place": "Landskron", "lat": 46.6553288, "lon": 13.9346333, "tags": {"addr:city": "Landskron", "addr:housenumber": "241", "addr:postcode": "9523", "addr:street": "Ossiachersee Süduferstraße", "amenity": "ferry_terminal", "name": "Schiffstation Berghof", "operator": "Nageler Schifffahrt & Restaurant GmbH & Co KG Ossiachersee Schifffahrt"}, "content": "Schiffstation Berghof\nKategorie: amenity:ferry_terminal\nAdresse: Ossiachersee Süduferstraße 241, 9523 Landskron\nOrt: Landskron\nPLZ: 9523\nKoordinaten: 46.655329, 13.934633\nTags: amenity=ferry_terminal, operator=Nageler Schifffahrt & Restaurant GmbH & Co KG Ossiachersee Schifffahrt", "doc_type": "addresses"}
{"source": "OSM", "region": "Kärnten", "osm_type": "node", "osm_id": 4360280788, "name": "SPAR Ertl GmbH", "category": "shop:supermarket", "address": "Ossiachersee Süduferstraße 241, 9523 Landskron", "street": "Ossiachersee Süduferstraße", "housenumber": "241", "postcode": "9523", "place": "Landskron", "lat": 46.6532309, "lon": 13.9338464, "tags": {"addr:city": "Landskron", "addr:housenumber": "241", "addr:postcode": "9523", "addr:street": "Ossiachersee Süduferstraße", "name": "SPAR Ertl GmbH", "shop": "supermarket"}, "content": "SPAR Ertl GmbH\nKategorie: shop:supermarket\nAdresse: Ossiachersee Süduferstraße 241, 9523 Landskron\nOrt: Landskron\nPLZ: 9523\nKoordinaten: 46.653231, 13.933846\nTags: shop=supermarket", "doc_type": "addresses"}
{"source": "OSM", "region": "Kärnten", "osm_type": "node", "osm_id": 4785238753, "name": "Ranner Transporte GmbH", "category": "office:company", "address": "Ossiacher Straße 13, 9523 Landskron", "street": "Ossiacher Straße", "housenumber": "13", "postcode": "9523", "place": "Landskron", "lat": 46.6301431, "lon": 13.879305, "tags": {"addr:city": "Landskron", "addr:housenumber": "13", "addr:postcode": "9523", "addr:street": "Ossiacher Straße", "name": "Ranner Transporte GmbH", "office": "company"}, "content": "Ranner Transporte GmbH\nKategorie: office:company\nAdresse: Ossiacher Straße 13, 9523 Landskron\nOrt: Landskron\nPLZ: 9523\nKoordinaten: 46.630143, 13.879305\nTags: office=company", "doc_type": "addresses"}
{"source": "OSM", "region": "Kärnten", "osm_type": "node", "osm_id": 1240278028, "name": "Wassersportzentrum Berghof", "category": "leisure:sports_centre", "address": "Ossiachersee Süduferstraße 243, 9523 Landskron", "street": "Ossiachersee Süduferstraße", "housenumber": "243", "postcode": "9523", "place": "Landskron", "lat": 46.6532821, "lon": 13.9337905, "tags": {"addr:city": "Landskron", "addr:housenumber": "243", "addr:postcode": "9523", "addr:street": "Ossiachersee Süduferstraße", "leisure": "sports_centre", "name": "Wassersportzentrum Berghof", "website": "https://www.seecamping-berghof.at"}, "content": "Wassersportzentrum Berghof\nKategorie: leisure:sports_centre\nAdresse: Ossiachersee Süduferstraße 243, 9523 Landskron\nOrt: Landskron\nPLZ: 9523\nKoordinaten: 46.653282, 13.933791\nTags: website=https://www.seecamping-berghof.at", "doc_type": "pois"}
{"source": "OSM", "region": "Kärnten", "osm_type": "node", "osm_id": 1280245494, "name": "Strobl's Backstube GmbH", "category": "shop:bakery", "address": "Ossiacher Straße 24, 9523 Landskron", "street": "Ossiacher Straße", "housenumber": "24", "postcode": "9523", "place": "Landskron", "lat": 46.6339971, "lon": 13.8830649, "tags": {"addr:city": "Landskron", "addr:housenumber": "24", "addr:postcode": "9523", "addr:street": "Ossiacher Straße", "name": "Strobl's Backstube GmbH", "shop": "bakery"}, "content": "Strobl's Backstube GmbH\nKategorie: shop:bakery\nAdresse: Ossiacher Straße 24, 9523 Landskron\nOrt: Landskron\nPLZ: 9523\nKoordinaten: 46.633997, 13.883065\nTags: shop=bakery", "doc_type": "pois"}
{"source": "OSM", "region": "Kärnten", "osm_type": "node", "osm_id": 1311996751, "name": "Bäckerei Konditorei Schmoliner", "category": "shop:bakery", "address": "Ossiacher Straße 61, 9523 Landskron", "street": "Ossiacher Straße", "housenumber": "61", "postcode": "9523", "place": "Landskron", "lat": 46.6355594, "lon": 13.8839028, "tags": {"addr:city": "Landskron", "addr:housenumber": "61", "addr:postcode": "9523", "addr:street": "Ossiacher Straße", "name": "Bäckerei Konditorei Schmoliner", "phone": "+43 680 120 6963", "shop": "bakery", "website": "https://www.konditorei-schmoliner.at"}, "content": "Bäckerei Konditorei Schmoliner\nKategorie: shop:bakery\nAdresse: Ossiacher Straße 61, 9523 Landskron\nOrt: Landskron\nPLZ: 9523\nKoordinaten: 46.635559, 13.883903\nTags: shop=bakery, phone=+43 680 120 6963, website=https://www.konditorei-schmoliner.at", "doc_type": "pois"}
{"source": "OSM", "region": "Kärnten", "osm_type": "node", "osm_id": 2529600815, "name": "Schiffstation Berghof", "category": "amenity:ferry_terminal", "address": "Ossiachersee Süduferstraße 241, 9523 Landskron", "street": "Ossiachersee Süduferstraße", "housenumber": "241", "postcode": "9523", "place": "Landskron", "lat": 46.6553288, "lon": 13.9346333, "tags": {"addr:city": "Landskron", "addr:housenumber": "241", "addr:postcode": "9523", "addr:street": "Ossiachersee Süduferstraße", "amenity": "ferry_terminal", "name": "Schiffstation Berghof", "operator": "Nageler Schifffahrt & Restaurant GmbH & Co KG Ossiachersee Schifffahrt"}, "content": "Schiffstation Berghof\nKategorie: amenity:ferry_terminal\nAdresse: Ossiachersee Süduferstraße 241, 9523 Landskron\nOrt: Landskron\nPLZ: 9523\nKoordinaten: 46.655329, 13.934633\nTags: amenity=ferry_terminal, operator=Nageler Schifffahrt & Restaurant GmbH & Co KG Ossiachersee Schifffahrt", "doc_type": "pois"}
{"source": "OSM", "region": "Kärnten", "osm_type": "node", "osm_id": 4360280788, "name": "SPAR Ertl GmbH", "category": "shop:supermarket", "address": "Ossiachersee Süduferstraße 241, 9523 Landskron", "street": "Ossiachersee Süduferstraße", "housenumber": "241", "postcode": "9523", "place": "Landskron", "lat": 46.6532309, "lon": 13.9338464, "tags": {"addr:city": "Landskron", "addr:housenumber": "241", "addr:postcode": "9523", "addr:street": "Ossiachersee Süduferstraße", "name": "SPAR Ertl GmbH", "shop": "supermarket"}, "content": "SPAR Ertl GmbH\nKategorie: shop:supermarket\nAdresse: Ossiachersee Süduferstraße 241, 9523 Landskron\nOrt: Landskron\nPLZ: 9523\nKoordinaten: 46.653231, 13.933846\nTags: shop=supermarket", "doc_type": "pois"}
{"source": "OSM", "region": "Kärnten", "osm_type": "node", "osm_id": 4785238753, "name": "Ranner Transporte GmbH", "category": "office:company", "address": "Ossiacher Straße 13, 9523 Landskron", "street": "Ossiacher Straße", "housenumber": "13", "postcode": "9523", "place": "Landskron", "lat": 46.6301431, "lon": 13.879305, "tags": {"addr:city": "Landskron", "addr:housenumber": "13", "addr:postcode": "9523", "addr:street": "Ossiacher Straße", "name": "Ranner Transporte GmbH", "office": "company"}, "content": "Ranner Transporte GmbH\nKategorie: office:company\nAdresse: Ossiacher Straße 13, 9523 Landskron\nOrt: Landskron\nPLZ: 9523\nKoordinaten: 46.630143, 13.879305\nTags: office=company", "doc_type": "pois"}
