{"source": "OSM", "region": "K채rnten", "osm_type": "node", "osm_id": 2208339181, "name": "Freiwillige Feuerwehr Fresach", "category": "amenity:fire_station", "address": "Dorfplatz 160, 9712 Fresach", "street": "Dorfplatz", "housenumber": "160", "postcode": "9712", "place": "Fresach", "lat": 46.713351, "lon": 13.6890437, "tags": {"addr:city": "Fresach", "addr:housenumber": "160", "addr:postcode": "9712", "addr:street": "Dorfplatz", "amenity": "fire_station", "name": "Freiwillige Feuerwehr Fresach"}, "content": "Freiwillige Feuerwehr Fresach\nKategorie: amenity:fire_station\nAdresse: Dorfplatz 160, 9712 Fresach\nOrt: Fresach\nPLZ: 9712\nKoordinaten: 46.713351, 13.689044\nTags: amenity=fire_station", "doc_type": "addresses"}
{"source": "OSM", "region": "K채rnten", "osm_type": "node", "osm_id": 5027107301, "name": "Dorfladen Fresach", "category": "shop:supermarket", "address": "Dorfplatz 160, 9712 Fresach", "street": "Dorfplatz", "housenumber": "160", "postcode": "9712", "place": "Fresach", "lat": 46.7132648, "lon": 13.6891916, "tags": {"addr:city": "Fresach", "addr:housenumber": "160", "addr:postcode": "9712", "addr:street": "Dorfplatz", "name": "Dorfladen Fresach", "operator": "Andrea Egger, Ernst Egger", "phone": "+43 4245 24 4 13", "shop": "supermarket", "website": "http://www.dorfladen-fresach.at"}, "content": "Dorfladen Fresach\nKategorie: shop:supermarket\nAdresse: Dorfplatz 160, 9712 Fresach\nOrt: Fresach\nPLZ: 9712\nKoordinaten: 46.713265, 13.689192\nTags: shop=supermarket, operator=Andrea Egger, Ernst Egger, phone=+43 4245 24 4 13, website=http://www.dorfladen-fresach.at", "doc_type": "addresses"}
{"source": "OSM", "region": "K채rnten", "osm_type": "node", "osm_id": 2208339181, "name": "Freiwillige Feuerwehr Fresach", "category": "amenity:fire_station", "address": "Dorfplatz 160, 9712 Fresach", "street": "Dorfplatz", "housenumber": "160", "postcode": "9712", "place": "Fresach", "lat": 46.713351, "lon": 13.6890437, "tags": {"addr:city": "Fresach", "addr:housenumber": "160", "addr:postcode": "9712", "addr:street": "Dorfplatz", "amenity": "fire_station", "name": "Freiwillige Feuerwehr Fresach"}, "content": "Freiwillige Feuerwehr Fresach\nKategorie: amenity:fire_station\nAdresse: Dorfplatz 160, 9712 Fresach\nOrt: Fresach\nPLZ: 9712\nKoordinaten: 46.713351, 13.689044\nTags: amenity=fire_station", "doc_type": "pois"}
{"source": "OSM", "region": "K채rnten", "osm_type": "node", "osm_id": 5027107301, "name": "Dorfladen Fresach", "category": "shop:supermarket", "address": "Dorfplatz 160, 9712 Fresach", "street": "Dorfplatz", "housenumber": "160", "postcode": "9712", "place": "Fresach", "lat": 46.7132648, "lon": 13.6891916, "tags": {"addr:city": "Fresach", "addr:housenumber": "160", "addr:postcode": "9712", "addr:street": "Dorfplatz", "name": "Dorfladen Fresach", "operator": "Andrea Egger, Ernst Egger", "phone": "+43 4245 24 4 13", "shop": "supermarket", "website": "http://www.dorfladen-fresach.at"}, "content": "Dorfladen Fresach\nKategorie: shop:supermarket\nAdresse: Dorfplatz 160, 9712 Fresach\nOrt: Fresach\nPLZ: 9712\nKoordinaten: 46.713265, 13.689192\nTags: shop=supermarket, operator=Andrea Egger, Ernst Egger, phone=+43 4245 24 4 13, website=http://www.dorfladen-fresach.at", "doc_type": "pois"}
