{"source": "OSM", "region": "Kärnten", "osm_type": "node", "osm_id": 340519110, "name": "9762 Weißensee", "category": "amenity:post_office", "address": "49, 9762 Weißensee", "street": null, "housenumber": "49", "postcode": "9762", "place": "Weißensee", "lat": 46.7177892, "lon": 13.2916074, "tags": {"addr:city": "Weißensee", "addr:housenumber": "49", "addr:place": "Techendorf", "addr:postcode": "9762", "amenity": "post_office", "name": "9762 Weißensee"}, "content": "9762 Weißensee\nKategorie: amenity:post_office\nAdresse: 49, 9762 Weißensee\nOrt: Weißensee\nPLZ: 9762\nKoordinaten: 46.717789, 13.291607\nTags: amenity=post_office", "doc_type": "addresses"}
{"source": "OSM", "region": "Kärnten", "osm_type": "node", "osm_id": 430856593, "name": "Weissensee Information", "category": "tourism:information", "address": "78, 9762 Weissensee", "street": null, "housenumber": "78", "postcode": "9762", "place": "Weissensee", "lat": 46.7141691, "lon": 13.2941892, "tags": {"addr:city": "Weissensee", "addr:housenumber": "78", "addr:place": "Techendorf", "addr:postcode": "9762", "name": "Weissensee Information", "tourism": "information"}, "content": "Weissensee Information\nKategorie: tourism:information\nAdresse: 78, 9762 Weissensee\nOrt: Weissensee\nPLZ: 9762\nKoordinaten: 46.714169, 13.294189", "doc_type": "addresses"}
{"source": "OSM", "region": "Kärnten", "osm_type": "node", "osm_id": 815628264, "name": "Spar", "category": "shop:supermarket", "address": "Techendorf 16, 9762 Weissensee", "street": "Techendorf", "housenumber": "16", "postcode": "9762", "place": "Weissensee", "lat": 46.7171887, "lon": 13.2946717, "tags": {"addr:city": "Weissensee", "addr:housenumber": "16", "addr:postcode": "9762", "addr:street": "Techendorf", "brand": "Spar", "name": "Spar", "operator": "Knaller GmbH", "phone": "+43 4713 223471", "shop": "supermarket"}, "content": "Spar\nKategorie: shop:supermarket\nAdresse: Techendorf 16, 9762 Weissensee\nOrt: Weissensee\nPLZ: 9762\nKoordinaten: 46.717189, 13.294672\nTags: shop=supermarket, operator=Knaller GmbH, brand=Spar, phone=+43 4713 223471", "doc_type": "addresses"}
{"source": "OSM", "region": "Kärnten", "osm_type": "node", "osm_id": 1801921285, "name": "Zimmermanns Gasthaus", "category": "amenity:restaurant", "address": "Techendorf 6, 9762 Weissensee", "street": "Techendorf", "housenumber": "6", "postcode": "9762", "place": "Weissensee", "lat": 46.7178889, "lon": 13.2922956, "tags": {"addr:city": "Weissensee", "addr:housenumber": "6", "addr:postcode": "9762", "addr:street": "Techendorf", "amenity": "restaurant", "name": "Zimmermanns Gasthaus"}, "content": "Zimmermanns Gasthaus\nKategorie: amenity:restaurant\nAdresse: Techendorf 6, 9762 Weissensee\nOrt: Weissensee\nPLZ: 9762\nKoordinaten: 46.717889, 13.292296\nTags: amenity=restaurant", "doc_type": "addresses"}
{"source": "OSM", "region": "Kärnten", "osm_type": "node", "osm_id": 340519110, "name": "9762 Weißensee", "category": "amenity:post_office", "address": "49, 9762 Weißensee", "street": null, "housenumber": "49", "postcode": "9762", "place": "Weißensee", "lat": 46.7177892, "lon": 13.2916074, "tags": {"addr:city": "Weißensee", "addr:housenumber": "49", "addr:place": "Techendorf", "addr:postcode": "9762", "amenity": "post_office", "name": "9762 Weißensee"}, "content": "9762 Weißensee\nKategorie: amenity:post_office\nAdresse: 49, 9762 Weißensee\nOrt: Weißensee\nPLZ: 9762\nKoordinaten: 46.717789, 13.291607\nTags: amenity=post_office", "doc_type": "pois"}
{"source": "OSM", "region": "Kärnten", "osm_type": "node", "osm_id": 430856593, "name": "Weissensee Information", "category": "tourism:information", "address": "78, 9762 Weissensee", "street": null, "housenumber": "78", "postcode": "9762", "place": "Weissensee", "lat": 46.7141691, "lon": 13.2941892, "tags": {"addr:city": "Weissensee", "addr:housenumber": "78", "addr:place": "Techendorf", "addr:postcode": "9762", "name": "Weissensee Information", "tourism": "information"}, "content": "Weissensee Information\nKategorie: tourism:information\nAdresse: 78, 9762 Weissensee\nOrt: Weissensee\nPLZ: 9762\nKoordinaten: 46.714169, 13.294189", "doc_type": "pois"}
{"source": "OSM", "region": "Kärnten", "osm_type": "node", "osm_id": 815628264, "name": "Spar", "category": "shop:supermarket", "address": "Techendorf 16, 9762 Weissensee", "street": "Techendorf", "housenumber": "16", "postcode": "9762", "place": "Weissensee", "lat": 46.7171887, "lon": 13.2946717, "tags": {"addr:city": "Weissensee", "addr:housenumber": "16", "addr:postcode": "9762", "addr:street": "Techendorf", "brand": "Spar", "name": "Spar", "operator": "Knaller GmbH", "phone": "+43 4713 223471", "shop": "supermarket"}, "content": "Spar\nKategorie: shop:supermarket\nAdresse: Techendorf 16, 9762 Weissensee\nOrt: Weissensee\nPLZ: 9762\nKoordinaten: 46.717189, 13.294672\nTags: shop=supermarket, operator=Knaller GmbH, brand=Spar, phone=+43 4713 223471", "doc_type": "pois"}
{"source": "OSM", "region": "Kärnten", "osm_type": "node", "osm_id": 1801921285, "name": "Zimmermanns Gasthaus", "category": "amenity:restaurant", "address": "Techendorf 6, 9762 Weissensee", "street": "Techendorf", "housenumber": "6", "postcode": "9762", "place": "Weissensee", "lat": 46.7178889, "lon": 13.2922956, "tags": {"addr:city": "Weissensee", "addr:housenumber": "6", "addr:postcode": "9762", "addr:street": "Techendorf", "amenity": "restaurant", "name": "Zimmermanns Gasthaus"}, "content": "Zimmermanns Gasthaus\nKategorie: amenity:restaurant\nAdresse: Techendorf 6, 9762 Weissensee\nOrt: Weissensee\nPLZ: 9762\nKoordinaten: 46.717889, 13.292296\nTags: amenity=restaurant", "doc_type": "pois"}
