{"source": "OSM", "region": "Kärnten", "osm_type": "node", "osm_id": 760487005, "name": null, "category": null, "address": "Mödringstraße 5, 9343 Weitensfeld im Gurktal", "street": "Mödringstraße", "housenumber": "5", "postcode": "9343", "place": "Weitensfeld im Gurktal", "lat": 46.8635706, "lon": 14.2338906, "tags": {"addr:city": "Weitensfeld im Gurktal", "addr:housenumber": "5", "addr:postcode": "9343", "addr:street": "Mödringstraße"}, "content": "Adresse: Mödringstraße 5, 9343 Weitensfeld im Gurktal\nOrt: Weitensfeld im Gurktal\nPLZ: 9343\nKoordinaten: 46.863571, 14.233891", "doc_type": "addresses"}
{"source": "OSM", "region": "Kärnten", "osm_type": "node", "osm_id": 1364260625, "name": "Bärenwirt", "category": "amenity:restaurant", "address": "Marktstraße 9, 9344 Weitensfeld im Gurktal", "street": "Marktstraße", "housenumber": "9", "postcode": "9344", "place": "Weitensfeld im Gurktal", "lat": 46.8487177, "lon": 14.1930643, "tags": {"addr:city": "Weitensfeld im Gurktal", "addr:housenumber": "9", "addr:postcode": "9344", "addr:street": "Marktstraße", "amenity": "restaurant", "name": "Bärenwirt", "tourism": "guest_house"}, "content": "Bärenwirt\nKategorie: amenity:restaurant\nAdresse: Marktstraße 9, 9344 Weitensfeld im Gurktal\nOrt: Weitensfeld im Gurktal\nPLZ: 9344\nKoordinaten: 46.848718, 14.193064\nTags: amenity=restaurant", "doc_type": "addresses"}
{"source": "OSM", "region": "Kärnten", "osm_type": "node", "osm_id": 1364260629, "name": "Gurktalerhof", "category": "amenity:restaurant", "address": "Marktplatz 9, 9344 Weitensfeld im Gurktal", "street": "Marktplatz", "housenumber": "9", "postcode": "9344", "place": "Weitensfeld im Gurktal", "lat": 46.8473465, "lon": 14.1938347, "tags": {"addr:city": "Weitensfeld im Gurktal", "addr:housenumber": "9", "addr:postcode": "9344", "addr:street": "Marktplatz", "amenity": "restaurant", "name": "Gurktalerhof"}, "content": "Gurktalerhof\nKategorie: amenity:restaurant\nAdresse: Marktplatz 9, 9344 Weitensfeld im Gurktal\nOrt: Weitensfeld im Gurktal\nPLZ: 9344\nKoordinaten: 46.847347, 14.193835\nTags: amenity=restaurant", "doc_type": "addresses"}
{"source": "OSM", "region": "Kärnten", "osm_type": "node", "osm_id": 1988849525, "name": "Autohaus Steinwender", "category": "shop:car", "address": "66, 9345 Weitensfeld im Gurktal", "street": null, "housenumber": "66", "postcode": "9345", "place": "Weitensfeld im Gurktal", "lat": 46.8504586, "lon": 14.167063, "tags": {"addr:city": "Weitensfeld im Gurktal", "addr:housenumber": "66", "addr:place": "Kaindorf", "addr:postcode": "9345", "brand": "Renault", "name": "Autohaus Steinwender", "shop": "car", "website": "https://www.auto-steinwender.at/"}, "content": "Autohaus Steinwender\nKategorie: shop:car\nAdresse: 66, 9345 Weitensfeld im Gurktal\nOrt: Weitensfeld im Gurktal\nPLZ: 9345\nKoordinaten: 46.850459, 14.167063\nTags: shop=car, brand=Renault, website=https://www.auto-steinwender.at/", "doc_type": "addresses"}
{"source": "OSM", "region": "Kärnten", "osm_type": "node", "osm_id": 1988852228, "name": "Autohaus Steinwender", "category": "shop:car_repair", "address": "66, 9345 Weitensfeld im Gurktal", "street": null, "housenumber": "66", "postcode": "9345", "place": "Weitensfeld im Gurktal", "lat": 46.8503742, "lon": 14.1671381, "tags": {"addr:city": "Weitensfeld im Gurktal", "addr:housenumber": "66", "addr:place": "Kaindorf", "addr:postcode": "9345", "name": "Autohaus Steinwender", "shop": "car_repair"}, "content": "Autohaus Steinwender\nKategorie: shop:car_repair\nAdresse: 66, 9345 Weitensfeld im Gurktal\nOrt: Weitensfeld im Gurktal\nPLZ: 9345\nKoordinaten: 46.850374, 14.167138\nTags: shop=car_repair", "doc_type": "addresses"}
{"source": "OSM", "region": "Kärnten", "osm_type": "node", "osm_id": 2402877965, "name": "Buschenschank Hanebauer", "category": "amenity:restaurant", "address": "9, 9344 Weitensfeld im Gurktal", "street": null, "housenumber": "9", "postcode": "9344", "place": "Weitensfeld im Gurktal", "lat": 46.8151563, "lon": 14.1596927, "tags": {"addr:city": "Weitensfeld im Gurktal", "addr:housenumber": "9", "addr:place": "Edling", "addr:postcode": "9344", "amenity": "restaurant", "name": "Buschenschank Hanebauer"}, "content": "Buschenschank Hanebauer\nKategorie: amenity:restaurant\nAdresse: 9, 9344 Weitensfeld im Gurktal\nOrt: Weitensfeld im Gurktal\nPLZ: 9344\nKoordinaten: 46.815156, 14.159693\nTags: amenity=restaurant", "doc_type": "addresses"}
{"source": "OSM", "region": "Kärnten", "osm_type": "node", "osm_id": 2505684989, "name": "Saloon Weitensfeld", "category": "amenity:bar", "address": "Marktplatz 14, 9344 Weitensfeld im Gurktal", "street": "Marktplatz", "housenumber": "14", "postcode": "9344", "place": "Weitensfeld im Gurktal", "lat": 46.8471778, "lon": 14.1933422, "tags": {"addr:city": "Weitensfeld im Gurktal", "addr:housenumber": "14", "addr:postcode": "9344", "addr:street": "Marktplatz", "amenity": "bar", "name": "Saloon Weitensfeld"}, "content": "Saloon Weitensfeld\nKategorie: amenity:bar\nAdresse: Marktplatz 14, 9344 Weitensfeld im Gurktal\nOrt: Weitensfeld im Gurktal\nPLZ: 9344\nKoordinaten: 46.847178, 14.193342\nTags: amenity=bar", "doc_type": "addresses"}
{"source": "OSM", "region": "Kärnten", "osm_type": "node", "osm_id": 2741889053, "name": "Kreuzwirt", "category": "amenity:restaurant", "address": "1, 9344 Weitensfeld im Gurktal", "street": null, "housenumber": "1", "postcode": "9344", "place": "Weitensfeld im Gurktal", "lat": 46.8294766, "lon": 14.1644199, "tags": {"addr:city": "Weitensfeld im Gurktal", "addr:housenumber": "1", "addr:place": "Kötschendorf", "addr:postcode": "9344", "amenity": "restaurant", "name": "Kreuzwirt"}, "content": "Kreuzwirt\nKategorie: amenity:restaurant\nAdresse: 1, 9344 Weitensfeld im Gurktal\nOrt: Weitensfeld im Gurktal\nPLZ: 9344\nKoordinaten: 46.829477, 14.164420\nTags: amenity=restaurant", "doc_type": "addresses"}
{"source": "OSM", "region": "Kärnten", "osm_type": "node", "osm_id": 3135274357, "name": null, "category": null, "address": "19, 9344 Weitensfeld im Gurktal", "street": null, "housenumber": "19", "postcode": "9344", "place": "Weitensfeld im Gurktal", "lat": 46.8317191, "lon": 14.1676962, "tags": {"addr:city": "Weitensfeld im Gurktal", "addr:housenumber": "19", "addr:place": "Dolz", "addr:postcode": "9344"}, "content": "Adresse: 19, 9344 Weitensfeld im Gurktal\nOrt: Weitensfeld im Gurktal\nPLZ: 9344\nKoordinaten: 46.831719, 14.167696", "doc_type": "addresses"}
{"source": "OSM", "region": "Kärnten", "osm_type": "node", "osm_id": 5131695558, "name": "Polizeiinspektion Weitensfeld", "category": "amenity:police", "address": "Marktstraße 7, 9344 Weitensfeld im Gurktal", "street": "Marktstraße", "housenumber": "7", "postcode": "9344", "place": "Weitensfeld im Gurktal", "lat": 46.8485051, "lon": 14.1931196, "tags": {"addr:city": "Weitensfeld im Gurktal", "addr:housenumber": "7", "addr:postcode": "9344", "addr:street": "Marktstraße", "amenity": "police", "name": "Polizeiinspektion Weitensfeld", "phone": "+43 59133 2131100"}, "content": "Polizeiinspektion Weitensfeld\nKategorie: amenity:police\nAdresse: Marktstraße 7, 9344 Weitensfeld im Gurktal\nOrt: Weitensfeld im Gurktal\nPLZ: 9344\nKoordinaten: 46.848505, 14.193120\nTags: amenity=police, phone=+43 59133 2131100", "doc_type": "addresses"}
{"source": "OSM", "region": "Kärnten", "osm_type": "node", "osm_id": 5416452479, "name": null, "category": null, "address": "1, 9343 Weitensfeld im Gurktal", "street": null, "housenumber": "1", "postcode": "9343", "place": "Weitensfeld im Gurktal", "lat": 46.8585734, "lon": 14.2206645, "tags": {"addr:city": "Weitensfeld im Gurktal", "addr:housenumber": "1", "addr:place": "Aich", "addr:postcode": "9343"}, "content": "Adresse: 1, 9343 Weitensfeld im Gurktal\nOrt: Weitensfeld im Gurktal\nPLZ: 9343\nKoordinaten: 46.858573, 14.220664", "doc_type": "addresses"}
{"source": "OSM", "region": "Kärnten", "osm_type": "node", "osm_id": 5416452663, "name": null, "category": null, "address": "15, 9344 Weitensfeld im Gurktal", "street": null, "housenumber": "15", "postcode": "9344", "place": "Weitensfeld im Gurktal", "lat": 46.823193, "lon": 14.1593224, "tags": {"addr:city": "Weitensfeld im Gurktal", "addr:housenumber": "15", "addr:place": "Kötschendorf", "addr:postcode": "9344"}, "content": "Adresse: 15, 9344 Weitensfeld im Gurktal\nOrt: Weitensfeld im Gurktal\nPLZ: 9344\nKoordinaten: 46.823193, 14.159322", "doc_type": "addresses"}
{"source": "OSM", "region": "Kärnten", "osm_type": "node", "osm_id": 5416453093, "name": null, "category": null, "address": "29, 9344 Weitensfeld im Gurktal", "street": null, "housenumber": "29", "postcode": "9344", "place": "Weitensfeld im Gurktal", "lat": 46.8534982, "lon": 14.2072186, "tags": {"addr:city": "Weitensfeld im Gurktal", "addr:housenumber": "29", "addr:place": "Hafendorf", "addr:postcode": "9344"}, "content": "Adresse: 29, 9344 Weitensfeld im Gurktal\nOrt: Weitensfeld im Gurktal\nPLZ: 9344\nKoordinaten: 46.853498, 14.207219", "doc_type": "addresses"}
{"source": "OSM", "region": "Kärnten", "osm_type": "node", "osm_id": 5416453094, "name": null, "category": null, "address": "24, 9344 Weitensfeld im Gurktal", "street": null, "housenumber": "24", "postcode": "9344", "place": "Weitensfeld im Gurktal", "lat": 46.8534798, "lon": 14.2065802, "tags": {"addr:city": "Weitensfeld im Gurktal", "addr:housenumber": "24", "addr:place": "Hafendorf", "addr:postcode": "9344"}, "content": "Adresse: 24, 9344 Weitensfeld im Gurktal\nOrt: Weitensfeld im Gurktal\nPLZ: 9344\nKoordinaten: 46.853480, 14.206580", "doc_type": "addresses"}
{"source": "OSM", "region": "Kärnten", "osm_type": "node", "osm_id": 5416453095, "name": null, "category": null, "address": "Marktplatz 4, 9344 Weitensfeld im Gurktal", "street": "Marktplatz", "housenumber": "4", "postcode": "9344", "place": "Weitensfeld im Gurktal", "lat": 46.8476979, "lon": 14.193255, "tags": {"addr:city": "Weitensfeld im Gurktal", "addr:housenumber": "4", "addr:postcode": "9344", "addr:street": "Marktplatz"}, "content": "Adresse: Marktplatz 4, 9344 Weitensfeld im Gurktal\nOrt: Weitensfeld im Gurktal\nPLZ: 9344\nKoordinaten: 46.847698, 14.193255", "doc_type": "addresses"}
{"source": "OSM", "region": "Kärnten", "osm_type": "node", "osm_id": 5416453096, "name": null, "category": null, "address": "Kirchgasse 15, 9344 Weitensfeld im Gurktal", "street": "Kirchgasse", "housenumber": "15", "postcode": "9344", "place": "Weitensfeld im Gurktal", "lat": 46.8492407, "lon": 14.1892505, "tags": {"addr:city": "Weitensfeld im Gurktal", "addr:housenumber": "15", "addr:postcode": "9344", "addr:street": "Kirchgasse"}, "content": "Adresse: Kirchgasse 15, 9344 Weitensfeld im Gurktal\nOrt: Weitensfeld im Gurktal\nPLZ: 9344\nKoordinaten: 46.849241, 14.189250", "doc_type": "addresses"}
{"source": "OSM", "region": "Kärnten", "osm_type": "node", "osm_id": 5416453105, "name": null, "category": null, "address": "34b, 9344 Weitensfeld im Gurktal", "street": null, "housenumber": "34b", "postcode": "9344", "place": "Weitensfeld im Gurktal", "lat": 46.850422, "lon": 14.1994455, "tags": {"addr:city": "Weitensfeld im Gurktal", "addr:housenumber": "34b", "addr:place": "Hafendorf", "addr:postcode": "9344"}, "content": "Adresse: 34b, 9344 Weitensfeld im Gurktal\nOrt: Weitensfeld im Gurktal\nPLZ: 9344\nKoordinaten: 46.850422, 14.199445", "doc_type": "addresses"}
{"source": "OSM", "region": "Kärnten", "osm_type": "node", "osm_id": 5416453106, "name": null, "category": null, "address": "34a, 9344 Weitensfeld im Gurktal", "street": null, "housenumber": "34a", "postcode": "9344", "place": "Weitensfeld im Gurktal", "lat": 46.8504183, "lon": 14.1996333, "tags": {"addr:city": "Weitensfeld im Gurktal", "addr:housenumber": "34a", "addr:place": "Hafendorf", "addr:postcode": "9344"}, "content": "Adresse: 34a, 9344 Weitensfeld im Gurktal\nOrt: Weitensfeld im Gurktal\nPLZ: 9344\nKoordinaten: 46.850418, 14.199633", "doc_type": "addresses"}
{"source": "OSM", "region": "Kärnten", "osm_type": "node", "osm_id": 5416453111, "name": null, "category": null, "address": "Gurktal-Straße 6, 9344 Weitensfeld im Gurktal", "street": "Gurktal-Straße", "housenumber": "6", "postcode": "9344", "place": "Weitensfeld im Gurktal", "lat": 46.8497818, "lon": 14.1917878, "tags": {"addr:city": "Weitensfeld im Gurktal", "addr:housenumber": "6", "addr:postcode": "9344", "addr:street": "Gurktal-Straße"}, "content": "Adresse: Gurktal-Straße 6, 9344 Weitensfeld im Gurktal\nOrt: Weitensfeld im Gurktal\nPLZ: 9344\nKoordinaten: 46.849782, 14.191788", "doc_type": "addresses"}
{"source": "OSM", "region": "Kärnten", "osm_type": "node", "osm_id": 5416453112, "name": null, "category": null, "address": "Oberer Platz 7, 9344 Weitensfeld im Gurktal", "street": "Oberer Platz", "housenumber": "7", "postcode": "9344", "place": "Weitensfeld im Gurktal", "lat": 46.8492535, "lon": 14.1912675, "tags": {"addr:city": "Weitensfeld im Gurktal", "addr:housenumber": "7", "addr:postcode": "9344", "addr:street": "Oberer Platz"}, "content": "Adresse: Oberer Platz 7, 9344 Weitensfeld im Gurktal\nOrt: Weitensfeld im Gurktal\nPLZ: 9344\nKoordinaten: 46.849254, 14.191268", "doc_type": "addresses"}
{"source": "OSM", "region": "Kärnten", "osm_type": "node", "osm_id": 5416453113, "name": null, "category": null, "address": "Oberer Platz 9, 9344 Weitensfeld im Gurktal", "street": "Oberer Platz", "housenumber": "9", "postcode": "9344", "place": "Weitensfeld im Gurktal", "lat": 46.8491911, "lon": 14.1910368, "tags": {"addr:city": "Weitensfeld im Gurktal", "addr:housenumber": "9", "addr:postcode": "9344", "addr:street": "Oberer Platz"}, "content": "Adresse: Oberer Platz 9, 9344 Weitensfeld im Gurktal\nOrt: Weitensfeld im Gurktal\nPLZ: 9344\nKoordinaten: 46.849191, 14.191037", "doc_type": "addresses"}
{"source": "OSM", "region": "Kärnten", "osm_type": "node", "osm_id": 5416453114, "name": null, "category": null, "address": "Marktstraße 2, 9344 Weitensfeld im Gurktal", "street": "Marktstraße", "housenumber": "2", "postcode": "9344", "place": "Weitensfeld im Gurktal", "lat": 46.8482666, "lon": 14.1940275, "tags": {"addr:city": "Weitensfeld im Gurktal", "addr:housenumber": "2", "addr:postcode": "9344", "addr:street": "Marktstraße"}, "content": "Adresse: Marktstraße 2, 9344 Weitensfeld im Gurktal\nOrt: Weitensfeld im Gurktal\nPLZ: 9344\nKoordinaten: 46.848267, 14.194028", "doc_type": "addresses"}
{"source": "OSM", "region": "Kärnten", "osm_type": "node", "osm_id": 5416453115, "name": null, "category": null, "address": "Marktstraße 6, 9344 Weitensfeld im Gurktal", "street": "Marktstraße", "housenumber": "6", "postcode": "9344", "place": "Weitensfeld im Gurktal", "lat": 46.8484757, "lon": 14.1939872, "tags": {"addr:city": "Weitensfeld im Gurktal", "addr:housenumber": "6", "addr:postcode": "9344", "addr:street": "Marktstraße"}, "content": "Adresse: Marktstraße 6, 9344 Weitensfeld im Gurktal\nOrt: Weitensfeld im Gurktal\nPLZ: 9344\nKoordinaten: 46.848476, 14.193987", "doc_type": "addresses"}
{"source": "OSM", "region": "Kärnten", "osm_type": "node", "osm_id": 5416453116, "name": null, "category": null, "address": "Marktstraße 8, 9344 Weitensfeld im Gurktal", "street": "Marktstraße", "housenumber": "8", "postcode": "9344", "place": "Weitensfeld im Gurktal", "lat": 46.8487032, "lon": 14.1939309, "tags": {"addr:city": "Weitensfeld im Gurktal", "addr:housenumber": "8", "addr:postcode": "9344", "addr:street": "Marktstraße"}, "content": "Adresse: Marktstraße 8, 9344 Weitensfeld im Gurktal\nOrt: Weitensfeld im Gurktal\nPLZ: 9344\nKoordinaten: 46.848703, 14.193931", "doc_type": "addresses"}
{"source": "OSM", "region": "Kärnten", "osm_type": "node", "osm_id": 5416453117, "name": null, "category": null, "address": "Marktstraße 10, 9344 Weitensfeld im Gurktal", "street": "Marktstraße", "housenumber": "10", "postcode": "9344", "place": "Weitensfeld im Gurktal", "lat": 46.8488536, "lon": 14.1932912, "tags": {"addr:city": "Weitensfeld im Gurktal", "addr:housenumber": "10", "addr:postcode": "9344", "addr:street": "Marktstraße"}, "content": "Adresse: Marktstraße 10, 9344 Weitensfeld im Gurktal\nOrt: Weitensfeld im Gurktal\nPLZ: 9344\nKoordinaten: 46.848854, 14.193291", "doc_type": "addresses"}
{"source": "OSM", "region": "Kärnten", "osm_type": "node", "osm_id": 5416453118, "name": null, "category": null, "address": "Marktstraße 13, 9344 Weitensfeld im Gurktal", "street": "Marktstraße", "housenumber": "13", "postcode": "9344", "place": "Weitensfeld im Gurktal", "lat": 46.8489866, "lon": 14.1930377, "tags": {"addr:city": "Weitensfeld im Gurktal", "addr:housenumber": "13", "addr:postcode": "9344", "addr:street": "Marktstraße"}, "content": "Adresse: Marktstraße 13, 9344 Weitensfeld im Gurktal\nOrt: Weitensfeld im Gurktal\nPLZ: 9344\nKoordinaten: 46.848987, 14.193038", "doc_type": "addresses"}
{"source": "OSM", "region": "Kärnten", "osm_type": "node", "osm_id": 5416453119, "name": null, "category": null, "address": "Marktstraße 17, 9344 Weitensfeld im Gurktal", "street": "Marktstraße", "housenumber": "17", "postcode": "9344", "place": "Weitensfeld im Gurktal", "lat": 46.8492095, "lon": 14.1929385, "tags": {"addr:city": "Weitensfeld im Gurktal", "addr:housenumber": "17", "addr:postcode": "9344", "addr:street": "Marktstraße"}, "content": "Adresse: Marktstraße 17, 9344 Weitensfeld im Gurktal\nOrt: Weitensfeld im Gurktal\nPLZ: 9344\nKoordinaten: 46.849210, 14.192939", "doc_type": "addresses"}
{"source": "OSM", "region": "Kärnten", "osm_type": "node", "osm_id": 5416453120, "name": null, "category": null, "address": "Marktstraße 15, 9344 Weitensfeld im Gurktal", "street": "Marktstraße", "housenumber": "15", "postcode": "9344", "place": "Weitensfeld im Gurktal", "lat": 46.8491049, "lon": 14.1929935, "tags": {"addr:city": "Weitensfeld im Gurktal", "addr:housenumber": "15", "addr:postcode": "9344", "addr:street": "Marktstraße"}, "content": "Adresse: Marktstraße 15, 9344 Weitensfeld im Gurktal\nOrt: Weitensfeld im Gurktal\nPLZ: 9344\nKoordinaten: 46.849105, 14.192994", "doc_type": "addresses"}
{"source": "OSM", "region": "Kärnten", "osm_type": "node", "osm_id": 5416453121, "name": "Stocklauser", "category": "shop:bakery", "address": "Marktstraße 12, 9344 Weitensfeld im Gurktal", "street": "Marktstraße", "housenumber": "12", "postcode": "9344", "place": "Weitensfeld im Gurktal", "lat": 46.8491627, "lon": 14.1932362, "tags": {"addr:city": "Weitensfeld im Gurktal", "addr:housenumber": "12", "addr:postcode": "9344", "addr:street": "Marktstraße", "name": "Stocklauser", "phone": "+434265227", "shop": "bakery", "website": "https://www.stocklauser.at/"}, "content": "Stocklauser\nKategorie: shop:bakery\nAdresse: Marktstraße 12, 9344 Weitensfeld im Gurktal\nOrt: Weitensfeld im Gurktal\nPLZ: 9344\nKoordinaten: 46.849163, 14.193236\nTags: shop=bakery, phone=+434265227, website=https://www.stocklauser.at/", "doc_type": "addresses"}
{"source": "OSM", "region": "Kärnten", "osm_type": "node", "osm_id": 5416453122, "name": null, "category": null, "address": "Marktstraße 14, 9344 Weitensfeld im Gurktal", "street": "Marktstraße", "housenumber": "14", "postcode": "9344", "place": "Weitensfeld im Gurktal", "lat": 46.8493709, "lon": 14.1931772, "tags": {"addr:city": "Weitensfeld im Gurktal", "addr:housenumber": "14", "addr:postcode": "9344", "addr:street": "Marktstraße"}, "content": "Adresse: Marktstraße 14, 9344 Weitensfeld im Gurktal\nOrt: Weitensfeld im Gurktal\nPLZ: 9344\nKoordinaten: 46.849371, 14.193177", "doc_type": "addresses"}
{"source": "OSM", "region": "Kärnten", "osm_type": "node", "osm_id": 5416453123, "name": null, "category": null, "address": "Marktstraße 1, 9344 Weitensfeld im Gurktal", "street": "Marktstraße", "housenumber": "1", "postcode": "9344", "place": "Weitensfeld im Gurktal", "lat": 46.8480483, "lon": 14.1931343, "tags": {"addr:city": "Weitensfeld im Gurktal", "addr:housenumber": "1", "addr:postcode": "9344", "addr:street": "Marktstraße"}, "content": "Adresse: Marktstraße 1, 9344 Weitensfeld im Gurktal\nOrt: Weitensfeld im Gurktal\nPLZ: 9344\nKoordinaten: 46.848048, 14.193134", "doc_type": "addresses"}
{"source": "OSM", "region": "Kärnten", "osm_type": "node", "osm_id": 5416453124, "name": null, "category": null, "address": "Marktstraße 3, 9344 Weitensfeld im Gurktal", "street": "Marktstraße", "housenumber": "3", "postcode": "9344", "place": "Weitensfeld im Gurktal", "lat": 46.8481822, "lon": 14.193137, "tags": {"addr:city": "Weitensfeld im Gurktal", "addr:housenumber": "3", "addr:postcode": "9344", "addr:street": "Marktstraße"}, "content": "Adresse: Marktstraße 3, 9344 Weitensfeld im Gurktal\nOrt: Weitensfeld im Gurktal\nPLZ: 9344\nKoordinaten: 46.848182, 14.193137", "doc_type": "addresses"}
{"source": "OSM", "region": "Kärnten", "osm_type": "node", "osm_id": 5416453125, "name": null, "category": null, "address": "Marktplatz 18, 9344 Weitensfeld im Gurktal", "street": "Marktplatz", "housenumber": "18", "postcode": "9344", "place": "Weitensfeld im Gurktal", "lat": 46.8469476, "lon": 14.1927105, "tags": {"addr:city": "Weitensfeld im Gurktal", "addr:housenumber": "18", "addr:postcode": "9344", "addr:street": "Marktplatz"}, "content": "Adresse: Marktplatz 18, 9344 Weitensfeld im Gurktal\nOrt: Weitensfeld im Gurktal\nPLZ: 9344\nKoordinaten: 46.846948, 14.192711", "doc_type": "addresses"}
{"source": "OSM", "region": "Kärnten", "osm_type": "node", "osm_id": 5416453126, "name": null, "category": null, "address": "Marktplatz 7, 9344 Weitensfeld im Gurktal", "street": "Marktplatz", "housenumber": "7", "postcode": "9344", "place": "Weitensfeld im Gurktal", "lat": 46.8475484, "lon": 14.1942836, "tags": {"addr:city": "Weitensfeld im Gurktal", "addr:housenumber": "7", "addr:postcode": "9344", "addr:street": "Marktplatz"}, "content": "Adresse: Marktplatz 7, 9344 Weitensfeld im Gurktal\nOrt: Weitensfeld im Gurktal\nPLZ: 9344\nKoordinaten: 46.847548, 14.194284", "doc_type": "addresses"}
{"source": "OSM", "region": "Kärnten", "osm_type": "node", "osm_id": 5416453127, "name": null, "category": null, "address": "Marktplatz 5, 9344 Weitensfeld im Gurktal", "street": "Marktplatz", "housenumber": "5", "postcode": "9344", "place": "Weitensfeld im Gurktal", "lat": 46.8478428, "lon": 14.1941562, "tags": {"addr:city": "Weitensfeld im Gurktal", "addr:housenumber": "5", "addr:postcode": "9344", "addr:street": "Marktplatz"}, "content": "Adresse: Marktplatz 5, 9344 Weitensfeld im Gurktal\nOrt: Weitensfeld im Gurktal\nPLZ: 9344\nKoordinaten: 46.847843, 14.194156", "doc_type": "addresses"}
{"source": "OSM", "region": "Kärnten", "osm_type": "node", "osm_id": 5416453128, "name": null, "category": null, "address": "Marktplatz 16, 9344 Weitensfeld im Gurktal", "street": "Marktplatz", "housenumber": "16", "postcode": "9344", "place": "Weitensfeld im Gurktal", "lat": 46.8469953, "lon": 14.1933247, "tags": {"addr:city": "Weitensfeld im Gurktal", "addr:housenumber": "16", "addr:postcode": "9344", "addr:street": "Marktplatz"}, "content": "Adresse: Marktplatz 16, 9344 Weitensfeld im Gurktal\nOrt: Weitensfeld im Gurktal\nPLZ: 9344\nKoordinaten: 46.846995, 14.193325", "doc_type": "addresses"}
{"source": "OSM", "region": "Kärnten", "osm_type": "node", "osm_id": 5416453129, "name": null, "category": null, "address": "Marktplatz 20, 9344 Weitensfeld im Gurktal", "street": "Marktplatz", "housenumber": "20", "postcode": "9344", "place": "Weitensfeld im Gurktal", "lat": 46.8467898, "lon": 14.1933033, "tags": {"addr:city": "Weitensfeld im Gurktal", "addr:housenumber": "20", "addr:postcode": "9344", "addr:street": "Marktplatz"}, "content": "Adresse: Marktplatz 20, 9344 Weitensfeld im Gurktal\nOrt: Weitensfeld im Gurktal\nPLZ: 9344\nKoordinaten: 46.846790, 14.193303", "doc_type": "addresses"}
{"source": "OSM", "region": "Kärnten", "osm_type": "node", "osm_id": 5416453130, "name": null, "category": null, "address": "Zammelsbergstraße 2, 9344 Weitensfeld im Gurktal", "street": "Zammelsbergstraße", "housenumber": "2", "postcode": "9344", "place": "Weitensfeld im Gurktal", "lat": 46.8455919, "lon": 14.1916564, "tags": {"addr:city": "Weitensfeld im Gurktal", "addr:housenumber": "2", "addr:postcode": "9344", "addr:street": "Zammelsbergstraße"}, "content": "Adresse: Zammelsbergstraße 2, 9344 Weitensfeld im Gurktal\nOrt: Weitensfeld im Gurktal\nPLZ: 9344\nKoordinaten: 46.845592, 14.191656", "doc_type": "addresses"}
{"source": "OSM", "region": "Kärnten", "osm_type": "node", "osm_id": 5416453131, "name": null, "category": null, "address": "Harderweg 1, 9344 Weitensfeld im Gurktal", "street": "Harderweg", "housenumber": "1", "postcode": "9344", "place": "Weitensfeld im Gurktal", "lat": 46.8456873, "lon": 14.1913962, "tags": {"addr:city": "Weitensfeld im Gurktal", "addr:housenumber": "1", "addr:postcode": "9344", "addr:street": "Harderweg"}, "content": "Adresse: Harderweg 1, 9344 Weitensfeld im Gurktal\nOrt: Weitensfeld im Gurktal\nPLZ: 9344\nKoordinaten: 46.845687, 14.191396", "doc_type": "addresses"}
{"source": "OSM", "region": "Kärnten", "osm_type": "node", "osm_id": 5416453132, "name": null, "category": null, "address": "Hauptschulstraße 14, 9344 Weitensfeld im Gurktal", "street": "Hauptschulstraße", "housenumber": "14", "postcode": "9344", "place": "Weitensfeld im Gurktal", "lat": 46.8462239, "lon": 14.1970074, "tags": {"addr:city": "Weitensfeld im Gurktal", "addr:housenumber": "14", "addr:postcode": "9344", "addr:street": "Hauptschulstraße"}, "content": "Adresse: Hauptschulstraße 14, 9344 Weitensfeld im Gurktal\nOrt: Weitensfeld im Gurktal\nPLZ: 9344\nKoordinaten: 46.846224, 14.197007", "doc_type": "addresses"}
{"source": "OSM", "region": "Kärnten", "osm_type": "node", "osm_id": 5416453133, "name": null, "category": null, "address": "Sportplatzgasse 3, 9344 Weitensfeld im Gurktal", "street": "Sportplatzgasse", "housenumber": "3", "postcode": "9344", "place": "Weitensfeld im Gurktal", "lat": 46.8461285, "lon": 14.1975707, "tags": {"addr:city": "Weitensfeld im Gurktal", "addr:housenumber": "3", "addr:postcode": "9344", "addr:street": "Sportplatzgasse"}, "content": "Adresse: Sportplatzgasse 3, 9344 Weitensfeld im Gurktal\nOrt: Weitensfeld im Gurktal\nPLZ: 9344\nKoordinaten: 46.846128, 14.197571", "doc_type": "addresses"}
{"source": "OSM", "region": "Kärnten", "osm_type": "node", "osm_id": 5416453134, "name": null, "category": null, "address": "Sportplatzgasse 1, 9344 Weitensfeld im Gurktal", "street": "Sportplatzgasse", "housenumber": "1", "postcode": "9344", "place": "Weitensfeld im Gurktal", "lat": 46.8462156, "lon": 14.1975707, "tags": {"addr:city": "Weitensfeld im Gurktal", "addr:housenumber": "1", "addr:postcode": "9344", "addr:street": "Sportplatzgasse"}, "content": "Adresse: Sportplatzgasse 1, 9344 Weitensfeld im Gurktal\nOrt: Weitensfeld im Gurktal\nPLZ: 9344\nKoordinaten: 46.846216, 14.197571", "doc_type": "addresses"}
{"source": "OSM", "region": "Kärnten", "osm_type": "node", "osm_id": 5416453135, "name": null, "category": null, "address": "Stadlweg 3, 9344 Weitensfeld im Gurktal", "street": "Stadlweg", "housenumber": "3", "postcode": "9344", "place": "Weitensfeld im Gurktal", "lat": 46.8472796, "lon": 14.1950092, "tags": {"addr:city": "Weitensfeld im Gurktal", "addr:housenumber": "3", "addr:postcode": "9344", "addr:street": "Stadlweg"}, "content": "Adresse: Stadlweg 3, 9344 Weitensfeld im Gurktal\nOrt: Weitensfeld im Gurktal\nPLZ: 9344\nKoordinaten: 46.847280, 14.195009", "doc_type": "addresses"}
{"source": "OSM", "region": "Kärnten", "osm_type": "node", "osm_id": 5416453142, "name": null, "category": null, "address": "Magdalenenstraße 3, 9344 Weitensfeld im Gurktal", "street": "Magdalenenstraße", "housenumber": "3", "postcode": "9344", "place": "Weitensfeld im Gurktal", "lat": 46.8457203, "lon": 14.2003816, "tags": {"addr:city": "Weitensfeld im Gurktal", "addr:housenumber": "3", "addr:postcode": "9344", "addr:street": "Magdalenenstraße"}, "content": "Adresse: Magdalenenstraße 3, 9344 Weitensfeld im Gurktal\nOrt: Weitensfeld im Gurktal\nPLZ: 9344\nKoordinaten: 46.845720, 14.200382", "doc_type": "addresses"}
{"source": "OSM", "region": "Kärnten", "osm_type": "node", "osm_id": 5416453143, "name": null, "category": null, "address": "Magdalenenstraße 1, 9344 Weitensfeld im Gurktal", "street": "Magdalenenstraße", "housenumber": "1", "postcode": "9344", "place": "Weitensfeld im Gurktal", "lat": 46.846045, "lon": 14.2003816, "tags": {"addr:city": "Weitensfeld im Gurktal", "addr:housenumber": "1", "addr:postcode": "9344", "addr:street": "Magdalenenstraße"}, "content": "Adresse: Magdalenenstraße 1, 9344 Weitensfeld im Gurktal\nOrt: Weitensfeld im Gurktal\nPLZ: 9344\nKoordinaten: 46.846045, 14.200382", "doc_type": "addresses"}
{"source": "OSM", "region": "Kärnten", "osm_type": "node", "osm_id": 5416453144, "name": null, "category": null, "address": "Magdalenenstraße 17, 9344 Weitensfeld im Gurktal", "street": "Magdalenenstraße", "housenumber": "17", "postcode": "9344", "place": "Weitensfeld im Gurktal", "lat": 46.8437591, "lon": 14.2007357, "tags": {"addr:city": "Weitensfeld im Gurktal", "addr:housenumber": "17", "addr:postcode": "9344", "addr:street": "Magdalenenstraße"}, "content": "Adresse: Magdalenenstraße 17, 9344 Weitensfeld im Gurktal\nOrt: Weitensfeld im Gurktal\nPLZ: 9344\nKoordinaten: 46.843759, 14.200736", "doc_type": "addresses"}
{"source": "OSM", "region": "Kärnten", "osm_type": "node", "osm_id": 5416453146, "name": null, "category": null, "address": "Magdalenenstraße 25, 9344 Weitensfeld im Gurktal", "street": "Magdalenenstraße", "housenumber": "25", "postcode": "9344", "place": "Weitensfeld im Gurktal", "lat": 46.8428345, "lon": 14.2004487, "tags": {"addr:city": "Weitensfeld im Gurktal", "addr:housenumber": "25", "addr:postcode": "9344", "addr:street": "Magdalenenstraße"}, "content": "Adresse: Magdalenenstraße 25, 9344 Weitensfeld im Gurktal\nOrt: Weitensfeld im Gurktal\nPLZ: 9344\nKoordinaten: 46.842835, 14.200449", "doc_type": "addresses"}
{"source": "OSM", "region": "Kärnten", "osm_type": "node", "osm_id": 5416453373, "name": null, "category": null, "address": "9, 9344 Weitensfeld im Gurktal", "street": null, "housenumber": "9", "postcode": "9344", "place": "Weitensfeld im Gurktal", "lat": 46.813006, "lon": 14.1794872, "tags": {"addr:city": "Weitensfeld im Gurktal", "addr:housenumber": "9", "addr:place": "Planitz", "addr:postcode": "9344"}, "content": "Adresse: 9, 9344 Weitensfeld im Gurktal\nOrt: Weitensfeld im Gurktal\nPLZ: 9344\nKoordinaten: 46.813006, 14.179487", "doc_type": "addresses"}
{"source": "OSM", "region": "Kärnten", "osm_type": "node", "osm_id": 1364260625, "name": "Bärenwirt", "category": "amenity:restaurant", "address": "Marktstraße 9, 9344 Weitensfeld im Gurktal", "street": "Marktstraße", "housenumber": "9", "postcode": "9344", "place": "Weitensfeld im Gurktal", "lat": 46.8487177, "lon": 14.1930643, "tags": {"addr:city": "Weitensfeld im Gurktal", "addr:housenumber": "9", "addr:postcode": "9344", "addr:street": "Marktstraße", "amenity": "restaurant", "name": "Bärenwirt", "tourism": "guest_house"}, "content": "Bärenwirt\nKategorie: amenity:restaurant\nAdresse: Marktstraße 9, 9344 Weitensfeld im Gurktal\nOrt: Weitensfeld im Gurktal\nPLZ: 9344\nKoordinaten: 46.848718, 14.193064\nTags: amenity=restaurant", "doc_type": "pois"}
{"source": "OSM", "region": "Kärnten", "osm_type": "node", "osm_id": 1364260629, "name": "Gurktalerhof", "category": "amenity:restaurant", "address": "Marktplatz 9, 9344 Weitensfeld im Gurktal", "street": "Marktplatz", "housenumber": "9", "postcode": "9344", "place": "Weitensfeld im Gurktal", "lat": 46.8473465, "lon": 14.1938347, "tags": {"addr:city": "Weitensfeld im Gurktal", "addr:housenumber": "9", "addr:postcode": "9344", "addr:street": "Marktplatz", "amenity": "restaurant", "name": "Gurktalerhof"}, "content": "Gurktalerhof\nKategorie: amenity:restaurant\nAdresse: Marktplatz 9, 9344 Weitensfeld im Gurktal\nOrt: Weitensfeld im Gurktal\nPLZ: 9344\nKoordinaten: 46.847347, 14.193835\nTags: amenity=restaurant", "doc_type": "pois"}
{"source": "OSM", "region": "Kärnten", "osm_type": "node", "osm_id": 1988849525, "name": "Autohaus Steinwender", "category": "shop:car", "address": "66, 9345 Weitensfeld im Gurktal", "street": null, "housenumber": "66", "postcode": "9345", "place": "Weitensfeld im Gurktal", "lat": 46.8504586, "lon": 14.167063, "tags": {"addr:city": "Weitensfeld im Gurktal", "addr:housenumber": "66", "addr:place": "Kaindorf", "addr:postcode": "9345", "brand": "Renault", "name": "Autohaus Steinwender", "shop": "car", "website": "https://www.auto-steinwender.at/"}, "content": "Autohaus Steinwender\nKategorie: shop:car\nAdresse: 66, 9345 Weitensfeld im Gurktal\nOrt: Weitensfeld im Gurktal\nPLZ: 9345\nKoordinaten: 46.850459, 14.167063\nTags: shop=car, brand=Renault, website=https://www.auto-steinwender.at/", "doc_type": "pois"}
{"source": "OSM", "region": "Kärnten", "osm_type": "node", "osm_id": 1988852228, "name": "Autohaus Steinwender", "category": "shop:car_repair", "address": "66, 9345 Weitensfeld im Gurktal", "street": null, "housenumber": "66", "postcode": "9345", "place": "Weitensfeld im Gurktal", "lat": 46.8503742, "lon": 14.1671381, "tags": {"addr:city": "Weitensfeld im Gurktal", "addr:housenumber": "66", "addr:place": "Kaindorf", "addr:postcode": "9345", "name": "Autohaus Steinwender", "shop": "car_repair"}, "content": "Autohaus Steinwender\nKategorie: shop:car_repair\nAdresse: 66, 9345 Weitensfeld im Gurktal\nOrt: Weitensfeld im Gurktal\nPLZ: 9345\nKoordinaten: 46.850374, 14.167138\nTags: shop=car_repair", "doc_type": "pois"}
{"source": "OSM", "region": "Kärnten", "osm_type": "node", "osm_id": 1988866025, "name": "SOCAR", "category": "amenity:fuel", "address": "9344 Weitensfeld im Gurktal", "street": null, "housenumber": null, "postcode": "9344", "place": "Weitensfeld im Gurktal", "lat": 46.8509099, "lon": 14.1675619, "tags": {"addr:city": "Weitensfeld im Gurktal", "addr:postcode": "9344", "amenity": "fuel", "brand": "Socar", "name": "SOCAR"}, "content": "SOCAR\nKategorie: amenity:fuel\nAdresse: 9344 Weitensfeld im Gurktal\nOrt: Weitensfeld im Gurktal\nPLZ: 9344\nKoordinaten: 46.850910, 14.167562\nTags: amenity=fuel, brand=Socar", "doc_type": "pois"}
{"source": "OSM", "region": "Kärnten", "osm_type": "node", "osm_id": 2402877965, "name": "Buschenschank Hanebauer", "category": "amenity:restaurant", "address": "9, 9344 Weitensfeld im Gurktal", "street": null, "housenumber": "9", "postcode": "9344", "place": "Weitensfeld im Gurktal", "lat": 46.8151563, "lon": 14.1596927, "tags": {"addr:city": "Weitensfeld im Gurktal", "addr:housenumber": "9", "addr:place": "Edling", "addr:postcode": "9344", "amenity": "restaurant", "name": "Buschenschank Hanebauer"}, "content": "Buschenschank Hanebauer\nKategorie: amenity:restaurant\nAdresse: 9, 9344 Weitensfeld im Gurktal\nOrt: Weitensfeld im Gurktal\nPLZ: 9344\nKoordinaten: 46.815156, 14.159693\nTags: amenity=restaurant", "doc_type": "pois"}
{"source": "OSM", "region": "Kärnten", "osm_type": "node", "osm_id": 2505684989, "name": "Saloon Weitensfeld", "category": "amenity:bar", "address": "Marktplatz 14, 9344 Weitensfeld im Gurktal", "street": "Marktplatz", "housenumber": "14", "postcode": "9344", "place": "Weitensfeld im Gurktal", "lat": 46.8471778, "lon": 14.1933422, "tags": {"addr:city": "Weitensfeld im Gurktal", "addr:housenumber": "14", "addr:postcode": "9344", "addr:street": "Marktplatz", "amenity": "bar", "name": "Saloon Weitensfeld"}, "content": "Saloon Weitensfeld\nKategorie: amenity:bar\nAdresse: Marktplatz 14, 9344 Weitensfeld im Gurktal\nOrt: Weitensfeld im Gurktal\nPLZ: 9344\nKoordinaten: 46.847178, 14.193342\nTags: amenity=bar", "doc_type": "pois"}
{"source": "OSM", "region": "Kärnten", "osm_type": "node", "osm_id": 2741889053, "name": "Kreuzwirt", "category": "amenity:restaurant", "address": "1, 9344 Weitensfeld im Gurktal", "street": null, "housenumber": "1", "postcode": "9344", "place": "Weitensfeld im Gurktal", "lat": 46.8294766, "lon": 14.1644199, "tags": {"addr:city": "Weitensfeld im Gurktal", "addr:housenumber": "1", "addr:place": "Kötschendorf", "addr:postcode": "9344", "amenity": "restaurant", "name": "Kreuzwirt"}, "content": "Kreuzwirt\nKategorie: amenity:restaurant\nAdresse: 1, 9344 Weitensfeld im Gurktal\nOrt: Weitensfeld im Gurktal\nPLZ: 9344\nKoordinaten: 46.829477, 14.164420\nTags: amenity=restaurant", "doc_type": "pois"}
{"source": "OSM", "region": "Kärnten", "osm_type": "node", "osm_id": 5131695558, "name": "Polizeiinspektion Weitensfeld", "category": "amenity:police", "address": "Marktstraße 7, 9344 Weitensfeld im Gurktal", "street": "Marktstraße", "housenumber": "7", "postcode": "9344", "place": "Weitensfeld im Gurktal", "lat": 46.8485051, "lon": 14.1931196, "tags": {"addr:city": "Weitensfeld im Gurktal", "addr:housenumber": "7", "addr:postcode": "9344", "addr:street": "Marktstraße", "amenity": "police", "name": "Polizeiinspektion Weitensfeld", "phone": "+43 59133 2131100"}, "content": "Polizeiinspektion Weitensfeld\nKategorie: amenity:police\nAdresse: Marktstraße 7, 9344 Weitensfeld im Gurktal\nOrt: Weitensfeld im Gurktal\nPLZ: 9344\nKoordinaten: 46.848505, 14.193120\nTags: amenity=police, phone=+43 59133 2131100", "doc_type": "pois"}
{"source": "OSM", "region": "Kärnten", "osm_type": "node", "osm_id": 5416453121, "name": "Stocklauser", "category": "shop:bakery", "address": "Marktstraße 12, 9344 Weitensfeld im Gurktal", "street": "Marktstraße", "housenumber": "12", "postcode": "9344", "place": "Weitensfeld im Gurktal", "lat": 46.8491627, "lon": 14.1932362, "tags": {"addr:city": "Weitensfeld im Gurktal", "addr:housenumber": "12", "addr:postcode": "9344", "addr:street": "Marktstraße", "name": "Stocklauser", "phone": "+434265227", "shop": "bakery", "website": "https://www.stocklauser.at/"}, "content": "Stocklauser\nKategorie: shop:bakery\nAdresse: Marktstraße 12, 9344 Weitensfeld im Gurktal\nOrt: Weitensfeld im Gurktal\nPLZ: 9344\nKoordinaten: 46.849163, 14.193236\nTags: shop=bakery, phone=+434265227, website=https://www.stocklauser.at/", "doc_type": "pois"}
