{"source": "OSM", "region": "Kärnten", "osm_type": "node", "osm_id": 1650337353, "name": null, "category": null, "address": "51, 9782 Nikolsdorf", "street": null, "housenumber": "51", "postcode": "9782", "place": "Nikolsdorf", "lat": 46.784539, "lon": 12.9103312, "tags": {"addr:city": "Nikolsdorf", "addr:housenumber": "51", "addr:place": "Nikolsdorf", "addr:postcode": "9782"}, "content": "Adresse: 51, 9782 Nikolsdorf\nOrt: Nikolsdorf\nPLZ: 9782\nKoordinaten: 46.784539, 12.910331", "doc_type": "addresses"}
{"source": "OSM", "region": "Kärnten", "osm_type": "node", "osm_id": 1650337355, "name": null, "category": null, "address": "8, 9782 Nikolsdorf", "street": null, "housenumber": "8", "postcode": "9782", "place": "Nikolsdorf", "lat": 46.7829988, "lon": 12.9330083, "tags": {"addr:city": "Nikolsdorf", "addr:housenumber": "8", "addr:place": "Damer", "addr:postcode": "9782"}, "content": "Adresse: 8, 9782 Nikolsdorf\nOrt: Nikolsdorf\nPLZ: 9782\nKoordinaten: 46.782999, 12.933008", "doc_type": "addresses"}
{"source": "OSM", "region": "Kärnten", "osm_type": "node", "osm_id": 1650337357, "name": null, "category": null, "address": "11, 9782 Nikolsdorf", "street": null, "housenumber": "11", "postcode": "9782", "place": "Nikolsdorf", "lat": 46.7855595, "lon": 12.9035724, "tags": {"addr:city": "Nikolsdorf", "addr:housenumber": "11", "addr:place": "Nikolsdorf", "addr:postcode": "9782"}, "content": "Adresse: 11, 9782 Nikolsdorf\nOrt: Nikolsdorf\nPLZ: 9782\nKoordinaten: 46.785559, 12.903572", "doc_type": "addresses"}
{"source": "OSM", "region": "Kärnten", "osm_type": "node", "osm_id": 1650337358, "name": null, "category": null, "address": "19, 9782 Nikolsdorf", "street": null, "housenumber": "19", "postcode": "9782", "place": "Nikolsdorf", "lat": 46.7850021, "lon": 12.9062203, "tags": {"addr:city": "Nikolsdorf", "addr:housenumber": "19", "addr:place": "Nikolsdorf", "addr:postcode": "9782"}, "content": "Adresse: 19, 9782 Nikolsdorf\nOrt: Nikolsdorf\nPLZ: 9782\nKoordinaten: 46.785002, 12.906220", "doc_type": "addresses"}
{"source": "OSM", "region": "Kärnten", "osm_type": "node", "osm_id": 1650337365, "name": null, "category": null, "address": "87, 9782 Nikolsdorf", "street": null, "housenumber": "87", "postcode": "9782", "place": "Nikolsdorf", "lat": 46.7845633, "lon": 12.9139485, "tags": {"addr:city": "Nikolsdorf", "addr:housenumber": "87", "addr:place": "Nikolsdorf", "addr:postcode": "9782"}, "content": "Adresse: 87, 9782 Nikolsdorf\nOrt: Nikolsdorf\nPLZ: 9782\nKoordinaten: 46.784563, 12.913949", "doc_type": "addresses"}
{"source": "OSM", "region": "Kärnten", "osm_type": "node", "osm_id": 1650337372, "name": null, "category": null, "address": "135, 9782 Nikolsdorf", "street": null, "housenumber": "135", "postcode": "9782", "place": "Nikolsdorf", "lat": 46.7855411, "lon": 12.9089483, "tags": {"addr:city": "Nikolsdorf", "addr:housenumber": "135", "addr:place": "Nikolsdorf", "addr:postcode": "9782"}, "content": "Adresse: 135, 9782 Nikolsdorf\nOrt: Nikolsdorf\nPLZ: 9782\nKoordinaten: 46.785541, 12.908948", "doc_type": "addresses"}
{"source": "OSM", "region": "Kärnten", "osm_type": "node", "osm_id": 1650337374, "name": null, "category": null, "address": "15, 9782 Nikolsdorf", "street": null, "housenumber": "15", "postcode": "9782", "place": "Nikolsdorf", "lat": 46.7876024, "lon": 12.9066245, "tags": {"addr:city": "Nikolsdorf", "addr:housenumber": "15", "addr:place": "Hochstatt", "addr:postcode": "9782"}, "content": "Adresse: 15, 9782 Nikolsdorf\nOrt: Nikolsdorf\nPLZ: 9782\nKoordinaten: 46.787602, 12.906624", "doc_type": "addresses"}
{"source": "OSM", "region": "Kärnten", "osm_type": "node", "osm_id": 1650337380, "name": null, "category": null, "address": "2, 9782 Nikolsdorf", "street": null, "housenumber": "2", "postcode": "9782", "place": "Nikolsdorf", "lat": 46.7888592, "lon": 12.9095405, "tags": {"addr:city": "Nikolsdorf", "addr:housenumber": "2", "addr:place": "Nikolsdorf", "addr:postcode": "9782"}, "content": "Adresse: 2, 9782 Nikolsdorf\nOrt: Nikolsdorf\nPLZ: 9782\nKoordinaten: 46.788859, 12.909541", "doc_type": "addresses"}
{"source": "OSM", "region": "Kärnten", "osm_type": "node", "osm_id": 1650337384, "name": null, "category": null, "address": "38, 9782 Nikolsdorf", "street": null, "housenumber": "38", "postcode": "9782", "place": "Nikolsdorf", "lat": 46.7842535, "lon": 12.9100779, "tags": {"addr:city": "Nikolsdorf", "addr:housenumber": "38", "addr:place": "Nikolsdorf", "addr:postcode": "9782"}, "content": "Adresse: 38, 9782 Nikolsdorf\nOrt: Nikolsdorf\nPLZ: 9782\nKoordinaten: 46.784253, 12.910078", "doc_type": "addresses"}
{"source": "OSM", "region": "Kärnten", "osm_type": "node", "osm_id": 1650337387, "name": null, "category": null, "address": "74, 9782 Nikolsdorf", "street": null, "housenumber": "74", "postcode": "9782", "place": "Nikolsdorf", "lat": 46.7872337, "lon": 12.9091446, "tags": {"addr:city": "Nikolsdorf", "addr:housenumber": "74", "addr:place": "Nikolsdorf", "addr:postcode": "9782"}, "content": "Adresse: 74, 9782 Nikolsdorf\nOrt: Nikolsdorf\nPLZ: 9782\nKoordinaten: 46.787234, 12.909145", "doc_type": "addresses"}
{"source": "OSM", "region": "Kärnten", "osm_type": "node", "osm_id": 1650337390, "name": null, "category": null, "address": "79, 9782 Nikolsdorf", "street": null, "housenumber": "79", "postcode": "9782", "place": "Nikolsdorf", "lat": 46.7865678, "lon": 12.910216, "tags": {"addr:city": "Nikolsdorf", "addr:housenumber": "79", "addr:place": "Nikolsdorf", "addr:postcode": "9782"}, "content": "Adresse: 79, 9782 Nikolsdorf\nOrt: Nikolsdorf\nPLZ: 9782\nKoordinaten: 46.786568, 12.910216", "doc_type": "addresses"}
{"source": "OSM", "region": "Kärnten", "osm_type": "node", "osm_id": 1650337393, "name": null, "category": null, "address": "80, 9782 Nikolsdorf", "street": null, "housenumber": "80", "postcode": "9782", "place": "Nikolsdorf", "lat": 46.7863476, "lon": 12.9102645, "tags": {"addr:city": "Nikolsdorf", "addr:housenumber": "80", "addr:place": "Nikolsdorf", "addr:postcode": "9782"}, "content": "Adresse: 80, 9782 Nikolsdorf\nOrt: Nikolsdorf\nPLZ: 9782\nKoordinaten: 46.786348, 12.910265", "doc_type": "addresses"}
{"source": "OSM", "region": "Kärnten", "osm_type": "node", "osm_id": 1650337394, "name": null, "category": null, "address": "81, 9782 Nikolsdorf", "street": null, "housenumber": "81", "postcode": "9782", "place": "Nikolsdorf", "lat": 46.7862947, "lon": 12.9104177, "tags": {"addr:city": "Nikolsdorf", "addr:housenumber": "81", "addr:place": "Nikolsdorf", "addr:postcode": "9782"}, "content": "Adresse: 81, 9782 Nikolsdorf\nOrt: Nikolsdorf\nPLZ: 9782\nKoordinaten: 46.786295, 12.910418", "doc_type": "addresses"}
{"source": "OSM", "region": "Kärnten", "osm_type": "node", "osm_id": 1650337399, "name": null, "category": null, "address": "82, 9782 Nikolsdorf", "street": null, "housenumber": "82", "postcode": "9782", "place": "Nikolsdorf", "lat": 46.7869763, "lon": 12.9100646, "tags": {"addr:city": "Nikolsdorf", "addr:housenumber": "82", "addr:place": "Nikolsdorf", "addr:postcode": "9782"}, "content": "Adresse: 82, 9782 Nikolsdorf\nOrt: Nikolsdorf\nPLZ: 9782\nKoordinaten: 46.786976, 12.910065", "doc_type": "addresses"}
{"source": "OSM", "region": "Kärnten", "osm_type": "node", "osm_id": 1650337402, "name": null, "category": null, "address": "83, 9782 Nikolsdorf", "street": null, "housenumber": "83", "postcode": "9782", "place": "Nikolsdorf", "lat": 46.786918, "lon": 12.9099587, "tags": {"addr:city": "Nikolsdorf", "addr:housenumber": "83", "addr:place": "Nikolsdorf", "addr:postcode": "9782"}, "content": "Adresse: 83, 9782 Nikolsdorf\nOrt: Nikolsdorf\nPLZ: 9782\nKoordinaten: 46.786918, 12.909959", "doc_type": "addresses"}
{"source": "OSM", "region": "Kärnten", "osm_type": "node", "osm_id": 4488799195, "name": "Volksschule Nikolsdorf", "category": "amenity:school", "address": "Schulstraße 106, 9782 Nikolsdorf", "street": "Schulstraße", "housenumber": "106", "postcode": "9782", "place": "Nikolsdorf", "lat": 46.7857718, "lon": 12.906114, "tags": {"addr:city": "Nikolsdorf", "addr:housenumber": "106", "addr:postcode": "9782", "addr:street": "Schulstraße", "amenity": "school", "name": "Volksschule Nikolsdorf", "phone": "+43 4858 821060"}, "content": "Volksschule Nikolsdorf\nKategorie: amenity:school\nAdresse: Schulstraße 106, 9782 Nikolsdorf\nOrt: Nikolsdorf\nPLZ: 9782\nKoordinaten: 46.785772, 12.906114\nTags: amenity=school, phone=+43 4858 821060", "doc_type": "addresses"}
{"source": "OSM", "region": "Kärnten", "osm_type": "node", "osm_id": 5586064429, "name": null, "category": null, "address": "52, 9782 Nikolsdorf", "street": null, "housenumber": "52", "postcode": "9782", "place": "Nikolsdorf", "lat": 46.7748632, "lon": 12.9213045, "tags": {"addr:city": "Nikolsdorf", "addr:housenumber": "52", "addr:place": "Nörsach", "addr:postcode": "9782"}, "content": "Adresse: 52, 9782 Nikolsdorf\nOrt: Nikolsdorf\nPLZ: 9782\nKoordinaten: 46.774863, 12.921304", "doc_type": "addresses"}
{"source": "OSM", "region": "Kärnten", "osm_type": "node", "osm_id": 4488799195, "name": "Volksschule Nikolsdorf", "category": "amenity:school", "address": "Schulstraße 106, 9782 Nikolsdorf", "street": "Schulstraße", "housenumber": "106", "postcode": "9782", "place": "Nikolsdorf", "lat": 46.7857718, "lon": 12.906114, "tags": {"addr:city": "Nikolsdorf", "addr:housenumber": "106", "addr:postcode": "9782", "addr:street": "Schulstraße", "amenity": "school", "name": "Volksschule Nikolsdorf", "phone": "+43 4858 821060"}, "content": "Volksschule Nikolsdorf\nKategorie: amenity:school\nAdresse: Schulstraße 106, 9782 Nikolsdorf\nOrt: Nikolsdorf\nPLZ: 9782\nKoordinaten: 46.785772, 12.906114\nTags: amenity=school, phone=+43 4858 821060", "doc_type": "pois"}
