{"source": "OSM", "region": "Kärnten", "osm_type": "node", "osm_id": 5392890154, "name": null, "category": null, "address": "Wimitzer Straße 13, 9560 St. Ulrich", "street": "Wimitzer Straße", "housenumber": "13", "postcode": "9560", "place": "St. Ulrich", "lat": 46.7527313, "lon": 14.1082928, "tags": {"addr:city": "St. Ulrich", "addr:housenumber": "13", "addr:postcode": "9560", "addr:street": "Wimitzer Straße"}, "content": "Adresse: Wimitzer Straße 13, 9560 St. Ulrich\nOrt: St. Ulrich\nPLZ: 9560\nKoordinaten: 46.752731, 14.108293", "doc_type": "addresses"}
{"source": "OSM", "region": "Kärnten", "osm_type": "node", "osm_id": 5392890155, "name": null, "category": null, "address": "Wimitzer Straße 22, 9560 St. Ulrich", "street": "Wimitzer Straße", "housenumber": "22", "postcode": "9560", "place": "St. Ulrich", "lat": 46.7628211, "lon": 14.1099865, "tags": {"addr:city": "St. Ulrich", "addr:housenumber": "22", "addr:postcode": "9560", "addr:street": "Wimitzer Straße"}, "content": "Adresse: Wimitzer Straße 22, 9560 St. Ulrich\nOrt: St. Ulrich\nPLZ: 9560\nKoordinaten: 46.762821, 14.109986", "doc_type": "addresses"}
{"source": "OSM", "region": "Kärnten", "osm_type": "node", "osm_id": 5393209421, "name": null, "category": null, "address": "Pfarrhofweg 33, 9560 St. Ulrich", "street": "Pfarrhofweg", "housenumber": "33", "postcode": "9560", "place": "St. Ulrich", "lat": 46.7550698, "lon": 14.1174017, "tags": {"addr:city": "St. Ulrich", "addr:housenumber": "33", "addr:postcode": "9560", "addr:street": "Pfarrhofweg"}, "content": "Adresse: Pfarrhofweg 33, 9560 St. Ulrich\nOrt: St. Ulrich\nPLZ: 9560\nKoordinaten: 46.755070, 14.117402", "doc_type": "addresses"}
{"source": "OSM", "region": "Kärnten", "osm_type": "node", "osm_id": 5393209430, "name": null, "category": null, "address": "Bergacker 30, 9560 St. Ulrich", "street": "Bergacker", "housenumber": "30", "postcode": "9560", "place": "St. Ulrich", "lat": 46.7521196, "lon": 14.1175173, "tags": {"addr:city": "St. Ulrich", "addr:housenumber": "30", "addr:postcode": "9560", "addr:street": "Bergacker"}, "content": "Adresse: Bergacker 30, 9560 St. Ulrich\nOrt: St. Ulrich\nPLZ: 9560\nKoordinaten: 46.752120, 14.117517", "doc_type": "addresses"}
{"source": "OSM", "region": "Kärnten", "osm_type": "node", "osm_id": 5393209436, "name": null, "category": null, "address": "Bachweg 9, 9560 St. Ulrich", "street": "Bachweg", "housenumber": "9", "postcode": "9560", "place": "St. Ulrich", "lat": 46.7504197, "lon": 14.1120459, "tags": {"addr:city": "St. Ulrich", "addr:housenumber": "9", "addr:postcode": "9560", "addr:street": "Bachweg"}, "content": "Adresse: Bachweg 9, 9560 St. Ulrich\nOrt: St. Ulrich\nPLZ: 9560\nKoordinaten: 46.750420, 14.112046", "doc_type": "addresses"}
{"source": "OSM", "region": "Kärnten", "osm_type": "node", "osm_id": 5393209458, "name": null, "category": null, "address": "Turnplatzweg 15, 9560 St. Ulrich", "street": "Turnplatzweg", "housenumber": "15", "postcode": "9560", "place": "St. Ulrich", "lat": 46.749629, "lon": 14.1110291, "tags": {"addr:city": "St. Ulrich", "addr:housenumber": "15", "addr:postcode": "9560", "addr:street": "Turnplatzweg"}, "content": "Adresse: Turnplatzweg 15, 9560 St. Ulrich\nOrt: St. Ulrich\nPLZ: 9560\nKoordinaten: 46.749629, 14.111029", "doc_type": "addresses"}
