{"source": "OSM", "region": "Kärnten", "osm_type": "node", "osm_id": 5256724953, "name": null, "category": null, "address": "9, 9170 Zell", "street": null, "housenumber": "9", "postcode": "9170", "place": "Zell", "lat": 46.4521019, "lon": 14.3869628, "tags": {"addr:city": "Zell", "addr:housenumber": "9", "addr:place": "Zell-Koschuta", "addr:postcode": "9170"}, "content": "Adresse: 9, 9170 Zell\nOrt: Zell\nPLZ: 9170\nKoordinaten: 46.452102, 14.386963", "doc_type": "addresses"}
{"source": "OSM", "region": "Kärnten", "osm_type": "node", "osm_id": 5256724954, "name": null, "category": null, "address": "11, 9170 Zell", "street": null, "housenumber": "11", "postcode": "9170", "place": "Zell", "lat": 46.4521111, "lon": 14.3869909, "tags": {"addr:city": "Zell", "addr:housenumber": "11", "addr:place": "Zell-Koschuta", "addr:postcode": "9170"}, "content": "Adresse: 11, 9170 Zell\nOrt: Zell\nPLZ: 9170\nKoordinaten: 46.452111, 14.386991", "doc_type": "addresses"}
{"source": "OSM", "region": "Kärnten", "osm_type": "node", "osm_id": 5256725043, "name": null, "category": null, "address": "86, 9170 Zell", "street": null, "housenumber": "86", "postcode": "9170", "place": "Zell", "lat": 46.4750351, "lon": 14.4134634, "tags": {"addr:city": "Zell", "addr:housenumber": "86", "addr:place": "Zell-Pfarre", "addr:postcode": "9170"}, "content": "Adresse: 86, 9170 Zell\nOrt: Zell\nPLZ: 9170\nKoordinaten: 46.475035, 14.413463", "doc_type": "addresses"}
{"source": "OSM", "region": "Kärnten", "osm_type": "node", "osm_id": 5256725100, "name": null, "category": null, "address": "63, 9170 Zell", "street": null, "housenumber": "63", "postcode": "9170", "place": "Zell", "lat": 46.4744841, "lon": 14.3850107, "tags": {"addr:city": "Zell", "addr:housenumber": "63", "addr:place": "Zell-Pfarre", "addr:postcode": "9170"}, "content": "Adresse: 63, 9170 Zell\nOrt: Zell\nPLZ: 9170\nKoordinaten: 46.474484, 14.385011", "doc_type": "addresses"}
{"source": "OSM", "region": "Kärnten", "osm_type": "node", "osm_id": 5284279931, "name": null, "category": null, "address": "34, 9170 Zell", "street": null, "housenumber": "34", "postcode": "9170", "place": "Zell", "lat": 46.4703428, "lon": 14.3696738, "tags": {"addr:city": "Zell", "addr:housenumber": "34", "addr:place": "Zell-Mitterwinkel", "addr:postcode": "9170"}, "content": "Adresse: 34, 9170 Zell\nOrt: Zell\nPLZ: 9170\nKoordinaten: 46.470343, 14.369674", "doc_type": "addresses"}
{"source": "OSM", "region": "Kärnten", "osm_type": "node", "osm_id": 5298414703, "name": null, "category": null, "address": "15, 9170 Zell", "street": null, "housenumber": "15", "postcode": "9170", "place": "Zell", "lat": 46.474972, "lon": 14.4255004, "tags": {"addr:city": "Zell", "addr:housenumber": "15", "addr:place": "Zell-Freibach", "addr:postcode": "9170"}, "content": "Adresse: 15, 9170 Zell\nOrt: Zell\nPLZ: 9170\nKoordinaten: 46.474972, 14.425500", "doc_type": "addresses"}
