{"source": "OSM", "region": "Kärnten", "osm_type": "node", "osm_id": 340517717, "name": "Postpartner 9872, Marktgemeinde", "category": "amenity:post_office", "address": "Marktplatz 8, 9872 Millstatt", "street": "Marktplatz", "housenumber": "8", "postcode": "9872", "place": "Millstatt", "lat": 46.8053311, "lon": 13.5712501, "tags": {"addr:city": "Millstatt", "addr:housenumber": "8", "addr:postcode": "9872", "addr:street": "Marktplatz", "amenity": "post_office", "name": "Postpartner 9872, Marktgemeinde"}, "content": "Postpartner 9872, Marktgemeinde\nKategorie: amenity:post_office\nAdresse: Marktplatz 8, 9872 Millstatt\nOrt: Millstatt\nPLZ: 9872\nKoordinaten: 46.805331, 13.571250\nTags: amenity=post_office", "doc_type": "addresses"}
{"source": "OSM", "region": "Kärnten", "osm_type": "node", "osm_id": 3286032430, "name": "KUNSTradln-Café", "category": "amenity:cafe", "address": "Georgsritterplatz 155, 9872 Millstatt", "street": "Georgsritterplatz", "housenumber": "155", "postcode": "9872", "place": "Millstatt", "lat": 46.8032991, "lon": 13.5713785, "tags": {"addr:city": "Millstatt", "addr:housenumber": "155", "addr:postcode": "9872", "addr:street": "Georgsritterplatz", "amenity": "cafe", "name": "KUNSTradln-Café"}, "content": "KUNSTradln-Café\nKategorie: amenity:cafe\nAdresse: Georgsritterplatz 155, 9872 Millstatt\nOrt: Millstatt\nPLZ: 9872\nKoordinaten: 46.803299, 13.571378\nTags: amenity=cafe", "doc_type": "addresses"}
{"source": "OSM", "region": "Kärnten", "osm_type": "node", "osm_id": 3402550515, "name": "Dr. med. Bernhard Buchholzer", "category": "amenity:doctors", "address": "Spittaler Straße 185, 9872 Millstatt", "street": "Spittaler Straße", "housenumber": "185", "postcode": "9872", "place": "Millstatt", "lat": 46.8055848, "lon": 13.5706436, "tags": {"addr:city": "Millstatt", "addr:housenumber": "185", "addr:postcode": "9872", "addr:street": "Spittaler Straße", "amenity": "doctors", "healthcare": "doctor", "name": "Dr. med. Bernhard Buchholzer", "phone": "+43 (0)4766 225920"}, "content": "Dr. med. Bernhard Buchholzer\nKategorie: amenity:doctors\nAdresse: Spittaler Straße 185, 9872 Millstatt\nOrt: Millstatt\nPLZ: 9872\nKoordinaten: 46.805585, 13.570644\nTags: amenity=doctors, healthcare=doctor, phone=+43 (0)4766 225920", "doc_type": "addresses"}
{"source": "OSM", "region": "Kärnten", "osm_type": "node", "osm_id": 3402550516, "name": "Dr. Robert Walter", "category": "amenity:dentist", "address": "Spittaler Straße 185, 9872 Millstatt", "street": "Spittaler Straße", "housenumber": "185", "postcode": "9872", "place": "Millstatt", "lat": 46.8055217, "lon": 13.5705913, "tags": {"addr:city": "Millstatt", "addr:housenumber": "185", "addr:postcode": "9872", "addr:street": "Spittaler Straße", "amenity": "dentist", "healthcare": "dentist", "name": "Dr. Robert Walter", "phone": "+43 (0)4766 2090"}, "content": "Dr. Robert Walter\nKategorie: amenity:dentist\nAdresse: Spittaler Straße 185, 9872 Millstatt\nOrt: Millstatt\nPLZ: 9872\nKoordinaten: 46.805522, 13.570591\nTags: amenity=dentist, healthcare=dentist, phone=+43 (0)4766 2090", "doc_type": "addresses"}
{"source": "OSM", "region": "Kärnten", "osm_type": "node", "osm_id": 3729842139, "name": "Pension Seemüllnerhaus", "category": "tourism:guest_house", "address": "Seemühlgasse 56, 9872 Millstatt", "street": "Seemühlgasse", "housenumber": "56", "postcode": "9872", "place": "Millstatt", "lat": 46.8021756, "lon": 13.5702034, "tags": {"addr:city": "Millstatt", "addr:housenumber": "56", "addr:postcode": "9872", "addr:street": "Seemühlgasse", "name": "Pension Seemüllnerhaus", "tourism": "guest_house"}, "content": "Pension Seemüllnerhaus\nKategorie: tourism:guest_house\nAdresse: Seemühlgasse 56, 9872 Millstatt\nOrt: Millstatt\nPLZ: 9872\nKoordinaten: 46.802176, 13.570203", "doc_type": "addresses"}
{"source": "OSM", "region": "Kärnten", "osm_type": "node", "osm_id": 5618523865, "name": "Seeglück Hotel Die Forelle", "category": "tourism:hotel", "address": "Fischergasse 65, 9872 Millstatt", "street": "Fischergasse", "housenumber": "65", "postcode": "9872", "place": "Millstatt", "lat": 46.8014025, "lon": 13.573072, "tags": {"addr:city": "Millstatt", "addr:housenumber": "65", "addr:postcode": "9872", "addr:street": "Fischergasse", "name": "Seeglück Hotel Die Forelle", "operator": "Hotel am See - Die Forelle", "phone": "+43 4766 20 50 0", "tourism": "hotel", "website": "https://www.hotel-forelle.at/"}, "content": "Seeglück Hotel Die Forelle\nKategorie: tourism:hotel\nAdresse: Fischergasse 65, 9872 Millstatt\nOrt: Millstatt\nPLZ: 9872\nKoordinaten: 46.801403, 13.573072\nTags: operator=Hotel am See - Die Forelle, phone=+43 4766 20 50 0, website=https://www.hotel-forelle.at/", "doc_type": "addresses"}
{"source": "OSM", "region": "Kärnten", "osm_type": "node", "osm_id": 340517717, "name": "Postpartner 9872, Marktgemeinde", "category": "amenity:post_office", "address": "Marktplatz 8, 9872 Millstatt", "street": "Marktplatz", "housenumber": "8", "postcode": "9872", "place": "Millstatt", "lat": 46.8053311, "lon": 13.5712501, "tags": {"addr:city": "Millstatt", "addr:housenumber": "8", "addr:postcode": "9872", "addr:street": "Marktplatz", "amenity": "post_office", "name": "Postpartner 9872, Marktgemeinde"}, "content": "Postpartner 9872, Marktgemeinde\nKategorie: amenity:post_office\nAdresse: Marktplatz 8, 9872 Millstatt\nOrt: Millstatt\nPLZ: 9872\nKoordinaten: 46.805331, 13.571250\nTags: amenity=post_office", "doc_type": "pois"}
{"source": "OSM", "region": "Kärnten", "osm_type": "node", "osm_id": 3286032430, "name": "KUNSTradln-Café", "category": "amenity:cafe", "address": "Georgsritterplatz 155, 9872 Millstatt", "street": "Georgsritterplatz", "housenumber": "155", "postcode": "9872", "place": "Millstatt", "lat": 46.8032991, "lon": 13.5713785, "tags": {"addr:city": "Millstatt", "addr:housenumber": "155", "addr:postcode": "9872", "addr:street": "Georgsritterplatz", "amenity": "cafe", "name": "KUNSTradln-Café"}, "content": "KUNSTradln-Café\nKategorie: amenity:cafe\nAdresse: Georgsritterplatz 155, 9872 Millstatt\nOrt: Millstatt\nPLZ: 9872\nKoordinaten: 46.803299, 13.571378\nTags: amenity=cafe", "doc_type": "pois"}
{"source": "OSM", "region": "Kärnten", "osm_type": "node", "osm_id": 3402550515, "name": "Dr. med. Bernhard Buchholzer", "category": "amenity:doctors", "address": "Spittaler Straße 185, 9872 Millstatt", "street": "Spittaler Straße", "housenumber": "185", "postcode": "9872", "place": "Millstatt", "lat": 46.8055848, "lon": 13.5706436, "tags": {"addr:city": "Millstatt", "addr:housenumber": "185", "addr:postcode": "9872", "addr:street": "Spittaler Straße", "amenity": "doctors", "healthcare": "doctor", "name": "Dr. med. Bernhard Buchholzer", "phone": "+43 (0)4766 225920"}, "content": "Dr. med. Bernhard Buchholzer\nKategorie: amenity:doctors\nAdresse: Spittaler Straße 185, 9872 Millstatt\nOrt: Millstatt\nPLZ: 9872\nKoordinaten: 46.805585, 13.570644\nTags: amenity=doctors, healthcare=doctor, phone=+43 (0)4766 225920", "doc_type": "pois"}
{"source": "OSM", "region": "Kärnten", "osm_type": "node", "osm_id": 3402550516, "name": "Dr. Robert Walter", "category": "amenity:dentist", "address": "Spittaler Straße 185, 9872 Millstatt", "street": "Spittaler Straße", "housenumber": "185", "postcode": "9872", "place": "Millstatt", "lat": 46.8055217, "lon": 13.5705913, "tags": {"addr:city": "Millstatt", "addr:housenumber": "185", "addr:postcode": "9872", "addr:street": "Spittaler Straße", "amenity": "dentist", "healthcare": "dentist", "name": "Dr. Robert Walter", "phone": "+43 (0)4766 2090"}, "content": "Dr. Robert Walter\nKategorie: amenity:dentist\nAdresse: Spittaler Straße 185, 9872 Millstatt\nOrt: Millstatt\nPLZ: 9872\nKoordinaten: 46.805522, 13.570591\nTags: amenity=dentist, healthcare=dentist, phone=+43 (0)4766 2090", "doc_type": "pois"}
{"source": "OSM", "region": "Kärnten", "osm_type": "node", "osm_id": 3729842139, "name": "Pension Seemüllnerhaus", "category": "tourism:guest_house", "address": "Seemühlgasse 56, 9872 Millstatt", "street": "Seemühlgasse", "housenumber": "56", "postcode": "9872", "place": "Millstatt", "lat": 46.8021756, "lon": 13.5702034, "tags": {"addr:city": "Millstatt", "addr:housenumber": "56", "addr:postcode": "9872", "addr:street": "Seemühlgasse", "name": "Pension Seemüllnerhaus", "tourism": "guest_house"}, "content": "Pension Seemüllnerhaus\nKategorie: tourism:guest_house\nAdresse: Seemühlgasse 56, 9872 Millstatt\nOrt: Millstatt\nPLZ: 9872\nKoordinaten: 46.802176, 13.570203", "doc_type": "pois"}
{"source": "OSM", "region": "Kärnten", "osm_type": "node", "osm_id": 5618523865, "name": "Seeglück Hotel Die Forelle", "category": "tourism:hotel", "address": "Fischergasse 65, 9872 Millstatt", "street": "Fischergasse", "housenumber": "65", "postcode": "9872", "place": "Millstatt", "lat": 46.8014025, "lon": 13.573072, "tags": {"addr:city": "Millstatt", "addr:housenumber": "65", "addr:postcode": "9872", "addr:street": "Fischergasse", "name": "Seeglück Hotel Die Forelle", "operator": "Hotel am See - Die Forelle", "phone": "+43 4766 20 50 0", "tourism": "hotel", "website": "https://www.hotel-forelle.at/"}, "content": "Seeglück Hotel Die Forelle\nKategorie: tourism:hotel\nAdresse: Fischergasse 65, 9872 Millstatt\nOrt: Millstatt\nPLZ: 9872\nKoordinaten: 46.801403, 13.573072\nTags: operator=Hotel am See - Die Forelle, phone=+43 4766 20 50 0, website=https://www.hotel-forelle.at/", "doc_type": "pois"}
