{"source": "OSM", "region": "Kärnten", "osm_type": "node", "osm_id": 2047981045, "name": "Spar", "category": "shop:supermarket", "address": "Dellach 12, 9635 Dellach", "street": "Dellach", "housenumber": "12", "postcode": "9635", "place": "Dellach", "lat": 46.6620216, "lon": 13.0785233, "tags": {"addr:city": "Dellach", "addr:housenumber": "12", "addr:postcode": "9635", "addr:street": "Dellach", "brand": "Spar", "name": "Spar", "operator": "Michael Kastner", "phone": "+434718 221", "shop": "supermarket"}, "content": "Spar\nKategorie: shop:supermarket\nAdresse: Dellach 12, 9635 Dellach\nOrt: Dellach\nPLZ: 9635\nKoordinaten: 46.662022, 13.078523\nTags: shop=supermarket, operator=Michael Kastner, brand=Spar, phone=+434718 221", "doc_type": "addresses"}
{"source": "OSM", "region": "Kärnten", "osm_type": "node", "osm_id": 2465142851, "name": "Birkenhof", "category": "tourism:hotel", "address": "1, 9640 Dellach", "street": null, "housenumber": "1", "postcode": "9640", "place": "Dellach", "lat": 46.6671634, "lon": 13.0392013, "tags": {"addr:city": "Dellach", "addr:housenumber": "1", "addr:place": "Höfling", "addr:postcode": "9640", "name": "Birkenhof", "tourism": "hotel"}, "content": "Birkenhof\nKategorie: tourism:hotel\nAdresse: 1, 9640 Dellach\nOrt: Dellach\nPLZ: 9640\nKoordinaten: 46.667163, 13.039201", "doc_type": "addresses"}
{"source": "OSM", "region": "Kärnten", "osm_type": "node", "osm_id": 4357515789, "name": "Grünwald", "category": "amenity:restaurant", "address": "17, 9635 Dellach", "street": null, "housenumber": "17", "postcode": "9635", "place": "Dellach", "lat": 46.6627505, "lon": 13.0553791, "tags": {"addr:city": "Dellach", "addr:housenumber": "17", "addr:place": "Sankt Daniel", "addr:postcode": "9635", "amenity": "restaurant", "name": "Grünwald"}, "content": "Grünwald\nKategorie: amenity:restaurant\nAdresse: 17, 9635 Dellach\nOrt: Dellach\nPLZ: 9635\nKoordinaten: 46.662751, 13.055379\nTags: amenity=restaurant", "doc_type": "addresses"}
{"source": "OSM", "region": "Kärnten", "osm_type": "node", "osm_id": 5210024697, "name": "Buschenschenke Stefan", "category": "amenity:restaurant", "address": "Dellach 140, 9635 Dellach", "street": "Dellach", "housenumber": "140", "postcode": "9635", "place": "Dellach", "lat": 46.6604787, "lon": 13.0808788, "tags": {"addr:city": "Dellach", "addr:housenumber": "140", "addr:postcode": "9635", "addr:street": "Dellach", "amenity": "restaurant", "name": "Buschenschenke Stefan"}, "content": "Buschenschenke Stefan\nKategorie: amenity:restaurant\nAdresse: Dellach 140, 9635 Dellach\nOrt: Dellach\nPLZ: 9635\nKoordinaten: 46.660479, 13.080879\nTags: amenity=restaurant", "doc_type": "addresses"}
{"source": "OSM", "region": "Kärnten", "osm_type": "node", "osm_id": 5210039321, "name": "Installationen Steiner GmbH", "category": "craft:plumber", "address": "Dellach 22, 9635 Dellach", "street": "Dellach", "housenumber": "22", "postcode": "9635", "place": "Dellach", "lat": 46.6602851, "lon": 13.0796071, "tags": {"addr:city": "Dellach", "addr:housenumber": "22", "addr:postcode": "9635", "addr:street": "Dellach", "craft": "plumber", "name": "Installationen Steiner GmbH", "website": "www.steiner-dellach.at"}, "content": "Installationen Steiner GmbH\nKategorie: craft:plumber\nAdresse: Dellach 22, 9635 Dellach\nOrt: Dellach\nPLZ: 9635\nKoordinaten: 46.660285, 13.079607\nTags: website=www.steiner-dellach.at", "doc_type": "addresses"}
{"source": "OSM", "region": "Kärnten", "osm_type": "node", "osm_id": 5394480219, "name": null, "category": null, "address": "16a, 9560 Dellach", "street": null, "housenumber": "16a", "postcode": "9560", "place": "Dellach", "lat": 46.6769048, "lon": 14.0778788, "tags": {"addr:city": "Dellach", "addr:housenumber": "16a", "addr:place": "Dellach", "addr:postcode": "9560"}, "content": "Adresse: 16a, 9560 Dellach\nOrt: Dellach\nPLZ: 9560\nKoordinaten: 46.676905, 14.077879", "doc_type": "addresses"}
{"source": "OSM", "region": "Kärnten", "osm_type": "node", "osm_id": 5487044710, "name": null, "category": null, "address": "17, 9635 Dellach", "street": null, "housenumber": "17", "postcode": "9635", "place": "Dellach", "lat": 46.6625202, "lon": 13.05525, "tags": {"addr:city": "Dellach", "addr:housenumber": "17", "addr:place": "Sankt Daniel", "addr:postcode": "9635"}, "content": "Adresse: 17, 9635 Dellach\nOrt: Dellach\nPLZ: 9635\nKoordinaten: 46.662520, 13.055250", "doc_type": "addresses"}
{"source": "OSM", "region": "Kärnten", "osm_type": "node", "osm_id": 5487044711, "name": null, "category": null, "address": "15, 9635 Dellach", "street": null, "housenumber": "15", "postcode": "9635", "place": "Dellach", "lat": 46.6627696, "lon": 13.0557986, "tags": {"addr:city": "Dellach", "addr:housenumber": "15", "addr:place": "Sankt Daniel", "addr:postcode": "9635"}, "content": "Adresse: 15, 9635 Dellach\nOrt: Dellach\nPLZ: 9635\nKoordinaten: 46.662770, 13.055799", "doc_type": "addresses"}
{"source": "OSM", "region": "Kärnten", "osm_type": "node", "osm_id": 5487044713, "name": null, "category": null, "address": "5, 9635 Dellach", "street": null, "housenumber": "5", "postcode": "9635", "place": "Dellach", "lat": 46.6632077, "lon": 13.0543984, "tags": {"addr:city": "Dellach", "addr:housenumber": "5", "addr:place": "Sankt Daniel", "addr:postcode": "9635"}, "content": "Adresse: 5, 9635 Dellach\nOrt: Dellach\nPLZ: 9635\nKoordinaten: 46.663208, 13.054398", "doc_type": "addresses"}
{"source": "OSM", "region": "Kärnten", "osm_type": "node", "osm_id": 5487044714, "name": null, "category": null, "address": "70, 9635 Dellach", "street": null, "housenumber": "70", "postcode": "9635", "place": "Dellach", "lat": 46.6626463, "lon": 13.0593525, "tags": {"addr:city": "Dellach", "addr:housenumber": "70", "addr:place": "Sankt Daniel", "addr:postcode": "9635"}, "content": "Adresse: 70, 9635 Dellach\nOrt: Dellach\nPLZ: 9635\nKoordinaten: 46.662646, 13.059352", "doc_type": "addresses"}
{"source": "OSM", "region": "Kärnten", "osm_type": "node", "osm_id": 5487045074, "name": null, "category": null, "address": "71, 9635 Dellach", "street": null, "housenumber": "71", "postcode": "9635", "place": "Dellach", "lat": 46.6601852, "lon": 13.0586814, "tags": {"addr:city": "Dellach", "addr:housenumber": "71", "addr:place": "Sankt Daniel", "addr:postcode": "9635"}, "content": "Adresse: 71, 9635 Dellach\nOrt: Dellach\nPLZ: 9635\nKoordinaten: 46.660185, 13.058681", "doc_type": "addresses"}
{"source": "OSM", "region": "Kärnten", "osm_type": "node", "osm_id": 5487045311, "name": null, "category": null, "address": "9, 9635 Dellach", "street": null, "housenumber": "9", "postcode": "9635", "place": "Dellach", "lat": 46.6700246, "lon": 13.0502343, "tags": {"addr:city": "Dellach", "addr:housenumber": "9", "addr:place": "Stollwitz", "addr:postcode": "9635"}, "content": "Adresse: 9, 9635 Dellach\nOrt: Dellach\nPLZ: 9635\nKoordinaten: 46.670025, 13.050234", "doc_type": "addresses"}
{"source": "OSM", "region": "Kärnten", "osm_type": "node", "osm_id": 5487045312, "name": null, "category": null, "address": "4, 9635 Dellach", "street": null, "housenumber": "4", "postcode": "9635", "place": "Dellach", "lat": 46.6694724, "lon": 13.0499554, "tags": {"addr:city": "Dellach", "addr:housenumber": "4", "addr:place": "Stollwitz", "addr:postcode": "9635"}, "content": "Adresse: 4, 9635 Dellach\nOrt: Dellach\nPLZ: 9635\nKoordinaten: 46.669472, 13.049955", "doc_type": "addresses"}
{"source": "OSM", "region": "Kärnten", "osm_type": "node", "osm_id": 5585947233, "name": null, "category": null, "address": "27, 9635 Dellach", "street": null, "housenumber": "27", "postcode": "9635", "place": "Dellach", "lat": 46.6951309, "lon": 13.0722298, "tags": {"addr:city": "Dellach", "addr:housenumber": "27", "addr:place": "Sankt Daniel", "addr:postcode": "9635"}, "content": "Adresse: 27, 9635 Dellach\nOrt: Dellach\nPLZ: 9635\nKoordinaten: 46.695131, 13.072230", "doc_type": "addresses"}
{"source": "OSM", "region": "Kärnten", "osm_type": "node", "osm_id": 5586820745, "name": null, "category": null, "address": "1, 9640 Dellach", "street": null, "housenumber": "1", "postcode": "9640", "place": "Dellach", "lat": 46.6671017, "lon": 13.0391729, "tags": {"addr:city": "Dellach", "addr:housenumber": "1", "addr:place": "Höfling", "addr:postcode": "9640"}, "content": "Adresse: 1, 9640 Dellach\nOrt: Dellach\nPLZ: 9640\nKoordinaten: 46.667102, 13.039173", "doc_type": "addresses"}
{"source": "OSM", "region": "Kärnten", "osm_type": "node", "osm_id": 2047981045, "name": "Spar", "category": "shop:supermarket", "address": "Dellach 12, 9635 Dellach", "street": "Dellach", "housenumber": "12", "postcode": "9635", "place": "Dellach", "lat": 46.6620216, "lon": 13.0785233, "tags": {"addr:city": "Dellach", "addr:housenumber": "12", "addr:postcode": "9635", "addr:street": "Dellach", "brand": "Spar", "name": "Spar", "operator": "Michael Kastner", "phone": "+434718 221", "shop": "supermarket"}, "content": "Spar\nKategorie: shop:supermarket\nAdresse: Dellach 12, 9635 Dellach\nOrt: Dellach\nPLZ: 9635\nKoordinaten: 46.662022, 13.078523\nTags: shop=supermarket, operator=Michael Kastner, brand=Spar, phone=+434718 221", "doc_type": "pois"}
{"source": "OSM", "region": "Kärnten", "osm_type": "node", "osm_id": 2465142851, "name": "Birkenhof", "category": "tourism:hotel", "address": "1, 9640 Dellach", "street": null, "housenumber": "1", "postcode": "9640", "place": "Dellach", "lat": 46.6671634, "lon": 13.0392013, "tags": {"addr:city": "Dellach", "addr:housenumber": "1", "addr:place": "Höfling", "addr:postcode": "9640", "name": "Birkenhof", "tourism": "hotel"}, "content": "Birkenhof\nKategorie: tourism:hotel\nAdresse: 1, 9640 Dellach\nOrt: Dellach\nPLZ: 9640\nKoordinaten: 46.667163, 13.039201", "doc_type": "pois"}
{"source": "OSM", "region": "Kärnten", "osm_type": "node", "osm_id": 4357515789, "name": "Grünwald", "category": "amenity:restaurant", "address": "17, 9635 Dellach", "street": null, "housenumber": "17", "postcode": "9635", "place": "Dellach", "lat": 46.6627505, "lon": 13.0553791, "tags": {"addr:city": "Dellach", "addr:housenumber": "17", "addr:place": "Sankt Daniel", "addr:postcode": "9635", "amenity": "restaurant", "name": "Grünwald"}, "content": "Grünwald\nKategorie: amenity:restaurant\nAdresse: 17, 9635 Dellach\nOrt: Dellach\nPLZ: 9635\nKoordinaten: 46.662751, 13.055379\nTags: amenity=restaurant", "doc_type": "pois"}
{"source": "OSM", "region": "Kärnten", "osm_type": "node", "osm_id": 5210024697, "name": "Buschenschenke Stefan", "category": "amenity:restaurant", "address": "Dellach 140, 9635 Dellach", "street": "Dellach", "housenumber": "140", "postcode": "9635", "place": "Dellach", "lat": 46.6604787, "lon": 13.0808788, "tags": {"addr:city": "Dellach", "addr:housenumber": "140", "addr:postcode": "9635", "addr:street": "Dellach", "amenity": "restaurant", "name": "Buschenschenke Stefan"}, "content": "Buschenschenke Stefan\nKategorie: amenity:restaurant\nAdresse: Dellach 140, 9635 Dellach\nOrt: Dellach\nPLZ: 9635\nKoordinaten: 46.660479, 13.080879\nTags: amenity=restaurant", "doc_type": "pois"}
{"source": "OSM", "region": "Kärnten", "osm_type": "node", "osm_id": 5210039321, "name": "Installationen Steiner GmbH", "category": "craft:plumber", "address": "Dellach 22, 9635 Dellach", "street": "Dellach", "housenumber": "22", "postcode": "9635", "place": "Dellach", "lat": 46.6602851, "lon": 13.0796071, "tags": {"addr:city": "Dellach", "addr:housenumber": "22", "addr:postcode": "9635", "addr:street": "Dellach", "craft": "plumber", "name": "Installationen Steiner GmbH", "website": "www.steiner-dellach.at"}, "content": "Installationen Steiner GmbH\nKategorie: craft:plumber\nAdresse: Dellach 22, 9635 Dellach\nOrt: Dellach\nPLZ: 9635\nKoordinaten: 46.660285, 13.079607\nTags: website=www.steiner-dellach.at", "doc_type": "pois"}
