{"source": "OSM", "region": "Kärnten", "osm_type": "node", "osm_id": 2999460684, "name": "MT ArTs Babybauchdesign", "category": "craft:handicraft", "address": "20, 9413 Frantschach", "street": null, "housenumber": "20", "postcode": "9413", "place": "Frantschach", "lat": 46.8669944, "lon": 14.8756079, "tags": {"addr:city": "Frantschach", "addr:housenumber": "20", "addr:place": "St. Gertraud", "addr:postcode": "9413", "craft": "handicraft", "name": "MT ArTs Babybauchdesign", "phone": "+43 650 9241570"}, "content": "MT ArTs Babybauchdesign\nKategorie: craft:handicraft\nAdresse: 20, 9413 Frantschach\nOrt: Frantschach\nPLZ: 9413\nKoordinaten: 46.866994, 14.875608\nTags: phone=+43 650 9241570", "doc_type": "addresses"}
{"source": "OSM", "region": "Kärnten", "osm_type": "node", "osm_id": 2999460684, "name": "MT ArTs Babybauchdesign", "category": "craft:handicraft", "address": "20, 9413 Frantschach", "street": null, "housenumber": "20", "postcode": "9413", "place": "Frantschach", "lat": 46.8669944, "lon": 14.8756079, "tags": {"addr:city": "Frantschach", "addr:housenumber": "20", "addr:place": "St. Gertraud", "addr:postcode": "9413", "craft": "handicraft", "name": "MT ArTs Babybauchdesign", "phone": "+43 650 9241570"}, "content": "MT ArTs Babybauchdesign\nKategorie: craft:handicraft\nAdresse: 20, 9413 Frantschach\nOrt: Frantschach\nPLZ: 9413\nKoordinaten: 46.866994, 14.875608\nTags: phone=+43 650 9241570", "doc_type": "pois"}
