{"source": "OSM", "region": "Kärnten", "osm_type": "node", "osm_id": 2461402171, "name": "Volksschule Altersberg", "category": "amenity:school", "address": "Altersberg 8, 9852 Trebesing", "street": "Altersberg", "housenumber": "8", "postcode": "9852", "place": "Trebesing", "lat": 46.8578351, "lon": 13.4898253, "tags": {"addr:city": "Trebesing", "addr:housenumber": "8", "addr:postcode": "9852", "addr:street": "Altersberg", "amenity": "school", "name": "Volksschule Altersberg"}, "content": "Volksschule Altersberg\nKategorie: amenity:school\nAdresse: Altersberg 8, 9852 Trebesing\nOrt: Trebesing\nPLZ: 9852\nKoordinaten: 46.857835, 13.489825\nTags: amenity=school", "doc_type": "addresses"}
{"source": "OSM", "region": "Kärnten", "osm_type": "node", "osm_id": 2866948561, "name": "Trebesinger Wirt", "category": "amenity:restaurant", "address": "Trebesing 1, 9852 Trebesing", "street": "Trebesing", "housenumber": "1", "postcode": "9852", "place": "Trebesing", "lat": 46.8831772, "lon": 13.5097786, "tags": {"addr:city": "Trebesing", "addr:housenumber": "1", "addr:postcode": "9852", "addr:street": "Trebesing", "amenity": "restaurant", "name": "Trebesinger Wirt", "phone": "+43 4732 2366", "website": "https://www.trebesinger-wirt.at"}, "content": "Trebesinger Wirt\nKategorie: amenity:restaurant\nAdresse: Trebesing 1, 9852 Trebesing\nOrt: Trebesing\nPLZ: 9852\nKoordinaten: 46.883177, 13.509779\nTags: amenity=restaurant, phone=+43 4732 2366, website=https://www.trebesinger-wirt.at", "doc_type": "addresses"}
{"source": "OSM", "region": "Kärnten", "osm_type": "node", "osm_id": 4693930366, "name": null, "category": null, "address": "Trebesing-Bad 2, 9852 Trebesing", "street": "Trebesing-Bad", "housenumber": "2", "postcode": "9852", "place": "Trebesing", "lat": 46.8830808, "lon": 13.5137988, "tags": {"addr:city": "Trebesing", "addr:housenumber": "2", "addr:postcode": "9852", "addr:street": "Trebesing-Bad"}, "content": "Adresse: Trebesing-Bad 2, 9852 Trebesing\nOrt: Trebesing\nPLZ: 9852\nKoordinaten: 46.883081, 13.513799", "doc_type": "addresses"}
{"source": "OSM", "region": "Kärnten", "osm_type": "node", "osm_id": 2461402171, "name": "Volksschule Altersberg", "category": "amenity:school", "address": "Altersberg 8, 9852 Trebesing", "street": "Altersberg", "housenumber": "8", "postcode": "9852", "place": "Trebesing", "lat": 46.8578351, "lon": 13.4898253, "tags": {"addr:city": "Trebesing", "addr:housenumber": "8", "addr:postcode": "9852", "addr:street": "Altersberg", "amenity": "school", "name": "Volksschule Altersberg"}, "content": "Volksschule Altersberg\nKategorie: amenity:school\nAdresse: Altersberg 8, 9852 Trebesing\nOrt: Trebesing\nPLZ: 9852\nKoordinaten: 46.857835, 13.489825\nTags: amenity=school", "doc_type": "pois"}
{"source": "OSM", "region": "Kärnten", "osm_type": "node", "osm_id": 2866948561, "name": "Trebesinger Wirt", "category": "amenity:restaurant", "address": "Trebesing 1, 9852 Trebesing", "street": "Trebesing", "housenumber": "1", "postcode": "9852", "place": "Trebesing", "lat": 46.8831772, "lon": 13.5097786, "tags": {"addr:city": "Trebesing", "addr:housenumber": "1", "addr:postcode": "9852", "addr:street": "Trebesing", "amenity": "restaurant", "name": "Trebesinger Wirt", "phone": "+43 4732 2366", "website": "https://www.trebesinger-wirt.at"}, "content": "Trebesinger Wirt\nKategorie: amenity:restaurant\nAdresse: Trebesing 1, 9852 Trebesing\nOrt: Trebesing\nPLZ: 9852\nKoordinaten: 46.883177, 13.509779\nTags: amenity=restaurant, phone=+43 4732 2366, website=https://www.trebesinger-wirt.at", "doc_type": "pois"}
