{"source": "OSM", "region": "Kärnten", "osm_type": "node", "osm_id": 3996059798, "name": "Marktstube ALEX", "category": "amenity:biergarten", "address": "24, 9135 Eisenkappel-Vellach", "street": null, "housenumber": "24", "postcode": "9135", "place": "Eisenkappel-Vellach", "lat": 46.485682, "lon": 14.5936875, "tags": {"addr:city": "Eisenkappel-Vellach", "addr:housenumber": "24", "addr:place": "Bad Eisenkappel", "addr:postcode": "9135", "amenity": "biergarten", "name": "Marktstube ALEX", "phone": "+43 4238 750"}, "content": "Marktstube ALEX\nKategorie: amenity:biergarten\nAdresse: 24, 9135 Eisenkappel-Vellach\nOrt: Eisenkappel-Vellach\nPLZ: 9135\nKoordinaten: 46.485682, 14.593687\nTags: amenity=biergarten, phone=+43 4238 750", "doc_type": "addresses"}
{"source": "OSM", "region": "Kärnten", "osm_type": "node", "osm_id": 5133315237, "name": "Polizeiinspektion Bad Eisenkappel", "category": "amenity:police", "address": "186, 9135 Eisenkappel-Vellach", "street": null, "housenumber": "186", "postcode": "9135", "place": "Eisenkappel-Vellach", "lat": 46.4841098, "lon": 14.5927241, "tags": {"addr:city": "Eisenkappel-Vellach", "addr:housenumber": "186", "addr:place": "Bad Eisenkappel", "addr:postcode": "9135", "amenity": "police", "name": "Polizeiinspektion Bad Eisenkappel", "phone": "+43 59133 2145200"}, "content": "Polizeiinspektion Bad Eisenkappel\nKategorie: amenity:police\nAdresse: 186, 9135 Eisenkappel-Vellach\nOrt: Eisenkappel-Vellach\nPLZ: 9135\nKoordinaten: 46.484110, 14.592724\nTags: amenity=police, phone=+43 59133 2145200", "doc_type": "addresses"}
{"source": "OSM", "region": "Kärnten", "osm_type": "node", "osm_id": 5133315259, "name": null, "category": null, "address": "206, 9135 Eisenkappel-Vellach", "street": null, "housenumber": "206", "postcode": "9135", "place": "Eisenkappel-Vellach", "lat": 46.484098, "lon": 14.5928238, "tags": {"addr:city": "Eisenkappel-Vellach", "addr:housenumber": "206", "addr:place": "Bad Eisenkappel", "addr:postcode": "9135"}, "content": "Adresse: 206, 9135 Eisenkappel-Vellach\nOrt: Eisenkappel-Vellach\nPLZ: 9135\nKoordinaten: 46.484098, 14.592824", "doc_type": "addresses"}
{"source": "OSM", "region": "Kärnten", "osm_type": "node", "osm_id": 5133315260, "name": null, "category": null, "address": "186, 9135 Eisenkappel-Vellach", "street": null, "housenumber": "186", "postcode": "9135", "place": "Eisenkappel-Vellach", "lat": 46.484086, "lon": 14.5927566, "tags": {"addr:city": "Eisenkappel-Vellach", "addr:housenumber": "186", "addr:place": "Bad Eisenkappel", "addr:postcode": "9135"}, "content": "Adresse: 186, 9135 Eisenkappel-Vellach\nOrt: Eisenkappel-Vellach\nPLZ: 9135\nKoordinaten: 46.484086, 14.592757", "doc_type": "addresses"}
{"source": "OSM", "region": "Kärnten", "osm_type": "node", "osm_id": 5299993974, "name": null, "category": null, "address": "151, 9135 Eisenkappel-Vellach", "street": null, "housenumber": "151", "postcode": "9135", "place": "Eisenkappel-Vellach", "lat": 46.4885924, "lon": 14.5913836, "tags": {"addr:city": "Eisenkappel-Vellach", "addr:housenumber": "151", "addr:place": "Bad Eisenkappel", "addr:postcode": "9135"}, "content": "Adresse: 151, 9135 Eisenkappel-Vellach\nOrt: Eisenkappel-Vellach\nPLZ: 9135\nKoordinaten: 46.488592, 14.591384", "doc_type": "addresses"}
{"source": "OSM", "region": "Kärnten", "osm_type": "node", "osm_id": 5299993975, "name": null, "category": null, "address": "150, 9135 Eisenkappel-Vellach", "street": null, "housenumber": "150", "postcode": "9135", "place": "Eisenkappel-Vellach", "lat": 46.4887573, "lon": 14.5912208, "tags": {"addr:city": "Eisenkappel-Vellach", "addr:housenumber": "150", "addr:place": "Bad Eisenkappel", "addr:postcode": "9135"}, "content": "Adresse: 150, 9135 Eisenkappel-Vellach\nOrt: Eisenkappel-Vellach\nPLZ: 9135\nKoordinaten: 46.488757, 14.591221", "doc_type": "addresses"}
{"source": "OSM", "region": "Kärnten", "osm_type": "node", "osm_id": 5311994512, "name": null, "category": null, "address": "1, 9135 Eisenkappel-Vellach", "street": null, "housenumber": "1", "postcode": "9135", "place": "Eisenkappel-Vellach", "lat": 46.4803893, "lon": 14.5916502, "tags": {"addr:city": "Eisenkappel-Vellach", "addr:housenumber": "1", "addr:place": "Vellach", "addr:postcode": "9135"}, "content": "Adresse: 1, 9135 Eisenkappel-Vellach\nOrt: Eisenkappel-Vellach\nPLZ: 9135\nKoordinaten: 46.480389, 14.591650", "doc_type": "addresses"}
{"source": "OSM", "region": "Kärnten", "osm_type": "node", "osm_id": 5321123145, "name": null, "category": null, "address": "314, 9135 Eisenkappel-Vellach", "street": null, "housenumber": "314", "postcode": "9135", "place": "Eisenkappel-Vellach", "lat": 46.4901897, "lon": 14.5943866, "tags": {"addr:city": "Eisenkappel-Vellach", "addr:housenumber": "314", "addr:place": "Bad Eisenkappel", "addr:postcode": "9135"}, "content": "Adresse: 314, 9135 Eisenkappel-Vellach\nOrt: Eisenkappel-Vellach\nPLZ: 9135\nKoordinaten: 46.490190, 14.594387", "doc_type": "addresses"}
{"source": "OSM", "region": "Kärnten", "osm_type": "node", "osm_id": 5321123146, "name": null, "category": null, "address": "315, 9135 Eisenkappel-Vellach", "street": null, "housenumber": "315", "postcode": "9135", "place": "Eisenkappel-Vellach", "lat": 46.490034, "lon": 14.5945496, "tags": {"addr:city": "Eisenkappel-Vellach", "addr:housenumber": "315", "addr:place": "Bad Eisenkappel", "addr:postcode": "9135"}, "content": "Adresse: 315, 9135 Eisenkappel-Vellach\nOrt: Eisenkappel-Vellach\nPLZ: 9135\nKoordinaten: 46.490034, 14.594550", "doc_type": "addresses"}
{"source": "OSM", "region": "Kärnten", "osm_type": "node", "osm_id": 5321123147, "name": null, "category": null, "address": "308, 9135 Eisenkappel-Vellach", "street": null, "housenumber": "308", "postcode": "9135", "place": "Eisenkappel-Vellach", "lat": 46.490325, "lon": 14.5938242, "tags": {"addr:city": "Eisenkappel-Vellach", "addr:housenumber": "308", "addr:place": "Bad Eisenkappel", "addr:postcode": "9135"}, "content": "Adresse: 308, 9135 Eisenkappel-Vellach\nOrt: Eisenkappel-Vellach\nPLZ: 9135\nKoordinaten: 46.490325, 14.593824", "doc_type": "addresses"}
{"source": "OSM", "region": "Kärnten", "osm_type": "node", "osm_id": 5321123148, "name": null, "category": null, "address": "309, 9135 Eisenkappel-Vellach", "street": null, "housenumber": "309", "postcode": "9135", "place": "Eisenkappel-Vellach", "lat": 46.4901498, "lon": 14.5939416, "tags": {"addr:city": "Eisenkappel-Vellach", "addr:housenumber": "309", "addr:place": "Bad Eisenkappel", "addr:postcode": "9135"}, "content": "Adresse: 309, 9135 Eisenkappel-Vellach\nOrt: Eisenkappel-Vellach\nPLZ: 9135\nKoordinaten: 46.490150, 14.593942", "doc_type": "addresses"}
{"source": "OSM", "region": "Kärnten", "osm_type": "node", "osm_id": 5321123182, "name": null, "category": null, "address": "301, 9135 Eisenkappel-Vellach", "street": null, "housenumber": "301", "postcode": "9135", "place": "Eisenkappel-Vellach", "lat": 46.4897532, "lon": 14.5927451, "tags": {"addr:city": "Eisenkappel-Vellach", "addr:housenumber": "301", "addr:place": "Bad Eisenkappel", "addr:postcode": "9135"}, "content": "Adresse: 301, 9135 Eisenkappel-Vellach\nOrt: Eisenkappel-Vellach\nPLZ: 9135\nKoordinaten: 46.489753, 14.592745", "doc_type": "addresses"}
{"source": "OSM", "region": "Kärnten", "osm_type": "node", "osm_id": 5321123183, "name": null, "category": null, "address": "302, 9135 Eisenkappel-Vellach", "street": null, "housenumber": "302", "postcode": "9135", "place": "Eisenkappel-Vellach", "lat": 46.4895864, "lon": 14.5928717, "tags": {"addr:city": "Eisenkappel-Vellach", "addr:housenumber": "302", "addr:place": "Bad Eisenkappel", "addr:postcode": "9135"}, "content": "Adresse: 302, 9135 Eisenkappel-Vellach\nOrt: Eisenkappel-Vellach\nPLZ: 9135\nKoordinaten: 46.489586, 14.592872", "doc_type": "addresses"}
{"source": "OSM", "region": "Kärnten", "osm_type": "node", "osm_id": 5321123223, "name": null, "category": null, "address": "247, 9135 Eisenkappel-Vellach", "street": null, "housenumber": "247", "postcode": "9135", "place": "Eisenkappel-Vellach", "lat": 46.4905295, "lon": 14.5888116, "tags": {"addr:city": "Eisenkappel-Vellach", "addr:housenumber": "247", "addr:place": "Bad Eisenkappel", "addr:postcode": "9135"}, "content": "Adresse: 247, 9135 Eisenkappel-Vellach\nOrt: Eisenkappel-Vellach\nPLZ: 9135\nKoordinaten: 46.490530, 14.588812", "doc_type": "addresses"}
{"source": "OSM", "region": "Kärnten", "osm_type": "node", "osm_id": 5324576273, "name": null, "category": null, "address": "160, 9135 Eisenkappel-Vellach", "street": null, "housenumber": "160", "postcode": "9135", "place": "Eisenkappel-Vellach", "lat": 46.473943, "lon": 14.5917905, "tags": {"addr:city": "Eisenkappel-Vellach", "addr:housenumber": "160", "addr:place": "Vellach", "addr:postcode": "9135"}, "content": "Adresse: 160, 9135 Eisenkappel-Vellach\nOrt: Eisenkappel-Vellach\nPLZ: 9135\nKoordinaten: 46.473943, 14.591791", "doc_type": "addresses"}
{"source": "OSM", "region": "Kärnten", "osm_type": "node", "osm_id": 5326105324, "name": null, "category": null, "address": "158, 9135 Eisenkappel-Vellach", "street": null, "housenumber": "158", "postcode": "9135", "place": "Eisenkappel-Vellach", "lat": 46.474049, "lon": 14.5914132, "tags": {"addr:city": "Eisenkappel-Vellach", "addr:housenumber": "158", "addr:place": "Vellach", "addr:postcode": "9135"}, "content": "Adresse: 158, 9135 Eisenkappel-Vellach\nOrt: Eisenkappel-Vellach\nPLZ: 9135\nKoordinaten: 46.474049, 14.591413", "doc_type": "addresses"}
{"source": "OSM", "region": "Kärnten", "osm_type": "node", "osm_id": 5327271267, "name": null, "category": null, "address": "11, 9135 Eisenkappel-Vellach", "street": null, "housenumber": "11", "postcode": "9135", "place": "Eisenkappel-Vellach", "lat": 46.5180174, "lon": 14.5780528, "tags": {"addr:city": "Eisenkappel-Vellach", "addr:housenumber": "11", "addr:place": "Blasnitzen", "addr:postcode": "9135"}, "content": "Adresse: 11, 9135 Eisenkappel-Vellach\nOrt: Eisenkappel-Vellach\nPLZ: 9135\nKoordinaten: 46.518017, 14.578053", "doc_type": "addresses"}
{"source": "OSM", "region": "Kärnten", "osm_type": "node", "osm_id": 5327271311, "name": null, "category": null, "address": "9, 9135 Eisenkappel-Vellach", "street": null, "housenumber": "9", "postcode": "9135", "place": "Eisenkappel-Vellach", "lat": 46.518485, "lon": 14.5791145, "tags": {"addr:city": "Eisenkappel-Vellach", "addr:housenumber": "9", "addr:place": "Blasnitzen", "addr:postcode": "9135"}, "content": "Adresse: 9, 9135 Eisenkappel-Vellach\nOrt: Eisenkappel-Vellach\nPLZ: 9135\nKoordinaten: 46.518485, 14.579114", "doc_type": "addresses"}
{"source": "OSM", "region": "Kärnten", "osm_type": "node", "osm_id": 5329527335, "name": null, "category": null, "address": "39, 9135 Eisenkappel-Vellach", "street": null, "housenumber": "39", "postcode": "9135", "place": "Eisenkappel-Vellach", "lat": 46.5131599, "lon": 14.5410689, "tags": {"addr:city": "Eisenkappel-Vellach", "addr:housenumber": "39", "addr:place": "Zauchen", "addr:postcode": "9135"}, "content": "Adresse: 39, 9135 Eisenkappel-Vellach\nOrt: Eisenkappel-Vellach\nPLZ: 9135\nKoordinaten: 46.513160, 14.541069", "doc_type": "addresses"}
{"source": "OSM", "region": "Kärnten", "osm_type": "node", "osm_id": 5329527338, "name": null, "category": null, "address": "41, 9135 Eisenkappel-Vellach", "street": null, "housenumber": "41", "postcode": "9135", "place": "Eisenkappel-Vellach", "lat": 46.519413, "lon": 14.5735107, "tags": {"addr:city": "Eisenkappel-Vellach", "addr:housenumber": "41", "addr:place": "Zauchen", "addr:postcode": "9135"}, "content": "Adresse: 41, 9135 Eisenkappel-Vellach\nOrt: Eisenkappel-Vellach\nPLZ: 9135\nKoordinaten: 46.519413, 14.573511", "doc_type": "addresses"}
{"source": "OSM", "region": "Kärnten", "osm_type": "node", "osm_id": 5329552127, "name": null, "category": null, "address": "77, 9135 Eisenkappel-Vellach", "street": null, "housenumber": "77", "postcode": "9135", "place": "Eisenkappel-Vellach", "lat": 46.4533786, "lon": 14.5725126, "tags": {"addr:city": "Eisenkappel-Vellach", "addr:housenumber": "77", "addr:place": "Vellach", "addr:postcode": "9135"}, "content": "Adresse: 77, 9135 Eisenkappel-Vellach\nOrt: Eisenkappel-Vellach\nPLZ: 9135\nKoordinaten: 46.453379, 14.572513", "doc_type": "addresses"}
{"source": "OSM", "region": "Kärnten", "osm_type": "node", "osm_id": 5329552128, "name": null, "category": null, "address": "10, 9135 Eisenkappel-Vellach", "street": null, "housenumber": "10", "postcode": "9135", "place": "Eisenkappel-Vellach", "lat": 46.4764358, "lon": 14.5911733, "tags": {"addr:city": "Eisenkappel-Vellach", "addr:housenumber": "10", "addr:place": "Vellach", "addr:postcode": "9135"}, "content": "Adresse: 10, 9135 Eisenkappel-Vellach\nOrt: Eisenkappel-Vellach\nPLZ: 9135\nKoordinaten: 46.476436, 14.591173", "doc_type": "addresses"}
{"source": "OSM", "region": "Kärnten", "osm_type": "node", "osm_id": 5329552129, "name": null, "category": null, "address": "50, 9135 Eisenkappel-Vellach", "street": null, "housenumber": "50", "postcode": "9135", "place": "Eisenkappel-Vellach", "lat": 46.4792362, "lon": 14.5934881, "tags": {"addr:city": "Eisenkappel-Vellach", "addr:housenumber": "50", "addr:place": "Leppen", "addr:postcode": "9135"}, "content": "Adresse: 50, 9135 Eisenkappel-Vellach\nOrt: Eisenkappel-Vellach\nPLZ: 9135\nKoordinaten: 46.479236, 14.593488", "doc_type": "addresses"}
{"source": "OSM", "region": "Kärnten", "osm_type": "node", "osm_id": 5366449206, "name": null, "category": null, "address": "98, 9135 Eisenkappel-Vellach", "street": null, "housenumber": "98", "postcode": "9135", "place": "Eisenkappel-Vellach", "lat": 46.4713856, "lon": 14.4941731, "tags": {"addr:city": "Eisenkappel-Vellach", "addr:housenumber": "98", "addr:place": "Ebriach", "addr:postcode": "9135"}, "content": "Adresse: 98, 9135 Eisenkappel-Vellach\nOrt: Eisenkappel-Vellach\nPLZ: 9135\nKoordinaten: 46.471386, 14.494173", "doc_type": "addresses"}
{"source": "OSM", "region": "Kärnten", "osm_type": "node", "osm_id": 5367854030, "name": null, "category": null, "address": "105, 9135 Eisenkappel-Vellach", "street": null, "housenumber": "105", "postcode": "9135", "place": "Eisenkappel-Vellach", "lat": 46.4770797, "lon": 14.5553444, "tags": {"addr:city": "Eisenkappel-Vellach", "addr:housenumber": "105", "addr:place": "Ebriach", "addr:postcode": "9135"}, "content": "Adresse: 105, 9135 Eisenkappel-Vellach\nOrt: Eisenkappel-Vellach\nPLZ: 9135\nKoordinaten: 46.477080, 14.555344", "doc_type": "addresses"}
{"source": "OSM", "region": "Kärnten", "osm_type": "node", "osm_id": 5368795299, "name": null, "category": null, "address": "183, 9135 Eisenkappel-Vellach", "street": null, "housenumber": "183", "postcode": "9135", "place": "Eisenkappel-Vellach", "lat": 46.4812153, "lon": 14.5506434, "tags": {"addr:city": "Eisenkappel-Vellach", "addr:housenumber": "183", "addr:place": "Ebriach", "addr:postcode": "9135"}, "content": "Adresse: 183, 9135 Eisenkappel-Vellach\nOrt: Eisenkappel-Vellach\nPLZ: 9135\nKoordinaten: 46.481215, 14.550643", "doc_type": "addresses"}
{"source": "OSM", "region": "Kärnten", "osm_type": "node", "osm_id": 5368796243, "name": null, "category": null, "address": "57a, 9135 Eisenkappel-Vellach", "street": null, "housenumber": "57a", "postcode": "9135", "place": "Eisenkappel-Vellach", "lat": 46.4704002, "lon": 14.5169744, "tags": {"addr:city": "Eisenkappel-Vellach", "addr:housenumber": "57a", "addr:place": "Ebriach", "addr:postcode": "9135"}, "content": "Adresse: 57a, 9135 Eisenkappel-Vellach\nOrt: Eisenkappel-Vellach\nPLZ: 9135\nKoordinaten: 46.470400, 14.516974", "doc_type": "addresses"}
{"source": "OSM", "region": "Kärnten", "osm_type": "node", "osm_id": 5368796244, "name": null, "category": null, "address": "57, 9135 Eisenkappel-Vellach", "street": null, "housenumber": "57", "postcode": "9135", "place": "Eisenkappel-Vellach", "lat": 46.4706713, "lon": 14.5170009, "tags": {"addr:city": "Eisenkappel-Vellach", "addr:housenumber": "57", "addr:place": "Ebriach", "addr:postcode": "9135"}, "content": "Adresse: 57, 9135 Eisenkappel-Vellach\nOrt: Eisenkappel-Vellach\nPLZ: 9135\nKoordinaten: 46.470671, 14.517001", "doc_type": "addresses"}
{"source": "OSM", "region": "Kärnten", "osm_type": "node", "osm_id": 5368995610, "name": null, "category": null, "address": "39, 9135 Eisenkappel-Vellach", "street": null, "housenumber": "39", "postcode": "9135", "place": "Eisenkappel-Vellach", "lat": 46.4230448, "lon": 14.5375435, "tags": {"addr:city": "Eisenkappel-Vellach", "addr:housenumber": "39", "addr:place": "Vellach", "addr:postcode": "9135"}, "content": "Adresse: 39, 9135 Eisenkappel-Vellach\nOrt: Eisenkappel-Vellach\nPLZ: 9135\nKoordinaten: 46.423045, 14.537543", "doc_type": "addresses"}
{"source": "OSM", "region": "Kärnten", "osm_type": "node", "osm_id": 5368996427, "name": null, "category": null, "address": "28, 9135 Eisenkappel-Vellach", "street": null, "housenumber": "28", "postcode": "9135", "place": "Eisenkappel-Vellach", "lat": 46.410344, "lon": 14.5611924, "tags": {"addr:city": "Eisenkappel-Vellach", "addr:housenumber": "28", "addr:place": "Vellach", "addr:postcode": "9135"}, "content": "Adresse: 28, 9135 Eisenkappel-Vellach\nOrt: Eisenkappel-Vellach\nPLZ: 9135\nKoordinaten: 46.410344, 14.561192", "doc_type": "addresses"}
{"source": "OSM", "region": "Kärnten", "osm_type": "node", "osm_id": 5368996486, "name": null, "category": null, "address": "106, 9135 Eisenkappel-Vellach", "street": null, "housenumber": "106", "postcode": "9135", "place": "Eisenkappel-Vellach", "lat": 46.4344538, "lon": 14.5743915, "tags": {"addr:city": "Eisenkappel-Vellach", "addr:housenumber": "106", "addr:place": "Vellach", "addr:postcode": "9135"}, "content": "Adresse: 106, 9135 Eisenkappel-Vellach\nOrt: Eisenkappel-Vellach\nPLZ: 9135\nKoordinaten: 46.434454, 14.574392", "doc_type": "addresses"}
{"source": "OSM", "region": "Kärnten", "osm_type": "node", "osm_id": 5368996503, "name": null, "category": null, "address": "20, 9135 Eisenkappel-Vellach", "street": null, "housenumber": "20", "postcode": "9135", "place": "Eisenkappel-Vellach", "lat": 46.4331615, "lon": 14.5563207, "tags": {"addr:city": "Eisenkappel-Vellach", "addr:housenumber": "20", "addr:place": "Vellach", "addr:postcode": "9135"}, "content": "Adresse: 20, 9135 Eisenkappel-Vellach\nOrt: Eisenkappel-Vellach\nPLZ: 9135\nKoordinaten: 46.433161, 14.556321", "doc_type": "addresses"}
{"source": "OSM", "region": "Kärnten", "osm_type": "node", "osm_id": 5370129462, "name": null, "category": null, "address": "11, 9135 Eisenkappel-Vellach", "street": null, "housenumber": "11", "postcode": "9135", "place": "Eisenkappel-Vellach", "lat": 46.4369451, "lon": 14.4872246, "tags": {"addr:city": "Eisenkappel-Vellach", "addr:housenumber": "11", "addr:place": "Trögern", "addr:postcode": "9135"}, "content": "Adresse: 11, 9135 Eisenkappel-Vellach\nOrt: Eisenkappel-Vellach\nPLZ: 9135\nKoordinaten: 46.436945, 14.487225", "doc_type": "addresses"}
{"source": "OSM", "region": "Kärnten", "osm_type": "node", "osm_id": 5371317225, "name": null, "category": null, "address": "66, 9135 Eisenkappel-Vellach", "street": null, "housenumber": "66", "postcode": "9135", "place": "Eisenkappel-Vellach", "lat": 46.4288906, "lon": 14.5506618, "tags": {"addr:city": "Eisenkappel-Vellach", "addr:housenumber": "66", "addr:place": "Vellach", "addr:postcode": "9135"}, "content": "Adresse: 66, 9135 Eisenkappel-Vellach\nOrt: Eisenkappel-Vellach\nPLZ: 9135\nKoordinaten: 46.428891, 14.550662", "doc_type": "addresses"}
{"source": "OSM", "region": "Kärnten", "osm_type": "node", "osm_id": 5371317226, "name": null, "category": null, "address": "102, 9135 Eisenkappel-Vellach", "street": null, "housenumber": "102", "postcode": "9135", "place": "Eisenkappel-Vellach", "lat": 46.4272649, "lon": 14.5497617, "tags": {"addr:city": "Eisenkappel-Vellach", "addr:housenumber": "102", "addr:place": "Vellach", "addr:postcode": "9135"}, "content": "Adresse: 102, 9135 Eisenkappel-Vellach\nOrt: Eisenkappel-Vellach\nPLZ: 9135\nKoordinaten: 46.427265, 14.549762", "doc_type": "addresses"}
{"source": "OSM", "region": "Kärnten", "osm_type": "node", "osm_id": 5371317301, "name": null, "category": null, "address": "19, 9135 Eisenkappel-Vellach", "street": null, "housenumber": "19", "postcode": "9135", "place": "Eisenkappel-Vellach", "lat": 46.4495039, "lon": 14.5113821, "tags": {"addr:city": "Eisenkappel-Vellach", "addr:housenumber": "19", "addr:place": "Trögern", "addr:postcode": "9135"}, "content": "Adresse: 19, 9135 Eisenkappel-Vellach\nOrt: Eisenkappel-Vellach\nPLZ: 9135\nKoordinaten: 46.449504, 14.511382", "doc_type": "addresses"}
{"source": "OSM", "region": "Kärnten", "osm_type": "node", "osm_id": 5373155223, "name": null, "category": null, "address": "42, 9135 Eisenkappel-Vellach", "street": null, "housenumber": "42", "postcode": "9135", "place": "Eisenkappel-Vellach", "lat": 46.491452, "lon": 14.6249368, "tags": {"addr:city": "Eisenkappel-Vellach", "addr:housenumber": "42", "addr:place": "Lobnig", "addr:postcode": "9135"}, "content": "Adresse: 42, 9135 Eisenkappel-Vellach\nOrt: Eisenkappel-Vellach\nPLZ: 9135\nKoordinaten: 46.491452, 14.624937", "doc_type": "addresses"}
{"source": "OSM", "region": "Kärnten", "osm_type": "node", "osm_id": 5373399760, "name": null, "category": null, "address": "25, 9135 Eisenkappel-Vellach", "street": null, "housenumber": "25", "postcode": "9135", "place": "Eisenkappel-Vellach", "lat": 46.4970179, "lon": 14.6623554, "tags": {"addr:city": "Eisenkappel-Vellach", "addr:housenumber": "25", "addr:place": "Lobnig", "addr:postcode": "9135"}, "content": "Adresse: 25, 9135 Eisenkappel-Vellach\nOrt: Eisenkappel-Vellach\nPLZ: 9135\nKoordinaten: 46.497018, 14.662355", "doc_type": "addresses"}
{"source": "OSM", "region": "Kärnten", "osm_type": "node", "osm_id": 5373470919, "name": null, "category": null, "address": "56, 9135 Eisenkappel-Vellach", "street": null, "housenumber": "56", "postcode": "9135", "place": "Eisenkappel-Vellach", "lat": 46.4665868, "lon": 14.6952299, "tags": {"addr:city": "Eisenkappel-Vellach", "addr:housenumber": "56", "addr:place": "Remschenig", "addr:postcode": "9135"}, "content": "Adresse: 56, 9135 Eisenkappel-Vellach\nOrt: Eisenkappel-Vellach\nPLZ: 9135\nKoordinaten: 46.466587, 14.695230", "doc_type": "addresses"}
{"source": "OSM", "region": "Kärnten", "osm_type": "node", "osm_id": 5373471425, "name": null, "category": null, "address": "21, 9135 Eisenkappel-Vellach", "street": null, "housenumber": "21", "postcode": "9135", "place": "Eisenkappel-Vellach", "lat": 46.4461417, "lon": 14.6401, "tags": {"addr:city": "Eisenkappel-Vellach", "addr:housenumber": "21", "addr:place": "Remschenig", "addr:postcode": "9135"}, "content": "Adresse: 21, 9135 Eisenkappel-Vellach\nOrt: Eisenkappel-Vellach\nPLZ: 9135\nKoordinaten: 46.446142, 14.640100", "doc_type": "addresses"}
{"source": "OSM", "region": "Kärnten", "osm_type": "node", "osm_id": 5506703777, "name": null, "category": null, "address": "30, 9135 Eisenkappel-Vellach", "street": null, "housenumber": "30", "postcode": "9135", "place": "Eisenkappel-Vellach", "lat": 46.5050013, "lon": 14.6930864, "tags": {"addr:city": "Eisenkappel-Vellach", "addr:housenumber": "30", "addr:place": "Koprein Petzen", "addr:postcode": "9135"}, "content": "Adresse: 30, 9135 Eisenkappel-Vellach\nOrt: Eisenkappel-Vellach\nPLZ: 9135\nKoordinaten: 46.505001, 14.693086", "doc_type": "addresses"}
{"source": "OSM", "region": "Kärnten", "osm_type": "node", "osm_id": 3996059798, "name": "Marktstube ALEX", "category": "amenity:biergarten", "address": "24, 9135 Eisenkappel-Vellach", "street": null, "housenumber": "24", "postcode": "9135", "place": "Eisenkappel-Vellach", "lat": 46.485682, "lon": 14.5936875, "tags": {"addr:city": "Eisenkappel-Vellach", "addr:housenumber": "24", "addr:place": "Bad Eisenkappel", "addr:postcode": "9135", "amenity": "biergarten", "name": "Marktstube ALEX", "phone": "+43 4238 750"}, "content": "Marktstube ALEX\nKategorie: amenity:biergarten\nAdresse: 24, 9135 Eisenkappel-Vellach\nOrt: Eisenkappel-Vellach\nPLZ: 9135\nKoordinaten: 46.485682, 14.593687\nTags: amenity=biergarten, phone=+43 4238 750", "doc_type": "pois"}
{"source": "OSM", "region": "Kärnten", "osm_type": "node", "osm_id": 5133315237, "name": "Polizeiinspektion Bad Eisenkappel", "category": "amenity:police", "address": "186, 9135 Eisenkappel-Vellach", "street": null, "housenumber": "186", "postcode": "9135", "place": "Eisenkappel-Vellach", "lat": 46.4841098, "lon": 14.5927241, "tags": {"addr:city": "Eisenkappel-Vellach", "addr:housenumber": "186", "addr:place": "Bad Eisenkappel", "addr:postcode": "9135", "amenity": "police", "name": "Polizeiinspektion Bad Eisenkappel", "phone": "+43 59133 2145200"}, "content": "Polizeiinspektion Bad Eisenkappel\nKategorie: amenity:police\nAdresse: 186, 9135 Eisenkappel-Vellach\nOrt: Eisenkappel-Vellach\nPLZ: 9135\nKoordinaten: 46.484110, 14.592724\nTags: amenity=police, phone=+43 59133 2145200", "doc_type": "pois"}
