{"source": "OSM", "region": "Kärnten", "osm_type": "node", "osm_id": 336004040, "name": "Antiquitäten", "category": "shop:antiques", "address": "Ossiacher Straße 33, 9523 Villach-Landskron", "street": "Ossiacher Straße", "housenumber": "33", "postcode": "9523", "place": "Villach-Landskron", "lat": 46.6319093, "lon": 13.8812313, "tags": {"addr:city": "Villach-Landskron", "addr:housenumber": "33", "addr:postcode": "9523", "addr:street": "Ossiacher Straße", "name": "Antiquitäten", "shop": "antiques"}, "content": "Antiquitäten\nKategorie: shop:antiques\nAdresse: Ossiacher Straße 33, 9523 Villach-Landskron\nOrt: Villach-Landskron\nPLZ: 9523\nKoordinaten: 46.631909, 13.881231\nTags: shop=antiques", "doc_type": "addresses"}
{"source": "OSM", "region": "Kärnten", "osm_type": "node", "osm_id": 336019787, "name": "Freiwillige Feuerwehr Landskron", "category": "amenity:fire_station", "address": "Gemeindeweg 4, 9523 Villach-Landskron", "street": "Gemeindeweg", "housenumber": "4", "postcode": "9523", "place": "Villach-Landskron", "lat": 46.6243251, "lon": 13.8751675, "tags": {"addr:city": "Villach-Landskron", "addr:housenumber": "4", "addr:postcode": "9523", "addr:street": "Gemeindeweg", "amenity": "fire_station", "name": "Freiwillige Feuerwehr Landskron"}, "content": "Freiwillige Feuerwehr Landskron\nKategorie: amenity:fire_station\nAdresse: Gemeindeweg 4, 9523 Villach-Landskron\nOrt: Villach-Landskron\nPLZ: 9523\nKoordinaten: 46.624325, 13.875167\nTags: amenity=fire_station", "doc_type": "addresses"}
{"source": "OSM", "region": "Kärnten", "osm_type": "node", "osm_id": 339665923, "name": "A1", "category": "amenity:fuel", "address": "Triester Straße 45, 9523 Villach-Landskron", "street": "Triester Straße", "housenumber": "45", "postcode": "9523", "place": "Villach-Landskron", "lat": 46.626045, "lon": 13.8751667, "tags": {"addr:city": "Villach-Landskron", "addr:housenumber": "45", "addr:postcode": "9523", "addr:street": "Triester Straße", "amenity": "fuel", "brand": "A1", "name": "A1", "operator": "A1 Tankstellenbetrieb GmbH"}, "content": "A1\nKategorie: amenity:fuel\nAdresse: Triester Straße 45, 9523 Villach-Landskron\nOrt: Villach-Landskron\nPLZ: 9523\nKoordinaten: 46.626045, 13.875167\nTags: amenity=fuel, operator=A1 Tankstellenbetrieb GmbH, brand=A1", "doc_type": "addresses"}
{"source": "OSM", "region": "Kärnten", "osm_type": "node", "osm_id": 340517826, "name": "Post Filiale 9523", "category": "amenity:post_office", "address": "Volkshausstraße 4, 9523 Villach-Landskron", "street": "Volkshausstraße", "housenumber": "4", "postcode": "9523", "place": "Villach-Landskron", "lat": 46.6346383, "lon": 13.8852627, "tags": {"addr:city": "Villach-Landskron", "addr:housenumber": "4", "addr:postcode": "9523", "addr:street": "Volkshausstraße", "amenity": "post_office", "name": "Post Filiale 9523", "operator": "Österreichische Post AG", "website": "https://www.post.at"}, "content": "Post Filiale 9523\nKategorie: amenity:post_office\nAdresse: Volkshausstraße 4, 9523 Villach-Landskron\nOrt: Villach-Landskron\nPLZ: 9523\nKoordinaten: 46.634638, 13.885263\nTags: amenity=post_office, operator=Österreichische Post AG, website=https://www.post.at", "doc_type": "addresses"}
{"source": "OSM", "region": "Kärnten", "osm_type": "node", "osm_id": 347306717, "name": "Kindergarten Landskron", "category": "amenity:kindergarten", "address": "Landskroner Siedlerstraße 2, 9523 Villach-Landskron", "street": "Landskroner Siedlerstraße", "housenumber": "2", "postcode": "9523", "place": "Villach-Landskron", "lat": 46.6294282, "lon": 13.8789066, "tags": {"addr:city": "Villach-Landskron", "addr:housenumber": "2", "addr:postcode": "9523", "addr:street": "Landskroner Siedlerstraße", "amenity": "kindergarten", "name": "Kindergarten Landskron"}, "content": "Kindergarten Landskron\nKategorie: amenity:kindergarten\nAdresse: Landskroner Siedlerstraße 2, 9523 Villach-Landskron\nOrt: Villach-Landskron\nPLZ: 9523\nKoordinaten: 46.629428, 13.878907\nTags: amenity=kindergarten", "doc_type": "addresses"}
{"source": "OSM", "region": "Kärnten", "osm_type": "node", "osm_id": 348024783, "name": "Apotheke Landskron", "category": "amenity:pharmacy", "address": "Ossiacher Straße 34, 9523 Villach-Landskron", "street": "Ossiacher Straße", "housenumber": "34", "postcode": "9523", "place": "Villach-Landskron", "lat": 46.6354367, "lon": 13.8834579, "tags": {"addr:city": "Villach-Landskron", "addr:housenumber": "34", "addr:postcode": "9523", "addr:street": "Ossiacher Straße", "amenity": "pharmacy", "healthcare": "pharmacy", "name": "Apotheke Landskron", "phone": "+43 4242 419880", "website": "https://www.apotheke-landskron.at"}, "content": "Apotheke Landskron\nKategorie: amenity:pharmacy\nAdresse: Ossiacher Straße 34, 9523 Villach-Landskron\nOrt: Villach-Landskron\nPLZ: 9523\nKoordinaten: 46.635437, 13.883458\nTags: amenity=pharmacy, healthcare=pharmacy, phone=+43 4242 419880, website=https://www.apotheke-landskron.at", "doc_type": "addresses"}
{"source": "OSM", "region": "Kärnten", "osm_type": "node", "osm_id": 348044896, "name": "Blumen B&B", "category": "shop:florist", "address": "Ossiacher Straße 28, 9523 Villach-Landskron", "street": "Ossiacher Straße", "housenumber": "28", "postcode": "9523", "place": "Villach-Landskron", "lat": 46.6347671, "lon": 13.8832271, "tags": {"addr:city": "Villach-Landskron", "addr:housenumber": "28", "addr:postcode": "9523", "addr:street": "Ossiacher Straße", "name": "Blumen B&B", "shop": "florist"}, "content": "Blumen B&B\nKategorie: shop:florist\nAdresse: Ossiacher Straße 28, 9523 Villach-Landskron\nOrt: Villach-Landskron\nPLZ: 9523\nKoordinaten: 46.634767, 13.883227\nTags: shop=florist", "doc_type": "addresses"}
{"source": "OSM", "region": "Kärnten", "osm_type": "node", "osm_id": 1280245554, "name": "Sonnenstudio Krug", "category": "leisure:tanning_salon", "address": "Ossiacher Straße, 9523 Villach-Landskron", "street": "Ossiacher Straße", "housenumber": null, "postcode": "9523", "place": "Villach-Landskron", "lat": 46.6346168, "lon": 13.8831799, "tags": {"addr:city": "Villach-Landskron", "addr:postcode": "9523", "addr:street": "Ossiacher Straße", "leisure": "tanning_salon", "name": "Sonnenstudio Krug", "phone": "+43 664 3201000", "website": "https://www.sonnenstudio-krug.at/landskron.html"}, "content": "Sonnenstudio Krug\nKategorie: leisure:tanning_salon\nAdresse: Ossiacher Straße, 9523 Villach-Landskron\nOrt: Villach-Landskron\nPLZ: 9523\nKoordinaten: 46.634617, 13.883180\nTags: phone=+43 664 3201000, website=https://www.sonnenstudio-krug.at/landskron.html", "doc_type": "addresses"}
{"source": "OSM", "region": "Kärnten", "osm_type": "node", "osm_id": 5357104589, "name": "Friseur Art Walter", "category": "shop:hairdresser", "address": "Ossiacher Straße, 9523 Villach-Landskron", "street": "Ossiacher Straße", "housenumber": null, "postcode": "9523", "place": "Villach-Landskron", "lat": 46.6374932, "lon": 13.8858241, "tags": {"addr:city": "Villach-Landskron", "addr:postcode": "9523", "addr:street": "Ossiacher Straße", "name": "Friseur Art Walter", "shop": "hairdresser"}, "content": "Friseur Art Walter\nKategorie: shop:hairdresser\nAdresse: Ossiacher Straße, 9523 Villach-Landskron\nOrt: Villach-Landskron\nPLZ: 9523\nKoordinaten: 46.637493, 13.885824\nTags: shop=hairdresser", "doc_type": "addresses"}
{"source": "OSM", "region": "Kärnten", "osm_type": "node", "osm_id": 5473806980, "name": "Müller Installationstechnik", "category": "craft:plumber", "address": "Ossiacher Straße 28, 9523 Villach-Landskron", "street": "Ossiacher Straße", "housenumber": "28", "postcode": "9523", "place": "Villach-Landskron", "lat": 46.634781, "lon": 13.8831203, "tags": {"addr:city": "Villach-Landskron", "addr:housenumber": "28", "addr:postcode": "9523", "addr:street": "Ossiacher Straße", "craft": "plumber", "name": "Müller Installationstechnik", "phone": "+43 4242 55025", "website": "https://www.mueller-installationstechnik.at/"}, "content": "Müller Installationstechnik\nKategorie: craft:plumber\nAdresse: Ossiacher Straße 28, 9523 Villach-Landskron\nOrt: Villach-Landskron\nPLZ: 9523\nKoordinaten: 46.634781, 13.883120\nTags: phone=+43 4242 55025, website=https://www.mueller-installationstechnik.at/", "doc_type": "addresses"}
{"source": "OSM", "region": "Kärnten", "osm_type": "node", "osm_id": 5576039099, "name": "Café Mephisto", "category": "amenity:cafe", "address": "Millstätter Straße 1a, 9523 Villach-Landskron", "street": "Millstätter Straße", "housenumber": "1a", "postcode": "9523", "place": "Villach-Landskron", "lat": 46.6274191, "lon": 13.8762236, "tags": {"addr:city": "Villach-Landskron", "addr:housenumber": "1a", "addr:postcode": "9523", "addr:street": "Millstätter Straße", "amenity": "cafe", "name": "Café Mephisto"}, "content": "Café Mephisto\nKategorie: amenity:cafe\nAdresse: Millstätter Straße 1a, 9523 Villach-Landskron\nOrt: Villach-Landskron\nPLZ: 9523\nKoordinaten: 46.627419, 13.876224\nTags: amenity=cafe", "doc_type": "addresses"}
{"source": "OSM", "region": "Kärnten", "osm_type": "node", "osm_id": 336004040, "name": "Antiquitäten", "category": "shop:antiques", "address": "Ossiacher Straße 33, 9523 Villach-Landskron", "street": "Ossiacher Straße", "housenumber": "33", "postcode": "9523", "place": "Villach-Landskron", "lat": 46.6319093, "lon": 13.8812313, "tags": {"addr:city": "Villach-Landskron", "addr:housenumber": "33", "addr:postcode": "9523", "addr:street": "Ossiacher Straße", "name": "Antiquitäten", "shop": "antiques"}, "content": "Antiquitäten\nKategorie: shop:antiques\nAdresse: Ossiacher Straße 33, 9523 Villach-Landskron\nOrt: Villach-Landskron\nPLZ: 9523\nKoordinaten: 46.631909, 13.881231\nTags: shop=antiques", "doc_type": "pois"}
{"source": "OSM", "region": "Kärnten", "osm_type": "node", "osm_id": 336019787, "name": "Freiwillige Feuerwehr Landskron", "category": "amenity:fire_station", "address": "Gemeindeweg 4, 9523 Villach-Landskron", "street": "Gemeindeweg", "housenumber": "4", "postcode": "9523", "place": "Villach-Landskron", "lat": 46.6243251, "lon": 13.8751675, "tags": {"addr:city": "Villach-Landskron", "addr:housenumber": "4", "addr:postcode": "9523", "addr:street": "Gemeindeweg", "amenity": "fire_station", "name": "Freiwillige Feuerwehr Landskron"}, "content": "Freiwillige Feuerwehr Landskron\nKategorie: amenity:fire_station\nAdresse: Gemeindeweg 4, 9523 Villach-Landskron\nOrt: Villach-Landskron\nPLZ: 9523\nKoordinaten: 46.624325, 13.875167\nTags: amenity=fire_station", "doc_type": "pois"}
{"source": "OSM", "region": "Kärnten", "osm_type": "node", "osm_id": 339665923, "name": "A1", "category": "amenity:fuel", "address": "Triester Straße 45, 9523 Villach-Landskron", "street": "Triester Straße", "housenumber": "45", "postcode": "9523", "place": "Villach-Landskron", "lat": 46.626045, "lon": 13.8751667, "tags": {"addr:city": "Villach-Landskron", "addr:housenumber": "45", "addr:postcode": "9523", "addr:street": "Triester Straße", "amenity": "fuel", "brand": "A1", "name": "A1", "operator": "A1 Tankstellenbetrieb GmbH"}, "content": "A1\nKategorie: amenity:fuel\nAdresse: Triester Straße 45, 9523 Villach-Landskron\nOrt: Villach-Landskron\nPLZ: 9523\nKoordinaten: 46.626045, 13.875167\nTags: amenity=fuel, operator=A1 Tankstellenbetrieb GmbH, brand=A1", "doc_type": "pois"}
{"source": "OSM", "region": "Kärnten", "osm_type": "node", "osm_id": 340517826, "name": "Post Filiale 9523", "category": "amenity:post_office", "address": "Volkshausstraße 4, 9523 Villach-Landskron", "street": "Volkshausstraße", "housenumber": "4", "postcode": "9523", "place": "Villach-Landskron", "lat": 46.6346383, "lon": 13.8852627, "tags": {"addr:city": "Villach-Landskron", "addr:housenumber": "4", "addr:postcode": "9523", "addr:street": "Volkshausstraße", "amenity": "post_office", "name": "Post Filiale 9523", "operator": "Österreichische Post AG", "website": "https://www.post.at"}, "content": "Post Filiale 9523\nKategorie: amenity:post_office\nAdresse: Volkshausstraße 4, 9523 Villach-Landskron\nOrt: Villach-Landskron\nPLZ: 9523\nKoordinaten: 46.634638, 13.885263\nTags: amenity=post_office, operator=Österreichische Post AG, website=https://www.post.at", "doc_type": "pois"}
{"source": "OSM", "region": "Kärnten", "osm_type": "node", "osm_id": 347306717, "name": "Kindergarten Landskron", "category": "amenity:kindergarten", "address": "Landskroner Siedlerstraße 2, 9523 Villach-Landskron", "street": "Landskroner Siedlerstraße", "housenumber": "2", "postcode": "9523", "place": "Villach-Landskron", "lat": 46.6294282, "lon": 13.8789066, "tags": {"addr:city": "Villach-Landskron", "addr:housenumber": "2", "addr:postcode": "9523", "addr:street": "Landskroner Siedlerstraße", "amenity": "kindergarten", "name": "Kindergarten Landskron"}, "content": "Kindergarten Landskron\nKategorie: amenity:kindergarten\nAdresse: Landskroner Siedlerstraße 2, 9523 Villach-Landskron\nOrt: Villach-Landskron\nPLZ: 9523\nKoordinaten: 46.629428, 13.878907\nTags: amenity=kindergarten", "doc_type": "pois"}
{"source": "OSM", "region": "Kärnten", "osm_type": "node", "osm_id": 348024783, "name": "Apotheke Landskron", "category": "amenity:pharmacy", "address": "Ossiacher Straße 34, 9523 Villach-Landskron", "street": "Ossiacher Straße", "housenumber": "34", "postcode": "9523", "place": "Villach-Landskron", "lat": 46.6354367, "lon": 13.8834579, "tags": {"addr:city": "Villach-Landskron", "addr:housenumber": "34", "addr:postcode": "9523", "addr:street": "Ossiacher Straße", "amenity": "pharmacy", "healthcare": "pharmacy", "name": "Apotheke Landskron", "phone": "+43 4242 419880", "website": "https://www.apotheke-landskron.at"}, "content": "Apotheke Landskron\nKategorie: amenity:pharmacy\nAdresse: Ossiacher Straße 34, 9523 Villach-Landskron\nOrt: Villach-Landskron\nPLZ: 9523\nKoordinaten: 46.635437, 13.883458\nTags: amenity=pharmacy, healthcare=pharmacy, phone=+43 4242 419880, website=https://www.apotheke-landskron.at", "doc_type": "pois"}
{"source": "OSM", "region": "Kärnten", "osm_type": "node", "osm_id": 348044896, "name": "Blumen B&B", "category": "shop:florist", "address": "Ossiacher Straße 28, 9523 Villach-Landskron", "street": "Ossiacher Straße", "housenumber": "28", "postcode": "9523", "place": "Villach-Landskron", "lat": 46.6347671, "lon": 13.8832271, "tags": {"addr:city": "Villach-Landskron", "addr:housenumber": "28", "addr:postcode": "9523", "addr:street": "Ossiacher Straße", "name": "Blumen B&B", "shop": "florist"}, "content": "Blumen B&B\nKategorie: shop:florist\nAdresse: Ossiacher Straße 28, 9523 Villach-Landskron\nOrt: Villach-Landskron\nPLZ: 9523\nKoordinaten: 46.634767, 13.883227\nTags: shop=florist", "doc_type": "pois"}
{"source": "OSM", "region": "Kärnten", "osm_type": "node", "osm_id": 1280245554, "name": "Sonnenstudio Krug", "category": "leisure:tanning_salon", "address": "Ossiacher Straße, 9523 Villach-Landskron", "street": "Ossiacher Straße", "housenumber": null, "postcode": "9523", "place": "Villach-Landskron", "lat": 46.6346168, "lon": 13.8831799, "tags": {"addr:city": "Villach-Landskron", "addr:postcode": "9523", "addr:street": "Ossiacher Straße", "leisure": "tanning_salon", "name": "Sonnenstudio Krug", "phone": "+43 664 3201000", "website": "https://www.sonnenstudio-krug.at/landskron.html"}, "content": "Sonnenstudio Krug\nKategorie: leisure:tanning_salon\nAdresse: Ossiacher Straße, 9523 Villach-Landskron\nOrt: Villach-Landskron\nPLZ: 9523\nKoordinaten: 46.634617, 13.883180\nTags: phone=+43 664 3201000, website=https://www.sonnenstudio-krug.at/landskron.html", "doc_type": "pois"}
{"source": "OSM", "region": "Kärnten", "osm_type": "node", "osm_id": 5357104589, "name": "Friseur Art Walter", "category": "shop:hairdresser", "address": "Ossiacher Straße, 9523 Villach-Landskron", "street": "Ossiacher Straße", "housenumber": null, "postcode": "9523", "place": "Villach-Landskron", "lat": 46.6374932, "lon": 13.8858241, "tags": {"addr:city": "Villach-Landskron", "addr:postcode": "9523", "addr:street": "Ossiacher Straße", "name": "Friseur Art Walter", "shop": "hairdresser"}, "content": "Friseur Art Walter\nKategorie: shop:hairdresser\nAdresse: Ossiacher Straße, 9523 Villach-Landskron\nOrt: Villach-Landskron\nPLZ: 9523\nKoordinaten: 46.637493, 13.885824\nTags: shop=hairdresser", "doc_type": "pois"}
{"source": "OSM", "region": "Kärnten", "osm_type": "node", "osm_id": 5473806980, "name": "Müller Installationstechnik", "category": "craft:plumber", "address": "Ossiacher Straße 28, 9523 Villach-Landskron", "street": "Ossiacher Straße", "housenumber": "28", "postcode": "9523", "place": "Villach-Landskron", "lat": 46.634781, "lon": 13.8831203, "tags": {"addr:city": "Villach-Landskron", "addr:housenumber": "28", "addr:postcode": "9523", "addr:street": "Ossiacher Straße", "craft": "plumber", "name": "Müller Installationstechnik", "phone": "+43 4242 55025", "website": "https://www.mueller-installationstechnik.at/"}, "content": "Müller Installationstechnik\nKategorie: craft:plumber\nAdresse: Ossiacher Straße 28, 9523 Villach-Landskron\nOrt: Villach-Landskron\nPLZ: 9523\nKoordinaten: 46.634781, 13.883120\nTags: phone=+43 4242 55025, website=https://www.mueller-installationstechnik.at/", "doc_type": "pois"}
{"source": "OSM", "region": "Kärnten", "osm_type": "node", "osm_id": 5576039099, "name": "Café Mephisto", "category": "amenity:cafe", "address": "Millstätter Straße 1a, 9523 Villach-Landskron", "street": "Millstätter Straße", "housenumber": "1a", "postcode": "9523", "place": "Villach-Landskron", "lat": 46.6274191, "lon": 13.8762236, "tags": {"addr:city": "Villach-Landskron", "addr:housenumber": "1a", "addr:postcode": "9523", "addr:street": "Millstätter Straße", "amenity": "cafe", "name": "Café Mephisto"}, "content": "Café Mephisto\nKategorie: amenity:cafe\nAdresse: Millstätter Straße 1a, 9523 Villach-Landskron\nOrt: Villach-Landskron\nPLZ: 9523\nKoordinaten: 46.627419, 13.876224\nTags: amenity=cafe", "doc_type": "pois"}
