{"source": "OSM", "region": "Kärnten", "osm_type": "node", "osm_id": 1381791242, "name": "ADEG", "category": "shop:supermarket", "address": "87, 9413 Frantschach-St. Gertraud", "street": null, "housenumber": "87", "postcode": "9413", "place": "Frantschach-St. Gertraud", "lat": 46.8680503, "lon": 14.876546, "tags": {"addr:city": "Frantschach-St. Gertraud", "addr:housenumber": "87", "addr:place": "St. Gertraud", "addr:postcode": "9413", "brand": "ADEG", "name": "ADEG", "shop": "supermarket"}, "content": "ADEG\nKategorie: shop:supermarket\nAdresse: 87, 9413 Frantschach-St. Gertraud\nOrt: Frantschach-St. Gertraud\nPLZ: 9413\nKoordinaten: 46.868050, 14.876546\nTags: shop=supermarket, brand=ADEG", "doc_type": "addresses"}
{"source": "OSM", "region": "Kärnten", "osm_type": "node", "osm_id": 2596580228, "name": "Euro-Tech Anlagenbau GmbH", "category": "craft:metal_construction", "address": "Am Gewerbepark, 9413 Frantschach-St. Gertraud", "street": "Am Gewerbepark", "housenumber": null, "postcode": "9413", "place": "Frantschach-St. Gertraud", "lat": 46.856589, "lon": 14.8536082, "tags": {"addr:city": "Frantschach-St. Gertraud", "addr:postcode": "9413", "addr:street": "Am Gewerbepark", "craft": "metal_construction", "name": "Euro-Tech Anlagenbau GmbH"}, "content": "Euro-Tech Anlagenbau GmbH\nKategorie: craft:metal_construction\nAdresse: Am Gewerbepark, 9413 Frantschach-St. Gertraud\nOrt: Frantschach-St. Gertraud\nPLZ: 9413\nKoordinaten: 46.856589, 14.853608", "doc_type": "addresses"}
{"source": "OSM", "region": "Kärnten", "osm_type": "node", "osm_id": 5135746064, "name": "Polizeiinspektion St. Gertraud", "category": "amenity:police", "address": "1, 9413 Frantschach-St. Gertraud", "street": null, "housenumber": "1", "postcode": "9413", "place": "Frantschach-St. Gertraud", "lat": 46.8682144, "lon": 14.8759013, "tags": {"addr:city": "Frantschach-St. Gertraud", "addr:housenumber": "1", "addr:place": "St. Gertraud", "addr:postcode": "9413", "amenity": "police", "name": "Polizeiinspektion St. Gertraud", "phone": "+43 59133 2167100"}, "content": "Polizeiinspektion St. Gertraud\nKategorie: amenity:police\nAdresse: 1, 9413 Frantschach-St. Gertraud\nOrt: Frantschach-St. Gertraud\nPLZ: 9413\nKoordinaten: 46.868214, 14.875901\nTags: amenity=police, phone=+43 59133 2167100", "doc_type": "addresses"}
{"source": "OSM", "region": "Kärnten", "osm_type": "node", "osm_id": 5135770314, "name": null, "category": null, "address": "50, 9413 Frantschach-St. Gertraud", "street": null, "housenumber": "50", "postcode": "9413", "place": "Frantschach-St. Gertraud", "lat": 46.8677706, "lon": 14.8757655, "tags": {"addr:city": "Frantschach-St. Gertraud", "addr:housenumber": "50", "addr:place": "St. Gertraud", "addr:postcode": "9413"}, "content": "Adresse: 50, 9413 Frantschach-St. Gertraud\nOrt: Frantschach-St. Gertraud\nPLZ: 9413\nKoordinaten: 46.867771, 14.875765", "doc_type": "addresses"}
{"source": "OSM", "region": "Kärnten", "osm_type": "node", "osm_id": 5135770315, "name": null, "category": null, "address": "49, 9413 Frantschach-St. Gertraud", "street": null, "housenumber": "49", "postcode": "9413", "place": "Frantschach-St. Gertraud", "lat": 46.8676451, "lon": 14.8757353, "tags": {"addr:city": "Frantschach-St. Gertraud", "addr:housenumber": "49", "addr:place": "St. Gertraud", "addr:postcode": "9413"}, "content": "Adresse: 49, 9413 Frantschach-St. Gertraud\nOrt: Frantschach-St. Gertraud\nPLZ: 9413\nKoordinaten: 46.867645, 14.875735", "doc_type": "addresses"}
{"source": "OSM", "region": "Kärnten", "osm_type": "node", "osm_id": 5135770316, "name": null, "category": null, "address": "48, 9413 Frantschach-St. Gertraud", "street": null, "housenumber": "48", "postcode": "9413", "place": "Frantschach-St. Gertraud", "lat": 46.8675195, "lon": 14.8757052, "tags": {"addr:city": "Frantschach-St. Gertraud", "addr:housenumber": "48", "addr:place": "St. Gertraud", "addr:postcode": "9413"}, "content": "Adresse: 48, 9413 Frantschach-St. Gertraud\nOrt: Frantschach-St. Gertraud\nPLZ: 9413\nKoordinaten: 46.867520, 14.875705", "doc_type": "addresses"}
{"source": "OSM", "region": "Kärnten", "osm_type": "node", "osm_id": 5159597845, "name": "Postpartner 9413", "category": "amenity:post_office", "address": "87, 9413 Frantschach-St. Gertraud", "street": null, "housenumber": "87", "postcode": "9413", "place": "Frantschach-St. Gertraud", "lat": 46.868113, "lon": 14.8765734, "tags": {"addr:city": "Frantschach-St. Gertraud", "addr:housenumber": "87", "addr:place": "St. Gertraud", "addr:postcode": "9413", "amenity": "post_office", "name": "Postpartner 9413", "operator": "ADEG"}, "content": "Postpartner 9413\nKategorie: amenity:post_office\nAdresse: 87, 9413 Frantschach-St. Gertraud\nOrt: Frantschach-St. Gertraud\nPLZ: 9413\nKoordinaten: 46.868113, 14.876573\nTags: amenity=post_office, operator=ADEG", "doc_type": "addresses"}
{"source": "OSM", "region": "Kärnten", "osm_type": "node", "osm_id": 5628140700, "name": null, "category": null, "address": "61, 9413 Frantschach-St. Gertraud", "street": null, "housenumber": "61", "postcode": "9413", "place": "Frantschach-St. Gertraud", "lat": 46.8684252, "lon": 14.8756452, "tags": {"addr:city": "Frantschach-St. Gertraud", "addr:housenumber": "61", "addr:place": "St. Gertraud", "addr:postcode": "9413"}, "content": "Adresse: 61, 9413 Frantschach-St. Gertraud\nOrt: Frantschach-St. Gertraud\nPLZ: 9413\nKoordinaten: 46.868425, 14.875645", "doc_type": "addresses"}
{"source": "OSM", "region": "Kärnten", "osm_type": "node", "osm_id": 1381791242, "name": "ADEG", "category": "shop:supermarket", "address": "87, 9413 Frantschach-St. Gertraud", "street": null, "housenumber": "87", "postcode": "9413", "place": "Frantschach-St. Gertraud", "lat": 46.8680503, "lon": 14.876546, "tags": {"addr:city": "Frantschach-St. Gertraud", "addr:housenumber": "87", "addr:place": "St. Gertraud", "addr:postcode": "9413", "brand": "ADEG", "name": "ADEG", "shop": "supermarket"}, "content": "ADEG\nKategorie: shop:supermarket\nAdresse: 87, 9413 Frantschach-St. Gertraud\nOrt: Frantschach-St. Gertraud\nPLZ: 9413\nKoordinaten: 46.868050, 14.876546\nTags: shop=supermarket, brand=ADEG", "doc_type": "pois"}
{"source": "OSM", "region": "Kärnten", "osm_type": "node", "osm_id": 2596580228, "name": "Euro-Tech Anlagenbau GmbH", "category": "craft:metal_construction", "address": "Am Gewerbepark, 9413 Frantschach-St. Gertraud", "street": "Am Gewerbepark", "housenumber": null, "postcode": "9413", "place": "Frantschach-St. Gertraud", "lat": 46.856589, "lon": 14.8536082, "tags": {"addr:city": "Frantschach-St. Gertraud", "addr:postcode": "9413", "addr:street": "Am Gewerbepark", "craft": "metal_construction", "name": "Euro-Tech Anlagenbau GmbH"}, "content": "Euro-Tech Anlagenbau GmbH\nKategorie: craft:metal_construction\nAdresse: Am Gewerbepark, 9413 Frantschach-St. Gertraud\nOrt: Frantschach-St. Gertraud\nPLZ: 9413\nKoordinaten: 46.856589, 14.853608", "doc_type": "pois"}
{"source": "OSM", "region": "Kärnten", "osm_type": "node", "osm_id": 5135746064, "name": "Polizeiinspektion St. Gertraud", "category": "amenity:police", "address": "1, 9413 Frantschach-St. Gertraud", "street": null, "housenumber": "1", "postcode": "9413", "place": "Frantschach-St. Gertraud", "lat": 46.8682144, "lon": 14.8759013, "tags": {"addr:city": "Frantschach-St. Gertraud", "addr:housenumber": "1", "addr:place": "St. Gertraud", "addr:postcode": "9413", "amenity": "police", "name": "Polizeiinspektion St. Gertraud", "phone": "+43 59133 2167100"}, "content": "Polizeiinspektion St. Gertraud\nKategorie: amenity:police\nAdresse: 1, 9413 Frantschach-St. Gertraud\nOrt: Frantschach-St. Gertraud\nPLZ: 9413\nKoordinaten: 46.868214, 14.875901\nTags: amenity=police, phone=+43 59133 2167100", "doc_type": "pois"}
{"source": "OSM", "region": "Kärnten", "osm_type": "node", "osm_id": 5159597845, "name": "Postpartner 9413", "category": "amenity:post_office", "address": "87, 9413 Frantschach-St. Gertraud", "street": null, "housenumber": "87", "postcode": "9413", "place": "Frantschach-St. Gertraud", "lat": 46.868113, "lon": 14.8765734, "tags": {"addr:city": "Frantschach-St. Gertraud", "addr:housenumber": "87", "addr:place": "St. Gertraud", "addr:postcode": "9413", "amenity": "post_office", "name": "Postpartner 9413", "operator": "ADEG"}, "content": "Postpartner 9413\nKategorie: amenity:post_office\nAdresse: 87, 9413 Frantschach-St. Gertraud\nOrt: Frantschach-St. Gertraud\nPLZ: 9413\nKoordinaten: 46.868113, 14.876573\nTags: amenity=post_office, operator=ADEG", "doc_type": "pois"}
