{"source": "OSM", "region": "Kärnten", "osm_type": "node", "osm_id": 340519723, "name": "9132 Gallizien", "category": "amenity:post_office", "address": "36, 9132 Gallizien", "street": null, "housenumber": "36", "postcode": "9132", "place": "Gallizien", "lat": 46.5582927, "lon": 14.5065483, "tags": {"addr:city": "Gallizien", "addr:housenumber": "36", "addr:place": "Gallizien", "addr:postcode": "9132", "amenity": "post_office", "name": "9132 Gallizien"}, "content": "9132 Gallizien\nKategorie: amenity:post_office\nAdresse: 36, 9132 Gallizien\nOrt: Gallizien\nPLZ: 9132\nKoordinaten: 46.558293, 14.506548\nTags: amenity=post_office", "doc_type": "addresses"}
{"source": "OSM", "region": "Kärnten", "osm_type": "node", "osm_id": 495510149, "name": "Gasthaus Wildensteiner Wasserfälle", "category": "amenity:restaurant", "address": "Wildenstein 54, 9132 Gallizien", "street": "Wildenstein", "housenumber": "54", "postcode": "9132", "place": "Gallizien", "lat": 46.5387267, "lon": 14.5093387, "tags": {"addr:city": "Gallizien", "addr:housenumber": "54", "addr:postcode": "9132", "addr:street": "Wildenstein", "amenity": "restaurant", "name": "Gasthaus Wildensteiner Wasserfälle", "phone": "+43 4221 2209", "website": "https://www.gasthof-zenkl.at"}, "content": "Gasthaus Wildensteiner Wasserfälle\nKategorie: amenity:restaurant\nAdresse: Wildenstein 54, 9132 Gallizien\nOrt: Gallizien\nPLZ: 9132\nKoordinaten: 46.538727, 14.509339\nTags: amenity=restaurant, phone=+43 4221 2209, website=https://www.gasthof-zenkl.at", "doc_type": "addresses"}
{"source": "OSM", "region": "Kärnten", "osm_type": "node", "osm_id": 1192893104, "name": "Volksschule Gallizien", "category": "amenity:school", "address": "2, 9132 Gallizien", "street": null, "housenumber": "2", "postcode": "9132", "place": "Gallizien", "lat": 46.5516052, "lon": 14.51281, "tags": {"addr:city": "Gallizien", "addr:housenumber": "2", "addr:place": "Krejanzach", "addr:postcode": "9132", "amenity": "school", "name": "Volksschule Gallizien"}, "content": "Volksschule Gallizien\nKategorie: amenity:school\nAdresse: 2, 9132 Gallizien\nOrt: Gallizien\nPLZ: 9132\nKoordinaten: 46.551605, 14.512810\nTags: amenity=school", "doc_type": "addresses"}
{"source": "OSM", "region": "Kärnten", "osm_type": "node", "osm_id": 5430088044, "name": null, "category": null, "address": "7, 9132 Gallizien", "street": null, "housenumber": "7", "postcode": "9132", "place": "Gallizien", "lat": 46.5635524, "lon": 14.5027866, "tags": {"addr:city": "Gallizien", "addr:housenumber": "7", "addr:place": "Moos", "addr:postcode": "9132"}, "content": "Adresse: 7, 9132 Gallizien\nOrt: Gallizien\nPLZ: 9132\nKoordinaten: 46.563552, 14.502787", "doc_type": "addresses"}
{"source": "OSM", "region": "Kärnten", "osm_type": "node", "osm_id": 5430088109, "name": null, "category": null, "address": "26, 9132 Gallizien", "street": null, "housenumber": "26", "postcode": "9132", "place": "Gallizien", "lat": 46.5642116, "lon": 14.5012227, "tags": {"addr:city": "Gallizien", "addr:housenumber": "26", "addr:place": "Moos", "addr:postcode": "9132"}, "content": "Adresse: 26, 9132 Gallizien\nOrt: Gallizien\nPLZ: 9132\nKoordinaten: 46.564212, 14.501223", "doc_type": "addresses"}
{"source": "OSM", "region": "Kärnten", "osm_type": "node", "osm_id": 5430152125, "name": null, "category": null, "address": "27, 9132 Gallizien", "street": null, "housenumber": "27", "postcode": "9132", "place": "Gallizien", "lat": 46.5643712, "lon": 14.5022324, "tags": {"addr:city": "Gallizien", "addr:housenumber": "27", "addr:place": "Moos", "addr:postcode": "9132"}, "content": "Adresse: 27, 9132 Gallizien\nOrt: Gallizien\nPLZ: 9132\nKoordinaten: 46.564371, 14.502232", "doc_type": "addresses"}
{"source": "OSM", "region": "Kärnten", "osm_type": "node", "osm_id": 5438135705, "name": null, "category": null, "address": "3, 9131 Gallizien", "street": null, "housenumber": "3", "postcode": "9131", "place": "Gallizien", "lat": 46.56461, "lon": 14.4647299, "tags": {"addr:city": "Gallizien", "addr:housenumber": "3", "addr:place": "Linsendorf", "addr:postcode": "9131"}, "content": "Adresse: 3, 9131 Gallizien\nOrt: Gallizien\nPLZ: 9131\nKoordinaten: 46.564610, 14.464730", "doc_type": "addresses"}
{"source": "OSM", "region": "Kärnten", "osm_type": "node", "osm_id": 5439780720, "name": null, "category": null, "address": "9, 9173 Gallizien", "street": null, "housenumber": "9", "postcode": "9173", "place": "Gallizien", "lat": 46.5349484, "lon": 14.4641325, "tags": {"addr:city": "Gallizien", "addr:housenumber": "9", "addr:place": "Freibach", "addr:postcode": "9173"}, "content": "Adresse: 9, 9173 Gallizien\nOrt: Gallizien\nPLZ: 9173\nKoordinaten: 46.534948, 14.464132", "doc_type": "addresses"}
{"source": "OSM", "region": "Kärnten", "osm_type": "node", "osm_id": 5441145802, "name": null, "category": null, "address": "25, 9132 Gallizien", "street": null, "housenumber": "25", "postcode": "9132", "place": "Gallizien", "lat": 46.5517346, "lon": 14.470254, "tags": {"addr:city": "Gallizien", "addr:housenumber": "25", "addr:place": "Abtei", "addr:postcode": "9132"}, "content": "Adresse: 25, 9132 Gallizien\nOrt: Gallizien\nPLZ: 9132\nKoordinaten: 46.551735, 14.470254", "doc_type": "addresses"}
{"source": "OSM", "region": "Kärnten", "osm_type": "node", "osm_id": 5444041285, "name": null, "category": null, "address": "3, 9133 Gallizien", "street": null, "housenumber": "3", "postcode": "9133", "place": "Gallizien", "lat": 46.5534746, "lon": 14.5563567, "tags": {"addr:city": "Gallizien", "addr:housenumber": "3", "addr:place": "Drabunaschach", "addr:postcode": "9133"}, "content": "Adresse: 3, 9133 Gallizien\nOrt: Gallizien\nPLZ: 9133\nKoordinaten: 46.553475, 14.556357", "doc_type": "addresses"}
{"source": "OSM", "region": "Kärnten", "osm_type": "node", "osm_id": 5444041598, "name": null, "category": null, "address": "72, 9132 Gallizien", "street": null, "housenumber": "72", "postcode": "9132", "place": "Gallizien", "lat": 46.5496369, "lon": 14.5102397, "tags": {"addr:city": "Gallizien", "addr:housenumber": "72", "addr:place": "Wildenstein", "addr:postcode": "9132"}, "content": "Adresse: 72, 9132 Gallizien\nOrt: Gallizien\nPLZ: 9132\nKoordinaten: 46.549637, 14.510240", "doc_type": "addresses"}
{"source": "OSM", "region": "Kärnten", "osm_type": "node", "osm_id": 5444041599, "name": null, "category": null, "address": "7, 9132 Gallizien", "street": null, "housenumber": "7", "postcode": "9132", "place": "Gallizien", "lat": 46.5499518, "lon": 14.512322, "tags": {"addr:city": "Gallizien", "addr:housenumber": "7", "addr:place": "Wildenstein", "addr:postcode": "9132"}, "content": "Adresse: 7, 9132 Gallizien\nOrt: Gallizien\nPLZ: 9132\nKoordinaten: 46.549952, 14.512322", "doc_type": "addresses"}
{"source": "OSM", "region": "Kärnten", "osm_type": "node", "osm_id": 5444041600, "name": null, "category": null, "address": "16, 9132 Gallizien", "street": null, "housenumber": "16", "postcode": "9132", "place": "Gallizien", "lat": 46.5514204, "lon": 14.5108778, "tags": {"addr:city": "Gallizien", "addr:housenumber": "16", "addr:place": "Wildenstein", "addr:postcode": "9132"}, "content": "Adresse: 16, 9132 Gallizien\nOrt: Gallizien\nPLZ: 9132\nKoordinaten: 46.551420, 14.510878", "doc_type": "addresses"}
{"source": "OSM", "region": "Kärnten", "osm_type": "node", "osm_id": 5444041601, "name": null, "category": null, "address": "1, 9132 Gallizien", "street": null, "housenumber": "1", "postcode": "9132", "place": "Gallizien", "lat": 46.557042, "lon": 14.5154798, "tags": {"addr:city": "Gallizien", "addr:housenumber": "1", "addr:place": "Krejanzach", "addr:postcode": "9132"}, "content": "Adresse: 1, 9132 Gallizien\nOrt: Gallizien\nPLZ: 9132\nKoordinaten: 46.557042, 14.515480", "doc_type": "addresses"}
{"source": "OSM", "region": "Kärnten", "osm_type": "node", "osm_id": 5444041602, "name": null, "category": null, "address": "36, 9132 Gallizien", "street": null, "housenumber": "36", "postcode": "9132", "place": "Gallizien", "lat": 46.5608032, "lon": 14.491806, "tags": {"addr:city": "Gallizien", "addr:housenumber": "36", "addr:place": "Moos", "addr:postcode": "9132"}, "content": "Adresse: 36, 9132 Gallizien\nOrt: Gallizien\nPLZ: 9132\nKoordinaten: 46.560803, 14.491806", "doc_type": "addresses"}
{"source": "OSM", "region": "Kärnten", "osm_type": "node", "osm_id": 5444041603, "name": null, "category": null, "address": "37, 9132 Gallizien", "street": null, "housenumber": "37", "postcode": "9132", "place": "Gallizien", "lat": 46.5558078, "lon": 14.4995292, "tags": {"addr:city": "Gallizien", "addr:housenumber": "37", "addr:place": "Abriach", "addr:postcode": "9132"}, "content": "Adresse: 37, 9132 Gallizien\nOrt: Gallizien\nPLZ: 9132\nKoordinaten: 46.555808, 14.499529", "doc_type": "addresses"}
{"source": "OSM", "region": "Kärnten", "osm_type": "node", "osm_id": 5444041604, "name": null, "category": null, "address": "14, 9132 Gallizien", "street": null, "housenumber": "14", "postcode": "9132", "place": "Gallizien", "lat": 46.5544464, "lon": 14.5002654, "tags": {"addr:city": "Gallizien", "addr:housenumber": "14", "addr:place": "Abriach", "addr:postcode": "9132"}, "content": "Adresse: 14, 9132 Gallizien\nOrt: Gallizien\nPLZ: 9132\nKoordinaten: 46.554446, 14.500265", "doc_type": "addresses"}
{"source": "OSM", "region": "Kärnten", "osm_type": "node", "osm_id": 5444041605, "name": null, "category": null, "address": "10, 9132 Gallizien", "street": null, "housenumber": "10", "postcode": "9132", "place": "Gallizien", "lat": 46.5539774, "lon": 14.4990532, "tags": {"addr:city": "Gallizien", "addr:housenumber": "10", "addr:place": "Abriach", "addr:postcode": "9132"}, "content": "Adresse: 10, 9132 Gallizien\nOrt: Gallizien\nPLZ: 9132\nKoordinaten: 46.553977, 14.499053", "doc_type": "addresses"}
{"source": "OSM", "region": "Kärnten", "osm_type": "node", "osm_id": 5444041606, "name": null, "category": null, "address": "33, 9132 Gallizien", "street": null, "housenumber": "33", "postcode": "9132", "place": "Gallizien", "lat": 46.552634, "lon": 14.5028712, "tags": {"addr:city": "Gallizien", "addr:housenumber": "33", "addr:place": "Abriach", "addr:postcode": "9132"}, "content": "Adresse: 33, 9132 Gallizien\nOrt: Gallizien\nPLZ: 9132\nKoordinaten: 46.552634, 14.502871", "doc_type": "addresses"}
{"source": "OSM", "region": "Kärnten", "osm_type": "node", "osm_id": 5444041846, "name": null, "category": null, "address": "50, 9132 Gallizien", "street": null, "housenumber": "50", "postcode": "9132", "place": "Gallizien", "lat": 46.551672, "lon": 14.4806536, "tags": {"addr:city": "Gallizien", "addr:housenumber": "50", "addr:place": "Abtei", "addr:postcode": "9132"}, "content": "Adresse: 50, 9132 Gallizien\nOrt: Gallizien\nPLZ: 9132\nKoordinaten: 46.551672, 14.480654", "doc_type": "addresses"}
{"source": "OSM", "region": "Kärnten", "osm_type": "node", "osm_id": 5444041859, "name": null, "category": null, "address": "26, 9132 Gallizien", "street": null, "housenumber": "26", "postcode": "9132", "place": "Gallizien", "lat": 46.553565, "lon": 14.4721104, "tags": {"addr:city": "Gallizien", "addr:housenumber": "26", "addr:place": "Abtei", "addr:postcode": "9132"}, "content": "Adresse: 26, 9132 Gallizien\nOrt: Gallizien\nPLZ: 9132\nKoordinaten: 46.553565, 14.472110", "doc_type": "addresses"}
{"source": "OSM", "region": "Kärnten", "osm_type": "node", "osm_id": 5444041860, "name": null, "category": null, "address": "27, 9132 Gallizien", "street": null, "housenumber": "27", "postcode": "9132", "place": "Gallizien", "lat": 46.5515753, "lon": 14.4706146, "tags": {"addr:city": "Gallizien", "addr:housenumber": "27", "addr:place": "Abtei", "addr:postcode": "9132"}, "content": "Adresse: 27, 9132 Gallizien\nOrt: Gallizien\nPLZ: 9132\nKoordinaten: 46.551575, 14.470615", "doc_type": "addresses"}
{"source": "OSM", "region": "Kärnten", "osm_type": "node", "osm_id": 5445521747, "name": null, "category": null, "address": "31, 9132 Gallizien", "street": null, "housenumber": "31", "postcode": "9132", "place": "Gallizien", "lat": 46.543699, "lon": 14.531426, "tags": {"addr:city": "Gallizien", "addr:housenumber": "31", "addr:place": "Wildenstein", "addr:postcode": "9132"}, "content": "Adresse: 31, 9132 Gallizien\nOrt: Gallizien\nPLZ: 9132\nKoordinaten: 46.543699, 14.531426", "doc_type": "addresses"}
{"source": "OSM", "region": "Kärnten", "osm_type": "node", "osm_id": 5447751608, "name": null, "category": null, "address": "26, 9132 Gallizien", "street": null, "housenumber": "26", "postcode": "9132", "place": "Gallizien", "lat": 46.5440396, "lon": 14.5383422, "tags": {"addr:city": "Gallizien", "addr:housenumber": "26", "addr:place": "Glantschach", "addr:postcode": "9132"}, "content": "Adresse: 26, 9132 Gallizien\nOrt: Gallizien\nPLZ: 9132\nKoordinaten: 46.544040, 14.538342", "doc_type": "addresses"}
{"source": "OSM", "region": "Kärnten", "osm_type": "node", "osm_id": 5447751794, "name": null, "category": null, "address": "33, 9132 Gallizien", "street": null, "housenumber": "33", "postcode": "9132", "place": "Gallizien", "lat": 46.5452324, "lon": 14.4717603, "tags": {"addr:city": "Gallizien", "addr:housenumber": "33", "addr:place": "Abtei", "addr:postcode": "9132"}, "content": "Adresse: 33, 9132 Gallizien\nOrt: Gallizien\nPLZ: 9132\nKoordinaten: 46.545232, 14.471760", "doc_type": "addresses"}
{"source": "OSM", "region": "Kärnten", "osm_type": "node", "osm_id": 5481301375, "name": null, "category": null, "address": "14, 9132 Gallizien", "street": null, "housenumber": "14", "postcode": "9132", "place": "Gallizien", "lat": 46.5642832, "lon": 14.5374173, "tags": {"addr:city": "Gallizien", "addr:housenumber": "14", "addr:place": "Vellach", "addr:postcode": "9132"}, "content": "Adresse: 14, 9132 Gallizien\nOrt: Gallizien\nPLZ: 9132\nKoordinaten: 46.564283, 14.537417", "doc_type": "addresses"}
{"source": "OSM", "region": "Kärnten", "osm_type": "node", "osm_id": 5481302768, "name": null, "category": null, "address": "24, 9132 Gallizien", "street": null, "housenumber": "24", "postcode": "9132", "place": "Gallizien", "lat": 46.5479805, "lon": 14.5390803, "tags": {"addr:city": "Gallizien", "addr:housenumber": "24", "addr:place": "Glantschach", "addr:postcode": "9132"}, "content": "Adresse: 24, 9132 Gallizien\nOrt: Gallizien\nPLZ: 9132\nKoordinaten: 46.547981, 14.539080", "doc_type": "addresses"}
{"source": "OSM", "region": "Kärnten", "osm_type": "node", "osm_id": 5508833921, "name": null, "category": null, "address": "84, 9132 Gallizien", "street": null, "housenumber": "84", "postcode": "9132", "place": "Gallizien", "lat": 46.5468067, "lon": 14.52142, "tags": {"addr:city": "Gallizien", "addr:housenumber": "84", "addr:place": "Wildenstein", "addr:postcode": "9132"}, "content": "Adresse: 84, 9132 Gallizien\nOrt: Gallizien\nPLZ: 9132\nKoordinaten: 46.546807, 14.521420", "doc_type": "addresses"}
{"source": "OSM", "region": "Kärnten", "osm_type": "node", "osm_id": 5508833922, "name": null, "category": null, "address": "3, 9132 Gallizien", "street": null, "housenumber": "3", "postcode": "9132", "place": "Gallizien", "lat": 46.554408, "lon": 14.5475093, "tags": {"addr:city": "Gallizien", "addr:housenumber": "3", "addr:place": "Dolintschach", "addr:postcode": "9132"}, "content": "Adresse: 3, 9132 Gallizien\nOrt: Gallizien\nPLZ: 9132\nKoordinaten: 46.554408, 14.547509", "doc_type": "addresses"}
{"source": "OSM", "region": "Kärnten", "osm_type": "node", "osm_id": 5509224150, "name": null, "category": null, "address": "3, 9132 Gallizien", "street": null, "housenumber": "3", "postcode": "9132", "place": "Gallizien", "lat": 46.5755649, "lon": 14.5106321, "tags": {"addr:city": "Gallizien", "addr:housenumber": "3", "addr:place": "Goritschach", "addr:postcode": "9132"}, "content": "Adresse: 3, 9132 Gallizien\nOrt: Gallizien\nPLZ: 9132\nKoordinaten: 46.575565, 14.510632", "doc_type": "addresses"}
{"source": "OSM", "region": "Kärnten", "osm_type": "node", "osm_id": 5509224153, "name": null, "category": null, "address": "46, 9132 Gallizien", "street": null, "housenumber": "46", "postcode": "9132", "place": "Gallizien", "lat": 46.5763464, "lon": 14.5107394, "tags": {"addr:city": "Gallizien", "addr:housenumber": "46", "addr:place": "Goritschach", "addr:postcode": "9132"}, "content": "Adresse: 46, 9132 Gallizien\nOrt: Gallizien\nPLZ: 9132\nKoordinaten: 46.576346, 14.510739", "doc_type": "addresses"}
{"source": "OSM", "region": "Kärnten", "osm_type": "node", "osm_id": 5509224154, "name": null, "category": null, "address": "26, 9132 Gallizien", "street": null, "housenumber": "26", "postcode": "9132", "place": "Gallizien", "lat": 46.5764219, "lon": 14.5108067, "tags": {"addr:city": "Gallizien", "addr:housenumber": "26", "addr:place": "Goritschach", "addr:postcode": "9132"}, "content": "Adresse: 26, 9132 Gallizien\nOrt: Gallizien\nPLZ: 9132\nKoordinaten: 46.576422, 14.510807", "doc_type": "addresses"}
{"source": "OSM", "region": "Kärnten", "osm_type": "node", "osm_id": 5509224506, "name": null, "category": null, "address": "9a, 9132 Gallizien", "street": null, "housenumber": "9a", "postcode": "9132", "place": "Gallizien", "lat": 46.5749098, "lon": 14.5087643, "tags": {"addr:city": "Gallizien", "addr:housenumber": "9a", "addr:place": "Goritschach", "addr:postcode": "9132"}, "content": "Adresse: 9a, 9132 Gallizien\nOrt: Gallizien\nPLZ: 9132\nKoordinaten: 46.574910, 14.508764", "doc_type": "addresses"}
{"source": "OSM", "region": "Kärnten", "osm_type": "node", "osm_id": 5509224507, "name": null, "category": null, "address": "9, 9132 Gallizien", "street": null, "housenumber": "9", "postcode": "9132", "place": "Gallizien", "lat": 46.5748555, "lon": 14.5086368, "tags": {"addr:city": "Gallizien", "addr:housenumber": "9", "addr:place": "Goritschach", "addr:postcode": "9132"}, "content": "Adresse: 9, 9132 Gallizien\nOrt: Gallizien\nPLZ: 9132\nKoordinaten: 46.574855, 14.508637", "doc_type": "addresses"}
{"source": "OSM", "region": "Kärnten", "osm_type": "node", "osm_id": 5509265987, "name": null, "category": null, "address": "44, 9132 Gallizien", "street": null, "housenumber": "44", "postcode": "9132", "place": "Gallizien", "lat": 46.5785467, "lon": 14.5118762, "tags": {"addr:city": "Gallizien", "addr:housenumber": "44", "addr:place": "Goritschach", "addr:postcode": "9132"}, "content": "Adresse: 44, 9132 Gallizien\nOrt: Gallizien\nPLZ: 9132\nKoordinaten: 46.578547, 14.511876", "doc_type": "addresses"}
{"source": "OSM", "region": "Kärnten", "osm_type": "node", "osm_id": 5509266022, "name": null, "category": null, "address": "18, 9132 Gallizien", "street": null, "housenumber": "18", "postcode": "9132", "place": "Gallizien", "lat": 46.5778545, "lon": 14.5109775, "tags": {"addr:city": "Gallizien", "addr:housenumber": "18", "addr:place": "Goritschach", "addr:postcode": "9132"}, "content": "Adresse: 18, 9132 Gallizien\nOrt: Gallizien\nPLZ: 9132\nKoordinaten: 46.577855, 14.510977", "doc_type": "addresses"}
{"source": "OSM", "region": "Kärnten", "osm_type": "node", "osm_id": 5512422633, "name": null, "category": null, "address": "20, 9132 Gallizien", "street": null, "housenumber": "20", "postcode": "9132", "place": "Gallizien", "lat": 46.5891382, "lon": 14.5179377, "tags": {"addr:city": "Gallizien", "addr:housenumber": "20", "addr:place": "Möchling", "addr:postcode": "9132"}, "content": "Adresse: 20, 9132 Gallizien\nOrt: Gallizien\nPLZ: 9132\nKoordinaten: 46.589138, 14.517938", "doc_type": "addresses"}
{"source": "OSM", "region": "Kärnten", "osm_type": "node", "osm_id": 5512422720, "name": null, "category": null, "address": "8, 9132 Gallizien", "street": null, "housenumber": "8", "postcode": "9132", "place": "Gallizien", "lat": 46.581052, "lon": 14.5058785, "tags": {"addr:city": "Gallizien", "addr:housenumber": "8", "addr:place": "Feld", "addr:postcode": "9132"}, "content": "Adresse: 8, 9132 Gallizien\nOrt: Gallizien\nPLZ: 9132\nKoordinaten: 46.581052, 14.505878", "doc_type": "addresses"}
{"source": "OSM", "region": "Kärnten", "osm_type": "node", "osm_id": 340519723, "name": "9132 Gallizien", "category": "amenity:post_office", "address": "36, 9132 Gallizien", "street": null, "housenumber": "36", "postcode": "9132", "place": "Gallizien", "lat": 46.5582927, "lon": 14.5065483, "tags": {"addr:city": "Gallizien", "addr:housenumber": "36", "addr:place": "Gallizien", "addr:postcode": "9132", "amenity": "post_office", "name": "9132 Gallizien"}, "content": "9132 Gallizien\nKategorie: amenity:post_office\nAdresse: 36, 9132 Gallizien\nOrt: Gallizien\nPLZ: 9132\nKoordinaten: 46.558293, 14.506548\nTags: amenity=post_office", "doc_type": "pois"}
{"source": "OSM", "region": "Kärnten", "osm_type": "node", "osm_id": 495510149, "name": "Gasthaus Wildensteiner Wasserfälle", "category": "amenity:restaurant", "address": "Wildenstein 54, 9132 Gallizien", "street": "Wildenstein", "housenumber": "54", "postcode": "9132", "place": "Gallizien", "lat": 46.5387267, "lon": 14.5093387, "tags": {"addr:city": "Gallizien", "addr:housenumber": "54", "addr:postcode": "9132", "addr:street": "Wildenstein", "amenity": "restaurant", "name": "Gasthaus Wildensteiner Wasserfälle", "phone": "+43 4221 2209", "website": "https://www.gasthof-zenkl.at"}, "content": "Gasthaus Wildensteiner Wasserfälle\nKategorie: amenity:restaurant\nAdresse: Wildenstein 54, 9132 Gallizien\nOrt: Gallizien\nPLZ: 9132\nKoordinaten: 46.538727, 14.509339\nTags: amenity=restaurant, phone=+43 4221 2209, website=https://www.gasthof-zenkl.at", "doc_type": "pois"}
{"source": "OSM", "region": "Kärnten", "osm_type": "node", "osm_id": 1192893104, "name": "Volksschule Gallizien", "category": "amenity:school", "address": "2, 9132 Gallizien", "street": null, "housenumber": "2", "postcode": "9132", "place": "Gallizien", "lat": 46.5516052, "lon": 14.51281, "tags": {"addr:city": "Gallizien", "addr:housenumber": "2", "addr:place": "Krejanzach", "addr:postcode": "9132", "amenity": "school", "name": "Volksschule Gallizien"}, "content": "Volksschule Gallizien\nKategorie: amenity:school\nAdresse: 2, 9132 Gallizien\nOrt: Gallizien\nPLZ: 9132\nKoordinaten: 46.551605, 14.512810\nTags: amenity=school", "doc_type": "pois"}
