{"source": "OSM", "region": "Kärnten", "osm_type": "node", "osm_id": 1819038072, "name": "Spar", "category": "shop:supermarket", "address": "Dorfstraße 42, 9546 Bad Kleinkirchheim", "street": "Dorfstraße", "housenumber": "42", "postcode": "9546", "place": "Bad Kleinkirchheim", "lat": 46.8134847, "lon": 13.7888086, "tags": {"addr:city": "Bad Kleinkirchheim", "addr:housenumber": "42", "addr:postcode": "9546", "addr:street": "Dorfstraße", "brand": "Spar", "name": "Spar", "shop": "supermarket", "website": "https://www.spar.at/"}, "content": "Spar\nKategorie: shop:supermarket\nAdresse: Dorfstraße 42, 9546 Bad Kleinkirchheim\nOrt: Bad Kleinkirchheim\nPLZ: 9546\nKoordinaten: 46.813485, 13.788809\nTags: shop=supermarket, brand=Spar, website=https://www.spar.at/", "doc_type": "addresses"}
{"source": "OSM", "region": "Kärnten", "osm_type": "node", "osm_id": 1820609652, "name": "Weissensteiner", "category": "shop:bakery", "address": "Dorfstraße 58, 9546 Bad Kleinkirchheim", "street": "Dorfstraße", "housenumber": "58", "postcode": "9546", "place": "Bad Kleinkirchheim", "lat": 46.8129802, "lon": 13.7933083, "tags": {"addr:city": "Bad Kleinkirchheim", "addr:housenumber": "58", "addr:postcode": "9546", "addr:street": "Dorfstraße", "name": "Weissensteiner", "shop": "bakery", "website": "https://www.weissensteiner.at/"}, "content": "Weissensteiner\nKategorie: shop:bakery\nAdresse: Dorfstraße 58, 9546 Bad Kleinkirchheim\nOrt: Bad Kleinkirchheim\nPLZ: 9546\nKoordinaten: 46.812980, 13.793308\nTags: shop=bakery, website=https://www.weissensteiner.at/", "doc_type": "addresses"}
{"source": "OSM", "region": "Kärnten", "osm_type": "node", "osm_id": 1851320789, "name": "Landhaus Hinteregger", "category": "tourism:guest_house", "address": "Aigner Weg 10, 9546 Bad Kleinkirchheim", "street": "Aigner Weg", "housenumber": "10", "postcode": "9546", "place": "Bad Kleinkirchheim", "lat": 46.816514, "lon": 13.784076, "tags": {"addr:city": "Bad Kleinkirchheim", "addr:housenumber": "10", "addr:postcode": "9546", "addr:street": "Aigner Weg", "name": "Landhaus Hinteregger", "operator": "Familie Hinteregger", "tourism": "guest_house"}, "content": "Landhaus Hinteregger\nKategorie: tourism:guest_house\nAdresse: Aigner Weg 10, 9546 Bad Kleinkirchheim\nOrt: Bad Kleinkirchheim\nPLZ: 9546\nKoordinaten: 46.816514, 13.784076\nTags: operator=Familie Hinteregger", "doc_type": "addresses"}
{"source": "OSM", "region": "Kärnten", "osm_type": "node", "osm_id": 1851452334, "name": "Pension Lerchner", "category": "tourism:guest_house", "address": "St.-Oswalder-Straße 27, 9546 Bad Kleinkirchheim", "street": "St.-Oswalder-Straße", "housenumber": "27", "postcode": "9546", "place": "Bad Kleinkirchheim", "lat": 46.8164158, "lon": 13.7829746, "tags": {"addr:city": "Bad Kleinkirchheim", "addr:housenumber": "27", "addr:postcode": "9546", "addr:street": "St.-Oswalder-Straße", "name": "Pension Lerchner", "operator": "Familie Lerchner", "tourism": "guest_house"}, "content": "Pension Lerchner\nKategorie: tourism:guest_house\nAdresse: St.-Oswalder-Straße 27, 9546 Bad Kleinkirchheim\nOrt: Bad Kleinkirchheim\nPLZ: 9546\nKoordinaten: 46.816416, 13.782975\nTags: operator=Familie Lerchner", "doc_type": "addresses"}
{"source": "OSM", "region": "Kärnten", "osm_type": "node", "osm_id": 2157450614, "name": "Pension & Appartements RONACHERHOF", "category": "tourism:guest_house", "address": "Adlerweg 9, 9546 Bad Kleinkirchheim", "street": "Adlerweg", "housenumber": "9", "postcode": "9546", "place": "Bad Kleinkirchheim", "lat": 46.8188778, "lon": 13.7706473, "tags": {"addr:city": "Bad Kleinkirchheim", "addr:housenumber": "9", "addr:postcode": "9546", "addr:street": "Adlerweg", "name": "Pension & Appartements RONACHERHOF", "operator": "Walter Josef Zaucher", "phone": "+434240526", "tourism": "guest_house"}, "content": "Pension & Appartements RONACHERHOF\nKategorie: tourism:guest_house\nAdresse: Adlerweg 9, 9546 Bad Kleinkirchheim\nOrt: Bad Kleinkirchheim\nPLZ: 9546\nKoordinaten: 46.818878, 13.770647\nTags: operator=Walter Josef Zaucher, phone=+434240526", "doc_type": "addresses"}
{"source": "OSM", "region": "Kärnten", "osm_type": "node", "osm_id": 2955072094, "name": "Pension & Appartements Urbanhof", "category": "amenity:restaurant", "address": "Kirchheimer Weg 20, 9546 Bad Kleinkirchheim", "street": "Kirchheimer Weg", "housenumber": "20", "postcode": "9546", "place": "Bad Kleinkirchheim", "lat": 46.8158352, "lon": 13.7952412, "tags": {"addr:city": "Bad Kleinkirchheim", "addr:housenumber": "20", "addr:postcode": "9546", "addr:street": "Kirchheimer Weg", "amenity": "restaurant", "name": "Pension & Appartements Urbanhof", "tourism": "guest_house"}, "content": "Pension & Appartements Urbanhof\nKategorie: amenity:restaurant\nAdresse: Kirchheimer Weg 20, 9546 Bad Kleinkirchheim\nOrt: Bad Kleinkirchheim\nPLZ: 9546\nKoordinaten: 46.815835, 13.795241\nTags: amenity=restaurant", "doc_type": "addresses"}
{"source": "OSM", "region": "Kärnten", "osm_type": "node", "osm_id": 3006391233, "name": "Hotel Die Post", "category": "tourism:hotel", "address": "Dorfstraße 64, 9546 Bad Kleinkirchheim", "street": "Dorfstraße", "housenumber": "64", "postcode": "9546", "place": "Bad Kleinkirchheim", "lat": 46.813242, "lon": 13.7959073, "tags": {"addr:city": "Bad Kleinkirchheim", "addr:housenumber": "64", "addr:postcode": "9546", "addr:street": "Dorfstraße", "name": "Hotel Die Post", "tourism": "hotel", "website": "https://www.diepost.com"}, "content": "Hotel Die Post\nKategorie: tourism:hotel\nAdresse: Dorfstraße 64, 9546 Bad Kleinkirchheim\nOrt: Bad Kleinkirchheim\nPLZ: 9546\nKoordinaten: 46.813242, 13.795907\nTags: website=https://www.diepost.com", "doc_type": "addresses"}
{"source": "OSM", "region": "Kärnten", "osm_type": "node", "osm_id": 3007275141, "name": "Hotel Kolmhof", "category": "tourism:hotel", "address": "Dorfstraße 26, 9546 Bad Kleinkirchheim", "street": "Dorfstraße", "housenumber": "26", "postcode": "9546", "place": "Bad Kleinkirchheim", "lat": 46.8122742, "lon": 13.7777223, "tags": {"addr:city": "Bad Kleinkirchheim", "addr:housenumber": "26", "addr:postcode": "9546", "addr:street": "Dorfstraße", "name": "Hotel Kolmhof", "operator": "Lienert GmbH", "tourism": "hotel"}, "content": "Hotel Kolmhof\nKategorie: tourism:hotel\nAdresse: Dorfstraße 26, 9546 Bad Kleinkirchheim\nOrt: Bad Kleinkirchheim\nPLZ: 9546\nKoordinaten: 46.812274, 13.777722\nTags: operator=Lienert GmbH", "doc_type": "addresses"}
{"source": "OSM", "region": "Kärnten", "osm_type": "node", "osm_id": 3008780049, "name": "Bäckerei Weissensteiner", "category": "shop:bakery", "address": "Maibrunnenweg 2, 9546 Bad Kleinkirchheim", "street": "Maibrunnenweg", "housenumber": "2", "postcode": "9546", "place": "Bad Kleinkirchheim", "lat": 46.8128758, "lon": 13.7805686, "tags": {"addr:city": "Bad Kleinkirchheim", "addr:housenumber": "2", "addr:postcode": "9546", "addr:street": "Maibrunnenweg", "name": "Bäckerei Weissensteiner", "shop": "bakery"}, "content": "Bäckerei Weissensteiner\nKategorie: shop:bakery\nAdresse: Maibrunnenweg 2, 9546 Bad Kleinkirchheim\nOrt: Bad Kleinkirchheim\nPLZ: 9546\nKoordinaten: 46.812876, 13.780569\nTags: shop=bakery", "doc_type": "addresses"}
{"source": "OSM", "region": "Kärnten", "osm_type": "node", "osm_id": 3609171304, "name": "Dr. Angelika Wilscher", "category": "amenity:doctors", "address": "St.Oswalder Straße 2, 9546 Bad Kleinkirchheim", "street": "St.Oswalder Straße", "housenumber": "2", "postcode": "9546", "place": "Bad Kleinkirchheim", "lat": 46.8135399, "lon": 13.7932283, "tags": {"addr:city": "Bad Kleinkirchheim", "addr:housenumber": "2", "addr:postcode": "9546", "addr:street": "St.Oswalder Straße", "amenity": "doctors", "healthcare": "doctor", "name": "Dr. Angelika Wilscher", "website": "https://www.drwilscher.at/"}, "content": "Dr. Angelika Wilscher\nKategorie: amenity:doctors\nAdresse: St.Oswalder Straße 2, 9546 Bad Kleinkirchheim\nOrt: Bad Kleinkirchheim\nPLZ: 9546\nKoordinaten: 46.813540, 13.793228\nTags: amenity=doctors, healthcare=doctor, website=https://www.drwilscher.at/", "doc_type": "addresses"}
{"source": "OSM", "region": "Kärnten", "osm_type": "node", "osm_id": 3609171309, "name": "Polizeiinspektion Bad Kleinkirchheim", "category": "amenity:police", "address": "Dorfstraße 58, 9546 Bad Kleinkirchheim", "street": "Dorfstraße", "housenumber": "58", "postcode": "9546", "place": "Bad Kleinkirchheim", "lat": 46.8129626, "lon": 13.7934401, "tags": {"addr:city": "Bad Kleinkirchheim", "addr:housenumber": "58", "addr:postcode": "9546", "addr:street": "Dorfstraße", "amenity": "police", "name": "Polizeiinspektion Bad Kleinkirchheim", "phone": "+43 59133 2221100"}, "content": "Polizeiinspektion Bad Kleinkirchheim\nKategorie: amenity:police\nAdresse: Dorfstraße 58, 9546 Bad Kleinkirchheim\nOrt: Bad Kleinkirchheim\nPLZ: 9546\nKoordinaten: 46.812963, 13.793440\nTags: amenity=police, phone=+43 59133 2221100", "doc_type": "addresses"}
{"source": "OSM", "region": "Kärnten", "osm_type": "node", "osm_id": 3611133860, "name": "Kurapotheke", "category": "amenity:pharmacy", "address": "Dorfstraße 70, 9546 Bad Kleinkirchheim", "street": "Dorfstraße", "housenumber": "70", "postcode": "9546", "place": "Bad Kleinkirchheim", "lat": 46.8135722, "lon": 13.7975954, "tags": {"addr:city": "Bad Kleinkirchheim", "addr:housenumber": "70", "addr:postcode": "9546", "addr:street": "Dorfstraße", "amenity": "pharmacy", "name": "Kurapotheke"}, "content": "Kurapotheke\nKategorie: amenity:pharmacy\nAdresse: Dorfstraße 70, 9546 Bad Kleinkirchheim\nOrt: Bad Kleinkirchheim\nPLZ: 9546\nKoordinaten: 46.813572, 13.797595\nTags: amenity=pharmacy", "doc_type": "addresses"}
{"source": "OSM", "region": "Kärnten", "osm_type": "node", "osm_id": 3611133871, "name": "bleamlen", "category": "shop:florist", "address": "Dorfstraße 91, 9546 Bad Kleinkirchheim", "street": "Dorfstraße", "housenumber": "91", "postcode": "9546", "place": "Bad Kleinkirchheim", "lat": 46.8141791, "lon": 13.7992733, "tags": {"addr:city": "Bad Kleinkirchheim", "addr:housenumber": "91", "addr:postcode": "9546", "addr:street": "Dorfstraße", "name": "bleamlen", "operator": "Manuela Lercher", "phone": "+43424088808", "shop": "florist"}, "content": "bleamlen\nKategorie: shop:florist\nAdresse: Dorfstraße 91, 9546 Bad Kleinkirchheim\nOrt: Bad Kleinkirchheim\nPLZ: 9546\nKoordinaten: 46.814179, 13.799273\nTags: shop=florist, operator=Manuela Lercher, phone=+43424088808", "doc_type": "addresses"}
{"source": "OSM", "region": "Kärnten", "osm_type": "node", "osm_id": 4072547519, "name": "Gasthof Sportalm", "category": "amenity:restaurant", "address": "Rosennockstraße 53, 9546 Bad Kleinkirchheim", "street": "Rosennockstraße", "housenumber": "53", "postcode": "9546", "place": "Bad Kleinkirchheim", "lat": 46.8441085, "lon": 13.7643462, "tags": {"addr:city": "Bad Kleinkirchheim", "addr:housenumber": "53", "addr:postcode": "9546", "addr:street": "Rosennockstraße", "amenity": "restaurant", "name": "Gasthof Sportalm", "tourism": "apartment"}, "content": "Gasthof Sportalm\nKategorie: amenity:restaurant\nAdresse: Rosennockstraße 53, 9546 Bad Kleinkirchheim\nOrt: Bad Kleinkirchheim\nPLZ: 9546\nKoordinaten: 46.844108, 13.764346\nTags: amenity=restaurant", "doc_type": "addresses"}
{"source": "OSM", "region": "Kärnten", "osm_type": "node", "osm_id": 4072553274, "name": "Ski- & Sportschulen Krainer - Wulschnig", "category": "shop:sports", "address": "Rosennockstraße 48, 9546 Bad Kleinkirchheim", "street": "Rosennockstraße", "housenumber": "48", "postcode": "9546", "place": "Bad Kleinkirchheim", "lat": 46.8441791, "lon": 13.7647904, "tags": {"addr:city": "Bad Kleinkirchheim", "addr:housenumber": "48", "addr:postcode": "9546", "addr:street": "Rosennockstraße", "name": "Ski- & Sportschulen Krainer - Wulschnig", "shop": "sports"}, "content": "Ski- & Sportschulen Krainer - Wulschnig\nKategorie: shop:sports\nAdresse: Rosennockstraße 48, 9546 Bad Kleinkirchheim\nOrt: Bad Kleinkirchheim\nPLZ: 9546\nKoordinaten: 46.844179, 13.764790\nTags: shop=sports", "doc_type": "addresses"}
{"source": "OSM", "region": "Kärnten", "osm_type": "node", "osm_id": 4072566281, "name": "Gästehaus Elizabeth", "category": "tourism:apartment", "address": "Rosennockstraße 36, 9546 Bad Kleinkirchheim", "street": "Rosennockstraße", "housenumber": "36", "postcode": "9546", "place": "Bad Kleinkirchheim", "lat": 46.8413526, "lon": 13.7661568, "tags": {"addr:city": "Bad Kleinkirchheim", "addr:housenumber": "36", "addr:postcode": "9546", "addr:street": "Rosennockstraße", "name": "Gästehaus Elizabeth", "tourism": "apartment"}, "content": "Gästehaus Elizabeth\nKategorie: tourism:apartment\nAdresse: Rosennockstraße 36, 9546 Bad Kleinkirchheim\nOrt: Bad Kleinkirchheim\nPLZ: 9546\nKoordinaten: 46.841353, 13.766157", "doc_type": "addresses"}
{"source": "OSM", "region": "Kärnten", "osm_type": "node", "osm_id": 4072566282, "name": "Hafferl-Gattermayer", "category": "tourism:apartment", "address": "Mallnockweg 73, 9546 Bad Kleinkirchheim", "street": "Mallnockweg", "housenumber": "73", "postcode": "9546", "place": "Bad Kleinkirchheim", "lat": 46.8493243, "lon": 13.7701617, "tags": {"addr:city": "Bad Kleinkirchheim", "addr:housenumber": "73", "addr:postcode": "9546", "addr:street": "Mallnockweg", "name": "Hafferl-Gattermayer", "tourism": "apartment"}, "content": "Hafferl-Gattermayer\nKategorie: tourism:apartment\nAdresse: Mallnockweg 73, 9546 Bad Kleinkirchheim\nOrt: Bad Kleinkirchheim\nPLZ: 9546\nKoordinaten: 46.849324, 13.770162", "doc_type": "addresses"}
{"source": "OSM", "region": "Kärnten", "osm_type": "node", "osm_id": 4072578837, "name": "Haus am Waldrand", "category": "tourism:apartment", "address": "Kirchweg 6, 9546 Bad Kleinkirchheim", "street": "Kirchweg", "housenumber": "6", "postcode": "9546", "place": "Bad Kleinkirchheim", "lat": 46.8382739, "lon": 13.7631928, "tags": {"addr:city": "Bad Kleinkirchheim", "addr:housenumber": "6", "addr:postcode": "9546", "addr:street": "Kirchweg", "name": "Haus am Waldrand", "tourism": "apartment"}, "content": "Haus am Waldrand\nKategorie: tourism:apartment\nAdresse: Kirchweg 6, 9546 Bad Kleinkirchheim\nOrt: Bad Kleinkirchheim\nPLZ: 9546\nKoordinaten: 46.838274, 13.763193", "doc_type": "addresses"}
{"source": "OSM", "region": "Kärnten", "osm_type": "node", "osm_id": 4180928189, "name": "Feriendorf Kirchleitn", "category": "tourism:hotel", "address": "Rosennockstraße 13, 9546 Bad Kleinkirchheim", "street": "Rosennockstraße", "housenumber": "13", "postcode": "9546", "place": "Bad Kleinkirchheim", "lat": 46.8410868, "lon": 13.7653621, "tags": {"addr:city": "Bad Kleinkirchheim", "addr:housenumber": "13", "addr:postcode": "9546", "addr:street": "Rosennockstraße", "name": "Feriendorf Kirchleitn", "tourism": "hotel"}, "content": "Feriendorf Kirchleitn\nKategorie: tourism:hotel\nAdresse: Rosennockstraße 13, 9546 Bad Kleinkirchheim\nOrt: Bad Kleinkirchheim\nPLZ: 9546\nKoordinaten: 46.841087, 13.765362", "doc_type": "addresses"}
{"source": "OSM", "region": "Kärnten", "osm_type": "node", "osm_id": 4313985256, "name": "Dr. Eckard Waidmann", "category": "amenity:doctors", "address": "Dorfstraße 91, 9546 Bad Kleinkirchheim", "street": "Dorfstraße", "housenumber": "91", "postcode": "9546", "place": "Bad Kleinkirchheim", "lat": 46.8143284, "lon": 13.7995202, "tags": {"addr:city": "Bad Kleinkirchheim", "addr:housenumber": "91", "addr:postcode": "9546", "addr:street": "Dorfstraße", "amenity": "doctors", "healthcare": "doctor", "name": "Dr. Eckard Waidmann", "phone": "+4342408180"}, "content": "Dr. Eckard Waidmann\nKategorie: amenity:doctors\nAdresse: Dorfstraße 91, 9546 Bad Kleinkirchheim\nOrt: Bad Kleinkirchheim\nPLZ: 9546\nKoordinaten: 46.814328, 13.799520\nTags: amenity=doctors, healthcare=doctor, phone=+4342408180", "doc_type": "addresses"}
{"source": "OSM", "region": "Kärnten", "osm_type": "node", "osm_id": 5001975503, "name": "Zum Sepp", "category": "amenity:restaurant", "address": "Schneerosenweg, 9546 Bad Kleinkirchheim", "street": "Schneerosenweg", "housenumber": null, "postcode": "9546", "place": "Bad Kleinkirchheim", "lat": 46.8122066, "lon": 13.7990373, "tags": {"addr:city": "Bad Kleinkirchheim", "addr:postcode": "9546", "addr:street": "Schneerosenweg", "amenity": "restaurant", "name": "Zum Sepp", "phone": "+436642009416", "website": "https://www.facebook.com/zumseppbkk/"}, "content": "Zum Sepp\nKategorie: amenity:restaurant\nAdresse: Schneerosenweg, 9546 Bad Kleinkirchheim\nOrt: Bad Kleinkirchheim\nPLZ: 9546\nKoordinaten: 46.812207, 13.799037\nTags: amenity=restaurant, phone=+436642009416, website=https://www.facebook.com/zumseppbkk/", "doc_type": "addresses"}
{"source": "OSM", "region": "Kärnten", "osm_type": "node", "osm_id": 1819038072, "name": "Spar", "category": "shop:supermarket", "address": "Dorfstraße 42, 9546 Bad Kleinkirchheim", "street": "Dorfstraße", "housenumber": "42", "postcode": "9546", "place": "Bad Kleinkirchheim", "lat": 46.8134847, "lon": 13.7888086, "tags": {"addr:city": "Bad Kleinkirchheim", "addr:housenumber": "42", "addr:postcode": "9546", "addr:street": "Dorfstraße", "brand": "Spar", "name": "Spar", "shop": "supermarket", "website": "https://www.spar.at/"}, "content": "Spar\nKategorie: shop:supermarket\nAdresse: Dorfstraße 42, 9546 Bad Kleinkirchheim\nOrt: Bad Kleinkirchheim\nPLZ: 9546\nKoordinaten: 46.813485, 13.788809\nTags: shop=supermarket, brand=Spar, website=https://www.spar.at/", "doc_type": "pois"}
{"source": "OSM", "region": "Kärnten", "osm_type": "node", "osm_id": 1820609652, "name": "Weissensteiner", "category": "shop:bakery", "address": "Dorfstraße 58, 9546 Bad Kleinkirchheim", "street": "Dorfstraße", "housenumber": "58", "postcode": "9546", "place": "Bad Kleinkirchheim", "lat": 46.8129802, "lon": 13.7933083, "tags": {"addr:city": "Bad Kleinkirchheim", "addr:housenumber": "58", "addr:postcode": "9546", "addr:street": "Dorfstraße", "name": "Weissensteiner", "shop": "bakery", "website": "https://www.weissensteiner.at/"}, "content": "Weissensteiner\nKategorie: shop:bakery\nAdresse: Dorfstraße 58, 9546 Bad Kleinkirchheim\nOrt: Bad Kleinkirchheim\nPLZ: 9546\nKoordinaten: 46.812980, 13.793308\nTags: shop=bakery, website=https://www.weissensteiner.at/", "doc_type": "pois"}
{"source": "OSM", "region": "Kärnten", "osm_type": "node", "osm_id": 1851320789, "name": "Landhaus Hinteregger", "category": "tourism:guest_house", "address": "Aigner Weg 10, 9546 Bad Kleinkirchheim", "street": "Aigner Weg", "housenumber": "10", "postcode": "9546", "place": "Bad Kleinkirchheim", "lat": 46.816514, "lon": 13.784076, "tags": {"addr:city": "Bad Kleinkirchheim", "addr:housenumber": "10", "addr:postcode": "9546", "addr:street": "Aigner Weg", "name": "Landhaus Hinteregger", "operator": "Familie Hinteregger", "tourism": "guest_house"}, "content": "Landhaus Hinteregger\nKategorie: tourism:guest_house\nAdresse: Aigner Weg 10, 9546 Bad Kleinkirchheim\nOrt: Bad Kleinkirchheim\nPLZ: 9546\nKoordinaten: 46.816514, 13.784076\nTags: operator=Familie Hinteregger", "doc_type": "pois"}
{"source": "OSM", "region": "Kärnten", "osm_type": "node", "osm_id": 1851452334, "name": "Pension Lerchner", "category": "tourism:guest_house", "address": "St.-Oswalder-Straße 27, 9546 Bad Kleinkirchheim", "street": "St.-Oswalder-Straße", "housenumber": "27", "postcode": "9546", "place": "Bad Kleinkirchheim", "lat": 46.8164158, "lon": 13.7829746, "tags": {"addr:city": "Bad Kleinkirchheim", "addr:housenumber": "27", "addr:postcode": "9546", "addr:street": "St.-Oswalder-Straße", "name": "Pension Lerchner", "operator": "Familie Lerchner", "tourism": "guest_house"}, "content": "Pension Lerchner\nKategorie: tourism:guest_house\nAdresse: St.-Oswalder-Straße 27, 9546 Bad Kleinkirchheim\nOrt: Bad Kleinkirchheim\nPLZ: 9546\nKoordinaten: 46.816416, 13.782975\nTags: operator=Familie Lerchner", "doc_type": "pois"}
{"source": "OSM", "region": "Kärnten", "osm_type": "node", "osm_id": 2157450614, "name": "Pension & Appartements RONACHERHOF", "category": "tourism:guest_house", "address": "Adlerweg 9, 9546 Bad Kleinkirchheim", "street": "Adlerweg", "housenumber": "9", "postcode": "9546", "place": "Bad Kleinkirchheim", "lat": 46.8188778, "lon": 13.7706473, "tags": {"addr:city": "Bad Kleinkirchheim", "addr:housenumber": "9", "addr:postcode": "9546", "addr:street": "Adlerweg", "name": "Pension & Appartements RONACHERHOF", "operator": "Walter Josef Zaucher", "phone": "+434240526", "tourism": "guest_house"}, "content": "Pension & Appartements RONACHERHOF\nKategorie: tourism:guest_house\nAdresse: Adlerweg 9, 9546 Bad Kleinkirchheim\nOrt: Bad Kleinkirchheim\nPLZ: 9546\nKoordinaten: 46.818878, 13.770647\nTags: operator=Walter Josef Zaucher, phone=+434240526", "doc_type": "pois"}
{"source": "OSM", "region": "Kärnten", "osm_type": "node", "osm_id": 2955072094, "name": "Pension & Appartements Urbanhof", "category": "amenity:restaurant", "address": "Kirchheimer Weg 20, 9546 Bad Kleinkirchheim", "street": "Kirchheimer Weg", "housenumber": "20", "postcode": "9546", "place": "Bad Kleinkirchheim", "lat": 46.8158352, "lon": 13.7952412, "tags": {"addr:city": "Bad Kleinkirchheim", "addr:housenumber": "20", "addr:postcode": "9546", "addr:street": "Kirchheimer Weg", "amenity": "restaurant", "name": "Pension & Appartements Urbanhof", "tourism": "guest_house"}, "content": "Pension & Appartements Urbanhof\nKategorie: amenity:restaurant\nAdresse: Kirchheimer Weg 20, 9546 Bad Kleinkirchheim\nOrt: Bad Kleinkirchheim\nPLZ: 9546\nKoordinaten: 46.815835, 13.795241\nTags: amenity=restaurant", "doc_type": "pois"}
{"source": "OSM", "region": "Kärnten", "osm_type": "node", "osm_id": 3006391233, "name": "Hotel Die Post", "category": "tourism:hotel", "address": "Dorfstraße 64, 9546 Bad Kleinkirchheim", "street": "Dorfstraße", "housenumber": "64", "postcode": "9546", "place": "Bad Kleinkirchheim", "lat": 46.813242, "lon": 13.7959073, "tags": {"addr:city": "Bad Kleinkirchheim", "addr:housenumber": "64", "addr:postcode": "9546", "addr:street": "Dorfstraße", "name": "Hotel Die Post", "tourism": "hotel", "website": "https://www.diepost.com"}, "content": "Hotel Die Post\nKategorie: tourism:hotel\nAdresse: Dorfstraße 64, 9546 Bad Kleinkirchheim\nOrt: Bad Kleinkirchheim\nPLZ: 9546\nKoordinaten: 46.813242, 13.795907\nTags: website=https://www.diepost.com", "doc_type": "pois"}
{"source": "OSM", "region": "Kärnten", "osm_type": "node", "osm_id": 3007275141, "name": "Hotel Kolmhof", "category": "tourism:hotel", "address": "Dorfstraße 26, 9546 Bad Kleinkirchheim", "street": "Dorfstraße", "housenumber": "26", "postcode": "9546", "place": "Bad Kleinkirchheim", "lat": 46.8122742, "lon": 13.7777223, "tags": {"addr:city": "Bad Kleinkirchheim", "addr:housenumber": "26", "addr:postcode": "9546", "addr:street": "Dorfstraße", "name": "Hotel Kolmhof", "operator": "Lienert GmbH", "tourism": "hotel"}, "content": "Hotel Kolmhof\nKategorie: tourism:hotel\nAdresse: Dorfstraße 26, 9546 Bad Kleinkirchheim\nOrt: Bad Kleinkirchheim\nPLZ: 9546\nKoordinaten: 46.812274, 13.777722\nTags: operator=Lienert GmbH", "doc_type": "pois"}
{"source": "OSM", "region": "Kärnten", "osm_type": "node", "osm_id": 3008780049, "name": "Bäckerei Weissensteiner", "category": "shop:bakery", "address": "Maibrunnenweg 2, 9546 Bad Kleinkirchheim", "street": "Maibrunnenweg", "housenumber": "2", "postcode": "9546", "place": "Bad Kleinkirchheim", "lat": 46.8128758, "lon": 13.7805686, "tags": {"addr:city": "Bad Kleinkirchheim", "addr:housenumber": "2", "addr:postcode": "9546", "addr:street": "Maibrunnenweg", "name": "Bäckerei Weissensteiner", "shop": "bakery"}, "content": "Bäckerei Weissensteiner\nKategorie: shop:bakery\nAdresse: Maibrunnenweg 2, 9546 Bad Kleinkirchheim\nOrt: Bad Kleinkirchheim\nPLZ: 9546\nKoordinaten: 46.812876, 13.780569\nTags: shop=bakery", "doc_type": "pois"}
{"source": "OSM", "region": "Kärnten", "osm_type": "node", "osm_id": 3609171304, "name": "Dr. Angelika Wilscher", "category": "amenity:doctors", "address": "St.Oswalder Straße 2, 9546 Bad Kleinkirchheim", "street": "St.Oswalder Straße", "housenumber": "2", "postcode": "9546", "place": "Bad Kleinkirchheim", "lat": 46.8135399, "lon": 13.7932283, "tags": {"addr:city": "Bad Kleinkirchheim", "addr:housenumber": "2", "addr:postcode": "9546", "addr:street": "St.Oswalder Straße", "amenity": "doctors", "healthcare": "doctor", "name": "Dr. Angelika Wilscher", "website": "https://www.drwilscher.at/"}, "content": "Dr. Angelika Wilscher\nKategorie: amenity:doctors\nAdresse: St.Oswalder Straße 2, 9546 Bad Kleinkirchheim\nOrt: Bad Kleinkirchheim\nPLZ: 9546\nKoordinaten: 46.813540, 13.793228\nTags: amenity=doctors, healthcare=doctor, website=https://www.drwilscher.at/", "doc_type": "pois"}
{"source": "OSM", "region": "Kärnten", "osm_type": "node", "osm_id": 3609171309, "name": "Polizeiinspektion Bad Kleinkirchheim", "category": "amenity:police", "address": "Dorfstraße 58, 9546 Bad Kleinkirchheim", "street": "Dorfstraße", "housenumber": "58", "postcode": "9546", "place": "Bad Kleinkirchheim", "lat": 46.8129626, "lon": 13.7934401, "tags": {"addr:city": "Bad Kleinkirchheim", "addr:housenumber": "58", "addr:postcode": "9546", "addr:street": "Dorfstraße", "amenity": "police", "name": "Polizeiinspektion Bad Kleinkirchheim", "phone": "+43 59133 2221100"}, "content": "Polizeiinspektion Bad Kleinkirchheim\nKategorie: amenity:police\nAdresse: Dorfstraße 58, 9546 Bad Kleinkirchheim\nOrt: Bad Kleinkirchheim\nPLZ: 9546\nKoordinaten: 46.812963, 13.793440\nTags: amenity=police, phone=+43 59133 2221100", "doc_type": "pois"}
{"source": "OSM", "region": "Kärnten", "osm_type": "node", "osm_id": 3611133860, "name": "Kurapotheke", "category": "amenity:pharmacy", "address": "Dorfstraße 70, 9546 Bad Kleinkirchheim", "street": "Dorfstraße", "housenumber": "70", "postcode": "9546", "place": "Bad Kleinkirchheim", "lat": 46.8135722, "lon": 13.7975954, "tags": {"addr:city": "Bad Kleinkirchheim", "addr:housenumber": "70", "addr:postcode": "9546", "addr:street": "Dorfstraße", "amenity": "pharmacy", "name": "Kurapotheke"}, "content": "Kurapotheke\nKategorie: amenity:pharmacy\nAdresse: Dorfstraße 70, 9546 Bad Kleinkirchheim\nOrt: Bad Kleinkirchheim\nPLZ: 9546\nKoordinaten: 46.813572, 13.797595\nTags: amenity=pharmacy", "doc_type": "pois"}
{"source": "OSM", "region": "Kärnten", "osm_type": "node", "osm_id": 3611133871, "name": "bleamlen", "category": "shop:florist", "address": "Dorfstraße 91, 9546 Bad Kleinkirchheim", "street": "Dorfstraße", "housenumber": "91", "postcode": "9546", "place": "Bad Kleinkirchheim", "lat": 46.8141791, "lon": 13.7992733, "tags": {"addr:city": "Bad Kleinkirchheim", "addr:housenumber": "91", "addr:postcode": "9546", "addr:street": "Dorfstraße", "name": "bleamlen", "operator": "Manuela Lercher", "phone": "+43424088808", "shop": "florist"}, "content": "bleamlen\nKategorie: shop:florist\nAdresse: Dorfstraße 91, 9546 Bad Kleinkirchheim\nOrt: Bad Kleinkirchheim\nPLZ: 9546\nKoordinaten: 46.814179, 13.799273\nTags: shop=florist, operator=Manuela Lercher, phone=+43424088808", "doc_type": "pois"}
{"source": "OSM", "region": "Kärnten", "osm_type": "node", "osm_id": 4072547519, "name": "Gasthof Sportalm", "category": "amenity:restaurant", "address": "Rosennockstraße 53, 9546 Bad Kleinkirchheim", "street": "Rosennockstraße", "housenumber": "53", "postcode": "9546", "place": "Bad Kleinkirchheim", "lat": 46.8441085, "lon": 13.7643462, "tags": {"addr:city": "Bad Kleinkirchheim", "addr:housenumber": "53", "addr:postcode": "9546", "addr:street": "Rosennockstraße", "amenity": "restaurant", "name": "Gasthof Sportalm", "tourism": "apartment"}, "content": "Gasthof Sportalm\nKategorie: amenity:restaurant\nAdresse: Rosennockstraße 53, 9546 Bad Kleinkirchheim\nOrt: Bad Kleinkirchheim\nPLZ: 9546\nKoordinaten: 46.844108, 13.764346\nTags: amenity=restaurant", "doc_type": "pois"}
{"source": "OSM", "region": "Kärnten", "osm_type": "node", "osm_id": 4072553274, "name": "Ski- & Sportschulen Krainer - Wulschnig", "category": "shop:sports", "address": "Rosennockstraße 48, 9546 Bad Kleinkirchheim", "street": "Rosennockstraße", "housenumber": "48", "postcode": "9546", "place": "Bad Kleinkirchheim", "lat": 46.8441791, "lon": 13.7647904, "tags": {"addr:city": "Bad Kleinkirchheim", "addr:housenumber": "48", "addr:postcode": "9546", "addr:street": "Rosennockstraße", "name": "Ski- & Sportschulen Krainer - Wulschnig", "shop": "sports"}, "content": "Ski- & Sportschulen Krainer - Wulschnig\nKategorie: shop:sports\nAdresse: Rosennockstraße 48, 9546 Bad Kleinkirchheim\nOrt: Bad Kleinkirchheim\nPLZ: 9546\nKoordinaten: 46.844179, 13.764790\nTags: shop=sports", "doc_type": "pois"}
{"source": "OSM", "region": "Kärnten", "osm_type": "node", "osm_id": 4072566281, "name": "Gästehaus Elizabeth", "category": "tourism:apartment", "address": "Rosennockstraße 36, 9546 Bad Kleinkirchheim", "street": "Rosennockstraße", "housenumber": "36", "postcode": "9546", "place": "Bad Kleinkirchheim", "lat": 46.8413526, "lon": 13.7661568, "tags": {"addr:city": "Bad Kleinkirchheim", "addr:housenumber": "36", "addr:postcode": "9546", "addr:street": "Rosennockstraße", "name": "Gästehaus Elizabeth", "tourism": "apartment"}, "content": "Gästehaus Elizabeth\nKategorie: tourism:apartment\nAdresse: Rosennockstraße 36, 9546 Bad Kleinkirchheim\nOrt: Bad Kleinkirchheim\nPLZ: 9546\nKoordinaten: 46.841353, 13.766157", "doc_type": "pois"}
{"source": "OSM", "region": "Kärnten", "osm_type": "node", "osm_id": 4072566282, "name": "Hafferl-Gattermayer", "category": "tourism:apartment", "address": "Mallnockweg 73, 9546 Bad Kleinkirchheim", "street": "Mallnockweg", "housenumber": "73", "postcode": "9546", "place": "Bad Kleinkirchheim", "lat": 46.8493243, "lon": 13.7701617, "tags": {"addr:city": "Bad Kleinkirchheim", "addr:housenumber": "73", "addr:postcode": "9546", "addr:street": "Mallnockweg", "name": "Hafferl-Gattermayer", "tourism": "apartment"}, "content": "Hafferl-Gattermayer\nKategorie: tourism:apartment\nAdresse: Mallnockweg 73, 9546 Bad Kleinkirchheim\nOrt: Bad Kleinkirchheim\nPLZ: 9546\nKoordinaten: 46.849324, 13.770162", "doc_type": "pois"}
{"source": "OSM", "region": "Kärnten", "osm_type": "node", "osm_id": 4072578837, "name": "Haus am Waldrand", "category": "tourism:apartment", "address": "Kirchweg 6, 9546 Bad Kleinkirchheim", "street": "Kirchweg", "housenumber": "6", "postcode": "9546", "place": "Bad Kleinkirchheim", "lat": 46.8382739, "lon": 13.7631928, "tags": {"addr:city": "Bad Kleinkirchheim", "addr:housenumber": "6", "addr:postcode": "9546", "addr:street": "Kirchweg", "name": "Haus am Waldrand", "tourism": "apartment"}, "content": "Haus am Waldrand\nKategorie: tourism:apartment\nAdresse: Kirchweg 6, 9546 Bad Kleinkirchheim\nOrt: Bad Kleinkirchheim\nPLZ: 9546\nKoordinaten: 46.838274, 13.763193", "doc_type": "pois"}
{"source": "OSM", "region": "Kärnten", "osm_type": "node", "osm_id": 4180928189, "name": "Feriendorf Kirchleitn", "category": "tourism:hotel", "address": "Rosennockstraße 13, 9546 Bad Kleinkirchheim", "street": "Rosennockstraße", "housenumber": "13", "postcode": "9546", "place": "Bad Kleinkirchheim", "lat": 46.8410868, "lon": 13.7653621, "tags": {"addr:city": "Bad Kleinkirchheim", "addr:housenumber": "13", "addr:postcode": "9546", "addr:street": "Rosennockstraße", "name": "Feriendorf Kirchleitn", "tourism": "hotel"}, "content": "Feriendorf Kirchleitn\nKategorie: tourism:hotel\nAdresse: Rosennockstraße 13, 9546 Bad Kleinkirchheim\nOrt: Bad Kleinkirchheim\nPLZ: 9546\nKoordinaten: 46.841087, 13.765362", "doc_type": "pois"}
{"source": "OSM", "region": "Kärnten", "osm_type": "node", "osm_id": 4313985256, "name": "Dr. Eckard Waidmann", "category": "amenity:doctors", "address": "Dorfstraße 91, 9546 Bad Kleinkirchheim", "street": "Dorfstraße", "housenumber": "91", "postcode": "9546", "place": "Bad Kleinkirchheim", "lat": 46.8143284, "lon": 13.7995202, "tags": {"addr:city": "Bad Kleinkirchheim", "addr:housenumber": "91", "addr:postcode": "9546", "addr:street": "Dorfstraße", "amenity": "doctors", "healthcare": "doctor", "name": "Dr. Eckard Waidmann", "phone": "+4342408180"}, "content": "Dr. Eckard Waidmann\nKategorie: amenity:doctors\nAdresse: Dorfstraße 91, 9546 Bad Kleinkirchheim\nOrt: Bad Kleinkirchheim\nPLZ: 9546\nKoordinaten: 46.814328, 13.799520\nTags: amenity=doctors, healthcare=doctor, phone=+4342408180", "doc_type": "pois"}
{"source": "OSM", "region": "Kärnten", "osm_type": "node", "osm_id": 5001975503, "name": "Zum Sepp", "category": "amenity:restaurant", "address": "Schneerosenweg, 9546 Bad Kleinkirchheim", "street": "Schneerosenweg", "housenumber": null, "postcode": "9546", "place": "Bad Kleinkirchheim", "lat": 46.8122066, "lon": 13.7990373, "tags": {"addr:city": "Bad Kleinkirchheim", "addr:postcode": "9546", "addr:street": "Schneerosenweg", "amenity": "restaurant", "name": "Zum Sepp", "phone": "+436642009416", "website": "https://www.facebook.com/zumseppbkk/"}, "content": "Zum Sepp\nKategorie: amenity:restaurant\nAdresse: Schneerosenweg, 9546 Bad Kleinkirchheim\nOrt: Bad Kleinkirchheim\nPLZ: 9546\nKoordinaten: 46.812207, 13.799037\nTags: amenity=restaurant, phone=+436642009416, website=https://www.facebook.com/zumseppbkk/", "doc_type": "pois"}
