{"source": "OSM", "region": "Kärnten", "osm_type": "node", "osm_id": 1079455776, "name": "Gasthof Pension Waldfriede", "category": "amenity:restaurant", "address": "Niedergail 7, 9653 Lesachtal", "street": "Niedergail", "housenumber": "7", "postcode": "9653", "place": "Lesachtal", "lat": 46.6835025, "lon": 12.8337988, "tags": {"addr:city": "Lesachtal", "addr:housenumber": "7", "addr:postcode": "9653", "addr:street": "Niedergail", "amenity": "restaurant", "name": "Gasthof Pension Waldfriede", "phone": "+43 4716 22 89 90", "tourism": "guest_house", "website": "https://www.zimmer-lesachtal.at"}, "content": "Gasthof Pension Waldfriede\nKategorie: amenity:restaurant\nAdresse: Niedergail 7, 9653 Lesachtal\nOrt: Lesachtal\nPLZ: 9653\nKoordinaten: 46.683503, 12.833799\nTags: amenity=restaurant, phone=+43 4716 22 89 90, website=https://www.zimmer-lesachtal.at", "doc_type": "addresses"}
{"source": "OSM", "region": "Kärnten", "osm_type": "node", "osm_id": 1936567964, "name": "Gasthof Paternwirt", "category": "amenity:restaurant", "address": "30, 9655 Lesachtal", "street": null, "housenumber": "30", "postcode": "9655", "place": "Lesachtal", "lat": 46.7052812, "lon": 12.7377317, "tags": {"addr:city": "Lesachtal", "addr:housenumber": "30", "addr:place": "Maria Luggau", "addr:postcode": "9655", "amenity": "restaurant", "name": "Gasthof Paternwirt", "phone": "+43 4716 288", "website": "https://www.paternwirt.at/"}, "content": "Gasthof Paternwirt\nKategorie: amenity:restaurant\nAdresse: 30, 9655 Lesachtal\nOrt: Lesachtal\nPLZ: 9655\nKoordinaten: 46.705281, 12.737732\nTags: amenity=restaurant, phone=+43 4716 288, website=https://www.paternwirt.at/", "doc_type": "addresses"}
{"source": "OSM", "region": "Kärnten", "osm_type": "node", "osm_id": 1936568579, "name": "Gasthof Bäckwirt", "category": "amenity:restaurant", "address": "18, 9655 Lesachtal", "street": null, "housenumber": "18", "postcode": "9655", "place": "Lesachtal", "lat": 46.7056155, "lon": 12.7347439, "tags": {"addr:city": "Lesachtal", "addr:housenumber": "18", "addr:place": "Maria Luggau", "addr:postcode": "9655", "amenity": "restaurant", "name": "Gasthof Bäckwirt"}, "content": "Gasthof Bäckwirt\nKategorie: amenity:restaurant\nAdresse: 18, 9655 Lesachtal\nOrt: Lesachtal\nPLZ: 9655\nKoordinaten: 46.705616, 12.734744\nTags: amenity=restaurant", "doc_type": "addresses"}
{"source": "OSM", "region": "Kärnten", "osm_type": "node", "osm_id": 5583631985, "name": null, "category": null, "address": "6, 9654 Lesachtal", "street": null, "housenumber": "6", "postcode": "9654", "place": "Lesachtal", "lat": 46.6939682, "lon": 12.7687767, "tags": {"addr:city": "Lesachtal", "addr:housenumber": "6", "addr:place": "Frohn", "addr:postcode": "9654"}, "content": "Adresse: 6, 9654 Lesachtal\nOrt: Lesachtal\nPLZ: 9654\nKoordinaten: 46.693968, 12.768777", "doc_type": "addresses"}
{"source": "OSM", "region": "Kärnten", "osm_type": "node", "osm_id": 5583632000, "name": null, "category": null, "address": "26, 9653 Lesachtal", "street": null, "housenumber": "26", "postcode": "9653", "place": "Lesachtal", "lat": 46.6890707, "lon": 12.795285, "tags": {"addr:city": "Lesachtal", "addr:housenumber": "26", "addr:place": "Obergail", "addr:postcode": "9653"}, "content": "Adresse: 26, 9653 Lesachtal\nOrt: Lesachtal\nPLZ: 9653\nKoordinaten: 46.689071, 12.795285", "doc_type": "addresses"}
{"source": "OSM", "region": "Kärnten", "osm_type": "node", "osm_id": 5583632002, "name": null, "category": null, "address": "23, 9653 Lesachtal", "street": null, "housenumber": "23", "postcode": "9653", "place": "Lesachtal", "lat": 46.6885518, "lon": 12.7944575, "tags": {"addr:city": "Lesachtal", "addr:housenumber": "23", "addr:place": "Obergail", "addr:postcode": "9653"}, "content": "Adresse: 23, 9653 Lesachtal\nOrt: Lesachtal\nPLZ: 9653\nKoordinaten: 46.688552, 12.794458", "doc_type": "addresses"}
{"source": "OSM", "region": "Kärnten", "osm_type": "node", "osm_id": 5583632007, "name": null, "category": null, "address": "22, 9653 Lesachtal", "street": null, "housenumber": "22", "postcode": "9653", "place": "Lesachtal", "lat": 46.688653, "lon": 12.7993271, "tags": {"addr:city": "Lesachtal", "addr:housenumber": "22", "addr:place": "Obergail", "addr:postcode": "9653"}, "content": "Adresse: 22, 9653 Lesachtal\nOrt: Lesachtal\nPLZ: 9653\nKoordinaten: 46.688653, 12.799327", "doc_type": "addresses"}
{"source": "OSM", "region": "Kärnten", "osm_type": "node", "osm_id": 5583663548, "name": null, "category": null, "address": "3, 9653 Lesachtal", "street": null, "housenumber": "3", "postcode": "9653", "place": "Lesachtal", "lat": 46.6890228, "lon": 12.8485107, "tags": {"addr:city": "Lesachtal", "addr:housenumber": "3", "addr:place": "Rüben", "addr:postcode": "9653"}, "content": "Adresse: 3, 9653 Lesachtal\nOrt: Lesachtal\nPLZ: 9653\nKoordinaten: 46.689023, 12.848511", "doc_type": "addresses"}
{"source": "OSM", "region": "Kärnten", "osm_type": "node", "osm_id": 5585132748, "name": null, "category": null, "address": "18, 9652 Lesachtal", "street": null, "housenumber": "18", "postcode": "9652", "place": "Lesachtal", "lat": 46.6720721, "lon": 12.8754321, "tags": {"addr:city": "Lesachtal", "addr:housenumber": "18", "addr:place": "Nostra", "addr:postcode": "9652"}, "content": "Adresse: 18, 9652 Lesachtal\nOrt: Lesachtal\nPLZ: 9652\nKoordinaten: 46.672072, 12.875432", "doc_type": "addresses"}
{"source": "OSM", "region": "Kärnten", "osm_type": "node", "osm_id": 5585132749, "name": null, "category": null, "address": "19, 9652 Lesachtal", "street": null, "housenumber": "19", "postcode": "9652", "place": "Lesachtal", "lat": 46.6744987, "lon": 12.8718279, "tags": {"addr:city": "Lesachtal", "addr:housenumber": "19", "addr:place": "Nostra", "addr:postcode": "9652"}, "content": "Adresse: 19, 9652 Lesachtal\nOrt: Lesachtal\nPLZ: 9652\nKoordinaten: 46.674499, 12.871828", "doc_type": "addresses"}
{"source": "OSM", "region": "Kärnten", "osm_type": "node", "osm_id": 5585132750, "name": null, "category": null, "address": "9, 9652 Lesachtal", "street": null, "housenumber": "9", "postcode": "9652", "place": "Lesachtal", "lat": 46.6772905, "lon": 12.8745764, "tags": {"addr:city": "Lesachtal", "addr:housenumber": "9", "addr:place": "Nostra", "addr:postcode": "9652"}, "content": "Adresse: 9, 9652 Lesachtal\nOrt: Lesachtal\nPLZ: 9652\nKoordinaten: 46.677290, 12.874576", "doc_type": "addresses"}
{"source": "OSM", "region": "Kärnten", "osm_type": "node", "osm_id": 1079455776, "name": "Gasthof Pension Waldfriede", "category": "amenity:restaurant", "address": "Niedergail 7, 9653 Lesachtal", "street": "Niedergail", "housenumber": "7", "postcode": "9653", "place": "Lesachtal", "lat": 46.6835025, "lon": 12.8337988, "tags": {"addr:city": "Lesachtal", "addr:housenumber": "7", "addr:postcode": "9653", "addr:street": "Niedergail", "amenity": "restaurant", "name": "Gasthof Pension Waldfriede", "phone": "+43 4716 22 89 90", "tourism": "guest_house", "website": "https://www.zimmer-lesachtal.at"}, "content": "Gasthof Pension Waldfriede\nKategorie: amenity:restaurant\nAdresse: Niedergail 7, 9653 Lesachtal\nOrt: Lesachtal\nPLZ: 9653\nKoordinaten: 46.683503, 12.833799\nTags: amenity=restaurant, phone=+43 4716 22 89 90, website=https://www.zimmer-lesachtal.at", "doc_type": "pois"}
{"source": "OSM", "region": "Kärnten", "osm_type": "node", "osm_id": 1936567964, "name": "Gasthof Paternwirt", "category": "amenity:restaurant", "address": "30, 9655 Lesachtal", "street": null, "housenumber": "30", "postcode": "9655", "place": "Lesachtal", "lat": 46.7052812, "lon": 12.7377317, "tags": {"addr:city": "Lesachtal", "addr:housenumber": "30", "addr:place": "Maria Luggau", "addr:postcode": "9655", "amenity": "restaurant", "name": "Gasthof Paternwirt", "phone": "+43 4716 288", "website": "https://www.paternwirt.at/"}, "content": "Gasthof Paternwirt\nKategorie: amenity:restaurant\nAdresse: 30, 9655 Lesachtal\nOrt: Lesachtal\nPLZ: 9655\nKoordinaten: 46.705281, 12.737732\nTags: amenity=restaurant, phone=+43 4716 288, website=https://www.paternwirt.at/", "doc_type": "pois"}
{"source": "OSM", "region": "Kärnten", "osm_type": "node", "osm_id": 1936568579, "name": "Gasthof Bäckwirt", "category": "amenity:restaurant", "address": "18, 9655 Lesachtal", "street": null, "housenumber": "18", "postcode": "9655", "place": "Lesachtal", "lat": 46.7056155, "lon": 12.7347439, "tags": {"addr:city": "Lesachtal", "addr:housenumber": "18", "addr:place": "Maria Luggau", "addr:postcode": "9655", "amenity": "restaurant", "name": "Gasthof Bäckwirt"}, "content": "Gasthof Bäckwirt\nKategorie: amenity:restaurant\nAdresse: 18, 9655 Lesachtal\nOrt: Lesachtal\nPLZ: 9655\nKoordinaten: 46.705616, 12.734744\nTags: amenity=restaurant", "doc_type": "pois"}
