{"source": "OSM", "region": "Kärnten", "osm_type": "node", "osm_id": 20824641, "name": "ibis Wörthersee A2", "category": "tourism:hotel", "address": "84, 9212 Techelsberg am Wörther See", "street": null, "housenumber": "84", "postcode": "9212", "place": "Techelsberg am Wörther See", "lat": 46.629494, "lon": 14.0950505, "tags": {"addr:city": "Techelsberg am Wörther See", "addr:housenumber": "84", "addr:place": "Tibitsch", "addr:postcode": "9212", "brand": "Ibis", "name": "ibis Wörthersee A2", "phone": "+43427243995", "tourism": "hotel", "website": "www.panoramahotel-woerthersee.at"}, "content": "ibis Wörthersee A2\nKategorie: tourism:hotel\nAdresse: 84, 9212 Techelsberg am Wörther See\nOrt: Techelsberg am Wörther See\nPLZ: 9212\nKoordinaten: 46.629494, 14.095050\nTags: brand=Ibis, phone=+43427243995, website=www.panoramahotel-woerthersee.at", "doc_type": "addresses"}
{"source": "OSM", "region": "Kärnten", "osm_type": "node", "osm_id": 765039238, "name": "Electric Garden", "category": "amenity:restaurant", "address": "15, 9212 Techelsberg am Wörther See", "street": null, "housenumber": "15", "postcode": "9212", "place": "Techelsberg am Wörther See", "lat": 46.6226378, "lon": 14.0735418, "tags": {"addr:city": "Techelsberg am Wörther See", "addr:housenumber": "15", "addr:place": "Saag", "addr:postcode": "9212", "amenity": "restaurant", "name": "Electric Garden", "phone": "+43 676 930 41 42", "website": "https://www.electricgarden.at"}, "content": "Electric Garden\nKategorie: amenity:restaurant\nAdresse: 15, 9212 Techelsberg am Wörther See\nOrt: Techelsberg am Wörther See\nPLZ: 9212\nKoordinaten: 46.622638, 14.073542\nTags: amenity=restaurant, phone=+43 676 930 41 42, website=https://www.electricgarden.at", "doc_type": "addresses"}
{"source": "OSM", "region": "Kärnten", "osm_type": "node", "osm_id": 765039955, "name": "Fabrik", "category": "amenity:nightclub", "address": "5, 9212 Techelsberg am Wörther See", "street": null, "housenumber": "5", "postcode": "9212", "place": "Techelsberg am Wörther See", "lat": 46.6275017, "lon": 14.09069, "tags": {"addr:city": "Techelsberg am Wörther See", "addr:housenumber": "5", "addr:place": "Saag", "addr:postcode": "9212", "amenity": "nightclub", "name": "Fabrik", "website": "https://www.fabrik.at/"}, "content": "Fabrik\nKategorie: amenity:nightclub\nAdresse: 5, 9212 Techelsberg am Wörther See\nOrt: Techelsberg am Wörther See\nPLZ: 9212\nKoordinaten: 46.627502, 14.090690\nTags: amenity=nightclub, website=https://www.fabrik.at/", "doc_type": "addresses"}
{"source": "OSM", "region": "Kärnten", "osm_type": "node", "osm_id": 1314542732, "name": "Gasthof Restaurant Ulbing", "category": "amenity:restaurant", "address": "15, 9212 Techelsberg am Wörther See", "street": null, "housenumber": "15", "postcode": "9212", "place": "Techelsberg am Wörther See", "lat": 46.6484953, "lon": 14.0918828, "tags": {"addr:city": "Techelsberg am Wörther See", "addr:housenumber": "15", "addr:place": "Sankt Martin am Techelsberg", "addr:postcode": "9212", "amenity": "restaurant", "name": "Gasthof Restaurant Ulbing", "website": "https://www.ulbing.at/"}, "content": "Gasthof Restaurant Ulbing\nKategorie: amenity:restaurant\nAdresse: 15, 9212 Techelsberg am Wörther See\nOrt: Techelsberg am Wörther See\nPLZ: 9212\nKoordinaten: 46.648495, 14.091883\nTags: amenity=restaurant, website=https://www.ulbing.at/", "doc_type": "addresses"}
{"source": "OSM", "region": "Kärnten", "osm_type": "node", "osm_id": 1624414391, "name": "Restaurant Ciao-Ciao Pörtschach", "category": "amenity:restaurant", "address": "74, 9212 Techelsberg am Wörther See", "street": null, "housenumber": "74", "postcode": "9212", "place": "Techelsberg am Wörther See", "lat": 46.636365, "lon": 14.1233087, "tags": {"addr:city": "Techelsberg am Wörther See", "addr:housenumber": "74", "addr:place": "Töschling", "addr:postcode": "9212", "amenity": "restaurant", "name": "Restaurant Ciao-Ciao Pörtschach", "phone": "+43 4272 39933", "website": "https://www.ciao-ciao.at/"}, "content": "Restaurant Ciao-Ciao Pörtschach\nKategorie: amenity:restaurant\nAdresse: 74, 9212 Techelsberg am Wörther See\nOrt: Techelsberg am Wörther See\nPLZ: 9212\nKoordinaten: 46.636365, 14.123309\nTags: amenity=restaurant, phone=+43 4272 39933, website=https://www.ciao-ciao.at/", "doc_type": "addresses"}
{"source": "OSM", "region": "Kärnten", "osm_type": "node", "osm_id": 3580683298, "name": "Königreichssaal Jehovas Zeugen", "category": "amenity:place_of_worship", "address": "131, 9212 Techelsberg am Wörther See", "street": null, "housenumber": "131", "postcode": "9212", "place": "Techelsberg am Wörther See", "lat": 46.6351992, "lon": 14.1152428, "tags": {"addr:city": "Techelsberg am Wörther See", "addr:housenumber": "131", "addr:place": "Töschling", "addr:postcode": "9212", "amenity": "place_of_worship", "name": "Königreichssaal Jehovas Zeugen", "website": "https://www.jw.org/"}, "content": "Königreichssaal Jehovas Zeugen\nKategorie: amenity:place_of_worship\nAdresse: 131, 9212 Techelsberg am Wörther See\nOrt: Techelsberg am Wörther See\nPLZ: 9212\nKoordinaten: 46.635199, 14.115243\nTags: amenity=place_of_worship, website=https://www.jw.org/", "doc_type": "addresses"}
{"source": "OSM", "region": "Kärnten", "osm_type": "node", "osm_id": 4294200191, "name": "See Restaurant Saag", "category": "amenity:restaurant", "address": "11, 9212 Techelsberg am Wörther See", "street": null, "housenumber": "11", "postcode": "9212", "place": "Techelsberg am Wörther See", "lat": 46.6264937, "lon": 14.0907719, "tags": {"addr:city": "Techelsberg am Wörther See", "addr:housenumber": "11", "addr:place": "Saag", "addr:postcode": "9212", "amenity": "restaurant", "name": "See Restaurant Saag", "phone": "+43 4272 43501", "website": "https://www.saag-ja.at/"}, "content": "See Restaurant Saag\nKategorie: amenity:restaurant\nAdresse: 11, 9212 Techelsberg am Wörther See\nOrt: Techelsberg am Wörther See\nPLZ: 9212\nKoordinaten: 46.626494, 14.090772\nTags: amenity=restaurant, phone=+43 4272 43501, website=https://www.saag-ja.at/", "doc_type": "addresses"}
{"source": "OSM", "region": "Kärnten", "osm_type": "node", "osm_id": 4389614290, "name": "Gasthaus Karlerwirt", "category": "amenity:restaurant", "address": "11, 9212 Techelsberg am Wörther See", "street": null, "housenumber": "11", "postcode": "9212", "place": "Techelsberg am Wörther See", "lat": 46.6635893, "lon": 14.0678424, "tags": {"addr:city": "Techelsberg am Wörther See", "addr:housenumber": "11", "addr:place": "Karl", "addr:postcode": "9212", "amenity": "restaurant", "name": "Gasthaus Karlerwirt", "operator": "Knaus Rosalinde"}, "content": "Gasthaus Karlerwirt\nKategorie: amenity:restaurant\nAdresse: 11, 9212 Techelsberg am Wörther See\nOrt: Techelsberg am Wörther See\nPLZ: 9212\nKoordinaten: 46.663589, 14.067842\nTags: amenity=restaurant, operator=Knaus Rosalinde", "doc_type": "addresses"}
{"source": "OSM", "region": "Kärnten", "osm_type": "node", "osm_id": 4606734783, "name": null, "category": null, "address": "38, 9212 Techelsberg am Wörther See", "street": null, "housenumber": "38", "postcode": "9212", "place": "Techelsberg am Wörther See", "lat": 46.6223839, "lon": 14.0716634, "tags": {"addr:city": "Techelsberg am Wörther See", "addr:housenumber": "38", "addr:place": "Saag", "addr:postcode": "9212"}, "content": "Adresse: 38, 9212 Techelsberg am Wörther See\nOrt: Techelsberg am Wörther See\nPLZ: 9212\nKoordinaten: 46.622384, 14.071663", "doc_type": "addresses"}
{"source": "OSM", "region": "Kärnten", "osm_type": "node", "osm_id": 5395978643, "name": "Tourismusbüro Techelsberg", "category": "tourism:information", "address": "21, 9212 Techelsberg am Wörther See", "street": null, "housenumber": "21", "postcode": "9212", "place": "Techelsberg am Wörther See", "lat": 46.6351514, "lon": 14.1125722, "tags": {"addr:city": "Techelsberg am Wörther See", "addr:housenumber": "21", "addr:place": "Töschling", "addr:postcode": "9212", "name": "Tourismusbüro Techelsberg", "phone": "+43 4272 2248", "tourism": "information"}, "content": "Tourismusbüro Techelsberg\nKategorie: tourism:information\nAdresse: 21, 9212 Techelsberg am Wörther See\nOrt: Techelsberg am Wörther See\nPLZ: 9212\nKoordinaten: 46.635151, 14.112572\nTags: phone=+43 4272 2248", "doc_type": "addresses"}
{"source": "OSM", "region": "Kärnten", "osm_type": "node", "osm_id": 20824641, "name": "ibis Wörthersee A2", "category": "tourism:hotel", "address": "84, 9212 Techelsberg am Wörther See", "street": null, "housenumber": "84", "postcode": "9212", "place": "Techelsberg am Wörther See", "lat": 46.629494, "lon": 14.0950505, "tags": {"addr:city": "Techelsberg am Wörther See", "addr:housenumber": "84", "addr:place": "Tibitsch", "addr:postcode": "9212", "brand": "Ibis", "name": "ibis Wörthersee A2", "phone": "+43427243995", "tourism": "hotel", "website": "www.panoramahotel-woerthersee.at"}, "content": "ibis Wörthersee A2\nKategorie: tourism:hotel\nAdresse: 84, 9212 Techelsberg am Wörther See\nOrt: Techelsberg am Wörther See\nPLZ: 9212\nKoordinaten: 46.629494, 14.095050\nTags: brand=Ibis, phone=+43427243995, website=www.panoramahotel-woerthersee.at", "doc_type": "pois"}
{"source": "OSM", "region": "Kärnten", "osm_type": "node", "osm_id": 765039238, "name": "Electric Garden", "category": "amenity:restaurant", "address": "15, 9212 Techelsberg am Wörther See", "street": null, "housenumber": "15", "postcode": "9212", "place": "Techelsberg am Wörther See", "lat": 46.6226378, "lon": 14.0735418, "tags": {"addr:city": "Techelsberg am Wörther See", "addr:housenumber": "15", "addr:place": "Saag", "addr:postcode": "9212", "amenity": "restaurant", "name": "Electric Garden", "phone": "+43 676 930 41 42", "website": "https://www.electricgarden.at"}, "content": "Electric Garden\nKategorie: amenity:restaurant\nAdresse: 15, 9212 Techelsberg am Wörther See\nOrt: Techelsberg am Wörther See\nPLZ: 9212\nKoordinaten: 46.622638, 14.073542\nTags: amenity=restaurant, phone=+43 676 930 41 42, website=https://www.electricgarden.at", "doc_type": "pois"}
{"source": "OSM", "region": "Kärnten", "osm_type": "node", "osm_id": 765039955, "name": "Fabrik", "category": "amenity:nightclub", "address": "5, 9212 Techelsberg am Wörther See", "street": null, "housenumber": "5", "postcode": "9212", "place": "Techelsberg am Wörther See", "lat": 46.6275017, "lon": 14.09069, "tags": {"addr:city": "Techelsberg am Wörther See", "addr:housenumber": "5", "addr:place": "Saag", "addr:postcode": "9212", "amenity": "nightclub", "name": "Fabrik", "website": "https://www.fabrik.at/"}, "content": "Fabrik\nKategorie: amenity:nightclub\nAdresse: 5, 9212 Techelsberg am Wörther See\nOrt: Techelsberg am Wörther See\nPLZ: 9212\nKoordinaten: 46.627502, 14.090690\nTags: amenity=nightclub, website=https://www.fabrik.at/", "doc_type": "pois"}
{"source": "OSM", "region": "Kärnten", "osm_type": "node", "osm_id": 1314542732, "name": "Gasthof Restaurant Ulbing", "category": "amenity:restaurant", "address": "15, 9212 Techelsberg am Wörther See", "street": null, "housenumber": "15", "postcode": "9212", "place": "Techelsberg am Wörther See", "lat": 46.6484953, "lon": 14.0918828, "tags": {"addr:city": "Techelsberg am Wörther See", "addr:housenumber": "15", "addr:place": "Sankt Martin am Techelsberg", "addr:postcode": "9212", "amenity": "restaurant", "name": "Gasthof Restaurant Ulbing", "website": "https://www.ulbing.at/"}, "content": "Gasthof Restaurant Ulbing\nKategorie: amenity:restaurant\nAdresse: 15, 9212 Techelsberg am Wörther See\nOrt: Techelsberg am Wörther See\nPLZ: 9212\nKoordinaten: 46.648495, 14.091883\nTags: amenity=restaurant, website=https://www.ulbing.at/", "doc_type": "pois"}
{"source": "OSM", "region": "Kärnten", "osm_type": "node", "osm_id": 1624414391, "name": "Restaurant Ciao-Ciao Pörtschach", "category": "amenity:restaurant", "address": "74, 9212 Techelsberg am Wörther See", "street": null, "housenumber": "74", "postcode": "9212", "place": "Techelsberg am Wörther See", "lat": 46.636365, "lon": 14.1233087, "tags": {"addr:city": "Techelsberg am Wörther See", "addr:housenumber": "74", "addr:place": "Töschling", "addr:postcode": "9212", "amenity": "restaurant", "name": "Restaurant Ciao-Ciao Pörtschach", "phone": "+43 4272 39933", "website": "https://www.ciao-ciao.at/"}, "content": "Restaurant Ciao-Ciao Pörtschach\nKategorie: amenity:restaurant\nAdresse: 74, 9212 Techelsberg am Wörther See\nOrt: Techelsberg am Wörther See\nPLZ: 9212\nKoordinaten: 46.636365, 14.123309\nTags: amenity=restaurant, phone=+43 4272 39933, website=https://www.ciao-ciao.at/", "doc_type": "pois"}
{"source": "OSM", "region": "Kärnten", "osm_type": "node", "osm_id": 3580683298, "name": "Königreichssaal Jehovas Zeugen", "category": "amenity:place_of_worship", "address": "131, 9212 Techelsberg am Wörther See", "street": null, "housenumber": "131", "postcode": "9212", "place": "Techelsberg am Wörther See", "lat": 46.6351992, "lon": 14.1152428, "tags": {"addr:city": "Techelsberg am Wörther See", "addr:housenumber": "131", "addr:place": "Töschling", "addr:postcode": "9212", "amenity": "place_of_worship", "name": "Königreichssaal Jehovas Zeugen", "website": "https://www.jw.org/"}, "content": "Königreichssaal Jehovas Zeugen\nKategorie: amenity:place_of_worship\nAdresse: 131, 9212 Techelsberg am Wörther See\nOrt: Techelsberg am Wörther See\nPLZ: 9212\nKoordinaten: 46.635199, 14.115243\nTags: amenity=place_of_worship, website=https://www.jw.org/", "doc_type": "pois"}
{"source": "OSM", "region": "Kärnten", "osm_type": "node", "osm_id": 4294200191, "name": "See Restaurant Saag", "category": "amenity:restaurant", "address": "11, 9212 Techelsberg am Wörther See", "street": null, "housenumber": "11", "postcode": "9212", "place": "Techelsberg am Wörther See", "lat": 46.6264937, "lon": 14.0907719, "tags": {"addr:city": "Techelsberg am Wörther See", "addr:housenumber": "11", "addr:place": "Saag", "addr:postcode": "9212", "amenity": "restaurant", "name": "See Restaurant Saag", "phone": "+43 4272 43501", "website": "https://www.saag-ja.at/"}, "content": "See Restaurant Saag\nKategorie: amenity:restaurant\nAdresse: 11, 9212 Techelsberg am Wörther See\nOrt: Techelsberg am Wörther See\nPLZ: 9212\nKoordinaten: 46.626494, 14.090772\nTags: amenity=restaurant, phone=+43 4272 43501, website=https://www.saag-ja.at/", "doc_type": "pois"}
{"source": "OSM", "region": "Kärnten", "osm_type": "node", "osm_id": 4389614290, "name": "Gasthaus Karlerwirt", "category": "amenity:restaurant", "address": "11, 9212 Techelsberg am Wörther See", "street": null, "housenumber": "11", "postcode": "9212", "place": "Techelsberg am Wörther See", "lat": 46.6635893, "lon": 14.0678424, "tags": {"addr:city": "Techelsberg am Wörther See", "addr:housenumber": "11", "addr:place": "Karl", "addr:postcode": "9212", "amenity": "restaurant", "name": "Gasthaus Karlerwirt", "operator": "Knaus Rosalinde"}, "content": "Gasthaus Karlerwirt\nKategorie: amenity:restaurant\nAdresse: 11, 9212 Techelsberg am Wörther See\nOrt: Techelsberg am Wörther See\nPLZ: 9212\nKoordinaten: 46.663589, 14.067842\nTags: amenity=restaurant, operator=Knaus Rosalinde", "doc_type": "pois"}
{"source": "OSM", "region": "Kärnten", "osm_type": "node", "osm_id": 5395978643, "name": "Tourismusbüro Techelsberg", "category": "tourism:information", "address": "21, 9212 Techelsberg am Wörther See", "street": null, "housenumber": "21", "postcode": "9212", "place": "Techelsberg am Wörther See", "lat": 46.6351514, "lon": 14.1125722, "tags": {"addr:city": "Techelsberg am Wörther See", "addr:housenumber": "21", "addr:place": "Töschling", "addr:postcode": "9212", "name": "Tourismusbüro Techelsberg", "phone": "+43 4272 2248", "tourism": "information"}, "content": "Tourismusbüro Techelsberg\nKategorie: tourism:information\nAdresse: 21, 9212 Techelsberg am Wörther See\nOrt: Techelsberg am Wörther See\nPLZ: 9212\nKoordinaten: 46.635151, 14.112572\nTags: phone=+43 4272 2248", "doc_type": "pois"}
