{"source": "OSM", "region": "Kärnten", "osm_type": "node", "osm_id": 599711781, "name": "Restaurant Kreinerhof", "category": "amenity:restaurant", "address": "Hauptstraße 4, 9813 Möllbrücke", "street": "Hauptstraße", "housenumber": "4", "postcode": "9813", "place": "Möllbrücke", "lat": 46.836758, "lon": 13.368717, "tags": {"addr:city": "Möllbrücke", "addr:housenumber": "4", "addr:postcode": "9813", "addr:street": "Hauptstraße", "amenity": "restaurant", "name": "Restaurant Kreinerhof", "phone": "+4347692221", "website": "https://www.kreinerhof.at/"}, "content": "Restaurant Kreinerhof\nKategorie: amenity:restaurant\nAdresse: Hauptstraße 4, 9813 Möllbrücke\nOrt: Möllbrücke\nPLZ: 9813\nKoordinaten: 46.836758, 13.368717\nTags: amenity=restaurant, phone=+4347692221, website=https://www.kreinerhof.at/", "doc_type": "addresses"}
{"source": "OSM", "region": "Kärnten", "osm_type": "node", "osm_id": 769289357, "name": "Freiwillige Feuerwehr Möllbrücke", "category": "amenity:fire_station", "address": "Wehrstraße 7, 9813 Möllbrücke", "street": "Wehrstraße", "housenumber": "7", "postcode": "9813", "place": "Möllbrücke", "lat": 46.8348771, "lon": 13.3740601, "tags": {"addr:city": "Möllbrücke", "addr:housenumber": "7", "addr:postcode": "9813", "addr:street": "Wehrstraße", "amenity": "fire_station", "name": "Freiwillige Feuerwehr Möllbrücke"}, "content": "Freiwillige Feuerwehr Möllbrücke\nKategorie: amenity:fire_station\nAdresse: Wehrstraße 7, 9813 Möllbrücke\nOrt: Möllbrücke\nPLZ: 9813\nKoordinaten: 46.834877, 13.374060\nTags: amenity=fire_station", "doc_type": "addresses"}
{"source": "OSM", "region": "Kärnten", "osm_type": "node", "osm_id": 2021572586, "name": "Gasthof Scherzer", "category": "amenity:restaurant", "address": "Hauptstraße 19, 9813 Möllbrücke", "street": "Hauptstraße", "housenumber": "19", "postcode": "9813", "place": "Möllbrücke", "lat": 46.8353727, "lon": 13.3705162, "tags": {"addr:city": "Möllbrücke", "addr:housenumber": "19", "addr:postcode": "9813", "addr:street": "Hauptstraße", "amenity": "restaurant", "name": "Gasthof Scherzer", "phone": "+43 4769 2212", "website": "https://www.gasthof-scherzer.at/"}, "content": "Gasthof Scherzer\nKategorie: amenity:restaurant\nAdresse: Hauptstraße 19, 9813 Möllbrücke\nOrt: Möllbrücke\nPLZ: 9813\nKoordinaten: 46.835373, 13.370516\nTags: amenity=restaurant, phone=+43 4769 2212, website=https://www.gasthof-scherzer.at/", "doc_type": "addresses"}
{"source": "OSM", "region": "Kärnten", "osm_type": "node", "osm_id": 2024502739, "name": "Gasthof Erzherzog Eugen", "category": "amenity:restaurant", "address": "Hauptstraße 45, 9813 Möllbrücke", "street": "Hauptstraße", "housenumber": "45", "postcode": "9813", "place": "Möllbrücke", "lat": 46.8324198, "lon": 13.3694904, "tags": {"addr:city": "Möllbrücke", "addr:housenumber": "45", "addr:postcode": "9813", "addr:street": "Hauptstraße", "amenity": "restaurant", "name": "Gasthof Erzherzog Eugen", "phone": "+4347692278", "website": "https://gasthof-erzherzog-eugen-familie-haslacher.business.site/"}, "content": "Gasthof Erzherzog Eugen\nKategorie: amenity:restaurant\nAdresse: Hauptstraße 45, 9813 Möllbrücke\nOrt: Möllbrücke\nPLZ: 9813\nKoordinaten: 46.832420, 13.369490\nTags: amenity=restaurant, phone=+4347692278, website=https://gasthof-erzherzog-eugen-familie-haslacher.business.site/", "doc_type": "addresses"}
{"source": "OSM", "region": "Kärnten", "osm_type": "node", "osm_id": 599711781, "name": "Restaurant Kreinerhof", "category": "amenity:restaurant", "address": "Hauptstraße 4, 9813 Möllbrücke", "street": "Hauptstraße", "housenumber": "4", "postcode": "9813", "place": "Möllbrücke", "lat": 46.836758, "lon": 13.368717, "tags": {"addr:city": "Möllbrücke", "addr:housenumber": "4", "addr:postcode": "9813", "addr:street": "Hauptstraße", "amenity": "restaurant", "name": "Restaurant Kreinerhof", "phone": "+4347692221", "website": "https://www.kreinerhof.at/"}, "content": "Restaurant Kreinerhof\nKategorie: amenity:restaurant\nAdresse: Hauptstraße 4, 9813 Möllbrücke\nOrt: Möllbrücke\nPLZ: 9813\nKoordinaten: 46.836758, 13.368717\nTags: amenity=restaurant, phone=+4347692221, website=https://www.kreinerhof.at/", "doc_type": "pois"}
{"source": "OSM", "region": "Kärnten", "osm_type": "node", "osm_id": 769289357, "name": "Freiwillige Feuerwehr Möllbrücke", "category": "amenity:fire_station", "address": "Wehrstraße 7, 9813 Möllbrücke", "street": "Wehrstraße", "housenumber": "7", "postcode": "9813", "place": "Möllbrücke", "lat": 46.8348771, "lon": 13.3740601, "tags": {"addr:city": "Möllbrücke", "addr:housenumber": "7", "addr:postcode": "9813", "addr:street": "Wehrstraße", "amenity": "fire_station", "name": "Freiwillige Feuerwehr Möllbrücke"}, "content": "Freiwillige Feuerwehr Möllbrücke\nKategorie: amenity:fire_station\nAdresse: Wehrstraße 7, 9813 Möllbrücke\nOrt: Möllbrücke\nPLZ: 9813\nKoordinaten: 46.834877, 13.374060\nTags: amenity=fire_station", "doc_type": "pois"}
{"source": "OSM", "region": "Kärnten", "osm_type": "node", "osm_id": 2021572586, "name": "Gasthof Scherzer", "category": "amenity:restaurant", "address": "Hauptstraße 19, 9813 Möllbrücke", "street": "Hauptstraße", "housenumber": "19", "postcode": "9813", "place": "Möllbrücke", "lat": 46.8353727, "lon": 13.3705162, "tags": {"addr:city": "Möllbrücke", "addr:housenumber": "19", "addr:postcode": "9813", "addr:street": "Hauptstraße", "amenity": "restaurant", "name": "Gasthof Scherzer", "phone": "+43 4769 2212", "website": "https://www.gasthof-scherzer.at/"}, "content": "Gasthof Scherzer\nKategorie: amenity:restaurant\nAdresse: Hauptstraße 19, 9813 Möllbrücke\nOrt: Möllbrücke\nPLZ: 9813\nKoordinaten: 46.835373, 13.370516\nTags: amenity=restaurant, phone=+43 4769 2212, website=https://www.gasthof-scherzer.at/", "doc_type": "pois"}
{"source": "OSM", "region": "Kärnten", "osm_type": "node", "osm_id": 2024502739, "name": "Gasthof Erzherzog Eugen", "category": "amenity:restaurant", "address": "Hauptstraße 45, 9813 Möllbrücke", "street": "Hauptstraße", "housenumber": "45", "postcode": "9813", "place": "Möllbrücke", "lat": 46.8324198, "lon": 13.3694904, "tags": {"addr:city": "Möllbrücke", "addr:housenumber": "45", "addr:postcode": "9813", "addr:street": "Hauptstraße", "amenity": "restaurant", "name": "Gasthof Erzherzog Eugen", "phone": "+4347692278", "website": "https://gasthof-erzherzog-eugen-familie-haslacher.business.site/"}, "content": "Gasthof Erzherzog Eugen\nKategorie: amenity:restaurant\nAdresse: Hauptstraße 45, 9813 Möllbrücke\nOrt: Möllbrücke\nPLZ: 9813\nKoordinaten: 46.832420, 13.369490\nTags: amenity=restaurant, phone=+4347692278, website=https://gasthof-erzherzog-eugen-familie-haslacher.business.site/", "doc_type": "pois"}
