{"source": "OSM", "region": "Kärnten", "osm_type": "node", "osm_id": 2449758845, "name": "Gasthof Gröblacher", "category": "amenity:restaurant", "address": "Köstenberger Dorfweg 8, 9231 Köstenberg", "street": "Köstenberger Dorfweg", "housenumber": "8", "postcode": "9231", "place": "Köstenberg", "lat": 46.6513945, "lon": 14.0097587, "tags": {"addr:city": "Köstenberg", "addr:housenumber": "8", "addr:postcode": "9231", "addr:street": "Köstenberger Dorfweg", "amenity": "restaurant", "name": "Gasthof Gröblacher", "operator": "Hubert Gröblacher", "tourism": "guest_house", "website": "https://www.groeblacher.at/"}, "content": "Gasthof Gröblacher\nKategorie: amenity:restaurant\nAdresse: Köstenberger Dorfweg 8, 9231 Köstenberg\nOrt: Köstenberg\nPLZ: 9231\nKoordinaten: 46.651395, 14.009759\nTags: amenity=restaurant, operator=Hubert Gröblacher, website=https://www.groeblacher.at/", "doc_type": "addresses"}
{"source": "OSM", "region": "Kärnten", "osm_type": "node", "osm_id": 3894973078, "name": "Bar 72 - Bistro, Bar, Grill", "category": "amenity:bar", "address": "Golfweg 41, 9231 Köstenberg", "street": "Golfweg", "housenumber": "41", "postcode": "9231", "place": "Köstenberg", "lat": 46.6504705, "lon": 13.9993704, "tags": {"addr:city": "Köstenberg", "addr:housenumber": "41", "addr:postcode": "9231", "addr:street": "Golfweg", "amenity": "bar", "name": "Bar 72 - Bistro, Bar, Grill", "operator": "Golfanlagen Velden Köstenberg"}, "content": "Bar 72 - Bistro, Bar, Grill\nKategorie: amenity:bar\nAdresse: Golfweg 41, 9231 Köstenberg\nOrt: Köstenberg\nPLZ: 9231\nKoordinaten: 46.650470, 13.999370\nTags: amenity=bar, operator=Golfanlagen Velden Köstenberg", "doc_type": "addresses"}
{"source": "OSM", "region": "Kärnten", "osm_type": "node", "osm_id": 2449758845, "name": "Gasthof Gröblacher", "category": "amenity:restaurant", "address": "Köstenberger Dorfweg 8, 9231 Köstenberg", "street": "Köstenberger Dorfweg", "housenumber": "8", "postcode": "9231", "place": "Köstenberg", "lat": 46.6513945, "lon": 14.0097587, "tags": {"addr:city": "Köstenberg", "addr:housenumber": "8", "addr:postcode": "9231", "addr:street": "Köstenberger Dorfweg", "amenity": "restaurant", "name": "Gasthof Gröblacher", "operator": "Hubert Gröblacher", "tourism": "guest_house", "website": "https://www.groeblacher.at/"}, "content": "Gasthof Gröblacher\nKategorie: amenity:restaurant\nAdresse: Köstenberger Dorfweg 8, 9231 Köstenberg\nOrt: Köstenberg\nPLZ: 9231\nKoordinaten: 46.651395, 14.009759\nTags: amenity=restaurant, operator=Hubert Gröblacher, website=https://www.groeblacher.at/", "doc_type": "pois"}
{"source": "OSM", "region": "Kärnten", "osm_type": "node", "osm_id": 3894973078, "name": "Bar 72 - Bistro, Bar, Grill", "category": "amenity:bar", "address": "Golfweg 41, 9231 Köstenberg", "street": "Golfweg", "housenumber": "41", "postcode": "9231", "place": "Köstenberg", "lat": 46.6504705, "lon": 13.9993704, "tags": {"addr:city": "Köstenberg", "addr:housenumber": "41", "addr:postcode": "9231", "addr:street": "Golfweg", "amenity": "bar", "name": "Bar 72 - Bistro, Bar, Grill", "operator": "Golfanlagen Velden Köstenberg"}, "content": "Bar 72 - Bistro, Bar, Grill\nKategorie: amenity:bar\nAdresse: Golfweg 41, 9231 Köstenberg\nOrt: Köstenberg\nPLZ: 9231\nKoordinaten: 46.650470, 13.999370\nTags: amenity=bar, operator=Golfanlagen Velden Köstenberg", "doc_type": "pois"}
