{"source": "OSM", "region": "Kärnten", "osm_type": "node", "osm_id": 340517765, "name": "Postpartner 9346, Gemeinde", "category": "amenity:post_office", "address": "Hemmaplatz 1, 9346 Glödnitz", "street": "Hemmaplatz", "housenumber": "1", "postcode": "9346", "place": "Glödnitz", "lat": 46.8738282, "lon": 14.1190843, "tags": {"addr:city": "Glödnitz", "addr:housenumber": "1", "addr:postcode": "9346", "addr:street": "Hemmaplatz", "amenity": "post_office", "name": "Postpartner 9346, Gemeinde"}, "content": "Postpartner 9346, Gemeinde\nKategorie: amenity:post_office\nAdresse: Hemmaplatz 1, 9346 Glödnitz\nOrt: Glödnitz\nPLZ: 9346\nKoordinaten: 46.873828, 14.119084\nTags: amenity=post_office", "doc_type": "addresses"}
{"source": "OSM", "region": "Kärnten", "osm_type": "node", "osm_id": 1709598854, "name": "Alpengasthof Isopp", "category": "amenity:restaurant", "address": "44, 9346 Glödnitz", "street": null, "housenumber": "44", "postcode": "9346", "place": "Glödnitz", "lat": 46.9441792, "lon": 14.0221446, "tags": {"addr:city": "Glödnitz", "addr:housenumber": "44", "addr:place": "Flattnitz", "addr:postcode": "9346", "amenity": "restaurant", "name": "Alpengasthof Isopp", "phone": "+43 4269 214", "tourism": "guest_house", "website": "https://alpengasthof-isopp.eatbu.com/"}, "content": "Alpengasthof Isopp\nKategorie: amenity:restaurant\nAdresse: 44, 9346 Glödnitz\nOrt: Glödnitz\nPLZ: 9346\nKoordinaten: 46.944179, 14.022145\nTags: amenity=restaurant, phone=+43 4269 214, website=https://alpengasthof-isopp.eatbu.com/", "doc_type": "addresses"}
{"source": "OSM", "region": "Kärnten", "osm_type": "node", "osm_id": 5535344560, "name": null, "category": null, "address": "Rain 8, 9346 Glödnitz", "street": "Rain", "housenumber": "8", "postcode": "9346", "place": "Glödnitz", "lat": 46.916419, "lon": 14.083546, "tags": {"addr:city": "Glödnitz", "addr:housenumber": "8", "addr:postcode": "9346", "addr:street": "Rain"}, "content": "Adresse: Rain 8, 9346 Glödnitz\nOrt: Glödnitz\nPLZ: 9346\nKoordinaten: 46.916419, 14.083546", "doc_type": "addresses"}
{"source": "OSM", "region": "Kärnten", "osm_type": "node", "osm_id": 5535378972, "name": null, "category": null, "address": "45, 9346 Glödnitz", "street": null, "housenumber": "45", "postcode": "9346", "place": "Glödnitz", "lat": 46.9414006, "lon": 14.02373, "tags": {"addr:city": "Glödnitz", "addr:housenumber": "45", "addr:place": "Flattnitz", "addr:postcode": "9346"}, "content": "Adresse: 45, 9346 Glödnitz\nOrt: Glödnitz\nPLZ: 9346\nKoordinaten: 46.941401, 14.023730", "doc_type": "addresses"}
{"source": "OSM", "region": "Kärnten", "osm_type": "node", "osm_id": 340517765, "name": "Postpartner 9346, Gemeinde", "category": "amenity:post_office", "address": "Hemmaplatz 1, 9346 Glödnitz", "street": "Hemmaplatz", "housenumber": "1", "postcode": "9346", "place": "Glödnitz", "lat": 46.8738282, "lon": 14.1190843, "tags": {"addr:city": "Glödnitz", "addr:housenumber": "1", "addr:postcode": "9346", "addr:street": "Hemmaplatz", "amenity": "post_office", "name": "Postpartner 9346, Gemeinde"}, "content": "Postpartner 9346, Gemeinde\nKategorie: amenity:post_office\nAdresse: Hemmaplatz 1, 9346 Glödnitz\nOrt: Glödnitz\nPLZ: 9346\nKoordinaten: 46.873828, 14.119084\nTags: amenity=post_office", "doc_type": "pois"}
{"source": "OSM", "region": "Kärnten", "osm_type": "node", "osm_id": 1709598854, "name": "Alpengasthof Isopp", "category": "amenity:restaurant", "address": "44, 9346 Glödnitz", "street": null, "housenumber": "44", "postcode": "9346", "place": "Glödnitz", "lat": 46.9441792, "lon": 14.0221446, "tags": {"addr:city": "Glödnitz", "addr:housenumber": "44", "addr:place": "Flattnitz", "addr:postcode": "9346", "amenity": "restaurant", "name": "Alpengasthof Isopp", "phone": "+43 4269 214", "tourism": "guest_house", "website": "https://alpengasthof-isopp.eatbu.com/"}, "content": "Alpengasthof Isopp\nKategorie: amenity:restaurant\nAdresse: 44, 9346 Glödnitz\nOrt: Glödnitz\nPLZ: 9346\nKoordinaten: 46.944179, 14.022145\nTags: amenity=restaurant, phone=+43 4269 214, website=https://alpengasthof-isopp.eatbu.com/", "doc_type": "pois"}
