{"source": "OSM", "region": "Kärnten", "osm_type": "node", "osm_id": 1969430607, "name": "Laurenzhof", "category": "tourism:hotel", "address": "138, 9811 Lendorf", "street": null, "housenumber": "138", "postcode": "9811", "place": "Lendorf", "lat": 46.8369248, "lon": 13.4162002, "tags": {"addr:city": "Lendorf", "addr:housenumber": "138", "addr:place": "Lendorf", "addr:postcode": "9811", "name": "Laurenzhof", "tourism": "hotel"}, "content": "Laurenzhof\nKategorie: tourism:hotel\nAdresse: 138, 9811 Lendorf\nOrt: Lendorf\nPLZ: 9811\nKoordinaten: 46.836925, 13.416200", "doc_type": "addresses"}
{"source": "OSM", "region": "Kärnten", "osm_type": "node", "osm_id": 2509431892, "name": "Berggasthof Karlbauer", "category": "amenity:restaurant", "address": "Hühnersberg 5, 9811 Lendorf", "street": "Hühnersberg", "housenumber": "5", "postcode": "9811", "place": "Lendorf", "lat": 46.8459639, "lon": 13.4267117, "tags": {"addr:city": "Lendorf", "addr:housenumber": "5", "addr:postcode": "9811", "addr:street": "Hühnersberg", "amenity": "restaurant", "name": "Berggasthof Karlbauer", "website": "http://www.berggasthof-karlbauer.at/"}, "content": "Berggasthof Karlbauer\nKategorie: amenity:restaurant\nAdresse: Hühnersberg 5, 9811 Lendorf\nOrt: Lendorf\nPLZ: 9811\nKoordinaten: 46.845964, 13.426712\nTags: amenity=restaurant, website=http://www.berggasthof-karlbauer.at/", "doc_type": "addresses"}
{"source": "OSM", "region": "Kärnten", "osm_type": "node", "osm_id": 5131580696, "name": "Autobahnpolizeiinspektion Spittal an der Drau", "category": "amenity:police", "address": "17, 9811 Lendorf", "street": null, "housenumber": "17", "postcode": "9811", "place": "Lendorf", "lat": 46.8303713, "lon": 13.4651801, "tags": {"addr:city": "Lendorf", "addr:housenumber": "17", "addr:place": "Feichtendorf", "addr:postcode": "9811", "amenity": "police", "name": "Autobahnpolizeiinspektion Spittal an der Drau", "phone": "+43 59133 2236200"}, "content": "Autobahnpolizeiinspektion Spittal an der Drau\nKategorie: amenity:police\nAdresse: 17, 9811 Lendorf\nOrt: Lendorf\nPLZ: 9811\nKoordinaten: 46.830371, 13.465180\nTags: amenity=police, phone=+43 59133 2236200", "doc_type": "addresses"}
{"source": "OSM", "region": "Kärnten", "osm_type": "node", "osm_id": 5392890159, "name": null, "category": null, "address": "24a, 9560 Lendorf", "street": null, "housenumber": "24a", "postcode": "9560", "place": "Lendorf", "lat": 46.728949, "lon": 14.1069826, "tags": {"addr:city": "Lendorf", "addr:housenumber": "24a", "addr:place": "Lendorf", "addr:postcode": "9560"}, "content": "Adresse: 24a, 9560 Lendorf\nOrt: Lendorf\nPLZ: 9560\nKoordinaten: 46.728949, 14.106983", "doc_type": "addresses"}
{"source": "OSM", "region": "Kärnten", "osm_type": "node", "osm_id": 5622207637, "name": null, "category": null, "address": "51a, 9811 Lendorf", "street": null, "housenumber": "51a", "postcode": "9811", "place": "Lendorf", "lat": 46.8374752, "lon": 13.4206769, "tags": {"addr:city": "Lendorf", "addr:housenumber": "51a", "addr:place": "Lendorf", "addr:postcode": "9811"}, "content": "Adresse: 51a, 9811 Lendorf\nOrt: Lendorf\nPLZ: 9811\nKoordinaten: 46.837475, 13.420677", "doc_type": "addresses"}
{"source": "OSM", "region": "Kärnten", "osm_type": "node", "osm_id": 5622207669, "name": null, "category": null, "address": "271, 9811 Lendorf", "street": null, "housenumber": "271", "postcode": "9811", "place": "Lendorf", "lat": 46.8369505, "lon": 13.4236219, "tags": {"addr:city": "Lendorf", "addr:housenumber": "271", "addr:place": "Lendorf", "addr:postcode": "9811"}, "content": "Adresse: 271, 9811 Lendorf\nOrt: Lendorf\nPLZ: 9811\nKoordinaten: 46.836951, 13.423622", "doc_type": "addresses"}
{"source": "OSM", "region": "Kärnten", "osm_type": "node", "osm_id": 5622207670, "name": null, "category": null, "address": "167, 9811 Lendorf", "street": null, "housenumber": "167", "postcode": "9811", "place": "Lendorf", "lat": 46.8369083, "lon": 13.4234154, "tags": {"addr:city": "Lendorf", "addr:housenumber": "167", "addr:place": "Lendorf", "addr:postcode": "9811"}, "content": "Adresse: 167, 9811 Lendorf\nOrt: Lendorf\nPLZ: 9811\nKoordinaten: 46.836908, 13.423415", "doc_type": "addresses"}
{"source": "OSM", "region": "Kärnten", "osm_type": "node", "osm_id": 1969430607, "name": "Laurenzhof", "category": "tourism:hotel", "address": "138, 9811 Lendorf", "street": null, "housenumber": "138", "postcode": "9811", "place": "Lendorf", "lat": 46.8369248, "lon": 13.4162002, "tags": {"addr:city": "Lendorf", "addr:housenumber": "138", "addr:place": "Lendorf", "addr:postcode": "9811", "name": "Laurenzhof", "tourism": "hotel"}, "content": "Laurenzhof\nKategorie: tourism:hotel\nAdresse: 138, 9811 Lendorf\nOrt: Lendorf\nPLZ: 9811\nKoordinaten: 46.836925, 13.416200", "doc_type": "pois"}
{"source": "OSM", "region": "Kärnten", "osm_type": "node", "osm_id": 2509431892, "name": "Berggasthof Karlbauer", "category": "amenity:restaurant", "address": "Hühnersberg 5, 9811 Lendorf", "street": "Hühnersberg", "housenumber": "5", "postcode": "9811", "place": "Lendorf", "lat": 46.8459639, "lon": 13.4267117, "tags": {"addr:city": "Lendorf", "addr:housenumber": "5", "addr:postcode": "9811", "addr:street": "Hühnersberg", "amenity": "restaurant", "name": "Berggasthof Karlbauer", "website": "http://www.berggasthof-karlbauer.at/"}, "content": "Berggasthof Karlbauer\nKategorie: amenity:restaurant\nAdresse: Hühnersberg 5, 9811 Lendorf\nOrt: Lendorf\nPLZ: 9811\nKoordinaten: 46.845964, 13.426712\nTags: amenity=restaurant, website=http://www.berggasthof-karlbauer.at/", "doc_type": "pois"}
{"source": "OSM", "region": "Kärnten", "osm_type": "node", "osm_id": 5131580696, "name": "Autobahnpolizeiinspektion Spittal an der Drau", "category": "amenity:police", "address": "17, 9811 Lendorf", "street": null, "housenumber": "17", "postcode": "9811", "place": "Lendorf", "lat": 46.8303713, "lon": 13.4651801, "tags": {"addr:city": "Lendorf", "addr:housenumber": "17", "addr:place": "Feichtendorf", "addr:postcode": "9811", "amenity": "police", "name": "Autobahnpolizeiinspektion Spittal an der Drau", "phone": "+43 59133 2236200"}, "content": "Autobahnpolizeiinspektion Spittal an der Drau\nKategorie: amenity:police\nAdresse: 17, 9811 Lendorf\nOrt: Lendorf\nPLZ: 9811\nKoordinaten: 46.830371, 13.465180\nTags: amenity=police, phone=+43 59133 2236200", "doc_type": "pois"}
