{"source": "OSM", "region": "Kärnten", "osm_type": "node", "osm_id": 1303311239, "name": "Polizeiinspektion Gmünd in Kärnten", "category": "amenity:police", "address": "31, 9853 Gmünd in Kärnten", "street": null, "housenumber": "31", "postcode": "9853", "place": "Gmünd in Kärnten", "lat": 46.9050675, "lon": 13.5306977, "tags": {"addr:city": "Gmünd in Kärnten", "addr:housenumber": "31", "addr:place": "Untere Vorstadt", "addr:postcode": "9853", "amenity": "police", "name": "Polizeiinspektion Gmünd in Kärnten", "phone": "+43 59133 2223100"}, "content": "Polizeiinspektion Gmünd in Kärnten\nKategorie: amenity:police\nAdresse: 31, 9853 Gmünd in Kärnten\nOrt: Gmünd in Kärnten\nPLZ: 9853\nKoordinaten: 46.905068, 13.530698\nTags: amenity=police, phone=+43 59133 2223100", "doc_type": "addresses"}
{"source": "OSM", "region": "Kärnten", "osm_type": "node", "osm_id": 2422257571, "name": "Cafe-Konditorei Nußbaumer", "category": "amenity:cafe", "address": "Hauptplatz 23, 9853 Gmünd in Kärnten", "street": "Hauptplatz", "housenumber": "23", "postcode": "9853", "place": "Gmünd in Kärnten", "lat": 46.9072328, "lon": 13.53584, "tags": {"addr:city": "Gmünd in Kärnten", "addr:housenumber": "23", "addr:postcode": "9853", "addr:street": "Hauptplatz", "amenity": "cafe", "name": "Cafe-Konditorei Nußbaumer", "phone": "+4347322145", "website": "http://www.cafe-nussbaumer.at/"}, "content": "Cafe-Konditorei Nußbaumer\nKategorie: amenity:cafe\nAdresse: Hauptplatz 23, 9853 Gmünd in Kärnten\nOrt: Gmünd in Kärnten\nPLZ: 9853\nKoordinaten: 46.907233, 13.535840\nTags: amenity=cafe, phone=+4347322145, website=http://www.cafe-nussbaumer.at/", "doc_type": "addresses"}
{"source": "OSM", "region": "Kärnten", "osm_type": "node", "osm_id": 2422257572, "name": null, "category": null, "address": "29, 9853 Gmünd in Kärnten", "street": null, "housenumber": "29", "postcode": "9853", "place": "Gmünd in Kärnten", "lat": 46.9054748, "lon": 13.5315561, "tags": {"addr:city": "Gmünd in Kärnten", "addr:housenumber": "29", "addr:place": "Untere Vorstadt", "addr:postcode": "9853"}, "content": "Adresse: 29, 9853 Gmünd in Kärnten\nOrt: Gmünd in Kärnten\nPLZ: 9853\nKoordinaten: 46.905475, 13.531556", "doc_type": "addresses"}
{"source": "OSM", "region": "Kärnten", "osm_type": "node", "osm_id": 2444561986, "name": "Dr. Stephan Schnorpfeil", "category": "amenity:dentist", "address": "29, 9853 Gmünd in Kärnten", "street": null, "housenumber": "29", "postcode": "9853", "place": "Gmünd in Kärnten", "lat": 46.9055253, "lon": 13.5317519, "tags": {"addr:city": "Gmünd in Kärnten", "addr:housenumber": "29", "addr:place": "Untere Vorstadt", "addr:postcode": "9853", "amenity": "dentist", "healthcare": "dentist", "name": "Dr. Stephan Schnorpfeil", "website": "https://www.zahnarzt-schnorpfeil.at/"}, "content": "Dr. Stephan Schnorpfeil\nKategorie: amenity:dentist\nAdresse: 29, 9853 Gmünd in Kärnten\nOrt: Gmünd in Kärnten\nPLZ: 9853\nKoordinaten: 46.905525, 13.531752\nTags: amenity=dentist, healthcare=dentist, website=https://www.zahnarzt-schnorpfeil.at/", "doc_type": "addresses"}
{"source": "OSM", "region": "Kärnten", "osm_type": "node", "osm_id": 2510822057, "name": "Baby- und Familienbauernhof Glawischnig-Hofer", "category": "tourism:guest_house", "address": "7, 9853 Gmünd in Kärnten", "street": null, "housenumber": "7", "postcode": "9853", "place": "Gmünd in Kärnten", "lat": 46.9060411, "lon": 13.5519075, "tags": {"addr:city": "Gmünd in Kärnten", "addr:housenumber": "7", "addr:place": "Oberbuch", "addr:postcode": "9853", "name": "Baby- und Familienbauernhof Glawischnig-Hofer", "tourism": "guest_house", "website": "https://www.glawischnig-hofer.at/"}, "content": "Baby- und Familienbauernhof Glawischnig-Hofer\nKategorie: tourism:guest_house\nAdresse: 7, 9853 Gmünd in Kärnten\nOrt: Gmünd in Kärnten\nPLZ: 9853\nKoordinaten: 46.906041, 13.551908\nTags: website=https://www.glawischnig-hofer.at/", "doc_type": "addresses"}
{"source": "OSM", "region": "Kärnten", "osm_type": "node", "osm_id": 2540283233, "name": "Optik Schiffer", "category": "shop:optician", "address": "Hauptplatz 18, 9853 Gmünd in Kärnten", "street": "Hauptplatz", "housenumber": "18", "postcode": "9853", "place": "Gmünd in Kärnten", "lat": 46.906834, "lon": 13.5350138, "tags": {"addr:city": "Gmünd in Kärnten", "addr:housenumber": "18", "addr:postcode": "9853", "addr:street": "Hauptplatz", "name": "Optik Schiffer", "shop": "optician", "website": "https://www.optik-schiffer.at/"}, "content": "Optik Schiffer\nKategorie: shop:optician\nAdresse: Hauptplatz 18, 9853 Gmünd in Kärnten\nOrt: Gmünd in Kärnten\nPLZ: 9853\nKoordinaten: 46.906834, 13.535014\nTags: shop=optician, website=https://www.optik-schiffer.at/", "doc_type": "addresses"}
{"source": "OSM", "region": "Kärnten", "osm_type": "node", "osm_id": 2540283249, "name": "Textilreinigung Florian", "category": "shop:dry_cleaning", "address": "49, 9853 Gmünd in Kärnten", "street": null, "housenumber": "49", "postcode": "9853", "place": "Gmünd in Kärnten", "lat": 46.9084828, "lon": 13.5417984, "tags": {"addr:city": "Gmünd in Kärnten", "addr:housenumber": "49", "addr:place": "Waschanger", "addr:postcode": "9853", "name": "Textilreinigung Florian", "shop": "dry_cleaning", "website": "https://www.textilklinik.at/"}, "content": "Textilreinigung Florian\nKategorie: shop:dry_cleaning\nAdresse: 49, 9853 Gmünd in Kärnten\nOrt: Gmünd in Kärnten\nPLZ: 9853\nKoordinaten: 46.908483, 13.541798\nTags: shop=dry_cleaning, website=https://www.textilklinik.at/", "doc_type": "addresses"}
{"source": "OSM", "region": "Kärnten", "osm_type": "node", "osm_id": 2541246697, "name": null, "category": null, "address": "83, 9853 Gmünd in Kärnten", "street": null, "housenumber": "83", "postcode": "9853", "place": "Gmünd in Kärnten", "lat": 46.9057167, "lon": 13.5403535, "tags": {"addr:city": "Gmünd in Kärnten", "addr:housenumber": "83", "addr:place": "Gries an der Lieser", "addr:postcode": "9853"}, "content": "Adresse: 83, 9853 Gmünd in Kärnten\nOrt: Gmünd in Kärnten\nPLZ: 9853\nKoordinaten: 46.905717, 13.540354", "doc_type": "addresses"}
{"source": "OSM", "region": "Kärnten", "osm_type": "node", "osm_id": 2541246706, "name": null, "category": null, "address": "84, 9853 Gmünd in Kärnten", "street": null, "housenumber": "84", "postcode": "9853", "place": "Gmünd in Kärnten", "lat": 46.9057905, "lon": 13.5402365, "tags": {"addr:city": "Gmünd in Kärnten", "addr:housenumber": "84", "addr:place": "Gries an der Lieser", "addr:postcode": "9853"}, "content": "Adresse: 84, 9853 Gmünd in Kärnten\nOrt: Gmünd in Kärnten\nPLZ: 9853\nKoordinaten: 46.905791, 13.540237", "doc_type": "addresses"}
{"source": "OSM", "region": "Kärnten", "osm_type": "node", "osm_id": 2541246714, "name": null, "category": null, "address": "85, 9853 Gmünd in Kärnten", "street": null, "housenumber": "85", "postcode": "9853", "place": "Gmünd in Kärnten", "lat": 46.9058603, "lon": 13.5400663, "tags": {"addr:city": "Gmünd in Kärnten", "addr:housenumber": "85", "addr:place": "Gries an der Lieser", "addr:postcode": "9853"}, "content": "Adresse: 85, 9853 Gmünd in Kärnten\nOrt: Gmünd in Kärnten\nPLZ: 9853\nKoordinaten: 46.905860, 13.540066", "doc_type": "addresses"}
{"source": "OSM", "region": "Kärnten", "osm_type": "node", "osm_id": 2587818670, "name": "Ferienwohnung Krämmer", "category": "tourism:apartment", "address": "29, 9853 Gmünd in Kärnten", "street": null, "housenumber": "29", "postcode": "9853", "place": "Gmünd in Kärnten", "lat": 46.9054875, "lon": 13.5317996, "tags": {"addr:city": "Gmünd in Kärnten", "addr:housenumber": "29", "addr:place": "Untere Vorstadt", "addr:postcode": "9853", "name": "Ferienwohnung Krämmer", "tourism": "apartment"}, "content": "Ferienwohnung Krämmer\nKategorie: tourism:apartment\nAdresse: 29, 9853 Gmünd in Kärnten\nOrt: Gmünd in Kärnten\nPLZ: 9853\nKoordinaten: 46.905487, 13.531800", "doc_type": "addresses"}
{"source": "OSM", "region": "Kärnten", "osm_type": "node", "osm_id": 3687296583, "name": null, "category": null, "address": "54a, 9853 Gmünd in Kärnten", "street": null, "housenumber": "54a", "postcode": "9853", "place": "Gmünd in Kärnten", "lat": 46.898012, "lon": 13.5313886, "tags": {"addr:city": "Gmünd in Kärnten", "addr:housenumber": "54a", "addr:place": "Landfraß", "addr:postcode": "9853"}, "content": "Adresse: 54a, 9853 Gmünd in Kärnten\nOrt: Gmünd in Kärnten\nPLZ: 9853\nKoordinaten: 46.898012, 13.531389", "doc_type": "addresses"}
{"source": "OSM", "region": "Kärnten", "osm_type": "node", "osm_id": 3687323556, "name": null, "category": null, "address": "9a, 9853 Gmünd in Kärnten", "street": null, "housenumber": "9a", "postcode": "9853", "place": "Gmünd in Kärnten", "lat": 46.9064378, "lon": 13.5524145, "tags": {"addr:city": "Gmünd in Kärnten", "addr:housenumber": "9a", "addr:place": "Oberbuch", "addr:postcode": "9853"}, "content": "Adresse: 9a, 9853 Gmünd in Kärnten\nOrt: Gmünd in Kärnten\nPLZ: 9853\nKoordinaten: 46.906438, 13.552414", "doc_type": "addresses"}
{"source": "OSM", "region": "Kärnten", "osm_type": "node", "osm_id": 3687837655, "name": null, "category": null, "address": "6a, 9853 Gmünd in Kärnten", "street": null, "housenumber": "6a", "postcode": "9853", "place": "Gmünd in Kärnten", "lat": 46.9164833, "lon": 13.5323726, "tags": {"addr:city": "Gmünd in Kärnten", "addr:housenumber": "6a", "addr:place": "Schloßbichl", "addr:postcode": "9853"}, "content": "Adresse: 6a, 9853 Gmünd in Kärnten\nOrt: Gmünd in Kärnten\nPLZ: 9853\nKoordinaten: 46.916483, 13.532373", "doc_type": "addresses"}
{"source": "OSM", "region": "Kärnten", "osm_type": "node", "osm_id": 3687953506, "name": null, "category": null, "address": "3, 9853 Gmünd in Kärnten", "street": null, "housenumber": "3", "postcode": "9853", "place": "Gmünd in Kärnten", "lat": 46.9096109, "lon": 13.5377784, "tags": {"addr:city": "Gmünd in Kärnten", "addr:housenumber": "3", "addr:place": "Unterkreuschlach", "addr:postcode": "9853"}, "content": "Adresse: 3, 9853 Gmünd in Kärnten\nOrt: Gmünd in Kärnten\nPLZ: 9853\nKoordinaten: 46.909611, 13.537778", "doc_type": "addresses"}
{"source": "OSM", "region": "Kärnten", "osm_type": "node", "osm_id": 3687975637, "name": null, "category": null, "address": "5a, 9853 Gmünd in Kärnten", "street": null, "housenumber": "5a", "postcode": "9853", "place": "Gmünd in Kärnten", "lat": 46.9083935, "lon": 13.5392765, "tags": {"addr:city": "Gmünd in Kärnten", "addr:housenumber": "5a", "addr:place": "Waschanger", "addr:postcode": "9853"}, "content": "Adresse: 5a, 9853 Gmünd in Kärnten\nOrt: Gmünd in Kärnten\nPLZ: 9853\nKoordinaten: 46.908394, 13.539276", "doc_type": "addresses"}
{"source": "OSM", "region": "Kärnten", "osm_type": "node", "osm_id": 4082980239, "name": null, "category": null, "address": "Hintere Gasse 58, 9853 Gmünd in Kärnten", "street": "Hintere Gasse", "housenumber": "58", "postcode": "9853", "place": "Gmünd in Kärnten", "lat": 46.9066941, "lon": 13.5360333, "tags": {"addr:city": "Gmünd in Kärnten", "addr:housenumber": "58", "addr:postcode": "9853", "addr:street": "Hintere Gasse"}, "content": "Adresse: Hintere Gasse 58, 9853 Gmünd in Kärnten\nOrt: Gmünd in Kärnten\nPLZ: 9853\nKoordinaten: 46.906694, 13.536033", "doc_type": "addresses"}
{"source": "OSM", "region": "Kärnten", "osm_type": "node", "osm_id": 4082980243, "name": null, "category": null, "address": "Hintere Gasse 61, 9853 Gmünd in Kärnten", "street": "Hintere Gasse", "housenumber": "61", "postcode": "9853", "place": "Gmünd in Kärnten", "lat": 46.9062818, "lon": 13.5360602, "tags": {"addr:city": "Gmünd in Kärnten", "addr:housenumber": "61", "addr:postcode": "9853", "addr:street": "Hintere Gasse"}, "content": "Adresse: Hintere Gasse 61, 9853 Gmünd in Kärnten\nOrt: Gmünd in Kärnten\nPLZ: 9853\nKoordinaten: 46.906282, 13.536060", "doc_type": "addresses"}
{"source": "OSM", "region": "Kärnten", "osm_type": "node", "osm_id": 4608014612, "name": null, "category": null, "address": "Kirchgasse 36, 9853 Gmünd in Kärnten", "street": "Kirchgasse", "housenumber": "36", "postcode": "9853", "place": "Gmünd in Kärnten", "lat": 46.907311, "lon": 13.533895, "tags": {"addr:city": "Gmünd in Kärnten", "addr:housenumber": "36", "addr:postcode": "9853", "addr:street": "Kirchgasse"}, "content": "Adresse: Kirchgasse 36, 9853 Gmünd in Kärnten\nOrt: Gmünd in Kärnten\nPLZ: 9853\nKoordinaten: 46.907311, 13.533895", "doc_type": "addresses"}
{"source": "OSM", "region": "Kärnten", "osm_type": "node", "osm_id": 4608014614, "name": null, "category": null, "address": "Hauptplatz 1, 9853 Gmünd in Kärnten", "street": "Hauptplatz", "housenumber": "1", "postcode": "9853", "place": "Gmünd in Kärnten", "lat": 46.9070829, "lon": 13.5367009, "tags": {"addr:city": "Gmünd in Kärnten", "addr:housenumber": "1", "addr:postcode": "9853", "addr:street": "Hauptplatz"}, "content": "Adresse: Hauptplatz 1, 9853 Gmünd in Kärnten\nOrt: Gmünd in Kärnten\nPLZ: 9853\nKoordinaten: 46.907083, 13.536701", "doc_type": "addresses"}
{"source": "OSM", "region": "Kärnten", "osm_type": "node", "osm_id": 4608014617, "name": null, "category": null, "address": "1, 9853 Gmünd in Kärnten", "street": null, "housenumber": "1", "postcode": "9853", "place": "Gmünd in Kärnten", "lat": 46.9088365, "lon": 13.5358775, "tags": {"addr:city": "Gmünd in Kärnten", "addr:housenumber": "1", "addr:place": "Burgwiese", "addr:postcode": "9853"}, "content": "Adresse: 1, 9853 Gmünd in Kärnten\nOrt: Gmünd in Kärnten\nPLZ: 9853\nKoordinaten: 46.908836, 13.535877", "doc_type": "addresses"}
{"source": "OSM", "region": "Kärnten", "osm_type": "node", "osm_id": 4694037818, "name": null, "category": null, "address": "78a, 9853 Gmünd in Kärnten", "street": null, "housenumber": "78a", "postcode": "9853", "place": "Gmünd in Kärnten", "lat": 46.935453, "lon": 13.5269143, "tags": {"addr:city": "Gmünd in Kärnten", "addr:housenumber": "78a", "addr:place": "Fischertratten", "addr:postcode": "9853"}, "content": "Adresse: 78a, 9853 Gmünd in Kärnten\nOrt: Gmünd in Kärnten\nPLZ: 9853\nKoordinaten: 46.935453, 13.526914", "doc_type": "addresses"}
{"source": "OSM", "region": "Kärnten", "osm_type": "node", "osm_id": 4698175532, "name": null, "category": null, "address": "27, 9853 Gmünd in Kärnten", "street": null, "housenumber": "27", "postcode": "9853", "place": "Gmünd in Kärnten", "lat": 46.92076, "lon": 13.5394696, "tags": {"addr:city": "Gmünd in Kärnten", "addr:housenumber": "27", "addr:place": "Treffenboden", "addr:postcode": "9853"}, "content": "Adresse: 27, 9853 Gmünd in Kärnten\nOrt: Gmünd in Kärnten\nPLZ: 9853\nKoordinaten: 46.920760, 13.539470", "doc_type": "addresses"}
{"source": "OSM", "region": "Kärnten", "osm_type": "node", "osm_id": 4698175533, "name": null, "category": null, "address": "7, 9853 Gmünd in Kärnten", "street": null, "housenumber": "7", "postcode": "9853", "place": "Gmünd in Kärnten", "lat": 46.9206783, "lon": 13.5395311, "tags": {"addr:city": "Gmünd in Kärnten", "addr:housenumber": "7", "addr:place": "Treffenboden", "addr:postcode": "9853"}, "content": "Adresse: 7, 9853 Gmünd in Kärnten\nOrt: Gmünd in Kärnten\nPLZ: 9853\nKoordinaten: 46.920678, 13.539531", "doc_type": "addresses"}
{"source": "OSM", "region": "Kärnten", "osm_type": "node", "osm_id": 4698175534, "name": null, "category": null, "address": "6, 9853 Gmünd in Kärnten", "street": null, "housenumber": "6", "postcode": "9853", "place": "Gmünd in Kärnten", "lat": 46.9164326, "lon": 13.5323636, "tags": {"addr:city": "Gmünd in Kärnten", "addr:housenumber": "6", "addr:place": "Schloßbichl", "addr:postcode": "9853"}, "content": "Adresse: 6, 9853 Gmünd in Kärnten\nOrt: Gmünd in Kärnten\nPLZ: 9853\nKoordinaten: 46.916433, 13.532364", "doc_type": "addresses"}
{"source": "OSM", "region": "Kärnten", "osm_type": "node", "osm_id": 4698175535, "name": null, "category": null, "address": "Kirchgasse 53a, 9853 Gmünd in Kärnten", "street": "Kirchgasse", "housenumber": "53a", "postcode": "9853", "place": "Gmünd in Kärnten", "lat": 46.9082079, "lon": 13.5353773, "tags": {"addr:city": "Gmünd in Kärnten", "addr:housenumber": "53a", "addr:postcode": "9853", "addr:street": "Kirchgasse"}, "content": "Adresse: Kirchgasse 53a, 9853 Gmünd in Kärnten\nOrt: Gmünd in Kärnten\nPLZ: 9853\nKoordinaten: 46.908208, 13.535377", "doc_type": "addresses"}
{"source": "OSM", "region": "Kärnten", "osm_type": "node", "osm_id": 4698175536, "name": null, "category": null, "address": "Kirchgasse 51a, 9853 Gmünd in Kärnten", "street": "Kirchgasse", "housenumber": "51a", "postcode": "9853", "place": "Gmünd in Kärnten", "lat": 46.907913, "lon": 13.535887, "tags": {"addr:city": "Gmünd in Kärnten", "addr:housenumber": "51a", "addr:postcode": "9853", "addr:street": "Kirchgasse"}, "content": "Adresse: Kirchgasse 51a, 9853 Gmünd in Kärnten\nOrt: Gmünd in Kärnten\nPLZ: 9853\nKoordinaten: 46.907913, 13.535887", "doc_type": "addresses"}
{"source": "OSM", "region": "Kärnten", "osm_type": "node", "osm_id": 4698175537, "name": null, "category": null, "address": "11a, 9853 Gmünd in Kärnten", "street": null, "housenumber": "11a", "postcode": "9853", "place": "Gmünd in Kärnten", "lat": 46.9331115, "lon": 13.5247289, "tags": {"addr:city": "Gmünd in Kärnten", "addr:housenumber": "11a", "addr:place": "Karnerau", "addr:postcode": "9853"}, "content": "Adresse: 11a, 9853 Gmünd in Kärnten\nOrt: Gmünd in Kärnten\nPLZ: 9853\nKoordinaten: 46.933112, 13.524729", "doc_type": "addresses"}
{"source": "OSM", "region": "Kärnten", "osm_type": "node", "osm_id": 4897194948, "name": null, "category": null, "address": "Hintere Gasse 24a, 9853 Gmünd in Kärnten", "street": "Hintere Gasse", "housenumber": "24a", "postcode": "9853", "place": "Gmünd in Kärnten", "lat": 46.9074287, "lon": 13.5357564, "tags": {"addr:city": "Gmünd in Kärnten", "addr:housenumber": "24a", "addr:postcode": "9853", "addr:street": "Hintere Gasse"}, "content": "Adresse: Hintere Gasse 24a, 9853 Gmünd in Kärnten\nOrt: Gmünd in Kärnten\nPLZ: 9853\nKoordinaten: 46.907429, 13.535756", "doc_type": "addresses"}
{"source": "OSM", "region": "Kärnten", "osm_type": "node", "osm_id": 1303311239, "name": "Polizeiinspektion Gmünd in Kärnten", "category": "amenity:police", "address": "31, 9853 Gmünd in Kärnten", "street": null, "housenumber": "31", "postcode": "9853", "place": "Gmünd in Kärnten", "lat": 46.9050675, "lon": 13.5306977, "tags": {"addr:city": "Gmünd in Kärnten", "addr:housenumber": "31", "addr:place": "Untere Vorstadt", "addr:postcode": "9853", "amenity": "police", "name": "Polizeiinspektion Gmünd in Kärnten", "phone": "+43 59133 2223100"}, "content": "Polizeiinspektion Gmünd in Kärnten\nKategorie: amenity:police\nAdresse: 31, 9853 Gmünd in Kärnten\nOrt: Gmünd in Kärnten\nPLZ: 9853\nKoordinaten: 46.905068, 13.530698\nTags: amenity=police, phone=+43 59133 2223100", "doc_type": "pois"}
{"source": "OSM", "region": "Kärnten", "osm_type": "node", "osm_id": 2422257571, "name": "Cafe-Konditorei Nußbaumer", "category": "amenity:cafe", "address": "Hauptplatz 23, 9853 Gmünd in Kärnten", "street": "Hauptplatz", "housenumber": "23", "postcode": "9853", "place": "Gmünd in Kärnten", "lat": 46.9072328, "lon": 13.53584, "tags": {"addr:city": "Gmünd in Kärnten", "addr:housenumber": "23", "addr:postcode": "9853", "addr:street": "Hauptplatz", "amenity": "cafe", "name": "Cafe-Konditorei Nußbaumer", "phone": "+4347322145", "website": "http://www.cafe-nussbaumer.at/"}, "content": "Cafe-Konditorei Nußbaumer\nKategorie: amenity:cafe\nAdresse: Hauptplatz 23, 9853 Gmünd in Kärnten\nOrt: Gmünd in Kärnten\nPLZ: 9853\nKoordinaten: 46.907233, 13.535840\nTags: amenity=cafe, phone=+4347322145, website=http://www.cafe-nussbaumer.at/", "doc_type": "pois"}
{"source": "OSM", "region": "Kärnten", "osm_type": "node", "osm_id": 2444561986, "name": "Dr. Stephan Schnorpfeil", "category": "amenity:dentist", "address": "29, 9853 Gmünd in Kärnten", "street": null, "housenumber": "29", "postcode": "9853", "place": "Gmünd in Kärnten", "lat": 46.9055253, "lon": 13.5317519, "tags": {"addr:city": "Gmünd in Kärnten", "addr:housenumber": "29", "addr:place": "Untere Vorstadt", "addr:postcode": "9853", "amenity": "dentist", "healthcare": "dentist", "name": "Dr. Stephan Schnorpfeil", "website": "https://www.zahnarzt-schnorpfeil.at/"}, "content": "Dr. Stephan Schnorpfeil\nKategorie: amenity:dentist\nAdresse: 29, 9853 Gmünd in Kärnten\nOrt: Gmünd in Kärnten\nPLZ: 9853\nKoordinaten: 46.905525, 13.531752\nTags: amenity=dentist, healthcare=dentist, website=https://www.zahnarzt-schnorpfeil.at/", "doc_type": "pois"}
{"source": "OSM", "region": "Kärnten", "osm_type": "node", "osm_id": 2510822057, "name": "Baby- und Familienbauernhof Glawischnig-Hofer", "category": "tourism:guest_house", "address": "7, 9853 Gmünd in Kärnten", "street": null, "housenumber": "7", "postcode": "9853", "place": "Gmünd in Kärnten", "lat": 46.9060411, "lon": 13.5519075, "tags": {"addr:city": "Gmünd in Kärnten", "addr:housenumber": "7", "addr:place": "Oberbuch", "addr:postcode": "9853", "name": "Baby- und Familienbauernhof Glawischnig-Hofer", "tourism": "guest_house", "website": "https://www.glawischnig-hofer.at/"}, "content": "Baby- und Familienbauernhof Glawischnig-Hofer\nKategorie: tourism:guest_house\nAdresse: 7, 9853 Gmünd in Kärnten\nOrt: Gmünd in Kärnten\nPLZ: 9853\nKoordinaten: 46.906041, 13.551908\nTags: website=https://www.glawischnig-hofer.at/", "doc_type": "pois"}
{"source": "OSM", "region": "Kärnten", "osm_type": "node", "osm_id": 2540283233, "name": "Optik Schiffer", "category": "shop:optician", "address": "Hauptplatz 18, 9853 Gmünd in Kärnten", "street": "Hauptplatz", "housenumber": "18", "postcode": "9853", "place": "Gmünd in Kärnten", "lat": 46.906834, "lon": 13.5350138, "tags": {"addr:city": "Gmünd in Kärnten", "addr:housenumber": "18", "addr:postcode": "9853", "addr:street": "Hauptplatz", "name": "Optik Schiffer", "shop": "optician", "website": "https://www.optik-schiffer.at/"}, "content": "Optik Schiffer\nKategorie: shop:optician\nAdresse: Hauptplatz 18, 9853 Gmünd in Kärnten\nOrt: Gmünd in Kärnten\nPLZ: 9853\nKoordinaten: 46.906834, 13.535014\nTags: shop=optician, website=https://www.optik-schiffer.at/", "doc_type": "pois"}
{"source": "OSM", "region": "Kärnten", "osm_type": "node", "osm_id": 2540283249, "name": "Textilreinigung Florian", "category": "shop:dry_cleaning", "address": "49, 9853 Gmünd in Kärnten", "street": null, "housenumber": "49", "postcode": "9853", "place": "Gmünd in Kärnten", "lat": 46.9084828, "lon": 13.5417984, "tags": {"addr:city": "Gmünd in Kärnten", "addr:housenumber": "49", "addr:place": "Waschanger", "addr:postcode": "9853", "name": "Textilreinigung Florian", "shop": "dry_cleaning", "website": "https://www.textilklinik.at/"}, "content": "Textilreinigung Florian\nKategorie: shop:dry_cleaning\nAdresse: 49, 9853 Gmünd in Kärnten\nOrt: Gmünd in Kärnten\nPLZ: 9853\nKoordinaten: 46.908483, 13.541798\nTags: shop=dry_cleaning, website=https://www.textilklinik.at/", "doc_type": "pois"}
{"source": "OSM", "region": "Kärnten", "osm_type": "node", "osm_id": 2587818670, "name": "Ferienwohnung Krämmer", "category": "tourism:apartment", "address": "29, 9853 Gmünd in Kärnten", "street": null, "housenumber": "29", "postcode": "9853", "place": "Gmünd in Kärnten", "lat": 46.9054875, "lon": 13.5317996, "tags": {"addr:city": "Gmünd in Kärnten", "addr:housenumber": "29", "addr:place": "Untere Vorstadt", "addr:postcode": "9853", "name": "Ferienwohnung Krämmer", "tourism": "apartment"}, "content": "Ferienwohnung Krämmer\nKategorie: tourism:apartment\nAdresse: 29, 9853 Gmünd in Kärnten\nOrt: Gmünd in Kärnten\nPLZ: 9853\nKoordinaten: 46.905487, 13.531800", "doc_type": "pois"}
