{"source": "OSM", "region": "Kärnten", "osm_type": "node", "osm_id": 5435648228, "name": null, "category": null, "address": "Stržovo 68, 2392 Mežica", "street": "Stržovo", "housenumber": "68", "postcode": "2392", "place": "Mežica", "lat": 46.5245266, "lon": 14.8441904, "tags": {"addr:city": "Mežica", "addr:housenumber": "68", "addr:postcode": "2392", "addr:street": "Stržovo"}, "content": "Adresse: Stržovo 68, 2392 Mežica\nOrt: Mežica\nPLZ: 2392\nKoordinaten: 46.524527, 14.844190", "doc_type": "addresses"}
{"source": "OSM", "region": "Kärnten", "osm_type": "node", "osm_id": 5435648229, "name": null, "category": null, "address": "Stržovo 67, 2392 Mežica", "street": "Stržovo", "housenumber": "67", "postcode": "2392", "place": "Mežica", "lat": 46.5245981, "lon": 14.8437731, "tags": {"addr:city": "Mežica", "addr:housenumber": "67", "addr:postcode": "2392", "addr:street": "Stržovo"}, "content": "Adresse: Stržovo 67, 2392 Mežica\nOrt: Mežica\nPLZ: 2392\nKoordinaten: 46.524598, 14.843773", "doc_type": "addresses"}
{"source": "OSM", "region": "Kärnten", "osm_type": "node", "osm_id": 5435648230, "name": null, "category": null, "address": "Stržovo 69, 2392 Mežica", "street": "Stržovo", "housenumber": "69", "postcode": "2392", "place": "Mežica", "lat": 46.5247688, "lon": 14.8436422, "tags": {"addr:city": "Mežica", "addr:housenumber": "69", "addr:postcode": "2392", "addr:street": "Stržovo"}, "content": "Adresse: Stržovo 69, 2392 Mežica\nOrt: Mežica\nPLZ: 2392\nKoordinaten: 46.524769, 14.843642", "doc_type": "addresses"}
{"source": "OSM", "region": "Kärnten", "osm_type": "node", "osm_id": 5435648231, "name": null, "category": null, "address": "Stržovo 75, 2392 Mežica", "street": "Stržovo", "housenumber": "75", "postcode": "2392", "place": "Mežica", "lat": 46.5246154, "lon": 14.8432647, "tags": {"addr:city": "Mežica", "addr:housenumber": "75", "addr:postcode": "2392", "addr:street": "Stržovo"}, "content": "Adresse: Stržovo 75, 2392 Mežica\nOrt: Mežica\nPLZ: 2392\nKoordinaten: 46.524615, 14.843265", "doc_type": "addresses"}
{"source": "OSM", "region": "Kärnten", "osm_type": "node", "osm_id": 5435648232, "name": null, "category": null, "address": "Stržovo 63, 2392 Mežica", "street": "Stržovo", "housenumber": "63", "postcode": "2392", "place": "Mežica", "lat": 46.5244183, "lon": 14.8438779, "tags": {"addr:city": "Mežica", "addr:housenumber": "63", "addr:postcode": "2392", "addr:street": "Stržovo"}, "content": "Adresse: Stržovo 63, 2392 Mežica\nOrt: Mežica\nPLZ: 2392\nKoordinaten: 46.524418, 14.843878", "doc_type": "addresses"}
{"source": "OSM", "region": "Kärnten", "osm_type": "node", "osm_id": 5435648233, "name": null, "category": null, "address": "Stržovo 65, 2392 Mežica", "street": "Stržovo", "housenumber": "65", "postcode": "2392", "place": "Mežica", "lat": 46.5241218, "lon": 14.8442306, "tags": {"addr:city": "Mežica", "addr:housenumber": "65", "addr:postcode": "2392", "addr:street": "Stržovo"}, "content": "Adresse: Stržovo 65, 2392 Mežica\nOrt: Mežica\nPLZ: 2392\nKoordinaten: 46.524122, 14.844231", "doc_type": "addresses"}
{"source": "OSM", "region": "Kärnten", "osm_type": "node", "osm_id": 5435648234, "name": null, "category": null, "address": "Stržovo 74, 2392 Mežica", "street": "Stržovo", "housenumber": "74", "postcode": "2392", "place": "Mežica", "lat": 46.5250209, "lon": 14.8437979, "tags": {"addr:city": "Mežica", "addr:housenumber": "74", "addr:postcode": "2392", "addr:street": "Stržovo"}, "content": "Adresse: Stržovo 74, 2392 Mežica\nOrt: Mežica\nPLZ: 2392\nKoordinaten: 46.525021, 14.843798", "doc_type": "addresses"}
{"source": "OSM", "region": "Kärnten", "osm_type": "node", "osm_id": 5435648235, "name": null, "category": null, "address": "Stržovo 71, 2392 Mežica", "street": "Stržovo", "housenumber": "71", "postcode": "2392", "place": "Mežica", "lat": 46.5248946, "lon": 14.8435376, "tags": {"addr:city": "Mežica", "addr:housenumber": "71", "addr:postcode": "2392", "addr:street": "Stržovo"}, "content": "Adresse: Stržovo 71, 2392 Mežica\nOrt: Mežica\nPLZ: 2392\nKoordinaten: 46.524895, 14.843538", "doc_type": "addresses"}
{"source": "OSM", "region": "Kärnten", "osm_type": "node", "osm_id": 5435648236, "name": null, "category": null, "address": "Stržovo 63A, 2392 Mežica", "street": "Stržovo", "housenumber": "63A", "postcode": "2392", "place": "Mežica", "lat": 46.5242024, "lon": 14.8439045, "tags": {"addr:city": "Mežica", "addr:housenumber": "63A", "addr:postcode": "2392", "addr:street": "Stržovo"}, "content": "Adresse: Stržovo 63A, 2392 Mežica\nOrt: Mežica\nPLZ: 2392\nKoordinaten: 46.524202, 14.843905", "doc_type": "addresses"}
{"source": "OSM", "region": "Kärnten", "osm_type": "node", "osm_id": 5435648237, "name": null, "category": null, "address": "Stržovo 64, 2392 Mežica", "street": "Stržovo", "housenumber": "64", "postcode": "2392", "place": "Mežica", "lat": 46.5239689, "lon": 14.844205, "tags": {"addr:city": "Mežica", "addr:housenumber": "64", "addr:postcode": "2392", "addr:street": "Stržovo"}, "content": "Adresse: Stržovo 64, 2392 Mežica\nOrt: Mežica\nPLZ: 2392\nKoordinaten: 46.523969, 14.844205", "doc_type": "addresses"}
{"source": "OSM", "region": "Kärnten", "osm_type": "node", "osm_id": 5435648238, "name": null, "category": null, "address": "Stržovo 66, 2392 Mežica", "street": "Stržovo", "housenumber": "66", "postcode": "2392", "place": "Mežica", "lat": 46.5243469, "lon": 14.8443082, "tags": {"addr:city": "Mežica", "addr:housenumber": "66", "addr:postcode": "2392", "addr:street": "Stržovo"}, "content": "Adresse: Stržovo 66, 2392 Mežica\nOrt: Mežica\nPLZ: 2392\nKoordinaten: 46.524347, 14.844308", "doc_type": "addresses"}
{"source": "OSM", "region": "Kärnten", "osm_type": "node", "osm_id": 5435648239, "name": null, "category": null, "address": "Stržovo 72, 2392 Mežica", "street": "Stržovo", "housenumber": "72", "postcode": "2392", "place": "Mežica", "lat": 46.5248862, "lon": 14.8439808, "tags": {"addr:city": "Mežica", "addr:housenumber": "72", "addr:postcode": "2392", "addr:street": "Stržovo"}, "content": "Adresse: Stržovo 72, 2392 Mežica\nOrt: Mežica\nPLZ: 2392\nKoordinaten: 46.524886, 14.843981", "doc_type": "addresses"}
{"source": "OSM", "region": "Kärnten", "osm_type": "node", "osm_id": 5435648240, "name": null, "category": null, "address": "Stržovo 73, 2392 Mežica", "street": "Stržovo", "housenumber": "73", "postcode": "2392", "place": "Mežica", "lat": 46.5250833, "lon": 14.8433415, "tags": {"addr:city": "Mežica", "addr:housenumber": "73", "addr:postcode": "2392", "addr:street": "Stržovo"}, "content": "Adresse: Stržovo 73, 2392 Mežica\nOrt: Mežica\nPLZ: 2392\nKoordinaten: 46.525083, 14.843341", "doc_type": "addresses"}
{"source": "OSM", "region": "Kärnten", "osm_type": "node", "osm_id": 5435648241, "name": null, "category": null, "address": "Stržovo 76, 2392 Mežica", "street": "Stržovo", "housenumber": "76", "postcode": "2392", "place": "Mežica", "lat": 46.5251557, "lon": 14.8436802, "tags": {"addr:city": "Mežica", "addr:housenumber": "76", "addr:postcode": "2392", "addr:street": "Stržovo"}, "content": "Adresse: Stržovo 76, 2392 Mežica\nOrt: Mežica\nPLZ: 2392\nKoordinaten: 46.525156, 14.843680", "doc_type": "addresses"}
{"source": "OSM", "region": "Kärnten", "osm_type": "node", "osm_id": 5435648242, "name": null, "category": null, "address": "Stržovo 70, 2392 Mežica", "street": "Stržovo", "housenumber": "70", "postcode": "2392", "place": "Mežica", "lat": 46.5247064, "lon": 14.8440726, "tags": {"addr:city": "Mežica", "addr:housenumber": "70", "addr:postcode": "2392", "addr:street": "Stržovo"}, "content": "Adresse: Stržovo 70, 2392 Mežica\nOrt: Mežica\nPLZ: 2392\nKoordinaten: 46.524706, 14.844073", "doc_type": "addresses"}
{"source": "OSM", "region": "Kärnten", "osm_type": "node", "osm_id": 5571348619, "name": null, "category": null, "address": "Podkraj pri Mežici 2, 2392 Mežica", "street": "Podkraj pri Mežici", "housenumber": "2", "postcode": "2392", "place": "Mežica", "lat": 46.5233554, "lon": 14.8429945, "tags": {"addr:city": "Mežica", "addr:housenumber": "2", "addr:postcode": "2392", "addr:street": "Podkraj pri Mežici"}, "content": "Adresse: Podkraj pri Mežici 2, 2392 Mežica\nOrt: Mežica\nPLZ: 2392\nKoordinaten: 46.523355, 14.842994", "doc_type": "addresses"}
{"source": "OSM", "region": "Kärnten", "osm_type": "node", "osm_id": 5571348620, "name": null, "category": null, "address": "Podkraj pri Mežici 1B, 2392 Mežica", "street": "Podkraj pri Mežici", "housenumber": "1B", "postcode": "2392", "place": "Mežica", "lat": 46.5235543, "lon": 14.8436587, "tags": {"addr:city": "Mežica", "addr:housenumber": "1B", "addr:postcode": "2392", "addr:street": "Podkraj pri Mežici"}, "content": "Adresse: Podkraj pri Mežici 1B, 2392 Mežica\nOrt: Mežica\nPLZ: 2392\nKoordinaten: 46.523554, 14.843659", "doc_type": "addresses"}
{"source": "OSM", "region": "Kärnten", "osm_type": "node", "osm_id": 5571348621, "name": null, "category": null, "address": "Podkraj pri Mežici 1A, 2392 Mežica", "street": "Podkraj pri Mežici", "housenumber": "1A", "postcode": "2392", "place": "Mežica", "lat": 46.5238421, "lon": 14.8436449, "tags": {"addr:city": "Mežica", "addr:housenumber": "1A", "addr:postcode": "2392", "addr:street": "Podkraj pri Mežici"}, "content": "Adresse: Podkraj pri Mežici 1A, 2392 Mežica\nOrt: Mežica\nPLZ: 2392\nKoordinaten: 46.523842, 14.843645", "doc_type": "addresses"}
{"source": "OSM", "region": "Kärnten", "osm_type": "node", "osm_id": 5571348622, "name": null, "category": null, "address": "Stržovo 24, 2392 Mežica", "street": "Stržovo", "housenumber": "24", "postcode": "2392", "place": "Mežica", "lat": 46.5228188, "lon": 14.8453813, "tags": {"addr:city": "Mežica", "addr:housenumber": "24", "addr:postcode": "2392", "addr:street": "Stržovo"}, "content": "Adresse: Stržovo 24, 2392 Mežica\nOrt: Mežica\nPLZ: 2392\nKoordinaten: 46.522819, 14.845381", "doc_type": "addresses"}
{"source": "OSM", "region": "Kärnten", "osm_type": "node", "osm_id": 5571348623, "name": null, "category": null, "address": "Stržovo 26, 2392 Mežica", "street": "Stržovo", "housenumber": "26", "postcode": "2392", "place": "Mežica", "lat": 46.5227733, "lon": 14.8449904, "tags": {"addr:city": "Mežica", "addr:housenumber": "26", "addr:postcode": "2392", "addr:street": "Stržovo"}, "content": "Adresse: Stržovo 26, 2392 Mežica\nOrt: Mežica\nPLZ: 2392\nKoordinaten: 46.522773, 14.844990", "doc_type": "addresses"}
{"source": "OSM", "region": "Kärnten", "osm_type": "node", "osm_id": 5571348624, "name": null, "category": null, "address": "Stržovo 28, 2392 Mežica", "street": "Stržovo", "housenumber": "28", "postcode": "2392", "place": "Mežica", "lat": 46.5228359, "lon": 14.8447035, "tags": {"addr:city": "Mežica", "addr:housenumber": "28", "addr:postcode": "2392", "addr:street": "Stržovo"}, "content": "Adresse: Stržovo 28, 2392 Mežica\nOrt: Mežica\nPLZ: 2392\nKoordinaten: 46.522836, 14.844703", "doc_type": "addresses"}
{"source": "OSM", "region": "Kärnten", "osm_type": "node", "osm_id": 5571348625, "name": null, "category": null, "address": "Stržovo 13, 2392 Mežica", "street": "Stržovo", "housenumber": "13", "postcode": "2392", "place": "Mežica", "lat": 46.5237638, "lon": 14.8456002, "tags": {"addr:city": "Mežica", "addr:housenumber": "13", "addr:postcode": "2392", "addr:street": "Stržovo"}, "content": "Adresse: Stržovo 13, 2392 Mežica\nOrt: Mežica\nPLZ: 2392\nKoordinaten: 46.523764, 14.845600", "doc_type": "addresses"}
{"source": "OSM", "region": "Kärnten", "osm_type": "node", "osm_id": 5571348626, "name": null, "category": null, "address": "Stržovo 39, 2392 Mežica", "street": "Stržovo", "housenumber": "39", "postcode": "2392", "place": "Mežica", "lat": 46.5235733, "lon": 14.8444538, "tags": {"addr:city": "Mežica", "addr:housenumber": "39", "addr:postcode": "2392", "addr:street": "Stržovo"}, "content": "Adresse: Stržovo 39, 2392 Mežica\nOrt: Mežica\nPLZ: 2392\nKoordinaten: 46.523573, 14.844454", "doc_type": "addresses"}
{"source": "OSM", "region": "Kärnten", "osm_type": "node", "osm_id": 5571348627, "name": null, "category": null, "address": "Stržovo 20, 2392 Mežica", "street": "Stržovo", "housenumber": "20", "postcode": "2392", "place": "Mežica", "lat": 46.5231333, "lon": 14.8450546, "tags": {"addr:city": "Mežica", "addr:housenumber": "20", "addr:postcode": "2392", "addr:street": "Stržovo"}, "content": "Adresse: Stržovo 20, 2392 Mežica\nOrt: Mežica\nPLZ: 2392\nKoordinaten: 46.523133, 14.845055", "doc_type": "addresses"}
{"source": "OSM", "region": "Kärnten", "osm_type": "node", "osm_id": 5571348628, "name": null, "category": null, "address": "Stržovo 22, 2392 Mežica", "street": "Stržovo", "housenumber": "22", "postcode": "2392", "place": "Mežica", "lat": 46.5229715, "lon": 14.8451463, "tags": {"addr:city": "Mežica", "addr:housenumber": "22", "addr:postcode": "2392", "addr:street": "Stržovo"}, "content": "Adresse: Stržovo 22, 2392 Mežica\nOrt: Mežica\nPLZ: 2392\nKoordinaten: 46.522971, 14.845146", "doc_type": "addresses"}
{"source": "OSM", "region": "Kärnten", "osm_type": "node", "osm_id": 5571348629, "name": null, "category": null, "address": "Stržovo 11, 2392 Mežica", "street": "Stržovo", "housenumber": "11", "postcode": "2392", "place": "Mežica", "lat": 46.5239168, "lon": 14.8456259, "tags": {"addr:city": "Mežica", "addr:housenumber": "11", "addr:postcode": "2392", "addr:street": "Stržovo"}, "content": "Adresse: Stržovo 11, 2392 Mežica\nOrt: Mežica\nPLZ: 2392\nKoordinaten: 46.523917, 14.845626", "doc_type": "addresses"}
{"source": "OSM", "region": "Kärnten", "osm_type": "node", "osm_id": 5571348630, "name": null, "category": null, "address": "Stržovo 12, 2392 Mežica", "street": "Stržovo", "housenumber": "12", "postcode": "2392", "place": "Mežica", "lat": 46.5237903, "lon": 14.8452613, "tags": {"addr:city": "Mežica", "addr:housenumber": "12", "addr:postcode": "2392", "addr:street": "Stržovo"}, "content": "Adresse: Stržovo 12, 2392 Mežica\nOrt: Mežica\nPLZ: 2392\nKoordinaten: 46.523790, 14.845261", "doc_type": "addresses"}
{"source": "OSM", "region": "Kärnten", "osm_type": "node", "osm_id": 5571348631, "name": null, "category": null, "address": "Stržovo 10, 2392 Mežica", "street": "Stržovo", "housenumber": "10", "postcode": "2392", "place": "Mežica", "lat": 46.5239434, "lon": 14.8453782, "tags": {"addr:city": "Mežica", "addr:housenumber": "10", "addr:postcode": "2392", "addr:street": "Stržovo"}, "content": "Adresse: Stržovo 10, 2392 Mežica\nOrt: Mežica\nPLZ: 2392\nKoordinaten: 46.523943, 14.845378", "doc_type": "addresses"}
{"source": "OSM", "region": "Kärnten", "osm_type": "node", "osm_id": 5571348632, "name": null, "category": null, "address": "Stržovo 18, 2392 Mežica", "street": "Stržovo", "housenumber": "18", "postcode": "2392", "place": "Mežica", "lat": 46.5233043, "lon": 14.8451062, "tags": {"addr:city": "Mežica", "addr:housenumber": "18", "addr:postcode": "2392", "addr:street": "Stržovo"}, "content": "Adresse: Stržovo 18, 2392 Mežica\nOrt: Mežica\nPLZ: 2392\nKoordinaten: 46.523304, 14.845106", "doc_type": "addresses"}
{"source": "OSM", "region": "Kärnten", "osm_type": "node", "osm_id": 5571348633, "name": null, "category": null, "address": "Stržovo 14, 2392 Mežica", "street": "Stržovo", "housenumber": "14", "postcode": "2392", "place": "Mežica", "lat": 46.5236374, "lon": 14.8452356, "tags": {"addr:city": "Mežica", "addr:housenumber": "14", "addr:postcode": "2392", "addr:street": "Stržovo"}, "content": "Adresse: Stržovo 14, 2392 Mežica\nOrt: Mežica\nPLZ: 2392\nKoordinaten: 46.523637, 14.845236", "doc_type": "addresses"}
{"source": "OSM", "region": "Kärnten", "osm_type": "node", "osm_id": 5571348634, "name": null, "category": null, "address": "Stržovo 30, 2392 Mežica", "street": "Stržovo", "housenumber": "30", "postcode": "2392", "place": "Mežica", "lat": 46.5230424, "lon": 14.8443771, "tags": {"addr:city": "Mežica", "addr:housenumber": "30", "addr:postcode": "2392", "addr:street": "Stržovo"}, "content": "Adresse: Stržovo 30, 2392 Mežica\nOrt: Mežica\nPLZ: 2392\nKoordinaten: 46.523042, 14.844377", "doc_type": "addresses"}
{"source": "OSM", "region": "Kärnten", "osm_type": "node", "osm_id": 5571348635, "name": null, "category": null, "address": "Stržovo 41, 2392 Mežica", "street": "Stržovo", "housenumber": "41", "postcode": "2392", "place": "Mežica", "lat": 46.5237354, "lon": 14.8445185, "tags": {"addr:city": "Mežica", "addr:housenumber": "41", "addr:postcode": "2392", "addr:street": "Stržovo"}, "content": "Adresse: Stržovo 41, 2392 Mežica\nOrt: Mežica\nPLZ: 2392\nKoordinaten: 46.523735, 14.844518", "doc_type": "addresses"}
{"source": "OSM", "region": "Kärnten", "osm_type": "node", "osm_id": 5571348636, "name": null, "category": null, "address": "Stržovo 37, 2392 Mežica", "street": "Stržovo", "housenumber": "37", "postcode": "2392", "place": "Mežica", "lat": 46.5234023, "lon": 14.8444021, "tags": {"addr:city": "Mežica", "addr:housenumber": "37", "addr:postcode": "2392", "addr:street": "Stržovo"}, "content": "Adresse: Stržovo 37, 2392 Mežica\nOrt: Mežica\nPLZ: 2392\nKoordinaten: 46.523402, 14.844402", "doc_type": "addresses"}
{"source": "OSM", "region": "Kärnten", "osm_type": "node", "osm_id": 5571348637, "name": null, "category": null, "address": "Stržovo 16, 2392 Mežica", "street": "Stržovo", "housenumber": "16", "postcode": "2392", "place": "Mežica", "lat": 46.5234573, "lon": 14.8451579, "tags": {"addr:city": "Mežica", "addr:housenumber": "16", "addr:postcode": "2392", "addr:street": "Stržovo"}, "content": "Adresse: Stržovo 16, 2392 Mežica\nOrt: Mežica\nPLZ: 2392\nKoordinaten: 46.523457, 14.845158", "doc_type": "addresses"}
{"source": "OSM", "region": "Kärnten", "osm_type": "node", "osm_id": 5571348638, "name": null, "category": null, "address": "Stržovo 15, 2392 Mežica", "street": "Stržovo", "housenumber": "15", "postcode": "2392", "place": "Mežica", "lat": 46.5235838, "lon": 14.8455356, "tags": {"addr:city": "Mežica", "addr:housenumber": "15", "addr:postcode": "2392", "addr:street": "Stržovo"}, "content": "Adresse: Stržovo 15, 2392 Mežica\nOrt: Mežica\nPLZ: 2392\nKoordinaten: 46.523584, 14.845536", "doc_type": "addresses"}
{"source": "OSM", "region": "Kärnten", "osm_type": "node", "osm_id": 5571348639, "name": null, "category": null, "address": "Stržovo 43, 2392 Mežica", "street": "Stržovo", "housenumber": "43", "postcode": "2392", "place": "Mežica", "lat": 46.5239064, "lon": 14.8445701, "tags": {"addr:city": "Mežica", "addr:housenumber": "43", "addr:postcode": "2392", "addr:street": "Stržovo"}, "content": "Adresse: Stržovo 43, 2392 Mežica\nOrt: Mežica\nPLZ: 2392\nKoordinaten: 46.523906, 14.844570", "doc_type": "addresses"}
{"source": "OSM", "region": "Kärnten", "osm_type": "node", "osm_id": 5571348640, "name": null, "category": null, "address": "Stržovo 19, 2392 Mežica", "street": "Stržovo", "housenumber": "19", "postcode": "2392", "place": "Mežica", "lat": 46.5232508, "lon": 14.8454453, "tags": {"addr:city": "Mežica", "addr:housenumber": "19", "addr:postcode": "2392", "addr:street": "Stržovo"}, "content": "Adresse: Stržovo 19, 2392 Mežica\nOrt: Mežica\nPLZ: 2392\nKoordinaten: 46.523251, 14.845445", "doc_type": "addresses"}
{"source": "OSM", "region": "Kärnten", "osm_type": "node", "osm_id": 5571348641, "name": null, "category": null, "address": "Stržovo 35, 2392 Mežica", "street": "Stržovo", "housenumber": "35", "postcode": "2392", "place": "Mežica", "lat": 46.5232583, "lon": 14.8443504, "tags": {"addr:city": "Mežica", "addr:housenumber": "35", "addr:postcode": "2392", "addr:street": "Stržovo"}, "content": "Adresse: Stržovo 35, 2392 Mežica\nOrt: Mežica\nPLZ: 2392\nKoordinaten: 46.523258, 14.844350", "doc_type": "addresses"}
{"source": "OSM", "region": "Kärnten", "osm_type": "node", "osm_id": 5571348642, "name": null, "category": null, "address": "Stržovo 42, 2392 Mežica", "street": "Stržovo", "housenumber": "42", "postcode": "2392", "place": "Mežica", "lat": 46.5238438, "lon": 14.8448701, "tags": {"addr:city": "Mežica", "addr:housenumber": "42", "addr:postcode": "2392", "addr:street": "Stržovo"}, "content": "Adresse: Stržovo 42, 2392 Mežica\nOrt: Mežica\nPLZ: 2392\nKoordinaten: 46.523844, 14.844870", "doc_type": "addresses"}
{"source": "OSM", "region": "Kärnten", "osm_type": "node", "osm_id": 5571348643, "name": null, "category": null, "address": "Stržovo 44, 2392 Mežica", "street": "Stržovo", "housenumber": "44", "postcode": "2392", "place": "Mežica", "lat": 46.5239879, "lon": 14.8449609, "tags": {"addr:city": "Mežica", "addr:housenumber": "44", "addr:postcode": "2392", "addr:street": "Stržovo"}, "content": "Adresse: Stržovo 44, 2392 Mežica\nOrt: Mežica\nPLZ: 2392\nKoordinaten: 46.523988, 14.844961", "doc_type": "addresses"}
{"source": "OSM", "region": "Kärnten", "osm_type": "node", "osm_id": 5571348644, "name": null, "category": null, "address": "Stržovo 36, 2392 Mežica", "street": "Stržovo", "housenumber": "36", "postcode": "2392", "place": "Mežica", "lat": 46.5233668, "lon": 14.8447672, "tags": {"addr:city": "Mežica", "addr:housenumber": "36", "addr:postcode": "2392", "addr:street": "Stržovo"}, "content": "Adresse: Stržovo 36, 2392 Mežica\nOrt: Mežica\nPLZ: 2392\nKoordinaten: 46.523367, 14.844767", "doc_type": "addresses"}
{"source": "OSM", "region": "Kärnten", "osm_type": "node", "osm_id": 5571348645, "name": null, "category": null, "address": "Stržovo 45, 2392 Mežica", "street": "Stržovo", "housenumber": "45", "postcode": "2392", "place": "Mežica", "lat": 46.5240774, "lon": 14.8446218, "tags": {"addr:city": "Mežica", "addr:housenumber": "45", "addr:postcode": "2392", "addr:street": "Stržovo"}, "content": "Adresse: Stržovo 45, 2392 Mežica\nOrt: Mežica\nPLZ: 2392\nKoordinaten: 46.524077, 14.844622", "doc_type": "addresses"}
{"source": "OSM", "region": "Kärnten", "osm_type": "node", "osm_id": 5571348646, "name": null, "category": null, "address": "Stržovo 40, 2392 Mežica", "street": "Stržovo", "housenumber": "40", "postcode": "2392", "place": "Mežica", "lat": 46.5236549, "lon": 14.8448967, "tags": {"addr:city": "Mežica", "addr:housenumber": "40", "addr:postcode": "2392", "addr:street": "Stržovo"}, "content": "Adresse: Stržovo 40, 2392 Mežica\nOrt: Mežica\nPLZ: 2392\nKoordinaten: 46.523655, 14.844897", "doc_type": "addresses"}
{"source": "OSM", "region": "Kärnten", "osm_type": "node", "osm_id": 5571348647, "name": null, "category": null, "address": "Stržovo 21, 2392 Mežica", "street": "Stržovo", "housenumber": "21", "postcode": "2392", "place": "Mežica", "lat": 46.523053, "lon": 14.8455762, "tags": {"addr:city": "Mežica", "addr:housenumber": "21", "addr:postcode": "2392", "addr:street": "Stržovo"}, "content": "Adresse: Stržovo 21, 2392 Mežica\nOrt: Mežica\nPLZ: 2392\nKoordinaten: 46.523053, 14.845576", "doc_type": "addresses"}
{"source": "OSM", "region": "Kärnten", "osm_type": "node", "osm_id": 5571348648, "name": null, "category": null, "address": "Stržovo 17, 2392 Mežica", "street": "Stržovo", "housenumber": "17", "postcode": "2392", "place": "Mežica", "lat": 46.5234307, "lon": 14.8454708, "tags": {"addr:city": "Mežica", "addr:housenumber": "17", "addr:postcode": "2392", "addr:street": "Stržovo"}, "content": "Adresse: Stržovo 17, 2392 Mežica\nOrt: Mežica\nPLZ: 2392\nKoordinaten: 46.523431, 14.845471", "doc_type": "addresses"}
{"source": "OSM", "region": "Kärnten", "osm_type": "node", "osm_id": 5571348649, "name": null, "category": null, "address": "Stržovo 38, 2392 Mežica", "street": "Stržovo", "housenumber": "38", "postcode": "2392", "place": "Mežica", "lat": 46.5234929, "lon": 14.844832, "tags": {"addr:city": "Mežica", "addr:housenumber": "38", "addr:postcode": "2392", "addr:street": "Stržovo"}, "content": "Adresse: Stržovo 38, 2392 Mežica\nOrt: Mežica\nPLZ: 2392\nKoordinaten: 46.523493, 14.844832", "doc_type": "addresses"}
{"source": "OSM", "region": "Kärnten", "osm_type": "node", "osm_id": 5571348650, "name": null, "category": null, "address": "Stržovo 34, 2392 Mežica", "street": "Stržovo", "housenumber": "34", "postcode": "2392", "place": "Mežica", "lat": 46.5231958, "lon": 14.8447025, "tags": {"addr:city": "Mežica", "addr:housenumber": "34", "addr:postcode": "2392", "addr:street": "Stržovo"}, "content": "Adresse: Stržovo 34, 2392 Mežica\nOrt: Mežica\nPLZ: 2392\nKoordinaten: 46.523196, 14.844703", "doc_type": "addresses"}
{"source": "OSM", "region": "Kärnten", "osm_type": "node", "osm_id": 5571348651, "name": null, "category": null, "address": "Stržovo 32, 2392 Mežica", "street": "Stržovo", "housenumber": "32", "postcode": "2392", "place": "Mežica", "lat": 46.5229978, "lon": 14.84469, "tags": {"addr:city": "Mežica", "addr:housenumber": "32", "addr:postcode": "2392", "addr:street": "Stržovo"}, "content": "Adresse: Stržovo 32, 2392 Mežica\nOrt: Mežica\nPLZ: 2392\nKoordinaten: 46.522998, 14.844690", "doc_type": "addresses"}
{"source": "OSM", "region": "Kärnten", "osm_type": "node", "osm_id": 5571348652, "name": null, "category": null, "address": "Stržovo 62, 2392 Mežica", "street": "Stržovo", "housenumber": "62", "postcode": "2392", "place": "Mežica", "lat": 46.5237799, "lon": 14.8442186, "tags": {"addr:city": "Mežica", "addr:housenumber": "62", "addr:postcode": "2392", "addr:street": "Stržovo"}, "content": "Adresse: Stržovo 62, 2392 Mežica\nOrt: Mežica\nPLZ: 2392\nKoordinaten: 46.523780, 14.844219", "doc_type": "addresses"}
{"source": "OSM", "region": "Kärnten", "osm_type": "node", "osm_id": 5571348653, "name": null, "category": null, "address": "Stržovo 46, 2392 Mežica", "street": "Stržovo", "housenumber": "46", "postcode": "2392", "place": "Mežica", "lat": 46.5242219, "lon": 14.8450254, "tags": {"addr:city": "Mežica", "addr:housenumber": "46", "addr:postcode": "2392", "addr:street": "Stržovo"}, "content": "Adresse: Stržovo 46, 2392 Mežica\nOrt: Mežica\nPLZ: 2392\nKoordinaten: 46.524222, 14.845025", "doc_type": "addresses"}
{"source": "OSM", "region": "Kärnten", "osm_type": "node", "osm_id": 5571348654, "name": null, "category": null, "address": "Stržovo 6, 2392 Mežica", "street": "Stržovo", "housenumber": "6", "postcode": "2392", "place": "Mežica", "lat": 46.5243125, "lon": 14.8455466, "tags": {"addr:city": "Mežica", "addr:housenumber": "6", "addr:postcode": "2392", "addr:street": "Stržovo"}, "content": "Adresse: Stržovo 6, 2392 Mežica\nOrt: Mežica\nPLZ: 2392\nKoordinaten: 46.524313, 14.845547", "doc_type": "addresses"}
{"source": "OSM", "region": "Kärnten", "osm_type": "node", "osm_id": 5571348655, "name": null, "category": null, "address": "Stržovo 7, 2392 Mežica", "street": "Stržovo", "housenumber": "7", "postcode": "2392", "place": "Mežica", "lat": 46.5243039, "lon": 14.8458073, "tags": {"addr:city": "Mežica", "addr:housenumber": "7", "addr:postcode": "2392", "addr:street": "Stržovo"}, "content": "Adresse: Stržovo 7, 2392 Mežica\nOrt: Mežica\nPLZ: 2392\nKoordinaten: 46.524304, 14.845807", "doc_type": "addresses"}
{"source": "OSM", "region": "Kärnten", "osm_type": "node", "osm_id": 5571348656, "name": null, "category": null, "address": "Stržovo 52, 2392 Mežica", "street": "Stržovo", "housenumber": "52", "postcode": "2392", "place": "Mežica", "lat": 46.5247532, "lon": 14.8453759, "tags": {"addr:city": "Mežica", "addr:housenumber": "52", "addr:postcode": "2392", "addr:street": "Stržovo"}, "content": "Adresse: Stržovo 52, 2392 Mežica\nOrt: Mežica\nPLZ: 2392\nKoordinaten: 46.524753, 14.845376", "doc_type": "addresses"}
{"source": "OSM", "region": "Kärnten", "osm_type": "node", "osm_id": 5571348657, "name": null, "category": null, "address": "Stržovo 49, 2392 Mežica", "street": "Stržovo", "housenumber": "49", "postcode": "2392", "place": "Mežica", "lat": 46.5245365, "lon": 14.844816, "tags": {"addr:city": "Mežica", "addr:housenumber": "49", "addr:postcode": "2392", "addr:street": "Stržovo"}, "content": "Adresse: Stržovo 49, 2392 Mežica\nOrt: Mežica\nPLZ: 2392\nKoordinaten: 46.524537, 14.844816", "doc_type": "addresses"}
{"source": "OSM", "region": "Kärnten", "osm_type": "node", "osm_id": 5571348658, "name": null, "category": null, "address": "Stržovo 79, 2392 Mežica", "street": "Stržovo", "housenumber": "79", "postcode": "2392", "place": "Mežica", "lat": 46.5249867, "lon": 14.8451145, "tags": {"addr:city": "Mežica", "addr:housenumber": "79", "addr:postcode": "2392", "addr:street": "Stržovo"}, "content": "Adresse: Stržovo 79, 2392 Mežica\nOrt: Mežica\nPLZ: 2392\nKoordinaten: 46.524987, 14.845114", "doc_type": "addresses"}
{"source": "OSM", "region": "Kärnten", "osm_type": "node", "osm_id": 5571348659, "name": null, "category": null, "address": "Stržovo 84, 2392 Mežica", "street": "Stržovo", "housenumber": "84", "postcode": "2392", "place": "Mežica", "lat": 46.5248963, "lon": 14.8447368, "tags": {"addr:city": "Mežica", "addr:housenumber": "84", "addr:postcode": "2392", "addr:street": "Stržovo"}, "content": "Adresse: Stržovo 84, 2392 Mežica\nOrt: Mežica\nPLZ: 2392\nKoordinaten: 46.524896, 14.844737", "doc_type": "addresses"}
{"source": "OSM", "region": "Kärnten", "osm_type": "node", "osm_id": 5571348660, "name": null, "category": null, "address": "Stržovo 83, 2392 Mežica", "street": "Stržovo", "housenumber": "83", "postcode": "2392", "place": "Mežica", "lat": 46.5251388, "lon": 14.8444493, "tags": {"addr:city": "Mežica", "addr:housenumber": "83", "addr:postcode": "2392", "addr:street": "Stržovo"}, "content": "Adresse: Stržovo 83, 2392 Mežica\nOrt: Mežica\nPLZ: 2392\nKoordinaten: 46.525139, 14.844449", "doc_type": "addresses"}
{"source": "OSM", "region": "Kärnten", "osm_type": "node", "osm_id": 5571348661, "name": null, "category": null, "address": "Stržovo 50, 2392 Mežica", "street": "Stržovo", "housenumber": "50", "postcode": "2392", "place": "Mežica", "lat": 46.5245731, "lon": 14.8452851, "tags": {"addr:city": "Mežica", "addr:housenumber": "50", "addr:postcode": "2392", "addr:street": "Stržovo"}, "content": "Adresse: Stržovo 50, 2392 Mežica\nOrt: Mežica\nPLZ: 2392\nKoordinaten: 46.524573, 14.845285", "doc_type": "addresses"}
{"source": "OSM", "region": "Kärnten", "osm_type": "node", "osm_id": 5571348662, "name": null, "category": null, "address": "Stržovo 9, 2392 Mežica", "street": "Stržovo", "housenumber": "9", "postcode": "2392", "place": "Mežica", "lat": 46.5241509, "lon": 14.8457425, "tags": {"addr:city": "Mežica", "addr:housenumber": "9", "addr:postcode": "2392", "addr:street": "Stržovo"}, "content": "Adresse: Stržovo 9, 2392 Mežica\nOrt: Mežica\nPLZ: 2392\nKoordinaten: 46.524151, 14.845743", "doc_type": "addresses"}
{"source": "OSM", "region": "Kärnten", "osm_type": "node", "osm_id": 5571348663, "name": null, "category": null, "address": "Stržovo 82, 2392 Mežica", "street": "Stržovo", "housenumber": "82", "postcode": "2392", "place": "Mežica", "lat": 46.5253365, "lon": 14.8442663, "tags": {"addr:city": "Mežica", "addr:housenumber": "82", "addr:postcode": "2392", "addr:street": "Stržovo"}, "content": "Adresse: Stržovo 82, 2392 Mežica\nOrt: Mežica\nPLZ: 2392\nKoordinaten: 46.525337, 14.844266", "doc_type": "addresses"}
{"source": "OSM", "region": "Kärnten", "osm_type": "node", "osm_id": 5571348664, "name": null, "category": null, "address": "Stržovo 53, 2392 Mežica", "street": "Stržovo", "housenumber": "53", "postcode": "2392", "place": "Mežica", "lat": 46.5248247, "lon": 14.8450628, "tags": {"addr:city": "Mežica", "addr:housenumber": "53", "addr:postcode": "2392", "addr:street": "Stržovo"}, "content": "Adresse: Stržovo 53, 2392 Mežica\nOrt: Mežica\nPLZ: 2392\nKoordinaten: 46.524825, 14.845063", "doc_type": "addresses"}
{"source": "OSM", "region": "Kärnten", "osm_type": "node", "osm_id": 5571348665, "name": null, "category": null, "address": "Stržovo 8, 2392 Mežica", "street": "Stržovo", "housenumber": "8", "postcode": "2392", "place": "Mežica", "lat": 46.5241505, "lon": 14.8454558, "tags": {"addr:city": "Mežica", "addr:housenumber": "8", "addr:postcode": "2392", "addr:street": "Stržovo"}, "content": "Adresse: Stržovo 8, 2392 Mežica\nOrt: Mežica\nPLZ: 2392\nKoordinaten: 46.524150, 14.845456", "doc_type": "addresses"}
{"source": "OSM", "region": "Kärnten", "osm_type": "node", "osm_id": 5571348666, "name": null, "category": null, "address": "Stržovo 80, 2392 Mežica", "street": "Stržovo", "housenumber": "80", "postcode": "2392", "place": "Mežica", "lat": 46.5251574, "lon": 14.8449316, "tags": {"addr:city": "Mežica", "addr:housenumber": "80", "addr:postcode": "2392", "addr:street": "Stržovo"}, "content": "Adresse: Stržovo 80, 2392 Mežica\nOrt: Mežica\nPLZ: 2392\nKoordinaten: 46.525157, 14.844932", "doc_type": "addresses"}
{"source": "OSM", "region": "Kärnten", "osm_type": "node", "osm_id": 5571348667, "name": null, "category": null, "address": "Stržovo 51, 2392 Mežica", "street": "Stržovo", "housenumber": "51", "postcode": "2392", "place": "Mežica", "lat": 46.5246806, "lon": 14.844959, "tags": {"addr:city": "Mežica", "addr:housenumber": "51", "addr:postcode": "2392", "addr:street": "Stržovo"}, "content": "Adresse: Stržovo 51, 2392 Mežica\nOrt: Mežica\nPLZ: 2392\nKoordinaten: 46.524681, 14.844959", "doc_type": "addresses"}
{"source": "OSM", "region": "Kärnten", "osm_type": "node", "osm_id": 5571348668, "name": null, "category": null, "address": "Stržovo 47, 2392 Mežica", "street": "Stržovo", "housenumber": "47", "postcode": "2392", "place": "Mežica", "lat": 46.5243565, "lon": 14.8447513, "tags": {"addr:city": "Mežica", "addr:housenumber": "47", "addr:postcode": "2392", "addr:street": "Stržovo"}, "content": "Adresse: Stržovo 47, 2392 Mežica\nOrt: Mežica\nPLZ: 2392\nKoordinaten: 46.524357, 14.844751", "doc_type": "addresses"}
{"source": "OSM", "region": "Kärnten", "osm_type": "node", "osm_id": 5571348669, "name": null, "category": null, "address": "Stržovo 48, 2392 Mežica", "street": "Stržovo", "housenumber": "48", "postcode": "2392", "place": "Mežica", "lat": 46.524411, "lon": 14.8451553, "tags": {"addr:city": "Mežica", "addr:housenumber": "48", "addr:postcode": "2392", "addr:street": "Stržovo"}, "content": "Adresse: Stržovo 48, 2392 Mežica\nOrt: Mežica\nPLZ: 2392\nKoordinaten: 46.524411, 14.845155", "doc_type": "addresses"}
{"source": "OSM", "region": "Kärnten", "osm_type": "node", "osm_id": 5571348670, "name": null, "category": null, "address": "Stržovo 4, 2392 Mežica", "street": "Stržovo", "housenumber": "4", "postcode": "2392", "place": "Mežica", "lat": 46.5244656, "lon": 14.8456634, "tags": {"addr:city": "Mežica", "addr:housenumber": "4", "addr:postcode": "2392", "addr:street": "Stržovo"}, "content": "Adresse: Stržovo 4, 2392 Mežica\nOrt: Mežica\nPLZ: 2392\nKoordinaten: 46.524466, 14.845663", "doc_type": "addresses"}
