{"source": "OSM", "region": "Kärnten", "osm_type": "node", "osm_id": 1368106769, "name": "Hotel Post", "category": "amenity:restaurant", "address": "83, 9843 Großkirchheim", "street": null, "housenumber": "83", "postcode": "9843", "place": "Großkirchheim", "lat": 46.9731238, "lon": 12.8953799, "tags": {"addr:city": "Großkirchheim", "addr:housenumber": "83", "addr:place": "Döllach", "addr:postcode": "9843", "amenity": "restaurant", "name": "Hotel Post", "tourism": "hotel"}, "content": "Hotel Post\nKategorie: amenity:restaurant\nAdresse: 83, 9843 Großkirchheim\nOrt: Großkirchheim\nPLZ: 9843\nKoordinaten: 46.973124, 12.895380\nTags: amenity=restaurant", "doc_type": "addresses"}
{"source": "OSM", "region": "Kärnten", "osm_type": "node", "osm_id": 2372207102, "name": null, "category": null, "address": "7, 9843 Großkirchheim", "street": null, "housenumber": "7", "postcode": "9843", "place": "Großkirchheim", "lat": 46.9729617, "lon": 12.893454, "tags": {"addr:city": "Großkirchheim", "addr:housenumber": "7", "addr:place": "Döllach", "addr:postcode": "9843"}, "content": "Adresse: 7, 9843 Großkirchheim\nOrt: Großkirchheim\nPLZ: 9843\nKoordinaten: 46.972962, 12.893454", "doc_type": "addresses"}
{"source": "OSM", "region": "Kärnten", "osm_type": "node", "osm_id": 2457350793, "name": "camping Zirknitzer", "category": "amenity:restaurant", "address": "107, 9843 Großkirchheim", "street": null, "housenumber": "107", "postcode": "9843", "place": "Großkirchheim", "lat": 46.9784411, "lon": 12.8859785, "tags": {"addr:city": "Großkirchheim", "addr:housenumber": "107", "addr:place": "Döllach", "addr:postcode": "9843", "amenity": "restaurant", "building": "yes", "name": "camping Zirknitzer"}, "content": "camping Zirknitzer\nKategorie: amenity:restaurant\nAdresse: 107, 9843 Großkirchheim\nOrt: Großkirchheim\nPLZ: 9843\nKoordinaten: 46.978441, 12.885979\nTags: amenity=restaurant, building=yes", "doc_type": "addresses"}
{"source": "OSM", "region": "Kärnten", "osm_type": "node", "osm_id": 2670486871, "name": "ADEG", "category": null, "address": "80, 9843 Großkirchheim", "street": null, "housenumber": "80", "postcode": "9843", "place": "Großkirchheim", "lat": 46.9728693, "lon": 12.8958841, "tags": {"addr:city": "Großkirchheim", "addr:housenumber": "80", "addr:place": "Döllach", "addr:postcode": "9843", "brand": "ADEG"}, "content": "ADEG\nAdresse: 80, 9843 Großkirchheim\nOrt: Großkirchheim\nPLZ: 9843\nKoordinaten: 46.972869, 12.895884\nTags: brand=ADEG", "doc_type": "addresses"}
{"source": "OSM", "region": "Kärnten", "osm_type": "node", "osm_id": 2794473066, "name": "Döllacher Dorfwirtshaus", "category": "amenity:restaurant", "address": "79, 9843 Großkirchheim", "street": null, "housenumber": "79", "postcode": "9843", "place": "Großkirchheim", "lat": 46.9727805, "lon": 12.8956608, "tags": {"addr:city": "Großkirchheim", "addr:housenumber": "79", "addr:place": "Döllach", "addr:postcode": "9843", "amenity": "restaurant", "name": "Döllacher Dorfwirtshaus"}, "content": "Döllacher Dorfwirtshaus\nKategorie: amenity:restaurant\nAdresse: 79, 9843 Großkirchheim\nOrt: Großkirchheim\nPLZ: 9843\nKoordinaten: 46.972780, 12.895661\nTags: amenity=restaurant", "doc_type": "addresses"}
{"source": "OSM", "region": "Kärnten", "osm_type": "node", "osm_id": 3051360874, "name": "Ferienhaus Hotel Post", "category": "tourism:guest_house", "address": "58, 9843 Großkirchheim", "street": null, "housenumber": "58", "postcode": "9843", "place": "Großkirchheim", "lat": 46.9737721, "lon": 12.896966, "tags": {"addr:city": "Großkirchheim", "addr:housenumber": "58", "addr:place": "Döllach", "addr:postcode": "9843", "name": "Ferienhaus Hotel Post", "tourism": "guest_house"}, "content": "Ferienhaus Hotel Post\nKategorie: tourism:guest_house\nAdresse: 58, 9843 Großkirchheim\nOrt: Großkirchheim\nPLZ: 9843\nKoordinaten: 46.973772, 12.896966", "doc_type": "addresses"}
{"source": "OSM", "region": "Kärnten", "osm_type": "node", "osm_id": 1368106769, "name": "Hotel Post", "category": "amenity:restaurant", "address": "83, 9843 Großkirchheim", "street": null, "housenumber": "83", "postcode": "9843", "place": "Großkirchheim", "lat": 46.9731238, "lon": 12.8953799, "tags": {"addr:city": "Großkirchheim", "addr:housenumber": "83", "addr:place": "Döllach", "addr:postcode": "9843", "amenity": "restaurant", "name": "Hotel Post", "tourism": "hotel"}, "content": "Hotel Post\nKategorie: amenity:restaurant\nAdresse: 83, 9843 Großkirchheim\nOrt: Großkirchheim\nPLZ: 9843\nKoordinaten: 46.973124, 12.895380\nTags: amenity=restaurant", "doc_type": "pois"}
{"source": "OSM", "region": "Kärnten", "osm_type": "node", "osm_id": 2457350793, "name": "camping Zirknitzer", "category": "amenity:restaurant", "address": "107, 9843 Großkirchheim", "street": null, "housenumber": "107", "postcode": "9843", "place": "Großkirchheim", "lat": 46.9784411, "lon": 12.8859785, "tags": {"addr:city": "Großkirchheim", "addr:housenumber": "107", "addr:place": "Döllach", "addr:postcode": "9843", "amenity": "restaurant", "building": "yes", "name": "camping Zirknitzer"}, "content": "camping Zirknitzer\nKategorie: amenity:restaurant\nAdresse: 107, 9843 Großkirchheim\nOrt: Großkirchheim\nPLZ: 9843\nKoordinaten: 46.978441, 12.885979\nTags: amenity=restaurant, building=yes", "doc_type": "pois"}
{"source": "OSM", "region": "Kärnten", "osm_type": "node", "osm_id": 2794473066, "name": "Döllacher Dorfwirtshaus", "category": "amenity:restaurant", "address": "79, 9843 Großkirchheim", "street": null, "housenumber": "79", "postcode": "9843", "place": "Großkirchheim", "lat": 46.9727805, "lon": 12.8956608, "tags": {"addr:city": "Großkirchheim", "addr:housenumber": "79", "addr:place": "Döllach", "addr:postcode": "9843", "amenity": "restaurant", "name": "Döllacher Dorfwirtshaus"}, "content": "Döllacher Dorfwirtshaus\nKategorie: amenity:restaurant\nAdresse: 79, 9843 Großkirchheim\nOrt: Großkirchheim\nPLZ: 9843\nKoordinaten: 46.972780, 12.895661\nTags: amenity=restaurant", "doc_type": "pois"}
{"source": "OSM", "region": "Kärnten", "osm_type": "node", "osm_id": 3051360874, "name": "Ferienhaus Hotel Post", "category": "tourism:guest_house", "address": "58, 9843 Großkirchheim", "street": null, "housenumber": "58", "postcode": "9843", "place": "Großkirchheim", "lat": 46.9737721, "lon": 12.896966, "tags": {"addr:city": "Großkirchheim", "addr:housenumber": "58", "addr:place": "Döllach", "addr:postcode": "9843", "name": "Ferienhaus Hotel Post", "tourism": "guest_house"}, "content": "Ferienhaus Hotel Post\nKategorie: tourism:guest_house\nAdresse: 58, 9843 Großkirchheim\nOrt: Großkirchheim\nPLZ: 9843\nKoordinaten: 46.973772, 12.896966", "doc_type": "pois"}
{"source": "OSM", "region": "Kärnten", "osm_type": "node", "osm_id": 2457350793, "name": "camping Zirknitzer", "category": "amenity:restaurant", "address": "107, 9843 Großkirchheim", "street": null, "housenumber": "107", "postcode": "9843", "place": "Großkirchheim", "lat": 46.9784411, "lon": 12.8859785, "tags": {"addr:city": "Großkirchheim", "addr:housenumber": "107", "addr:place": "Döllach", "addr:postcode": "9843", "amenity": "restaurant", "building": "yes", "name": "camping Zirknitzer"}, "content": "camping Zirknitzer\nKategorie: amenity:restaurant\nAdresse: 107, 9843 Großkirchheim\nOrt: Großkirchheim\nPLZ: 9843\nKoordinaten: 46.978441, 12.885979\nTags: amenity=restaurant, building=yes", "doc_type": "buildings"}
