{"source": "OSM", "region": "Kärnten", "osm_type": "node", "osm_id": 1837497734, "name": "Polizeiinspektion Bad St. Leonhard im Lavanttal", "category": "amenity:police", "address": "Hauptplatz 18, 9462 Bad St. Leonhard im Lavanttal", "street": "Hauptplatz", "housenumber": "18", "postcode": "9462", "place": "Bad St. Leonhard im Lavanttal", "lat": 46.9632384, "lon": 14.7926385, "tags": {"addr:city": "Bad St. Leonhard im Lavanttal", "addr:housenumber": "18", "addr:postcode": "9462", "addr:street": "Hauptplatz", "amenity": "police", "name": "Polizeiinspektion Bad St. Leonhard im Lavanttal", "phone": "+43 59133 2161100"}, "content": "Polizeiinspektion Bad St. Leonhard im Lavanttal\nKategorie: amenity:police\nAdresse: Hauptplatz 18, 9462 Bad St. Leonhard im Lavanttal\nOrt: Bad St. Leonhard im Lavanttal\nPLZ: 9462\nKoordinaten: 46.963238, 14.792639\nTags: amenity=police, phone=+43 59133 2161100", "doc_type": "addresses"}
{"source": "OSM", "region": "Kärnten", "osm_type": "node", "osm_id": 1864097073, "name": "Post Filiale 9462", "category": null, "address": "Postgasse 55, 9462 Bad St. Leonhard im Lavanttal", "street": "Postgasse", "housenumber": "55", "postcode": "9462", "place": "Bad St. Leonhard im Lavanttal", "lat": 46.9628282, "lon": 14.7891187, "tags": {"addr:city": "Bad St. Leonhard im Lavanttal", "addr:housenumber": "55", "addr:postcode": "9462", "addr:street": "Postgasse", "name": "Post Filiale 9462", "operator": "Österreichische Post AG", "website": "https://www.post.at"}, "content": "Post Filiale 9462\nAdresse: Postgasse 55, 9462 Bad St. Leonhard im Lavanttal\nOrt: Bad St. Leonhard im Lavanttal\nPLZ: 9462\nKoordinaten: 46.962828, 14.789119\nTags: operator=Österreichische Post AG, website=https://www.post.at", "doc_type": "addresses"}
{"source": "OSM", "region": "Kärnten", "osm_type": "node", "osm_id": 1923787460, "name": "Ford Tripolt", "category": "shop:car", "address": "Obdacherstraße 577, 9462 Bad St. Leonhard im Lavanttal", "street": "Obdacherstraße", "housenumber": "577", "postcode": "9462", "place": "Bad St. Leonhard im Lavanttal", "lat": 46.9721428, "lon": 14.7824552, "tags": {"addr:city": "Bad St. Leonhard im Lavanttal", "addr:housenumber": "577", "addr:postcode": "9462", "addr:street": "Obdacherstraße", "brand": "Ford", "name": "Ford Tripolt", "shop": "car"}, "content": "Ford Tripolt\nKategorie: shop:car\nAdresse: Obdacherstraße 577, 9462 Bad St. Leonhard im Lavanttal\nOrt: Bad St. Leonhard im Lavanttal\nPLZ: 9462\nKoordinaten: 46.972143, 14.782455\nTags: shop=car, brand=Ford", "doc_type": "addresses"}
{"source": "OSM", "region": "Kärnten", "osm_type": "node", "osm_id": 2372255556, "name": null, "category": null, "address": "5, 9462 Bad St. Leonhard im Lavanttal", "street": null, "housenumber": "5", "postcode": "9462", "place": "Bad St. Leonhard im Lavanttal", "lat": 46.9607306, "lon": 14.7399087, "tags": {"addr:city": "Bad St. Leonhard im Lavanttal", "addr:housenumber": "5", "addr:place": "Kliening", "addr:postcode": "9462"}, "content": "Adresse: 5, 9462 Bad St. Leonhard im Lavanttal\nOrt: Bad St. Leonhard im Lavanttal\nPLZ: 9462\nKoordinaten: 46.960731, 14.739909", "doc_type": "addresses"}
{"source": "OSM", "region": "Kärnten", "osm_type": "node", "osm_id": 4609401940, "name": null, "category": null, "address": "22, 9462 Bad St. Leonhard im Lavanttal", "street": null, "housenumber": "22", "postcode": "9462", "place": "Bad St. Leonhard im Lavanttal", "lat": 46.9449331, "lon": 14.8133699, "tags": {"addr:city": "Bad St. Leonhard im Lavanttal", "addr:housenumber": "22", "addr:place": "Wiesenau", "addr:postcode": "9462"}, "content": "Adresse: 22, 9462 Bad St. Leonhard im Lavanttal\nOrt: Bad St. Leonhard im Lavanttal\nPLZ: 9462\nKoordinaten: 46.944933, 14.813370", "doc_type": "addresses"}
{"source": "OSM", "region": "Kärnten", "osm_type": "node", "osm_id": 5386407962, "name": "Moselebauer", "category": "tourism:hotel", "address": "30, 9462 Bad St. Leonhard im Lavanttal", "street": null, "housenumber": "30", "postcode": "9462", "place": "Bad St. Leonhard im Lavanttal", "lat": 46.9552468, "lon": 14.7798581, "tags": {"addr:city": "Bad St. Leonhard im Lavanttal", "addr:housenumber": "30", "addr:place": "Kliening", "addr:postcode": "9462", "name": "Moselebauer", "phone": "+43435023330", "tourism": "hotel"}, "content": "Moselebauer\nKategorie: tourism:hotel\nAdresse: 30, 9462 Bad St. Leonhard im Lavanttal\nOrt: Bad St. Leonhard im Lavanttal\nPLZ: 9462\nKoordinaten: 46.955247, 14.779858\nTags: phone=+43435023330", "doc_type": "addresses"}
{"source": "OSM", "region": "Kärnten", "osm_type": "node", "osm_id": 1837497734, "name": "Polizeiinspektion Bad St. Leonhard im Lavanttal", "category": "amenity:police", "address": "Hauptplatz 18, 9462 Bad St. Leonhard im Lavanttal", "street": "Hauptplatz", "housenumber": "18", "postcode": "9462", "place": "Bad St. Leonhard im Lavanttal", "lat": 46.9632384, "lon": 14.7926385, "tags": {"addr:city": "Bad St. Leonhard im Lavanttal", "addr:housenumber": "18", "addr:postcode": "9462", "addr:street": "Hauptplatz", "amenity": "police", "name": "Polizeiinspektion Bad St. Leonhard im Lavanttal", "phone": "+43 59133 2161100"}, "content": "Polizeiinspektion Bad St. Leonhard im Lavanttal\nKategorie: amenity:police\nAdresse: Hauptplatz 18, 9462 Bad St. Leonhard im Lavanttal\nOrt: Bad St. Leonhard im Lavanttal\nPLZ: 9462\nKoordinaten: 46.963238, 14.792639\nTags: amenity=police, phone=+43 59133 2161100", "doc_type": "pois"}
{"source": "OSM", "region": "Kärnten", "osm_type": "node", "osm_id": 1923787460, "name": "Ford Tripolt", "category": "shop:car", "address": "Obdacherstraße 577, 9462 Bad St. Leonhard im Lavanttal", "street": "Obdacherstraße", "housenumber": "577", "postcode": "9462", "place": "Bad St. Leonhard im Lavanttal", "lat": 46.9721428, "lon": 14.7824552, "tags": {"addr:city": "Bad St. Leonhard im Lavanttal", "addr:housenumber": "577", "addr:postcode": "9462", "addr:street": "Obdacherstraße", "brand": "Ford", "name": "Ford Tripolt", "shop": "car"}, "content": "Ford Tripolt\nKategorie: shop:car\nAdresse: Obdacherstraße 577, 9462 Bad St. Leonhard im Lavanttal\nOrt: Bad St. Leonhard im Lavanttal\nPLZ: 9462\nKoordinaten: 46.972143, 14.782455\nTags: shop=car, brand=Ford", "doc_type": "pois"}
{"source": "OSM", "region": "Kärnten", "osm_type": "node", "osm_id": 5386407962, "name": "Moselebauer", "category": "tourism:hotel", "address": "30, 9462 Bad St. Leonhard im Lavanttal", "street": null, "housenumber": "30", "postcode": "9462", "place": "Bad St. Leonhard im Lavanttal", "lat": 46.9552468, "lon": 14.7798581, "tags": {"addr:city": "Bad St. Leonhard im Lavanttal", "addr:housenumber": "30", "addr:place": "Kliening", "addr:postcode": "9462", "name": "Moselebauer", "phone": "+43435023330", "tourism": "hotel"}, "content": "Moselebauer\nKategorie: tourism:hotel\nAdresse: 30, 9462 Bad St. Leonhard im Lavanttal\nOrt: Bad St. Leonhard im Lavanttal\nPLZ: 9462\nKoordinaten: 46.955247, 14.779858\nTags: phone=+43435023330", "doc_type": "pois"}
