{"source": "OSM", "region": "Kärnten", "osm_type": "node", "osm_id": 292373483, "name": "Schiffsstation St. Urban", "category": "amenity:ferry_terminal", "address": "Sankt-Urban-Weg 16, 9551 Steindorf am Ossiacher See", "street": "Sankt-Urban-Weg", "housenumber": "16", "postcode": "9551", "place": "Steindorf am Ossiacher See", "lat": 46.673536, "lon": 13.9604234, "tags": {"addr:city": "Steindorf am Ossiacher See", "addr:housenumber": "16", "addr:postcode": "9551", "addr:street": "Sankt-Urban-Weg", "amenity": "ferry_terminal", "name": "Schiffsstation St. Urban", "operator": "Nageler Schifffahrt & Restaurant GmbH & Co KG Ossiachersee Schifffahrt"}, "content": "Schiffsstation St. Urban\nKategorie: amenity:ferry_terminal\nAdresse: Sankt-Urban-Weg 16, 9551 Steindorf am Ossiacher See\nOrt: Steindorf am Ossiacher See\nPLZ: 9551\nKoordinaten: 46.673536, 13.960423\nTags: amenity=ferry_terminal, operator=Nageler Schifffahrt & Restaurant GmbH & Co KG Ossiachersee Schifffahrt", "doc_type": "addresses"}
{"source": "OSM", "region": "Kärnten", "osm_type": "node", "osm_id": 538375495, "name": "Schiffstation Steindorf", "category": "amenity:ferry_terminal", "address": "Seestraße 19, 9552 Steindorf am Ossiacher See", "street": "Seestraße", "housenumber": "19", "postcode": "9552", "place": "Steindorf am Ossiacher See", "lat": 46.694287, "lon": 14.0071527, "tags": {"addr:city": "Steindorf am Ossiacher See", "addr:housenumber": "19", "addr:postcode": "9552", "addr:street": "Seestraße", "amenity": "ferry_terminal", "name": "Schiffstation Steindorf", "operator": "Nageler Schifffahrt & Restaurant GmbH & Co KG Ossiachersee Schifffahrt"}, "content": "Schiffstation Steindorf\nKategorie: amenity:ferry_terminal\nAdresse: Seestraße 19, 9552 Steindorf am Ossiacher See\nOrt: Steindorf am Ossiacher See\nPLZ: 9552\nKoordinaten: 46.694287, 14.007153\nTags: amenity=ferry_terminal, operator=Nageler Schifffahrt & Restaurant GmbH & Co KG Ossiachersee Schifffahrt", "doc_type": "addresses"}
{"source": "OSM", "region": "Kärnten", "osm_type": "node", "osm_id": 538375501, "name": "Schiffstation Bodensdorf", "category": "amenity:ferry_terminal", "address": "Golfweg 3a, 9551 Steindorf am Ossiacher See", "street": "Golfweg", "housenumber": "3a", "postcode": "9551", "place": "Steindorf am Ossiacher See", "lat": 46.6804756, "lon": 13.9748347, "tags": {"addr:city": "Steindorf am Ossiacher See", "addr:housenumber": "3a", "addr:postcode": "9551", "addr:street": "Golfweg", "amenity": "ferry_terminal", "name": "Schiffstation Bodensdorf", "operator": "Nageler Schifffahrt & Restaurant GmbH & Co KG Ossiachersee Schifffahrt"}, "content": "Schiffstation Bodensdorf\nKategorie: amenity:ferry_terminal\nAdresse: Golfweg 3a, 9551 Steindorf am Ossiacher See\nOrt: Steindorf am Ossiacher See\nPLZ: 9551\nKoordinaten: 46.680476, 13.974835\nTags: amenity=ferry_terminal, operator=Nageler Schifffahrt & Restaurant GmbH & Co KG Ossiachersee Schifffahrt", "doc_type": "addresses"}
{"source": "OSM", "region": "Kärnten", "osm_type": "node", "osm_id": 864669581, "name": "Turmöl", "category": "amenity:fuel", "address": "Bundesstraße West 65, 9551 Steindorf am Ossiacher See", "street": "Bundesstraße West", "housenumber": "65", "postcode": "9551", "place": "Steindorf am Ossiacher See", "lat": 46.6792122, "lon": 13.9681899, "tags": {"addr:city": "Steindorf am Ossiacher See", "addr:housenumber": "65", "addr:postcode": "9551", "addr:street": "Bundesstraße West", "amenity": "fuel", "brand": "Turmöl", "name": "Turmöl"}, "content": "Turmöl\nKategorie: amenity:fuel\nAdresse: Bundesstraße West 65, 9551 Steindorf am Ossiacher See\nOrt: Steindorf am Ossiacher See\nPLZ: 9551\nKoordinaten: 46.679212, 13.968190\nTags: amenity=fuel, brand=Turmöl", "doc_type": "addresses"}
{"source": "OSM", "region": "Kärnten", "osm_type": "node", "osm_id": 894367062, "name": null, "category": null, "address": "Bundesstraße West 35a, 9551 Steindorf am Ossiacher See", "street": "Bundesstraße West", "housenumber": "35a", "postcode": "9551", "place": "Steindorf am Ossiacher See", "lat": 46.6815053, "lon": 13.9714632, "tags": {"addr:city": "Steindorf am Ossiacher See", "addr:housenumber": "35a", "addr:postcode": "9551", "addr:street": "Bundesstraße West"}, "content": "Adresse: Bundesstraße West 35a, 9551 Steindorf am Ossiacher See\nOrt: Steindorf am Ossiacher See\nPLZ: 9551\nKoordinaten: 46.681505, 13.971463", "doc_type": "addresses"}
{"source": "OSM", "region": "Kärnten", "osm_type": "node", "osm_id": 1368310933, "name": "Gemeindebücherei", "category": "amenity:library", "address": "10.-Oktober-Straße 3, 9551 Steindorf am Ossiacher See", "street": "10.-Oktober-Straße", "housenumber": "3", "postcode": "9551", "place": "Steindorf am Ossiacher See", "lat": 46.6853576, "lon": 13.9721047, "tags": {"addr:city": "Steindorf am Ossiacher See", "addr:housenumber": "3", "addr:postcode": "9551", "addr:street": "10.-Oktober-Straße", "amenity": "library", "name": "Gemeindebücherei"}, "content": "Gemeindebücherei\nKategorie: amenity:library\nAdresse: 10.-Oktober-Straße 3, 9551 Steindorf am Ossiacher See\nOrt: Steindorf am Ossiacher See\nPLZ: 9551\nKoordinaten: 46.685358, 13.972105\nTags: amenity=library", "doc_type": "addresses"}
{"source": "OSM", "region": "Kärnten", "osm_type": "node", "osm_id": 1368310941, "name": "Kindergarten", "category": "amenity:kindergarten", "address": "10.-Oktober-Straße 3, 9551 Steindorf am Ossiacher See", "street": "10.-Oktober-Straße", "housenumber": "3", "postcode": "9551", "place": "Steindorf am Ossiacher See", "lat": 46.6851306, "lon": 13.9719722, "tags": {"addr:city": "Steindorf am Ossiacher See", "addr:housenumber": "3", "addr:postcode": "9551", "addr:street": "10.-Oktober-Straße", "amenity": "kindergarten", "name": "Kindergarten"}, "content": "Kindergarten\nKategorie: amenity:kindergarten\nAdresse: 10.-Oktober-Straße 3, 9551 Steindorf am Ossiacher See\nOrt: Steindorf am Ossiacher See\nPLZ: 9551\nKoordinaten: 46.685131, 13.971972\nTags: amenity=kindergarten", "doc_type": "addresses"}
{"source": "OSM", "region": "Kärnten", "osm_type": "node", "osm_id": 1368310943, "name": "Sparkasse", "category": "amenity:bank", "address": "Bundesstraße West 32, 9551 Steindorf am Ossiacher See", "street": "Bundesstraße West", "housenumber": "32", "postcode": "9551", "place": "Steindorf am Ossiacher See", "lat": 46.6823319, "lon": 13.9714206, "tags": {"addr:city": "Steindorf am Ossiacher See", "addr:housenumber": "32", "addr:postcode": "9551", "addr:street": "Bundesstraße West", "amenity": "bank", "name": "Sparkasse", "phone": "+434243 2700"}, "content": "Sparkasse\nKategorie: amenity:bank\nAdresse: Bundesstraße West 32, 9551 Steindorf am Ossiacher See\nOrt: Steindorf am Ossiacher See\nPLZ: 9551\nKoordinaten: 46.682332, 13.971421\nTags: amenity=bank, phone=+434243 2700", "doc_type": "addresses"}
{"source": "OSM", "region": "Kärnten", "osm_type": "node", "osm_id": 1576230663, "name": null, "category": "amenity:restaurant", "address": "Gerlitzenstraße 27, 9551 Steindorf am Ossiacher See", "street": "Gerlitzenstraße", "housenumber": "27", "postcode": "9551", "place": "Steindorf am Ossiacher See", "lat": 46.6781977, "lon": 13.9502614, "tags": {"addr:city": "Steindorf am Ossiacher See", "addr:housenumber": "27", "addr:postcode": "9551", "addr:street": "Gerlitzenstraße", "amenity": "restaurant"}, "content": "Kategorie: amenity:restaurant\nAdresse: Gerlitzenstraße 27, 9551 Steindorf am Ossiacher See\nOrt: Steindorf am Ossiacher See\nPLZ: 9551\nKoordinaten: 46.678198, 13.950261\nTags: amenity=restaurant", "doc_type": "addresses"}
{"source": "OSM", "region": "Kärnten", "osm_type": "node", "osm_id": 2315768585, "name": "Sonnen-Apotheke", "category": "amenity:pharmacy", "address": "Poststraße 16, 9551 Steindorf am Ossiacher See", "street": "Poststraße", "housenumber": "16", "postcode": "9551", "place": "Steindorf am Ossiacher See", "lat": 46.6854797, "lon": 13.9750641, "tags": {"addr:city": "Steindorf am Ossiacher See", "addr:housenumber": "16", "addr:postcode": "9551", "addr:street": "Poststraße", "amenity": "pharmacy", "healthcare": "pharmacy", "name": "Sonnen-Apotheke", "operator": "Mag.pharm. Dr. Christof Geppel", "phone": "+434243 8350 0", "website": "https://apotheke-bodensdorf.at/"}, "content": "Sonnen-Apotheke\nKategorie: amenity:pharmacy\nAdresse: Poststraße 16, 9551 Steindorf am Ossiacher See\nOrt: Steindorf am Ossiacher See\nPLZ: 9551\nKoordinaten: 46.685480, 13.975064\nTags: amenity=pharmacy, healthcare=pharmacy, operator=Mag.pharm. Dr. Christof Geppel, phone=+434243 8350 0, website=https://apotheke-bodensdorf.at/", "doc_type": "addresses"}
{"source": "OSM", "region": "Kärnten", "osm_type": "node", "osm_id": 2315798321, "name": "Kulinarik Stadl", "category": "amenity:restaurant", "address": "Lindenweg 5, 9551 Steindorf am Ossiacher See", "street": "Lindenweg", "housenumber": "5", "postcode": "9551", "place": "Steindorf am Ossiacher See", "lat": 46.6872731, "lon": 13.9742951, "tags": {"addr:city": "Steindorf am Ossiacher See", "addr:housenumber": "5", "addr:postcode": "9551", "addr:street": "Lindenweg", "amenity": "restaurant", "name": "Kulinarik Stadl"}, "content": "Kulinarik Stadl\nKategorie: amenity:restaurant\nAdresse: Lindenweg 5, 9551 Steindorf am Ossiacher See\nOrt: Steindorf am Ossiacher See\nPLZ: 9551\nKoordinaten: 46.687273, 13.974295\nTags: amenity=restaurant", "doc_type": "addresses"}
{"source": "OSM", "region": "Kärnten", "osm_type": "node", "osm_id": 2920465858, "name": "Seehotel Hoffmann", "category": "tourism:hotel", "address": "Bundesstraße Ost 5, 9552 Steindorf am Ossiacher See", "street": "Bundesstraße Ost", "housenumber": "5", "postcode": "9552", "place": "Steindorf am Ossiacher See", "lat": 46.6955724, "lon": 13.9980801, "tags": {"addr:city": "Steindorf am Ossiacher See", "addr:housenumber": "5", "addr:postcode": "9552", "addr:street": "Bundesstraße Ost", "name": "Seehotel Hoffmann", "phone": "+4342438704", "tourism": "hotel", "website": "https://www.seehotel-hoffmann.at/"}, "content": "Seehotel Hoffmann\nKategorie: tourism:hotel\nAdresse: Bundesstraße Ost 5, 9552 Steindorf am Ossiacher See\nOrt: Steindorf am Ossiacher See\nPLZ: 9552\nKoordinaten: 46.695572, 13.998080\nTags: phone=+4342438704, website=https://www.seehotel-hoffmann.at/", "doc_type": "addresses"}
{"source": "OSM", "region": "Kärnten", "osm_type": "node", "osm_id": 3267479166, "name": "Pension Kasermandl", "category": "tourism:hotel", "address": "Hangweg 5, 9552 Steindorf am Ossiacher See", "street": "Hangweg", "housenumber": "5", "postcode": "9552", "place": "Steindorf am Ossiacher See", "lat": 46.695383, "lon": 13.994181, "tags": {"addr:city": "Steindorf am Ossiacher See", "addr:housenumber": "5", "addr:postcode": "9552", "addr:street": "Hangweg", "name": "Pension Kasermandl", "phone": "+436641766555", "tourism": "hotel", "website": "https://www.kasermandl.eu"}, "content": "Pension Kasermandl\nKategorie: tourism:hotel\nAdresse: Hangweg 5, 9552 Steindorf am Ossiacher See\nOrt: Steindorf am Ossiacher See\nPLZ: 9552\nKoordinaten: 46.695383, 13.994181\nTags: phone=+436641766555, website=https://www.kasermandl.eu", "doc_type": "addresses"}
{"source": "OSM", "region": "Kärnten", "osm_type": "node", "osm_id": 3605255052, "name": null, "category": null, "address": "Tschöraner Weg 43, 9551 Steindorf am Ossiacher See", "street": "Tschöraner Weg", "housenumber": "43", "postcode": "9551", "place": "Steindorf am Ossiacher See", "lat": 46.6816985, "lon": 13.9600044, "tags": {"addr:city": "Steindorf am Ossiacher See", "addr:housenumber": "43", "addr:postcode": "9551", "addr:street": "Tschöraner Weg"}, "content": "Adresse: Tschöraner Weg 43, 9551 Steindorf am Ossiacher See\nOrt: Steindorf am Ossiacher See\nPLZ: 9551\nKoordinaten: 46.681699, 13.960004", "doc_type": "addresses"}
{"source": "OSM", "region": "Kärnten", "osm_type": "node", "osm_id": 3660216156, "name": "Familienpension Rasch", "category": "tourism:guest_house", "address": "10.-Oktober-Straße 10, 9551 Steindorf am Ossiacher See", "street": "10.-Oktober-Straße", "housenumber": "10", "postcode": "9551", "place": "Steindorf am Ossiacher See", "lat": 46.687591, "lon": 13.9702986, "tags": {"addr:city": "Steindorf am Ossiacher See", "addr:housenumber": "10", "addr:postcode": "9551", "addr:street": "10.-Oktober-Straße", "name": "Familienpension Rasch", "tourism": "guest_house"}, "content": "Familienpension Rasch\nKategorie: tourism:guest_house\nAdresse: 10.-Oktober-Straße 10, 9551 Steindorf am Ossiacher See\nOrt: Steindorf am Ossiacher See\nPLZ: 9551\nKoordinaten: 46.687591, 13.970299", "doc_type": "addresses"}
{"source": "OSM", "region": "Kärnten", "osm_type": "node", "osm_id": 3660216160, "name": "Haus Lindenweg Ferienwohnungen", "category": "tourism:guest_house", "address": "Lindenweg 8, 9551 Steindorf am Ossiacher See", "street": "Lindenweg", "housenumber": "8", "postcode": "9551", "place": "Steindorf am Ossiacher See", "lat": 46.6873741, "lon": 13.9755069, "tags": {"addr:city": "Steindorf am Ossiacher See", "addr:housenumber": "8", "addr:postcode": "9551", "addr:street": "Lindenweg", "name": "Haus Lindenweg Ferienwohnungen", "tourism": "guest_house", "website": "https://www.sonneundsee.at"}, "content": "Haus Lindenweg Ferienwohnungen\nKategorie: tourism:guest_house\nAdresse: Lindenweg 8, 9551 Steindorf am Ossiacher See\nOrt: Steindorf am Ossiacher See\nPLZ: 9551\nKoordinaten: 46.687374, 13.975507\nTags: website=https://www.sonneundsee.at", "doc_type": "addresses"}
{"source": "OSM", "region": "Kärnten", "osm_type": "node", "osm_id": 3660216162, "name": "Landgut Lindenhof", "category": "tourism:hotel", "address": "Lindenweg 5, 9551 Steindorf am Ossiacher See", "street": "Lindenweg", "housenumber": "5", "postcode": "9551", "place": "Steindorf am Ossiacher See", "lat": 46.6871205, "lon": 13.9741416, "tags": {"addr:city": "Steindorf am Ossiacher See", "addr:housenumber": "5", "addr:postcode": "9551", "addr:street": "Lindenweg", "name": "Landgut Lindenhof", "tourism": "hotel"}, "content": "Landgut Lindenhof\nKategorie: tourism:hotel\nAdresse: Lindenweg 5, 9551 Steindorf am Ossiacher See\nOrt: Steindorf am Ossiacher See\nPLZ: 9551\nKoordinaten: 46.687120, 13.974142", "doc_type": "addresses"}
{"source": "OSM", "region": "Kärnten", "osm_type": "node", "osm_id": 3660221226, "name": "Volksschule Bodensdorf", "category": "amenity:school", "address": "10.-Oktober-Straße 3, 9551 Steindorf am Ossiacher See", "street": "10.-Oktober-Straße", "housenumber": "3", "postcode": "9551", "place": "Steindorf am Ossiacher See", "lat": 46.6852896, "lon": 13.972003, "tags": {"addr:city": "Steindorf am Ossiacher See", "addr:housenumber": "3", "addr:postcode": "9551", "addr:street": "10.-Oktober-Straße", "amenity": "school", "name": "Volksschule Bodensdorf"}, "content": "Volksschule Bodensdorf\nKategorie: amenity:school\nAdresse: 10.-Oktober-Straße 3, 9551 Steindorf am Ossiacher See\nOrt: Steindorf am Ossiacher See\nPLZ: 9551\nKoordinaten: 46.685290, 13.972003\nTags: amenity=school", "doc_type": "addresses"}
{"source": "OSM", "region": "Kärnten", "osm_type": "node", "osm_id": 3660240396, "name": "Ferienwohnungen Üblagger", "category": "tourism:apartment", "address": "Gustav-Renker-Weg 1, 9551 Steindorf am Ossiacher See", "street": "Gustav-Renker-Weg", "housenumber": "1", "postcode": "9551", "place": "Steindorf am Ossiacher See", "lat": 46.683647, "lon": 13.9721666, "tags": {"addr:city": "Steindorf am Ossiacher See", "addr:housenumber": "1", "addr:postcode": "9551", "addr:street": "Gustav-Renker-Weg", "name": "Ferienwohnungen Üblagger", "operator": "Gert Üblagger", "tourism": "apartment"}, "content": "Ferienwohnungen Üblagger\nKategorie: tourism:apartment\nAdresse: Gustav-Renker-Weg 1, 9551 Steindorf am Ossiacher See\nOrt: Steindorf am Ossiacher See\nPLZ: 9551\nKoordinaten: 46.683647, 13.972167\nTags: operator=Gert Üblagger", "doc_type": "addresses"}
{"source": "OSM", "region": "Kärnten", "osm_type": "node", "osm_id": 3660240397, "name": "Frühstückspension Hans Wastl", "category": "tourism:guest_house", "address": "Lobisserweg 32, 9551 Steindorf am Ossiacher See", "street": "Lobisserweg", "housenumber": "32", "postcode": "9551", "place": "Steindorf am Ossiacher See", "lat": 46.6848401, "lon": 13.9696642, "tags": {"addr:city": "Steindorf am Ossiacher See", "addr:housenumber": "32", "addr:postcode": "9551", "addr:street": "Lobisserweg", "name": "Frühstückspension Hans Wastl", "tourism": "guest_house"}, "content": "Frühstückspension Hans Wastl\nKategorie: tourism:guest_house\nAdresse: Lobisserweg 32, 9551 Steindorf am Ossiacher See\nOrt: Steindorf am Ossiacher See\nPLZ: 9551\nKoordinaten: 46.684840, 13.969664", "doc_type": "addresses"}
{"source": "OSM", "region": "Kärnten", "osm_type": "node", "osm_id": 3660240399, "name": "Generali Versicherungsagentur", "category": "office:insurance", "address": "Lobisserweg 2, 9551 Steindorf am Ossiacher See", "street": "Lobisserweg", "housenumber": "2", "postcode": "9551", "place": "Steindorf am Ossiacher See", "lat": 46.6828796, "lon": 13.9713899, "tags": {"addr:city": "Steindorf am Ossiacher See", "addr:housenumber": "2", "addr:postcode": "9551", "addr:street": "Lobisserweg", "brand": "Generali", "name": "Generali Versicherungsagentur", "office": "insurance"}, "content": "Generali Versicherungsagentur\nKategorie: office:insurance\nAdresse: Lobisserweg 2, 9551 Steindorf am Ossiacher See\nOrt: Steindorf am Ossiacher See\nPLZ: 9551\nKoordinaten: 46.682880, 13.971390\nTags: office=insurance, brand=Generali", "doc_type": "addresses"}
{"source": "OSM", "region": "Kärnten", "osm_type": "node", "osm_id": 3660260294, "name": "Tanzstadl Tenne", "category": "amenity:bar", "address": "Lobisserweg 2, 9551 Steindorf am Ossiacher See", "street": "Lobisserweg", "housenumber": "2", "postcode": "9551", "place": "Steindorf am Ossiacher See", "lat": 46.6827761, "lon": 13.9715682, "tags": {"addr:city": "Steindorf am Ossiacher See", "addr:housenumber": "2", "addr:postcode": "9551", "addr:street": "Lobisserweg", "amenity": "bar", "name": "Tanzstadl Tenne"}, "content": "Tanzstadl Tenne\nKategorie: amenity:bar\nAdresse: Lobisserweg 2, 9551 Steindorf am Ossiacher See\nOrt: Steindorf am Ossiacher See\nPLZ: 9551\nKoordinaten: 46.682776, 13.971568\nTags: amenity=bar", "doc_type": "addresses"}
{"source": "OSM", "region": "Kärnten", "osm_type": "node", "osm_id": 4181094258, "name": "Buschenschank Rogatsch", "category": "amenity:restaurant", "address": "Ossiachberg 20, 9552 Steindorf am Ossiacher See", "street": "Ossiachberg", "housenumber": "20", "postcode": "9552", "place": "Steindorf am Ossiacher See", "lat": 46.707369, "lon": 13.9945699, "tags": {"addr:city": "Steindorf am Ossiacher See", "addr:housenumber": "20", "addr:postcode": "9552", "addr:street": "Ossiachberg", "amenity": "restaurant", "name": "Buschenschank Rogatsch"}, "content": "Buschenschank Rogatsch\nKategorie: amenity:restaurant\nAdresse: Ossiachberg 20, 9552 Steindorf am Ossiacher See\nOrt: Steindorf am Ossiacher See\nPLZ: 9552\nKoordinaten: 46.707369, 13.994570\nTags: amenity=restaurant", "doc_type": "addresses"}
{"source": "OSM", "region": "Kärnten", "osm_type": "node", "osm_id": 4374550306, "name": "Dr. Helmut Polanec", "category": "amenity:doctors", "address": "Bundesstraße West 32, 9551 Steindorf am Ossiacher See", "street": "Bundesstraße West", "housenumber": "32", "postcode": "9551", "place": "Steindorf am Ossiacher See", "lat": 46.6824487, "lon": 13.971201, "tags": {"addr:city": "Steindorf am Ossiacher See", "addr:housenumber": "32", "addr:postcode": "9551", "addr:street": "Bundesstraße West", "amenity": "doctors", "healthcare": "doctor", "name": "Dr. Helmut Polanec"}, "content": "Dr. Helmut Polanec\nKategorie: amenity:doctors\nAdresse: Bundesstraße West 32, 9551 Steindorf am Ossiacher See\nOrt: Steindorf am Ossiacher See\nPLZ: 9551\nKoordinaten: 46.682449, 13.971201\nTags: amenity=doctors, healthcare=doctor", "doc_type": "addresses"}
{"source": "OSM", "region": "Kärnten", "osm_type": "node", "osm_id": 4375586290, "name": "Lake View Ranch", "category": null, "address": "3, 9552 Steindorf am Ossiacher See", "street": null, "housenumber": "3", "postcode": "9552", "place": "Steindorf am Ossiacher See", "lat": 46.7048935, "lon": 14.0452758, "tags": {"addr:city": "Steindorf am Ossiacher See", "addr:housenumber": "3", "addr:place": "Fresen", "addr:postcode": "9552", "name": "Lake View Ranch", "operator": "Familie Wolf", "website": "https://www.lake-view-ranch.at/"}, "content": "Lake View Ranch\nAdresse: 3, 9552 Steindorf am Ossiacher See\nOrt: Steindorf am Ossiacher See\nPLZ: 9552\nKoordinaten: 46.704893, 14.045276\nTags: operator=Familie Wolf, website=https://www.lake-view-ranch.at/", "doc_type": "addresses"}
{"source": "OSM", "region": "Kärnten", "osm_type": "node", "osm_id": 4853582911, "name": null, "category": null, "address": "Dorfstraße 50, 9552 Steindorf am Ossiacher See", "street": "Dorfstraße", "housenumber": "50", "postcode": "9552", "place": "Steindorf am Ossiacher See", "lat": 46.6979597, "lon": 14.0072989, "tags": {"addr:city": "Steindorf am Ossiacher See", "addr:housenumber": "50", "addr:postcode": "9552", "addr:street": "Dorfstraße"}, "content": "Adresse: Dorfstraße 50, 9552 Steindorf am Ossiacher See\nOrt: Steindorf am Ossiacher See\nPLZ: 9552\nKoordinaten: 46.697960, 14.007299", "doc_type": "addresses"}
{"source": "OSM", "region": "Kärnten", "osm_type": "node", "osm_id": 4966916526, "name": null, "category": null, "address": "Helmut-Wobisch-Weg 21, 9551 Steindorf am Ossiacher See", "street": "Helmut-Wobisch-Weg", "housenumber": "21", "postcode": "9551", "place": "Steindorf am Ossiacher See", "lat": 46.6901468, "lon": 13.9852125, "tags": {"addr:city": "Steindorf am Ossiacher See", "addr:housenumber": "21", "addr:postcode": "9551", "addr:street": "Helmut-Wobisch-Weg"}, "content": "Adresse: Helmut-Wobisch-Weg 21, 9551 Steindorf am Ossiacher See\nOrt: Steindorf am Ossiacher See\nPLZ: 9551\nKoordinaten: 46.690147, 13.985212", "doc_type": "addresses"}
{"source": "OSM", "region": "Kärnten", "osm_type": "node", "osm_id": 4966916527, "name": null, "category": null, "address": "Helmut-Wobisch-Weg 20, 9551 Steindorf am Ossiacher See", "street": "Helmut-Wobisch-Weg", "housenumber": "20", "postcode": "9551", "place": "Steindorf am Ossiacher See", "lat": 46.6901615, "lon": 13.9851126, "tags": {"addr:city": "Steindorf am Ossiacher See", "addr:housenumber": "20", "addr:postcode": "9551", "addr:street": "Helmut-Wobisch-Weg"}, "content": "Adresse: Helmut-Wobisch-Weg 20, 9551 Steindorf am Ossiacher See\nOrt: Steindorf am Ossiacher See\nPLZ: 9551\nKoordinaten: 46.690162, 13.985113", "doc_type": "addresses"}
{"source": "OSM", "region": "Kärnten", "osm_type": "node", "osm_id": 4966916528, "name": null, "category": null, "address": "Helmut-Wobisch-Weg 19, 9551 Steindorf am Ossiacher See", "street": "Helmut-Wobisch-Weg", "housenumber": "19", "postcode": "9551", "place": "Steindorf am Ossiacher See", "lat": 46.6901709, "lon": 13.9850073, "tags": {"addr:city": "Steindorf am Ossiacher See", "addr:housenumber": "19", "addr:postcode": "9551", "addr:street": "Helmut-Wobisch-Weg"}, "content": "Adresse: Helmut-Wobisch-Weg 19, 9551 Steindorf am Ossiacher See\nOrt: Steindorf am Ossiacher See\nPLZ: 9551\nKoordinaten: 46.690171, 13.985007", "doc_type": "addresses"}
{"source": "OSM", "region": "Kärnten", "osm_type": "node", "osm_id": 5120433200, "name": "Bankstelle Bodensdorf", "category": "amenity:bank", "address": "10.-Oktober-Straße 2, 9551 Steindorf am Ossiacher See", "street": "10.-Oktober-Straße", "housenumber": "2", "postcode": "9551", "place": "Steindorf am Ossiacher See", "lat": 46.6854754, "lon": 13.9741507, "tags": {"addr:city": "Steindorf am Ossiacher See", "addr:housenumber": "2", "addr:postcode": "9551", "addr:street": "10.-Oktober-Straße", "amenity": "bank", "brand": "Raiffeisen", "name": "Bankstelle Bodensdorf", "operator": "Raiffeisen", "phone": "+43 4243 20070"}, "content": "Bankstelle Bodensdorf\nKategorie: amenity:bank\nAdresse: 10.-Oktober-Straße 2, 9551 Steindorf am Ossiacher See\nOrt: Steindorf am Ossiacher See\nPLZ: 9551\nKoordinaten: 46.685475, 13.974151\nTags: amenity=bank, operator=Raiffeisen, brand=Raiffeisen, phone=+43 4243 20070", "doc_type": "addresses"}
{"source": "OSM", "region": "Kärnten", "osm_type": "node", "osm_id": 292373483, "name": "Schiffsstation St. Urban", "category": "amenity:ferry_terminal", "address": "Sankt-Urban-Weg 16, 9551 Steindorf am Ossiacher See", "street": "Sankt-Urban-Weg", "housenumber": "16", "postcode": "9551", "place": "Steindorf am Ossiacher See", "lat": 46.673536, "lon": 13.9604234, "tags": {"addr:city": "Steindorf am Ossiacher See", "addr:housenumber": "16", "addr:postcode": "9551", "addr:street": "Sankt-Urban-Weg", "amenity": "ferry_terminal", "name": "Schiffsstation St. Urban", "operator": "Nageler Schifffahrt & Restaurant GmbH & Co KG Ossiachersee Schifffahrt"}, "content": "Schiffsstation St. Urban\nKategorie: amenity:ferry_terminal\nAdresse: Sankt-Urban-Weg 16, 9551 Steindorf am Ossiacher See\nOrt: Steindorf am Ossiacher See\nPLZ: 9551\nKoordinaten: 46.673536, 13.960423\nTags: amenity=ferry_terminal, operator=Nageler Schifffahrt & Restaurant GmbH & Co KG Ossiachersee Schifffahrt", "doc_type": "pois"}
{"source": "OSM", "region": "Kärnten", "osm_type": "node", "osm_id": 538375495, "name": "Schiffstation Steindorf", "category": "amenity:ferry_terminal", "address": "Seestraße 19, 9552 Steindorf am Ossiacher See", "street": "Seestraße", "housenumber": "19", "postcode": "9552", "place": "Steindorf am Ossiacher See", "lat": 46.694287, "lon": 14.0071527, "tags": {"addr:city": "Steindorf am Ossiacher See", "addr:housenumber": "19", "addr:postcode": "9552", "addr:street": "Seestraße", "amenity": "ferry_terminal", "name": "Schiffstation Steindorf", "operator": "Nageler Schifffahrt & Restaurant GmbH & Co KG Ossiachersee Schifffahrt"}, "content": "Schiffstation Steindorf\nKategorie: amenity:ferry_terminal\nAdresse: Seestraße 19, 9552 Steindorf am Ossiacher See\nOrt: Steindorf am Ossiacher See\nPLZ: 9552\nKoordinaten: 46.694287, 14.007153\nTags: amenity=ferry_terminal, operator=Nageler Schifffahrt & Restaurant GmbH & Co KG Ossiachersee Schifffahrt", "doc_type": "pois"}
{"source": "OSM", "region": "Kärnten", "osm_type": "node", "osm_id": 538375501, "name": "Schiffstation Bodensdorf", "category": "amenity:ferry_terminal", "address": "Golfweg 3a, 9551 Steindorf am Ossiacher See", "street": "Golfweg", "housenumber": "3a", "postcode": "9551", "place": "Steindorf am Ossiacher See", "lat": 46.6804756, "lon": 13.9748347, "tags": {"addr:city": "Steindorf am Ossiacher See", "addr:housenumber": "3a", "addr:postcode": "9551", "addr:street": "Golfweg", "amenity": "ferry_terminal", "name": "Schiffstation Bodensdorf", "operator": "Nageler Schifffahrt & Restaurant GmbH & Co KG Ossiachersee Schifffahrt"}, "content": "Schiffstation Bodensdorf\nKategorie: amenity:ferry_terminal\nAdresse: Golfweg 3a, 9551 Steindorf am Ossiacher See\nOrt: Steindorf am Ossiacher See\nPLZ: 9551\nKoordinaten: 46.680476, 13.974835\nTags: amenity=ferry_terminal, operator=Nageler Schifffahrt & Restaurant GmbH & Co KG Ossiachersee Schifffahrt", "doc_type": "pois"}
{"source": "OSM", "region": "Kärnten", "osm_type": "node", "osm_id": 864669581, "name": "Turmöl", "category": "amenity:fuel", "address": "Bundesstraße West 65, 9551 Steindorf am Ossiacher See", "street": "Bundesstraße West", "housenumber": "65", "postcode": "9551", "place": "Steindorf am Ossiacher See", "lat": 46.6792122, "lon": 13.9681899, "tags": {"addr:city": "Steindorf am Ossiacher See", "addr:housenumber": "65", "addr:postcode": "9551", "addr:street": "Bundesstraße West", "amenity": "fuel", "brand": "Turmöl", "name": "Turmöl"}, "content": "Turmöl\nKategorie: amenity:fuel\nAdresse: Bundesstraße West 65, 9551 Steindorf am Ossiacher See\nOrt: Steindorf am Ossiacher See\nPLZ: 9551\nKoordinaten: 46.679212, 13.968190\nTags: amenity=fuel, brand=Turmöl", "doc_type": "pois"}
{"source": "OSM", "region": "Kärnten", "osm_type": "node", "osm_id": 1368310933, "name": "Gemeindebücherei", "category": "amenity:library", "address": "10.-Oktober-Straße 3, 9551 Steindorf am Ossiacher See", "street": "10.-Oktober-Straße", "housenumber": "3", "postcode": "9551", "place": "Steindorf am Ossiacher See", "lat": 46.6853576, "lon": 13.9721047, "tags": {"addr:city": "Steindorf am Ossiacher See", "addr:housenumber": "3", "addr:postcode": "9551", "addr:street": "10.-Oktober-Straße", "amenity": "library", "name": "Gemeindebücherei"}, "content": "Gemeindebücherei\nKategorie: amenity:library\nAdresse: 10.-Oktober-Straße 3, 9551 Steindorf am Ossiacher See\nOrt: Steindorf am Ossiacher See\nPLZ: 9551\nKoordinaten: 46.685358, 13.972105\nTags: amenity=library", "doc_type": "pois"}
{"source": "OSM", "region": "Kärnten", "osm_type": "node", "osm_id": 1368310941, "name": "Kindergarten", "category": "amenity:kindergarten", "address": "10.-Oktober-Straße 3, 9551 Steindorf am Ossiacher See", "street": "10.-Oktober-Straße", "housenumber": "3", "postcode": "9551", "place": "Steindorf am Ossiacher See", "lat": 46.6851306, "lon": 13.9719722, "tags": {"addr:city": "Steindorf am Ossiacher See", "addr:housenumber": "3", "addr:postcode": "9551", "addr:street": "10.-Oktober-Straße", "amenity": "kindergarten", "name": "Kindergarten"}, "content": "Kindergarten\nKategorie: amenity:kindergarten\nAdresse: 10.-Oktober-Straße 3, 9551 Steindorf am Ossiacher See\nOrt: Steindorf am Ossiacher See\nPLZ: 9551\nKoordinaten: 46.685131, 13.971972\nTags: amenity=kindergarten", "doc_type": "pois"}
{"source": "OSM", "region": "Kärnten", "osm_type": "node", "osm_id": 1368310943, "name": "Sparkasse", "category": "amenity:bank", "address": "Bundesstraße West 32, 9551 Steindorf am Ossiacher See", "street": "Bundesstraße West", "housenumber": "32", "postcode": "9551", "place": "Steindorf am Ossiacher See", "lat": 46.6823319, "lon": 13.9714206, "tags": {"addr:city": "Steindorf am Ossiacher See", "addr:housenumber": "32", "addr:postcode": "9551", "addr:street": "Bundesstraße West", "amenity": "bank", "name": "Sparkasse", "phone": "+434243 2700"}, "content": "Sparkasse\nKategorie: amenity:bank\nAdresse: Bundesstraße West 32, 9551 Steindorf am Ossiacher See\nOrt: Steindorf am Ossiacher See\nPLZ: 9551\nKoordinaten: 46.682332, 13.971421\nTags: amenity=bank, phone=+434243 2700", "doc_type": "pois"}
{"source": "OSM", "region": "Kärnten", "osm_type": "node", "osm_id": 1576230663, "name": null, "category": "amenity:restaurant", "address": "Gerlitzenstraße 27, 9551 Steindorf am Ossiacher See", "street": "Gerlitzenstraße", "housenumber": "27", "postcode": "9551", "place": "Steindorf am Ossiacher See", "lat": 46.6781977, "lon": 13.9502614, "tags": {"addr:city": "Steindorf am Ossiacher See", "addr:housenumber": "27", "addr:postcode": "9551", "addr:street": "Gerlitzenstraße", "amenity": "restaurant"}, "content": "Kategorie: amenity:restaurant\nAdresse: Gerlitzenstraße 27, 9551 Steindorf am Ossiacher See\nOrt: Steindorf am Ossiacher See\nPLZ: 9551\nKoordinaten: 46.678198, 13.950261\nTags: amenity=restaurant", "doc_type": "pois"}
{"source": "OSM", "region": "Kärnten", "osm_type": "node", "osm_id": 2315768585, "name": "Sonnen-Apotheke", "category": "amenity:pharmacy", "address": "Poststraße 16, 9551 Steindorf am Ossiacher See", "street": "Poststraße", "housenumber": "16", "postcode": "9551", "place": "Steindorf am Ossiacher See", "lat": 46.6854797, "lon": 13.9750641, "tags": {"addr:city": "Steindorf am Ossiacher See", "addr:housenumber": "16", "addr:postcode": "9551", "addr:street": "Poststraße", "amenity": "pharmacy", "healthcare": "pharmacy", "name": "Sonnen-Apotheke", "operator": "Mag.pharm. Dr. Christof Geppel", "phone": "+434243 8350 0", "website": "https://apotheke-bodensdorf.at/"}, "content": "Sonnen-Apotheke\nKategorie: amenity:pharmacy\nAdresse: Poststraße 16, 9551 Steindorf am Ossiacher See\nOrt: Steindorf am Ossiacher See\nPLZ: 9551\nKoordinaten: 46.685480, 13.975064\nTags: amenity=pharmacy, healthcare=pharmacy, operator=Mag.pharm. Dr. Christof Geppel, phone=+434243 8350 0, website=https://apotheke-bodensdorf.at/", "doc_type": "pois"}
{"source": "OSM", "region": "Kärnten", "osm_type": "node", "osm_id": 2315798321, "name": "Kulinarik Stadl", "category": "amenity:restaurant", "address": "Lindenweg 5, 9551 Steindorf am Ossiacher See", "street": "Lindenweg", "housenumber": "5", "postcode": "9551", "place": "Steindorf am Ossiacher See", "lat": 46.6872731, "lon": 13.9742951, "tags": {"addr:city": "Steindorf am Ossiacher See", "addr:housenumber": "5", "addr:postcode": "9551", "addr:street": "Lindenweg", "amenity": "restaurant", "name": "Kulinarik Stadl"}, "content": "Kulinarik Stadl\nKategorie: amenity:restaurant\nAdresse: Lindenweg 5, 9551 Steindorf am Ossiacher See\nOrt: Steindorf am Ossiacher See\nPLZ: 9551\nKoordinaten: 46.687273, 13.974295\nTags: amenity=restaurant", "doc_type": "pois"}
{"source": "OSM", "region": "Kärnten", "osm_type": "node", "osm_id": 2920465858, "name": "Seehotel Hoffmann", "category": "tourism:hotel", "address": "Bundesstraße Ost 5, 9552 Steindorf am Ossiacher See", "street": "Bundesstraße Ost", "housenumber": "5", "postcode": "9552", "place": "Steindorf am Ossiacher See", "lat": 46.6955724, "lon": 13.9980801, "tags": {"addr:city": "Steindorf am Ossiacher See", "addr:housenumber": "5", "addr:postcode": "9552", "addr:street": "Bundesstraße Ost", "name": "Seehotel Hoffmann", "phone": "+4342438704", "tourism": "hotel", "website": "https://www.seehotel-hoffmann.at/"}, "content": "Seehotel Hoffmann\nKategorie: tourism:hotel\nAdresse: Bundesstraße Ost 5, 9552 Steindorf am Ossiacher See\nOrt: Steindorf am Ossiacher See\nPLZ: 9552\nKoordinaten: 46.695572, 13.998080\nTags: phone=+4342438704, website=https://www.seehotel-hoffmann.at/", "doc_type": "pois"}
{"source": "OSM", "region": "Kärnten", "osm_type": "node", "osm_id": 3267479166, "name": "Pension Kasermandl", "category": "tourism:hotel", "address": "Hangweg 5, 9552 Steindorf am Ossiacher See", "street": "Hangweg", "housenumber": "5", "postcode": "9552", "place": "Steindorf am Ossiacher See", "lat": 46.695383, "lon": 13.994181, "tags": {"addr:city": "Steindorf am Ossiacher See", "addr:housenumber": "5", "addr:postcode": "9552", "addr:street": "Hangweg", "name": "Pension Kasermandl", "phone": "+436641766555", "tourism": "hotel", "website": "https://www.kasermandl.eu"}, "content": "Pension Kasermandl\nKategorie: tourism:hotel\nAdresse: Hangweg 5, 9552 Steindorf am Ossiacher See\nOrt: Steindorf am Ossiacher See\nPLZ: 9552\nKoordinaten: 46.695383, 13.994181\nTags: phone=+436641766555, website=https://www.kasermandl.eu", "doc_type": "pois"}
{"source": "OSM", "region": "Kärnten", "osm_type": "node", "osm_id": 3660216156, "name": "Familienpension Rasch", "category": "tourism:guest_house", "address": "10.-Oktober-Straße 10, 9551 Steindorf am Ossiacher See", "street": "10.-Oktober-Straße", "housenumber": "10", "postcode": "9551", "place": "Steindorf am Ossiacher See", "lat": 46.687591, "lon": 13.9702986, "tags": {"addr:city": "Steindorf am Ossiacher See", "addr:housenumber": "10", "addr:postcode": "9551", "addr:street": "10.-Oktober-Straße", "name": "Familienpension Rasch", "tourism": "guest_house"}, "content": "Familienpension Rasch\nKategorie: tourism:guest_house\nAdresse: 10.-Oktober-Straße 10, 9551 Steindorf am Ossiacher See\nOrt: Steindorf am Ossiacher See\nPLZ: 9551\nKoordinaten: 46.687591, 13.970299", "doc_type": "pois"}
{"source": "OSM", "region": "Kärnten", "osm_type": "node", "osm_id": 3660216160, "name": "Haus Lindenweg Ferienwohnungen", "category": "tourism:guest_house", "address": "Lindenweg 8, 9551 Steindorf am Ossiacher See", "street": "Lindenweg", "housenumber": "8", "postcode": "9551", "place": "Steindorf am Ossiacher See", "lat": 46.6873741, "lon": 13.9755069, "tags": {"addr:city": "Steindorf am Ossiacher See", "addr:housenumber": "8", "addr:postcode": "9551", "addr:street": "Lindenweg", "name": "Haus Lindenweg Ferienwohnungen", "tourism": "guest_house", "website": "https://www.sonneundsee.at"}, "content": "Haus Lindenweg Ferienwohnungen\nKategorie: tourism:guest_house\nAdresse: Lindenweg 8, 9551 Steindorf am Ossiacher See\nOrt: Steindorf am Ossiacher See\nPLZ: 9551\nKoordinaten: 46.687374, 13.975507\nTags: website=https://www.sonneundsee.at", "doc_type": "pois"}
{"source": "OSM", "region": "Kärnten", "osm_type": "node", "osm_id": 3660216162, "name": "Landgut Lindenhof", "category": "tourism:hotel", "address": "Lindenweg 5, 9551 Steindorf am Ossiacher See", "street": "Lindenweg", "housenumber": "5", "postcode": "9551", "place": "Steindorf am Ossiacher See", "lat": 46.6871205, "lon": 13.9741416, "tags": {"addr:city": "Steindorf am Ossiacher See", "addr:housenumber": "5", "addr:postcode": "9551", "addr:street": "Lindenweg", "name": "Landgut Lindenhof", "tourism": "hotel"}, "content": "Landgut Lindenhof\nKategorie: tourism:hotel\nAdresse: Lindenweg 5, 9551 Steindorf am Ossiacher See\nOrt: Steindorf am Ossiacher See\nPLZ: 9551\nKoordinaten: 46.687120, 13.974142", "doc_type": "pois"}
{"source": "OSM", "region": "Kärnten", "osm_type": "node", "osm_id": 3660221226, "name": "Volksschule Bodensdorf", "category": "amenity:school", "address": "10.-Oktober-Straße 3, 9551 Steindorf am Ossiacher See", "street": "10.-Oktober-Straße", "housenumber": "3", "postcode": "9551", "place": "Steindorf am Ossiacher See", "lat": 46.6852896, "lon": 13.972003, "tags": {"addr:city": "Steindorf am Ossiacher See", "addr:housenumber": "3", "addr:postcode": "9551", "addr:street": "10.-Oktober-Straße", "amenity": "school", "name": "Volksschule Bodensdorf"}, "content": "Volksschule Bodensdorf\nKategorie: amenity:school\nAdresse: 10.-Oktober-Straße 3, 9551 Steindorf am Ossiacher See\nOrt: Steindorf am Ossiacher See\nPLZ: 9551\nKoordinaten: 46.685290, 13.972003\nTags: amenity=school", "doc_type": "pois"}
{"source": "OSM", "region": "Kärnten", "osm_type": "node", "osm_id": 3660240396, "name": "Ferienwohnungen Üblagger", "category": "tourism:apartment", "address": "Gustav-Renker-Weg 1, 9551 Steindorf am Ossiacher See", "street": "Gustav-Renker-Weg", "housenumber": "1", "postcode": "9551", "place": "Steindorf am Ossiacher See", "lat": 46.683647, "lon": 13.9721666, "tags": {"addr:city": "Steindorf am Ossiacher See", "addr:housenumber": "1", "addr:postcode": "9551", "addr:street": "Gustav-Renker-Weg", "name": "Ferienwohnungen Üblagger", "operator": "Gert Üblagger", "tourism": "apartment"}, "content": "Ferienwohnungen Üblagger\nKategorie: tourism:apartment\nAdresse: Gustav-Renker-Weg 1, 9551 Steindorf am Ossiacher See\nOrt: Steindorf am Ossiacher See\nPLZ: 9551\nKoordinaten: 46.683647, 13.972167\nTags: operator=Gert Üblagger", "doc_type": "pois"}
{"source": "OSM", "region": "Kärnten", "osm_type": "node", "osm_id": 3660240397, "name": "Frühstückspension Hans Wastl", "category": "tourism:guest_house", "address": "Lobisserweg 32, 9551 Steindorf am Ossiacher See", "street": "Lobisserweg", "housenumber": "32", "postcode": "9551", "place": "Steindorf am Ossiacher See", "lat": 46.6848401, "lon": 13.9696642, "tags": {"addr:city": "Steindorf am Ossiacher See", "addr:housenumber": "32", "addr:postcode": "9551", "addr:street": "Lobisserweg", "name": "Frühstückspension Hans Wastl", "tourism": "guest_house"}, "content": "Frühstückspension Hans Wastl\nKategorie: tourism:guest_house\nAdresse: Lobisserweg 32, 9551 Steindorf am Ossiacher See\nOrt: Steindorf am Ossiacher See\nPLZ: 9551\nKoordinaten: 46.684840, 13.969664", "doc_type": "pois"}
{"source": "OSM", "region": "Kärnten", "osm_type": "node", "osm_id": 3660240399, "name": "Generali Versicherungsagentur", "category": "office:insurance", "address": "Lobisserweg 2, 9551 Steindorf am Ossiacher See", "street": "Lobisserweg", "housenumber": "2", "postcode": "9551", "place": "Steindorf am Ossiacher See", "lat": 46.6828796, "lon": 13.9713899, "tags": {"addr:city": "Steindorf am Ossiacher See", "addr:housenumber": "2", "addr:postcode": "9551", "addr:street": "Lobisserweg", "brand": "Generali", "name": "Generali Versicherungsagentur", "office": "insurance"}, "content": "Generali Versicherungsagentur\nKategorie: office:insurance\nAdresse: Lobisserweg 2, 9551 Steindorf am Ossiacher See\nOrt: Steindorf am Ossiacher See\nPLZ: 9551\nKoordinaten: 46.682880, 13.971390\nTags: office=insurance, brand=Generali", "doc_type": "pois"}
{"source": "OSM", "region": "Kärnten", "osm_type": "node", "osm_id": 3660260294, "name": "Tanzstadl Tenne", "category": "amenity:bar", "address": "Lobisserweg 2, 9551 Steindorf am Ossiacher See", "street": "Lobisserweg", "housenumber": "2", "postcode": "9551", "place": "Steindorf am Ossiacher See", "lat": 46.6827761, "lon": 13.9715682, "tags": {"addr:city": "Steindorf am Ossiacher See", "addr:housenumber": "2", "addr:postcode": "9551", "addr:street": "Lobisserweg", "amenity": "bar", "name": "Tanzstadl Tenne"}, "content": "Tanzstadl Tenne\nKategorie: amenity:bar\nAdresse: Lobisserweg 2, 9551 Steindorf am Ossiacher See\nOrt: Steindorf am Ossiacher See\nPLZ: 9551\nKoordinaten: 46.682776, 13.971568\nTags: amenity=bar", "doc_type": "pois"}
{"source": "OSM", "region": "Kärnten", "osm_type": "node", "osm_id": 4181094258, "name": "Buschenschank Rogatsch", "category": "amenity:restaurant", "address": "Ossiachberg 20, 9552 Steindorf am Ossiacher See", "street": "Ossiachberg", "housenumber": "20", "postcode": "9552", "place": "Steindorf am Ossiacher See", "lat": 46.707369, "lon": 13.9945699, "tags": {"addr:city": "Steindorf am Ossiacher See", "addr:housenumber": "20", "addr:postcode": "9552", "addr:street": "Ossiachberg", "amenity": "restaurant", "name": "Buschenschank Rogatsch"}, "content": "Buschenschank Rogatsch\nKategorie: amenity:restaurant\nAdresse: Ossiachberg 20, 9552 Steindorf am Ossiacher See\nOrt: Steindorf am Ossiacher See\nPLZ: 9552\nKoordinaten: 46.707369, 13.994570\nTags: amenity=restaurant", "doc_type": "pois"}
{"source": "OSM", "region": "Kärnten", "osm_type": "node", "osm_id": 4374550306, "name": "Dr. Helmut Polanec", "category": "amenity:doctors", "address": "Bundesstraße West 32, 9551 Steindorf am Ossiacher See", "street": "Bundesstraße West", "housenumber": "32", "postcode": "9551", "place": "Steindorf am Ossiacher See", "lat": 46.6824487, "lon": 13.971201, "tags": {"addr:city": "Steindorf am Ossiacher See", "addr:housenumber": "32", "addr:postcode": "9551", "addr:street": "Bundesstraße West", "amenity": "doctors", "healthcare": "doctor", "name": "Dr. Helmut Polanec"}, "content": "Dr. Helmut Polanec\nKategorie: amenity:doctors\nAdresse: Bundesstraße West 32, 9551 Steindorf am Ossiacher See\nOrt: Steindorf am Ossiacher See\nPLZ: 9551\nKoordinaten: 46.682449, 13.971201\nTags: amenity=doctors, healthcare=doctor", "doc_type": "pois"}
{"source": "OSM", "region": "Kärnten", "osm_type": "node", "osm_id": 5120433200, "name": "Bankstelle Bodensdorf", "category": "amenity:bank", "address": "10.-Oktober-Straße 2, 9551 Steindorf am Ossiacher See", "street": "10.-Oktober-Straße", "housenumber": "2", "postcode": "9551", "place": "Steindorf am Ossiacher See", "lat": 46.6854754, "lon": 13.9741507, "tags": {"addr:city": "Steindorf am Ossiacher See", "addr:housenumber": "2", "addr:postcode": "9551", "addr:street": "10.-Oktober-Straße", "amenity": "bank", "brand": "Raiffeisen", "name": "Bankstelle Bodensdorf", "operator": "Raiffeisen", "phone": "+43 4243 20070"}, "content": "Bankstelle Bodensdorf\nKategorie: amenity:bank\nAdresse: 10.-Oktober-Straße 2, 9551 Steindorf am Ossiacher See\nOrt: Steindorf am Ossiacher See\nPLZ: 9551\nKoordinaten: 46.685475, 13.974151\nTags: amenity=bank, operator=Raiffeisen, brand=Raiffeisen, phone=+43 4243 20070", "doc_type": "pois"}
