{"source": "OSM", "region": "Kärnten", "osm_type": "node", "osm_id": 340519691, "name": "Postpartner 9341, Tabak Trafik Eberdorfer", "category": "amenity:post_office", "address": "Hauptstraße 19, 9341 Straßburg", "street": "Hauptstraße", "housenumber": "19", "postcode": "9341", "place": "Straßburg", "lat": 46.8949236, "lon": 14.3310368, "tags": {"addr:city": "Straßburg", "addr:housenumber": "19", "addr:postcode": "9341", "addr:street": "Hauptstraße", "amenity": "post_office", "name": "Postpartner 9341, Tabak Trafik Eberdorfer"}, "content": "Postpartner 9341, Tabak Trafik Eberdorfer\nKategorie: amenity:post_office\nAdresse: Hauptstraße 19, 9341 Straßburg\nOrt: Straßburg\nPLZ: 9341\nKoordinaten: 46.894924, 14.331037\nTags: amenity=post_office", "doc_type": "addresses"}
{"source": "OSM", "region": "Kärnten", "osm_type": "node", "osm_id": 2449309394, "name": "Al Castello", "category": "amenity:restaurant", "address": "Schloßweg 6, 9341 Straßburg", "street": "Schloßweg", "housenumber": "6", "postcode": "9341", "place": "Straßburg", "lat": 46.8974248, "lon": 14.3302035, "tags": {"addr:city": "Straßburg", "addr:housenumber": "6", "addr:postcode": "9341", "addr:street": "Schloßweg", "amenity": "restaurant", "name": "Al Castello", "phone": "+43660 6910770"}, "content": "Al Castello\nKategorie: amenity:restaurant\nAdresse: Schloßweg 6, 9341 Straßburg\nOrt: Straßburg\nPLZ: 9341\nKoordinaten: 46.897425, 14.330203\nTags: amenity=restaurant, phone=+43660 6910770", "doc_type": "addresses"}
{"source": "OSM", "region": "Kärnten", "osm_type": "node", "osm_id": 4087753374, "name": "Dr. Franz Ferstner", "category": "amenity:doctors", "address": "Hauptstraße 51, 9341 Straßburg", "street": "Hauptstraße", "housenumber": "51", "postcode": "9341", "place": "Straßburg", "lat": 46.8924, "lon": 14.3247465, "tags": {"addr:city": "Straßburg", "addr:housenumber": "51", "addr:postcode": "9341", "addr:street": "Hauptstraße", "amenity": "doctors", "name": "Dr. Franz Ferstner", "phone": "+43 4266 3111"}, "content": "Dr. Franz Ferstner\nKategorie: amenity:doctors\nAdresse: Hauptstraße 51, 9341 Straßburg\nOrt: Straßburg\nPLZ: 9341\nKoordinaten: 46.892400, 14.324746\nTags: amenity=doctors, phone=+43 4266 3111", "doc_type": "addresses"}
{"source": "OSM", "region": "Kärnten", "osm_type": "node", "osm_id": 4936810895, "name": "ADEG Bachler", "category": "shop:supermarket", "address": "10.-Oktober-Straße 3a, 9341 Straßburg", "street": "10.-Oktober-Straße", "housenumber": "3a", "postcode": "9341", "place": "Straßburg", "lat": 46.895824, "lon": 14.3355489, "tags": {"addr:city": "Straßburg", "addr:housenumber": "3a", "addr:postcode": "9341", "addr:street": "10.-Oktober-Straße", "name": "ADEG Bachler", "phone": "+43 4266 3110", "shop": "supermarket", "website": "https://www.adeg.at/"}, "content": "ADEG Bachler\nKategorie: shop:supermarket\nAdresse: 10.-Oktober-Straße 3a, 9341 Straßburg\nOrt: Straßburg\nPLZ: 9341\nKoordinaten: 46.895824, 14.335549\nTags: shop=supermarket, phone=+43 4266 3110, website=https://www.adeg.at/", "doc_type": "addresses"}
{"source": "OSM", "region": "Kärnten", "osm_type": "node", "osm_id": 5131676379, "name": "Polizeiinspektion Straßburg", "category": "amenity:police", "address": "Hauptstraße 3, 9341 Straßburg", "street": "Hauptstraße", "housenumber": "3", "postcode": "9341", "place": "Straßburg", "lat": 46.8950687, "lon": 14.3345967, "tags": {"addr:city": "Straßburg", "addr:housenumber": "3", "addr:postcode": "9341", "addr:street": "Hauptstraße", "amenity": "police", "name": "Polizeiinspektion Straßburg", "phone": "+43 59133 2128100"}, "content": "Polizeiinspektion Straßburg\nKategorie: amenity:police\nAdresse: Hauptstraße 3, 9341 Straßburg\nOrt: Straßburg\nPLZ: 9341\nKoordinaten: 46.895069, 14.334597\nTags: amenity=police, phone=+43 59133 2128100", "doc_type": "addresses"}
{"source": "OSM", "region": "Kärnten", "osm_type": "node", "osm_id": 5131682556, "name": null, "category": null, "address": "Hauptstraße 2a, 9341 Straßburg", "street": "Hauptstraße", "housenumber": "2a", "postcode": "9341", "place": "Straßburg", "lat": 46.894932, "lon": 14.3352158, "tags": {"addr:city": "Straßburg", "addr:housenumber": "2a", "addr:postcode": "9341", "addr:street": "Hauptstraße"}, "content": "Adresse: Hauptstraße 2a, 9341 Straßburg\nOrt: Straßburg\nPLZ: 9341\nKoordinaten: 46.894932, 14.335216", "doc_type": "addresses"}
{"source": "OSM", "region": "Kärnten", "osm_type": "node", "osm_id": 5131682557, "name": null, "category": null, "address": "Hauptstraße 2b, 9341 Straßburg", "street": "Hauptstraße", "housenumber": "2b", "postcode": "9341", "place": "Straßburg", "lat": 46.8949426, "lon": 14.3350321, "tags": {"addr:city": "Straßburg", "addr:housenumber": "2b", "addr:postcode": "9341", "addr:street": "Hauptstraße"}, "content": "Adresse: Hauptstraße 2b, 9341 Straßburg\nOrt: Straßburg\nPLZ: 9341\nKoordinaten: 46.894943, 14.335032", "doc_type": "addresses"}
{"source": "OSM", "region": "Kärnten", "osm_type": "node", "osm_id": 5499902270, "name": null, "category": null, "address": "10, 9341 Straßburg", "street": null, "housenumber": "10", "postcode": "9341", "place": "Straßburg", "lat": 46.9051988, "lon": 14.3706509, "tags": {"addr:city": "Straßburg", "addr:housenumber": "10", "addr:place": "Mellach", "addr:postcode": "9341"}, "content": "Adresse: 10, 9341 Straßburg\nOrt: Straßburg\nPLZ: 9341\nKoordinaten: 46.905199, 14.370651", "doc_type": "addresses"}
{"source": "OSM", "region": "Kärnten", "osm_type": "node", "osm_id": 5499902271, "name": null, "category": null, "address": "10a, 9341 Straßburg", "street": null, "housenumber": "10a", "postcode": "9341", "place": "Straßburg", "lat": 46.9052859, "lon": 14.3704954, "tags": {"addr:city": "Straßburg", "addr:housenumber": "10a", "addr:place": "Mellach", "addr:postcode": "9341"}, "content": "Adresse: 10a, 9341 Straßburg\nOrt: Straßburg\nPLZ: 9341\nKoordinaten: 46.905286, 14.370495", "doc_type": "addresses"}
{"source": "OSM", "region": "Kärnten", "osm_type": "node", "osm_id": 5499908656, "name": null, "category": null, "address": "13, 9341 Straßburg", "street": null, "housenumber": "13", "postcode": "9341", "place": "Straßburg", "lat": 46.9023941, "lon": 14.3671802, "tags": {"addr:city": "Straßburg", "addr:housenumber": "13", "addr:place": "Mellach", "addr:postcode": "9341"}, "content": "Adresse: 13, 9341 Straßburg\nOrt: Straßburg\nPLZ: 9341\nKoordinaten: 46.902394, 14.367180", "doc_type": "addresses"}
{"source": "OSM", "region": "Kärnten", "osm_type": "node", "osm_id": 5499908657, "name": null, "category": null, "address": "16, 9341 Straßburg", "street": null, "housenumber": "16", "postcode": "9341", "place": "Straßburg", "lat": 46.9017637, "lon": 14.3661475, "tags": {"addr:city": "Straßburg", "addr:housenumber": "16", "addr:place": "Mellach", "addr:postcode": "9341"}, "content": "Adresse: 16, 9341 Straßburg\nOrt: Straßburg\nPLZ: 9341\nKoordinaten: 46.901764, 14.366148", "doc_type": "addresses"}
{"source": "OSM", "region": "Kärnten", "osm_type": "node", "osm_id": 5499908662, "name": null, "category": null, "address": "21, 9341 Straßburg", "street": null, "housenumber": "21", "postcode": "9341", "place": "Straßburg", "lat": 46.9023629, "lon": 14.3654045, "tags": {"addr:city": "Straßburg", "addr:housenumber": "21", "addr:place": "Mellach", "addr:postcode": "9341"}, "content": "Adresse: 21, 9341 Straßburg\nOrt: Straßburg\nPLZ: 9341\nKoordinaten: 46.902363, 14.365405", "doc_type": "addresses"}
{"source": "OSM", "region": "Kärnten", "osm_type": "node", "osm_id": 5499908663, "name": null, "category": null, "address": "24, 9341 Straßburg", "street": null, "housenumber": "24", "postcode": "9341", "place": "Straßburg", "lat": 46.902319, "lon": 14.3660107, "tags": {"addr:city": "Straßburg", "addr:housenumber": "24", "addr:place": "Mellach", "addr:postcode": "9341"}, "content": "Adresse: 24, 9341 Straßburg\nOrt: Straßburg\nPLZ: 9341\nKoordinaten: 46.902319, 14.366011", "doc_type": "addresses"}
{"source": "OSM", "region": "Kärnten", "osm_type": "node", "osm_id": 5499908676, "name": null, "category": null, "address": "6, 9341 Straßburg", "street": null, "housenumber": "6", "postcode": "9341", "place": "Straßburg", "lat": 46.9008144, "lon": 14.3790382, "tags": {"addr:city": "Straßburg", "addr:housenumber": "6", "addr:place": "Sankt Georgen", "addr:postcode": "9341"}, "content": "Adresse: 6, 9341 Straßburg\nOrt: Straßburg\nPLZ: 9341\nKoordinaten: 46.900814, 14.379038", "doc_type": "addresses"}
{"source": "OSM", "region": "Kärnten", "osm_type": "node", "osm_id": 5499908689, "name": null, "category": null, "address": "13, 9341 Straßburg", "street": null, "housenumber": "13", "postcode": "9341", "place": "Straßburg", "lat": 46.9029512, "lon": 14.387565, "tags": {"addr:city": "Straßburg", "addr:housenumber": "13", "addr:place": "Gundersdorf", "addr:postcode": "9341"}, "content": "Adresse: 13, 9341 Straßburg\nOrt: Straßburg\nPLZ: 9341\nKoordinaten: 46.902951, 14.387565", "doc_type": "addresses"}
{"source": "OSM", "region": "Kärnten", "osm_type": "node", "osm_id": 5499908690, "name": null, "category": null, "address": "3b, 9341 Straßburg", "street": null, "housenumber": "3b", "postcode": "9341", "place": "Straßburg", "lat": 46.9030703, "lon": 14.3866611, "tags": {"addr:city": "Straßburg", "addr:housenumber": "3b", "addr:place": "Gundersdorf", "addr:postcode": "9341"}, "content": "Adresse: 3b, 9341 Straßburg\nOrt: Straßburg\nPLZ: 9341\nKoordinaten: 46.903070, 14.386661", "doc_type": "addresses"}
{"source": "OSM", "region": "Kärnten", "osm_type": "node", "osm_id": 5499908691, "name": null, "category": null, "address": "5, 9341 Straßburg", "street": null, "housenumber": "5", "postcode": "9341", "place": "Straßburg", "lat": 46.9032939, "lon": 14.3857115, "tags": {"addr:city": "Straßburg", "addr:housenumber": "5", "addr:place": "Gundersdorf", "addr:postcode": "9341"}, "content": "Adresse: 5, 9341 Straßburg\nOrt: Straßburg\nPLZ: 9341\nKoordinaten: 46.903294, 14.385711", "doc_type": "addresses"}
{"source": "OSM", "region": "Kärnten", "osm_type": "node", "osm_id": 5499908692, "name": null, "category": null, "address": "4, 9341 Straßburg", "street": null, "housenumber": "4", "postcode": "9341", "place": "Straßburg", "lat": 46.9032719, "lon": 14.3864116, "tags": {"addr:city": "Straßburg", "addr:housenumber": "4", "addr:place": "Gundersdorf", "addr:postcode": "9341"}, "content": "Adresse: 4, 9341 Straßburg\nOrt: Straßburg\nPLZ: 9341\nKoordinaten: 46.903272, 14.386412", "doc_type": "addresses"}
{"source": "OSM", "region": "Kärnten", "osm_type": "node", "osm_id": 5499908693, "name": null, "category": null, "address": "3, 9341 Straßburg", "street": null, "housenumber": "3", "postcode": "9341", "place": "Straßburg", "lat": 46.9032151, "lon": 14.3862641, "tags": {"addr:city": "Straßburg", "addr:housenumber": "3", "addr:place": "Gundersdorf", "addr:postcode": "9341"}, "content": "Adresse: 3, 9341 Straßburg\nOrt: Straßburg\nPLZ: 9341\nKoordinaten: 46.903215, 14.386264", "doc_type": "addresses"}
{"source": "OSM", "region": "Kärnten", "osm_type": "node", "osm_id": 5499908694, "name": null, "category": null, "address": "2, 9341 Straßburg", "street": null, "housenumber": "2", "postcode": "9341", "place": "Straßburg", "lat": 46.902603, "lon": 14.3858778, "tags": {"addr:city": "Straßburg", "addr:housenumber": "2", "addr:place": "Gundersdorf", "addr:postcode": "9341"}, "content": "Adresse: 2, 9341 Straßburg\nOrt: Straßburg\nPLZ: 9341\nKoordinaten: 46.902603, 14.385878", "doc_type": "addresses"}
{"source": "OSM", "region": "Kärnten", "osm_type": "node", "osm_id": 5499909076, "name": null, "category": null, "address": "2, 9341 Straßburg", "street": null, "housenumber": "2", "postcode": "9341", "place": "Straßburg", "lat": 46.9036324, "lon": 14.4124693, "tags": {"addr:city": "Straßburg", "addr:housenumber": "2", "addr:place": "Unterfarcha", "addr:postcode": "9341"}, "content": "Adresse: 2, 9341 Straßburg\nOrt: Straßburg\nPLZ: 9341\nKoordinaten: 46.903632, 14.412469", "doc_type": "addresses"}
{"source": "OSM", "region": "Kärnten", "osm_type": "node", "osm_id": 5499909077, "name": null, "category": null, "address": "3, 9341 Straßburg", "street": null, "housenumber": "3", "postcode": "9341", "place": "Straßburg", "lat": 46.9035158, "lon": 14.4122511, "tags": {"addr:city": "Straßburg", "addr:housenumber": "3", "addr:place": "Unterfarcha", "addr:postcode": "9341"}, "content": "Adresse: 3, 9341 Straßburg\nOrt: Straßburg\nPLZ: 9341\nKoordinaten: 46.903516, 14.412251", "doc_type": "addresses"}
{"source": "OSM", "region": "Kärnten", "osm_type": "node", "osm_id": 5499909078, "name": null, "category": null, "address": "1a, 9341 Straßburg", "street": null, "housenumber": "1a", "postcode": "9341", "place": "Straßburg", "lat": 46.9037977, "lon": 14.4109681, "tags": {"addr:city": "Straßburg", "addr:housenumber": "1a", "addr:place": "Unterfarcha", "addr:postcode": "9341"}, "content": "Adresse: 1a, 9341 Straßburg\nOrt: Straßburg\nPLZ: 9341\nKoordinaten: 46.903798, 14.410968", "doc_type": "addresses"}
{"source": "OSM", "region": "Kärnten", "osm_type": "node", "osm_id": 5499909079, "name": null, "category": null, "address": "1, 9341 Straßburg", "street": null, "housenumber": "1", "postcode": "9341", "place": "Straßburg", "lat": 46.9036944, "lon": 14.4113072, "tags": {"addr:city": "Straßburg", "addr:housenumber": "1", "addr:place": "Unterfarcha", "addr:postcode": "9341"}, "content": "Adresse: 1, 9341 Straßburg\nOrt: Straßburg\nPLZ: 9341\nKoordinaten: 46.903694, 14.411307", "doc_type": "addresses"}
{"source": "OSM", "region": "Kärnten", "osm_type": "node", "osm_id": 5499909080, "name": null, "category": null, "address": "2, 9341 Straßburg", "street": null, "housenumber": "2", "postcode": "9341", "place": "Straßburg", "lat": 46.903412, "lon": 14.4047776, "tags": {"addr:city": "Straßburg", "addr:housenumber": "2", "addr:place": "Drahtzug", "addr:postcode": "9341"}, "content": "Adresse: 2, 9341 Straßburg\nOrt: Straßburg\nPLZ: 9341\nKoordinaten: 46.903412, 14.404778", "doc_type": "addresses"}
{"source": "OSM", "region": "Kärnten", "osm_type": "node", "osm_id": 5499909081, "name": null, "category": null, "address": "4, 9341 Straßburg", "street": null, "housenumber": "4", "postcode": "9341", "place": "Straßburg", "lat": 46.9024381, "lon": 14.4070568, "tags": {"addr:city": "Straßburg", "addr:housenumber": "4", "addr:place": "Sankt Magdalen", "addr:postcode": "9341"}, "content": "Adresse: 4, 9341 Straßburg\nOrt: Straßburg\nPLZ: 9341\nKoordinaten: 46.902438, 14.407057", "doc_type": "addresses"}
{"source": "OSM", "region": "Kärnten", "osm_type": "node", "osm_id": 5499909082, "name": null, "category": null, "address": "3, 9341 Straßburg", "street": null, "housenumber": "3", "postcode": "9341", "place": "Straßburg", "lat": 46.9025447, "lon": 14.4065096, "tags": {"addr:city": "Straßburg", "addr:housenumber": "3", "addr:place": "Sankt Magdalen", "addr:postcode": "9341"}, "content": "Adresse: 3, 9341 Straßburg\nOrt: Straßburg\nPLZ: 9341\nKoordinaten: 46.902545, 14.406510", "doc_type": "addresses"}
{"source": "OSM", "region": "Kärnten", "osm_type": "node", "osm_id": 5499909083, "name": null, "category": null, "address": "6, 9341 Straßburg", "street": null, "housenumber": "6", "postcode": "9341", "place": "Straßburg", "lat": 46.901831, "lon": 14.4066366, "tags": {"addr:city": "Straßburg", "addr:housenumber": "6", "addr:place": "Sankt Magdalen", "addr:postcode": "9341"}, "content": "Adresse: 6, 9341 Straßburg\nOrt: Straßburg\nPLZ: 9341\nKoordinaten: 46.901831, 14.406637", "doc_type": "addresses"}
{"source": "OSM", "region": "Kärnten", "osm_type": "node", "osm_id": 5499909084, "name": null, "category": null, "address": "2, 9341 Straßburg", "street": null, "housenumber": "2", "postcode": "9341", "place": "Straßburg", "lat": 46.9012991, "lon": 14.4094128, "tags": {"addr:city": "Straßburg", "addr:housenumber": "2", "addr:place": "Wilpling", "addr:postcode": "9341"}, "content": "Adresse: 2, 9341 Straßburg\nOrt: Straßburg\nPLZ: 9341\nKoordinaten: 46.901299, 14.409413", "doc_type": "addresses"}
{"source": "OSM", "region": "Kärnten", "osm_type": "node", "osm_id": 5499909085, "name": null, "category": null, "address": "1, 9341 Straßburg", "street": null, "housenumber": "1", "postcode": "9341", "place": "Straßburg", "lat": 46.9007471, "lon": 14.4099312, "tags": {"addr:city": "Straßburg", "addr:housenumber": "1", "addr:place": "Wilpling", "addr:postcode": "9341"}, "content": "Adresse: 1, 9341 Straßburg\nOrt: Straßburg\nPLZ: 9341\nKoordinaten: 46.900747, 14.409931", "doc_type": "addresses"}
{"source": "OSM", "region": "Kärnten", "osm_type": "node", "osm_id": 5499909114, "name": null, "category": null, "address": "1, 9341 Straßburg", "street": null, "housenumber": "1", "postcode": "9341", "place": "Straßburg", "lat": 46.9007456, "lon": 14.4224165, "tags": {"addr:city": "Straßburg", "addr:housenumber": "1", "addr:place": "Hackl", "addr:postcode": "9341"}, "content": "Adresse: 1, 9341 Straßburg\nOrt: Straßburg\nPLZ: 9341\nKoordinaten: 46.900746, 14.422417", "doc_type": "addresses"}
{"source": "OSM", "region": "Kärnten", "osm_type": "node", "osm_id": 5499909115, "name": null, "category": null, "address": "7, 9341 Straßburg", "street": null, "housenumber": "7", "postcode": "9341", "place": "Straßburg", "lat": 46.9005862, "lon": 14.4240927, "tags": {"addr:city": "Straßburg", "addr:housenumber": "7", "addr:place": "Hackl", "addr:postcode": "9341"}, "content": "Adresse: 7, 9341 Straßburg\nOrt: Straßburg\nPLZ: 9341\nKoordinaten: 46.900586, 14.424093", "doc_type": "addresses"}
{"source": "OSM", "region": "Kärnten", "osm_type": "node", "osm_id": 5499909116, "name": null, "category": null, "address": "8, 9341 Straßburg", "street": null, "housenumber": "8", "postcode": "9341", "place": "Straßburg", "lat": 46.9008135, "lon": 14.423827, "tags": {"addr:city": "Straßburg", "addr:housenumber": "8", "addr:place": "Hackl", "addr:postcode": "9341"}, "content": "Adresse: 8, 9341 Straßburg\nOrt: Straßburg\nPLZ: 9341\nKoordinaten: 46.900813, 14.423827", "doc_type": "addresses"}
{"source": "OSM", "region": "Kärnten", "osm_type": "node", "osm_id": 5499909117, "name": null, "category": null, "address": "3a, 9341 Straßburg", "street": null, "housenumber": "3a", "postcode": "9341", "place": "Straßburg", "lat": 46.9009965, "lon": 14.4235937, "tags": {"addr:city": "Straßburg", "addr:housenumber": "3a", "addr:place": "Hackl", "addr:postcode": "9341"}, "content": "Adresse: 3a, 9341 Straßburg\nOrt: Straßburg\nPLZ: 9341\nKoordinaten: 46.900996, 14.423594", "doc_type": "addresses"}
{"source": "OSM", "region": "Kärnten", "osm_type": "node", "osm_id": 5499909118, "name": null, "category": null, "address": "3, 9341 Straßburg", "street": null, "housenumber": "3", "postcode": "9341", "place": "Straßburg", "lat": 46.9010689, "lon": 14.423354, "tags": {"addr:city": "Straßburg", "addr:housenumber": "3", "addr:place": "Hackl", "addr:postcode": "9341"}, "content": "Adresse: 3, 9341 Straßburg\nOrt: Straßburg\nPLZ: 9341\nKoordinaten: 46.901069, 14.423354", "doc_type": "addresses"}
{"source": "OSM", "region": "Kärnten", "osm_type": "node", "osm_id": 5541290015, "name": null, "category": null, "address": "3a, 9341 Straßburg", "street": null, "housenumber": "3a", "postcode": "9341", "place": "Straßburg", "lat": 46.8841209, "lon": 14.3090098, "tags": {"addr:city": "Straßburg", "addr:housenumber": "3a", "addr:place": "Sankt Johann", "addr:postcode": "9341"}, "content": "Adresse: 3a, 9341 Straßburg\nOrt: Straßburg\nPLZ: 9341\nKoordinaten: 46.884121, 14.309010", "doc_type": "addresses"}
{"source": "OSM", "region": "Kärnten", "osm_type": "node", "osm_id": 5558770870, "name": null, "category": null, "address": "ESG-Straße 1a, 9341 Straßburg", "street": "ESG-Straße", "housenumber": "1a", "postcode": "9341", "place": "Straßburg", "lat": 46.8985844, "lon": 14.3239034, "tags": {"addr:city": "Straßburg", "addr:housenumber": "1a", "addr:postcode": "9341", "addr:street": "ESG-Straße"}, "content": "Adresse: ESG-Straße 1a, 9341 Straßburg\nOrt: Straßburg\nPLZ: 9341\nKoordinaten: 46.898584, 14.323903", "doc_type": "addresses"}
{"source": "OSM", "region": "Kärnten", "osm_type": "node", "osm_id": 5558770871, "name": null, "category": null, "address": "ESG-Straße 1, 9341 Straßburg", "street": "ESG-Straße", "housenumber": "1", "postcode": "9341", "place": "Straßburg", "lat": 46.8985986, "lon": 14.3236419, "tags": {"addr:city": "Straßburg", "addr:housenumber": "1", "addr:postcode": "9341", "addr:street": "ESG-Straße"}, "content": "Adresse: ESG-Straße 1, 9341 Straßburg\nOrt: Straßburg\nPLZ: 9341\nKoordinaten: 46.898599, 14.323642", "doc_type": "addresses"}
{"source": "OSM", "region": "Kärnten", "osm_type": "node", "osm_id": 340519691, "name": "Postpartner 9341, Tabak Trafik Eberdorfer", "category": "amenity:post_office", "address": "Hauptstraße 19, 9341 Straßburg", "street": "Hauptstraße", "housenumber": "19", "postcode": "9341", "place": "Straßburg", "lat": 46.8949236, "lon": 14.3310368, "tags": {"addr:city": "Straßburg", "addr:housenumber": "19", "addr:postcode": "9341", "addr:street": "Hauptstraße", "amenity": "post_office", "name": "Postpartner 9341, Tabak Trafik Eberdorfer"}, "content": "Postpartner 9341, Tabak Trafik Eberdorfer\nKategorie: amenity:post_office\nAdresse: Hauptstraße 19, 9341 Straßburg\nOrt: Straßburg\nPLZ: 9341\nKoordinaten: 46.894924, 14.331037\nTags: amenity=post_office", "doc_type": "pois"}
{"source": "OSM", "region": "Kärnten", "osm_type": "node", "osm_id": 2449309394, "name": "Al Castello", "category": "amenity:restaurant", "address": "Schloßweg 6, 9341 Straßburg", "street": "Schloßweg", "housenumber": "6", "postcode": "9341", "place": "Straßburg", "lat": 46.8974248, "lon": 14.3302035, "tags": {"addr:city": "Straßburg", "addr:housenumber": "6", "addr:postcode": "9341", "addr:street": "Schloßweg", "amenity": "restaurant", "name": "Al Castello", "phone": "+43660 6910770"}, "content": "Al Castello\nKategorie: amenity:restaurant\nAdresse: Schloßweg 6, 9341 Straßburg\nOrt: Straßburg\nPLZ: 9341\nKoordinaten: 46.897425, 14.330203\nTags: amenity=restaurant, phone=+43660 6910770", "doc_type": "pois"}
{"source": "OSM", "region": "Kärnten", "osm_type": "node", "osm_id": 4087753374, "name": "Dr. Franz Ferstner", "category": "amenity:doctors", "address": "Hauptstraße 51, 9341 Straßburg", "street": "Hauptstraße", "housenumber": "51", "postcode": "9341", "place": "Straßburg", "lat": 46.8924, "lon": 14.3247465, "tags": {"addr:city": "Straßburg", "addr:housenumber": "51", "addr:postcode": "9341", "addr:street": "Hauptstraße", "amenity": "doctors", "name": "Dr. Franz Ferstner", "phone": "+43 4266 3111"}, "content": "Dr. Franz Ferstner\nKategorie: amenity:doctors\nAdresse: Hauptstraße 51, 9341 Straßburg\nOrt: Straßburg\nPLZ: 9341\nKoordinaten: 46.892400, 14.324746\nTags: amenity=doctors, phone=+43 4266 3111", "doc_type": "pois"}
{"source": "OSM", "region": "Kärnten", "osm_type": "node", "osm_id": 4936810895, "name": "ADEG Bachler", "category": "shop:supermarket", "address": "10.-Oktober-Straße 3a, 9341 Straßburg", "street": "10.-Oktober-Straße", "housenumber": "3a", "postcode": "9341", "place": "Straßburg", "lat": 46.895824, "lon": 14.3355489, "tags": {"addr:city": "Straßburg", "addr:housenumber": "3a", "addr:postcode": "9341", "addr:street": "10.-Oktober-Straße", "name": "ADEG Bachler", "phone": "+43 4266 3110", "shop": "supermarket", "website": "https://www.adeg.at/"}, "content": "ADEG Bachler\nKategorie: shop:supermarket\nAdresse: 10.-Oktober-Straße 3a, 9341 Straßburg\nOrt: Straßburg\nPLZ: 9341\nKoordinaten: 46.895824, 14.335549\nTags: shop=supermarket, phone=+43 4266 3110, website=https://www.adeg.at/", "doc_type": "pois"}
{"source": "OSM", "region": "Kärnten", "osm_type": "node", "osm_id": 5131676379, "name": "Polizeiinspektion Straßburg", "category": "amenity:police", "address": "Hauptstraße 3, 9341 Straßburg", "street": "Hauptstraße", "housenumber": "3", "postcode": "9341", "place": "Straßburg", "lat": 46.8950687, "lon": 14.3345967, "tags": {"addr:city": "Straßburg", "addr:housenumber": "3", "addr:postcode": "9341", "addr:street": "Hauptstraße", "amenity": "police", "name": "Polizeiinspektion Straßburg", "phone": "+43 59133 2128100"}, "content": "Polizeiinspektion Straßburg\nKategorie: amenity:police\nAdresse: Hauptstraße 3, 9341 Straßburg\nOrt: Straßburg\nPLZ: 9341\nKoordinaten: 46.895069, 14.334597\nTags: amenity=police, phone=+43 59133 2128100", "doc_type": "pois"}
