{"source": "OSM", "region": "Kärnten", "osm_type": "node", "osm_id": 860982357, "name": "Kalmusbad", "category": "amenity:biergarten", "address": "Badstraße 1, 9065 Ebenthal in Kärnten", "street": "Badstraße", "housenumber": "1", "postcode": "9065", "place": "Ebenthal in Kärnten", "lat": 46.6010254, "lon": 14.3434258, "tags": {"addr:city": "Ebenthal in Kärnten", "addr:housenumber": "1", "addr:postcode": "9065", "addr:street": "Badstraße", "amenity": "biergarten", "name": "Kalmusbad"}, "content": "Kalmusbad\nKategorie: amenity:biergarten\nAdresse: Badstraße 1, 9065 Ebenthal in Kärnten\nOrt: Ebenthal in Kärnten\nPLZ: 9065\nKoordinaten: 46.601025, 14.343426\nTags: amenity=biergarten", "doc_type": "addresses"}
{"source": "OSM", "region": "Kärnten", "osm_type": "node", "osm_id": 3711001734, "name": "Buschenschenke Mörtl", "category": "amenity:restaurant", "address": "15, 9065 Ebenthal in Kärnten", "street": null, "housenumber": "15", "postcode": "9065", "place": "Ebenthal in Kärnten", "lat": 46.59773, "lon": 14.459762, "tags": {"addr:city": "Ebenthal in Kärnten", "addr:housenumber": "15", "addr:place": "Berg", "addr:postcode": "9065", "amenity": "restaurant", "name": "Buschenschenke Mörtl", "website": "http://www.buschenschenke-moertl.at/"}, "content": "Buschenschenke Mörtl\nKategorie: amenity:restaurant\nAdresse: 15, 9065 Ebenthal in Kärnten\nOrt: Ebenthal in Kärnten\nPLZ: 9065\nKoordinaten: 46.597730, 14.459762\nTags: amenity=restaurant, website=http://www.buschenschenke-moertl.at/", "doc_type": "addresses"}
{"source": "OSM", "region": "Kärnten", "osm_type": "node", "osm_id": 4908960011, "name": "Polizeiinspektion Ebenthal in Kärnten", "category": "amenity:police", "address": "Medizinweg 2, 9065 Ebenthal in Kärnten", "street": "Medizinweg", "housenumber": "2", "postcode": "9065", "place": "Ebenthal in Kärnten", "lat": 46.6115276, "lon": 14.3595117, "tags": {"addr:city": "Ebenthal in Kärnten", "addr:housenumber": "2", "addr:postcode": "9065", "addr:street": "Medizinweg", "amenity": "police", "name": "Polizeiinspektion Ebenthal in Kärnten", "phone": "+43 59133 2103-100"}, "content": "Polizeiinspektion Ebenthal in Kärnten\nKategorie: amenity:police\nAdresse: Medizinweg 2, 9065 Ebenthal in Kärnten\nOrt: Ebenthal in Kärnten\nPLZ: 9065\nKoordinaten: 46.611528, 14.359512\nTags: amenity=police, phone=+43 59133 2103-100", "doc_type": "addresses"}
{"source": "OSM", "region": "Kärnten", "osm_type": "node", "osm_id": 4908962479, "name": null, "category": null, "address": "St. Jakober Straße 4h, 9065 Ebenthal in Kärnten", "street": "St. Jakober Straße", "housenumber": "4h", "postcode": "9065", "place": "Ebenthal in Kärnten", "lat": 46.6115166, "lon": 14.3610788, "tags": {"addr:city": "Ebenthal in Kärnten", "addr:housenumber": "4h", "addr:postcode": "9065", "addr:street": "St. Jakober Straße"}, "content": "Adresse: St. Jakober Straße 4h, 9065 Ebenthal in Kärnten\nOrt: Ebenthal in Kärnten\nPLZ: 9065\nKoordinaten: 46.611517, 14.361079", "doc_type": "addresses"}
{"source": "OSM", "region": "Kärnten", "osm_type": "node", "osm_id": 4927504638, "name": null, "category": null, "address": "Miegerer Straße 56, 9065 Ebenthal in Kärnten", "street": "Miegerer Straße", "housenumber": "56", "postcode": "9065", "place": "Ebenthal in Kärnten", "lat": 46.609199, "lon": 14.3690659, "tags": {"addr:city": "Ebenthal in Kärnten", "addr:housenumber": "56", "addr:postcode": "9065", "addr:street": "Miegerer Straße"}, "content": "Adresse: Miegerer Straße 56, 9065 Ebenthal in Kärnten\nOrt: Ebenthal in Kärnten\nPLZ: 9065\nKoordinaten: 46.609199, 14.369066", "doc_type": "addresses"}
{"source": "OSM", "region": "Kärnten", "osm_type": "node", "osm_id": 4927504639, "name": null, "category": null, "address": "Miegerer Straße 61, 9065 Ebenthal in Kärnten", "street": "Miegerer Straße", "housenumber": "61", "postcode": "9065", "place": "Ebenthal in Kärnten", "lat": 46.6097925, "lon": 14.3668254, "tags": {"addr:city": "Ebenthal in Kärnten", "addr:housenumber": "61", "addr:postcode": "9065", "addr:street": "Miegerer Straße"}, "content": "Adresse: Miegerer Straße 61, 9065 Ebenthal in Kärnten\nOrt: Ebenthal in Kärnten\nPLZ: 9065\nKoordinaten: 46.609792, 14.366825", "doc_type": "addresses"}
{"source": "OSM", "region": "Kärnten", "osm_type": "node", "osm_id": 4927504743, "name": null, "category": null, "address": "Miegerer Straße 21a, 9065 Ebenthal in Kärnten", "street": "Miegerer Straße", "housenumber": "21a", "postcode": "9065", "place": "Ebenthal in Kärnten", "lat": 46.6095902, "lon": 14.3571954, "tags": {"addr:city": "Ebenthal in Kärnten", "addr:housenumber": "21a", "addr:postcode": "9065", "addr:street": "Miegerer Straße"}, "content": "Adresse: Miegerer Straße 21a, 9065 Ebenthal in Kärnten\nOrt: Ebenthal in Kärnten\nPLZ: 9065\nKoordinaten: 46.609590, 14.357195", "doc_type": "addresses"}
{"source": "OSM", "region": "Kärnten", "osm_type": "node", "osm_id": 4927524514, "name": null, "category": null, "address": "Miegerer Straße 8, 9065 Ebenthal in Kärnten", "street": "Miegerer Straße", "housenumber": "8", "postcode": "9065", "place": "Ebenthal in Kärnten", "lat": 46.6077605, "lon": 14.3542439, "tags": {"addr:city": "Ebenthal in Kärnten", "addr:housenumber": "8", "addr:postcode": "9065", "addr:street": "Miegerer Straße"}, "content": "Adresse: Miegerer Straße 8, 9065 Ebenthal in Kärnten\nOrt: Ebenthal in Kärnten\nPLZ: 9065\nKoordinaten: 46.607760, 14.354244", "doc_type": "addresses"}
{"source": "OSM", "region": "Kärnten", "osm_type": "node", "osm_id": 4927524519, "name": null, "category": null, "address": "Josef-Leiner-Straße-West 5, 9065 Ebenthal in Kärnten", "street": "Josef-Leiner-Straße-West", "housenumber": "5", "postcode": "9065", "place": "Ebenthal in Kärnten", "lat": 46.6092595, "lon": 14.3540649, "tags": {"addr:city": "Ebenthal in Kärnten", "addr:housenumber": "5", "addr:postcode": "9065", "addr:street": "Josef-Leiner-Straße-West"}, "content": "Adresse: Josef-Leiner-Straße-West 5, 9065 Ebenthal in Kärnten\nOrt: Ebenthal in Kärnten\nPLZ: 9065\nKoordinaten: 46.609260, 14.354065", "doc_type": "addresses"}
{"source": "OSM", "region": "Kärnten", "osm_type": "node", "osm_id": 4927524520, "name": null, "category": null, "address": "Josef-Leiner-Straße-West 3, 9065 Ebenthal in Kärnten", "street": "Josef-Leiner-Straße-West", "housenumber": "3", "postcode": "9065", "place": "Ebenthal in Kärnten", "lat": 46.6090974, "lon": 14.3541798, "tags": {"addr:city": "Ebenthal in Kärnten", "addr:housenumber": "3", "addr:postcode": "9065", "addr:street": "Josef-Leiner-Straße-West"}, "content": "Adresse: Josef-Leiner-Straße-West 3, 9065 Ebenthal in Kärnten\nOrt: Ebenthal in Kärnten\nPLZ: 9065\nKoordinaten: 46.609097, 14.354180", "doc_type": "addresses"}
{"source": "OSM", "region": "Kärnten", "osm_type": "node", "osm_id": 4929255407, "name": null, "category": null, "address": "St. Jakober Straße 1, 9065 Ebenthal in Kärnten", "street": "St. Jakober Straße", "housenumber": "1", "postcode": "9065", "place": "Ebenthal in Kärnten", "lat": 46.6113747, "lon": 14.3598591, "tags": {"addr:city": "Ebenthal in Kärnten", "addr:housenumber": "1", "addr:postcode": "9065", "addr:street": "St. Jakober Straße"}, "content": "Adresse: St. Jakober Straße 1, 9065 Ebenthal in Kärnten\nOrt: Ebenthal in Kärnten\nPLZ: 9065\nKoordinaten: 46.611375, 14.359859", "doc_type": "addresses"}
{"source": "OSM", "region": "Kärnten", "osm_type": "node", "osm_id": 4929426338, "name": null, "category": null, "address": "Heuweg 17h, 9065 Ebenthal in Kärnten", "street": "Heuweg", "housenumber": "17h", "postcode": "9065", "place": "Ebenthal in Kärnten", "lat": 46.609781, "lon": 14.3703302, "tags": {"addr:city": "Ebenthal in Kärnten", "addr:housenumber": "17h", "addr:postcode": "9065", "addr:street": "Heuweg"}, "content": "Adresse: Heuweg 17h, 9065 Ebenthal in Kärnten\nOrt: Ebenthal in Kärnten\nPLZ: 9065\nKoordinaten: 46.609781, 14.370330", "doc_type": "addresses"}
{"source": "OSM", "region": "Kärnten", "osm_type": "node", "osm_id": 4929426339, "name": null, "category": null, "address": "Brahmsgasse 3, 9065 Ebenthal in Kärnten", "street": "Brahmsgasse", "housenumber": "3", "postcode": "9065", "place": "Ebenthal in Kärnten", "lat": 46.6104268, "lon": 14.3664553, "tags": {"addr:city": "Ebenthal in Kärnten", "addr:housenumber": "3", "addr:postcode": "9065", "addr:street": "Brahmsgasse"}, "content": "Adresse: Brahmsgasse 3, 9065 Ebenthal in Kärnten\nOrt: Ebenthal in Kärnten\nPLZ: 9065\nKoordinaten: 46.610427, 14.366455", "doc_type": "addresses"}
{"source": "OSM", "region": "Kärnten", "osm_type": "node", "osm_id": 4929426344, "name": null, "category": null, "address": "Leopold-Figl-Straße 11a, 9065 Ebenthal in Kärnten", "street": "Leopold-Figl-Straße", "housenumber": "11a", "postcode": "9065", "place": "Ebenthal in Kärnten", "lat": 46.6117234, "lon": 14.3642743, "tags": {"addr:city": "Ebenthal in Kärnten", "addr:housenumber": "11a", "addr:postcode": "9065", "addr:street": "Leopold-Figl-Straße"}, "content": "Adresse: Leopold-Figl-Straße 11a, 9065 Ebenthal in Kärnten\nOrt: Ebenthal in Kärnten\nPLZ: 9065\nKoordinaten: 46.611723, 14.364274", "doc_type": "addresses"}
{"source": "OSM", "region": "Kärnten", "osm_type": "node", "osm_id": 4929426345, "name": null, "category": null, "address": "Leopold-Figl-Straße 4a, 9065 Ebenthal in Kärnten", "street": "Leopold-Figl-Straße", "housenumber": "4a", "postcode": "9065", "place": "Ebenthal in Kärnten", "lat": 46.6109048, "lon": 14.3648819, "tags": {"addr:city": "Ebenthal in Kärnten", "addr:housenumber": "4a", "addr:postcode": "9065", "addr:street": "Leopold-Figl-Straße"}, "content": "Adresse: Leopold-Figl-Straße 4a, 9065 Ebenthal in Kärnten\nOrt: Ebenthal in Kärnten\nPLZ: 9065\nKoordinaten: 46.610905, 14.364882", "doc_type": "addresses"}
{"source": "OSM", "region": "Kärnten", "osm_type": "node", "osm_id": 4929529508, "name": null, "category": null, "address": "Miegerer Straße 11, 9065 Ebenthal in Kärnten", "street": "Miegerer Straße", "housenumber": "11", "postcode": "9065", "place": "Ebenthal in Kärnten", "lat": 46.608812, "lon": 14.3563031, "tags": {"addr:city": "Ebenthal in Kärnten", "addr:housenumber": "11", "addr:postcode": "9065", "addr:street": "Miegerer Straße"}, "content": "Adresse: Miegerer Straße 11, 9065 Ebenthal in Kärnten\nOrt: Ebenthal in Kärnten\nPLZ: 9065\nKoordinaten: 46.608812, 14.356303", "doc_type": "addresses"}
{"source": "OSM", "region": "Kärnten", "osm_type": "node", "osm_id": 4929529623, "name": null, "category": null, "address": "Adolf-Schärf-Straße 2,2a, 9065 Ebenthal in Kärnten", "street": "Adolf-Schärf-Straße", "housenumber": "2,2a", "postcode": "9065", "place": "Ebenthal in Kärnten", "lat": 46.6080973, "lon": 14.3683666, "tags": {"addr:city": "Ebenthal in Kärnten", "addr:housenumber": "2,2a", "addr:postcode": "9065", "addr:street": "Adolf-Schärf-Straße"}, "content": "Adresse: Adolf-Schärf-Straße 2,2a, 9065 Ebenthal in Kärnten\nOrt: Ebenthal in Kärnten\nPLZ: 9065\nKoordinaten: 46.608097, 14.368367", "doc_type": "addresses"}
{"source": "OSM", "region": "Kärnten", "osm_type": "node", "osm_id": 4929572540, "name": null, "category": null, "address": "Neuhausstraße 9, 9065 Ebenthal in Kärnten", "street": "Neuhausstraße", "housenumber": "9", "postcode": "9065", "place": "Ebenthal in Kärnten", "lat": 46.607491, "lon": 14.357476, "tags": {"addr:city": "Ebenthal in Kärnten", "addr:housenumber": "9", "addr:postcode": "9065", "addr:street": "Neuhausstraße"}, "content": "Adresse: Neuhausstraße 9, 9065 Ebenthal in Kärnten\nOrt: Ebenthal in Kärnten\nPLZ: 9065\nKoordinaten: 46.607491, 14.357476", "doc_type": "addresses"}
{"source": "OSM", "region": "Kärnten", "osm_type": "node", "osm_id": 4931384132, "name": null, "category": null, "address": "Glanfurtstraße 12a, 9065 Ebenthal in Kärnten", "street": "Glanfurtstraße", "housenumber": "12a", "postcode": "9065", "place": "Ebenthal in Kärnten", "lat": 46.6060069, "lon": 14.3626053, "tags": {"addr:city": "Ebenthal in Kärnten", "addr:housenumber": "12a", "addr:postcode": "9065", "addr:street": "Glanfurtstraße"}, "content": "Adresse: Glanfurtstraße 12a, 9065 Ebenthal in Kärnten\nOrt: Ebenthal in Kärnten\nPLZ: 9065\nKoordinaten: 46.606007, 14.362605", "doc_type": "addresses"}
{"source": "OSM", "region": "Kärnten", "osm_type": "node", "osm_id": 4941126839, "name": null, "category": null, "address": "Jakob-Sereinigg-Straße 2e, 9065 Ebenthal in Kärnten", "street": "Jakob-Sereinigg-Straße", "housenumber": "2e", "postcode": "9065", "place": "Ebenthal in Kärnten", "lat": 46.6051787, "lon": 14.3662985, "tags": {"addr:city": "Ebenthal in Kärnten", "addr:housenumber": "2e", "addr:postcode": "9065", "addr:street": "Jakob-Sereinigg-Straße"}, "content": "Adresse: Jakob-Sereinigg-Straße 2e, 9065 Ebenthal in Kärnten\nOrt: Ebenthal in Kärnten\nPLZ: 9065\nKoordinaten: 46.605179, 14.366298", "doc_type": "addresses"}
{"source": "OSM", "region": "Kärnten", "osm_type": "node", "osm_id": 4941126840, "name": null, "category": null, "address": "Jakob-Sereinigg-Straße 2d, 9065 Ebenthal in Kärnten", "street": "Jakob-Sereinigg-Straße", "housenumber": "2d", "postcode": "9065", "place": "Ebenthal in Kärnten", "lat": 46.6050954, "lon": 14.3660872, "tags": {"addr:city": "Ebenthal in Kärnten", "addr:housenumber": "2d", "addr:postcode": "9065", "addr:street": "Jakob-Sereinigg-Straße"}, "content": "Adresse: Jakob-Sereinigg-Straße 2d, 9065 Ebenthal in Kärnten\nOrt: Ebenthal in Kärnten\nPLZ: 9065\nKoordinaten: 46.605095, 14.366087", "doc_type": "addresses"}
{"source": "OSM", "region": "Kärnten", "osm_type": "node", "osm_id": 4941126841, "name": null, "category": null, "address": "Jakob-Sereinigg-Straße 2c, 9065 Ebenthal in Kärnten", "street": "Jakob-Sereinigg-Straße", "housenumber": "2c", "postcode": "9065", "place": "Ebenthal in Kärnten", "lat": 46.6050132, "lon": 14.3658783, "tags": {"addr:city": "Ebenthal in Kärnten", "addr:housenumber": "2c", "addr:postcode": "9065", "addr:street": "Jakob-Sereinigg-Straße"}, "content": "Adresse: Jakob-Sereinigg-Straße 2c, 9065 Ebenthal in Kärnten\nOrt: Ebenthal in Kärnten\nPLZ: 9065\nKoordinaten: 46.605013, 14.365878", "doc_type": "addresses"}
{"source": "OSM", "region": "Kärnten", "osm_type": "node", "osm_id": 4941126842, "name": null, "category": null, "address": "Jakob-Sereinigg-Straße 2b, 9065 Ebenthal in Kärnten", "street": "Jakob-Sereinigg-Straße", "housenumber": "2b", "postcode": "9065", "place": "Ebenthal in Kärnten", "lat": 46.6049085, "lon": 14.3656363, "tags": {"addr:city": "Ebenthal in Kärnten", "addr:housenumber": "2b", "addr:postcode": "9065", "addr:street": "Jakob-Sereinigg-Straße"}, "content": "Adresse: Jakob-Sereinigg-Straße 2b, 9065 Ebenthal in Kärnten\nOrt: Ebenthal in Kärnten\nPLZ: 9065\nKoordinaten: 46.604909, 14.365636", "doc_type": "addresses"}
{"source": "OSM", "region": "Kärnten", "osm_type": "node", "osm_id": 4941126843, "name": null, "category": null, "address": "Jakob-Sereinigg-Straße 2a, 9065 Ebenthal in Kärnten", "street": "Jakob-Sereinigg-Straße", "housenumber": "2a", "postcode": "9065", "place": "Ebenthal in Kärnten", "lat": 46.6048035, "lon": 14.3654135, "tags": {"addr:city": "Ebenthal in Kärnten", "addr:housenumber": "2a", "addr:postcode": "9065", "addr:street": "Jakob-Sereinigg-Straße"}, "content": "Adresse: Jakob-Sereinigg-Straße 2a, 9065 Ebenthal in Kärnten\nOrt: Ebenthal in Kärnten\nPLZ: 9065\nKoordinaten: 46.604804, 14.365414", "doc_type": "addresses"}
{"source": "OSM", "region": "Kärnten", "osm_type": "node", "osm_id": 4941126845, "name": null, "category": null, "address": "Jakob-Sereinigg-Straße 4b, 9065 Ebenthal in Kärnten", "street": "Jakob-Sereinigg-Straße", "housenumber": "4b", "postcode": "9065", "place": "Ebenthal in Kärnten", "lat": 46.605408, "lon": 14.3658751, "tags": {"addr:city": "Ebenthal in Kärnten", "addr:housenumber": "4b", "addr:postcode": "9065", "addr:street": "Jakob-Sereinigg-Straße"}, "content": "Adresse: Jakob-Sereinigg-Straße 4b, 9065 Ebenthal in Kärnten\nOrt: Ebenthal in Kärnten\nPLZ: 9065\nKoordinaten: 46.605408, 14.365875", "doc_type": "addresses"}
{"source": "OSM", "region": "Kärnten", "osm_type": "node", "osm_id": 4941126846, "name": null, "category": null, "address": "Jakob-Sereinigg-Straße 4a, 9065 Ebenthal in Kärnten", "street": "Jakob-Sereinigg-Straße", "housenumber": "4a", "postcode": "9065", "place": "Ebenthal in Kärnten", "lat": 46.6053116, "lon": 14.3656591, "tags": {"addr:city": "Ebenthal in Kärnten", "addr:housenumber": "4a", "addr:postcode": "9065", "addr:street": "Jakob-Sereinigg-Straße"}, "content": "Adresse: Jakob-Sereinigg-Straße 4a, 9065 Ebenthal in Kärnten\nOrt: Ebenthal in Kärnten\nPLZ: 9065\nKoordinaten: 46.605312, 14.365659", "doc_type": "addresses"}
{"source": "OSM", "region": "Kärnten", "osm_type": "node", "osm_id": 4941126847, "name": null, "category": null, "address": "Jakob-Sereinigg-Straße 4, 9065 Ebenthal in Kärnten", "street": "Jakob-Sereinigg-Straße", "housenumber": "4", "postcode": "9065", "place": "Ebenthal in Kärnten", "lat": 46.6052083, "lon": 14.3654424, "tags": {"addr:city": "Ebenthal in Kärnten", "addr:housenumber": "4", "addr:postcode": "9065", "addr:street": "Jakob-Sereinigg-Straße"}, "content": "Adresse: Jakob-Sereinigg-Straße 4, 9065 Ebenthal in Kärnten\nOrt: Ebenthal in Kärnten\nPLZ: 9065\nKoordinaten: 46.605208, 14.365442", "doc_type": "addresses"}
{"source": "OSM", "region": "Kärnten", "osm_type": "node", "osm_id": 4941126850, "name": null, "category": null, "address": "Jakob-Sereinigg-Straße 6, 9065 Ebenthal in Kärnten", "street": "Jakob-Sereinigg-Straße", "housenumber": "6", "postcode": "9065", "place": "Ebenthal in Kärnten", "lat": 46.6057134, "lon": 14.3656647, "tags": {"addr:city": "Ebenthal in Kärnten", "addr:housenumber": "6", "addr:postcode": "9065", "addr:street": "Jakob-Sereinigg-Straße"}, "content": "Adresse: Jakob-Sereinigg-Straße 6, 9065 Ebenthal in Kärnten\nOrt: Ebenthal in Kärnten\nPLZ: 9065\nKoordinaten: 46.605713, 14.365665", "doc_type": "addresses"}
{"source": "OSM", "region": "Kärnten", "osm_type": "node", "osm_id": 4941126851, "name": null, "category": null, "address": "Jakob-Sereinigg-Straße 6a, 9065 Ebenthal in Kärnten", "street": "Jakob-Sereinigg-Straße", "housenumber": "6a", "postcode": "9065", "place": "Ebenthal in Kärnten", "lat": 46.6056239, "lon": 14.3654618, "tags": {"addr:city": "Ebenthal in Kärnten", "addr:housenumber": "6a", "addr:postcode": "9065", "addr:street": "Jakob-Sereinigg-Straße"}, "content": "Adresse: Jakob-Sereinigg-Straße 6a, 9065 Ebenthal in Kärnten\nOrt: Ebenthal in Kärnten\nPLZ: 9065\nKoordinaten: 46.605624, 14.365462", "doc_type": "addresses"}
{"source": "OSM", "region": "Kärnten", "osm_type": "node", "osm_id": 4941126852, "name": null, "category": null, "address": "Jakob-Sereinigg-Straße 7a, 9065 Ebenthal in Kärnten", "street": "Jakob-Sereinigg-Straße", "housenumber": "7a", "postcode": "9065", "place": "Ebenthal in Kärnten", "lat": 46.605571, "lon": 14.3647641, "tags": {"addr:city": "Ebenthal in Kärnten", "addr:housenumber": "7a", "addr:postcode": "9065", "addr:street": "Jakob-Sereinigg-Straße"}, "content": "Adresse: Jakob-Sereinigg-Straße 7a, 9065 Ebenthal in Kärnten\nOrt: Ebenthal in Kärnten\nPLZ: 9065\nKoordinaten: 46.605571, 14.364764", "doc_type": "addresses"}
{"source": "OSM", "region": "Kärnten", "osm_type": "node", "osm_id": 4941126853, "name": null, "category": null, "address": "Jakob-Sereinigg-Straße 7, 9065 Ebenthal in Kärnten", "street": "Jakob-Sereinigg-Straße", "housenumber": "7", "postcode": "9065", "place": "Ebenthal in Kärnten", "lat": 46.6055608, "lon": 14.3650156, "tags": {"addr:city": "Ebenthal in Kärnten", "addr:housenumber": "7", "addr:postcode": "9065", "addr:street": "Jakob-Sereinigg-Straße"}, "content": "Adresse: Jakob-Sereinigg-Straße 7, 9065 Ebenthal in Kärnten\nOrt: Ebenthal in Kärnten\nPLZ: 9065\nKoordinaten: 46.605561, 14.365016", "doc_type": "addresses"}
{"source": "OSM", "region": "Kärnten", "osm_type": "node", "osm_id": 4941126854, "name": null, "category": null, "address": "Jakob-Sereinigg-Straße 5a, 9065 Ebenthal in Kärnten", "street": "Jakob-Sereinigg-Straße", "housenumber": "5a", "postcode": "9065", "place": "Ebenthal in Kärnten", "lat": 46.6052027, "lon": 14.3647349, "tags": {"addr:city": "Ebenthal in Kärnten", "addr:housenumber": "5a", "addr:postcode": "9065", "addr:street": "Jakob-Sereinigg-Straße"}, "content": "Adresse: Jakob-Sereinigg-Straße 5a, 9065 Ebenthal in Kärnten\nOrt: Ebenthal in Kärnten\nPLZ: 9065\nKoordinaten: 46.605203, 14.364735", "doc_type": "addresses"}
{"source": "OSM", "region": "Kärnten", "osm_type": "node", "osm_id": 4941126855, "name": null, "category": null, "address": "Jakob-Sereinigg-Straße 5, 9065 Ebenthal in Kärnten", "street": "Jakob-Sereinigg-Straße", "housenumber": "5", "postcode": "9065", "place": "Ebenthal in Kärnten", "lat": 46.6051909, "lon": 14.3649804, "tags": {"addr:city": "Ebenthal in Kärnten", "addr:housenumber": "5", "addr:postcode": "9065", "addr:street": "Jakob-Sereinigg-Straße"}, "content": "Adresse: Jakob-Sereinigg-Straße 5, 9065 Ebenthal in Kärnten\nOrt: Ebenthal in Kärnten\nPLZ: 9065\nKoordinaten: 46.605191, 14.364980", "doc_type": "addresses"}
{"source": "OSM", "region": "Kärnten", "osm_type": "node", "osm_id": 4941127034, "name": null, "category": null, "address": "Gurnitzer Straße 14, 9065 Ebenthal in Kärnten", "street": "Gurnitzer Straße", "housenumber": "14", "postcode": "9065", "place": "Ebenthal in Kärnten", "lat": 46.6046137, "lon": 14.3606974, "tags": {"addr:city": "Ebenthal in Kärnten", "addr:housenumber": "14", "addr:postcode": "9065", "addr:street": "Gurnitzer Straße"}, "content": "Adresse: Gurnitzer Straße 14, 9065 Ebenthal in Kärnten\nOrt: Ebenthal in Kärnten\nPLZ: 9065\nKoordinaten: 46.604614, 14.360697", "doc_type": "addresses"}
{"source": "OSM", "region": "Kärnten", "osm_type": "node", "osm_id": 4941127035, "name": null, "category": null, "address": "Gurnitzer Straße 12, 9065 Ebenthal in Kärnten", "street": "Gurnitzer Straße", "housenumber": "12", "postcode": "9065", "place": "Ebenthal in Kärnten", "lat": 46.6043109, "lon": 14.3603653, "tags": {"addr:city": "Ebenthal in Kärnten", "addr:housenumber": "12", "addr:postcode": "9065", "addr:street": "Gurnitzer Straße"}, "content": "Adresse: Gurnitzer Straße 12, 9065 Ebenthal in Kärnten\nOrt: Ebenthal in Kärnten\nPLZ: 9065\nKoordinaten: 46.604311, 14.360365", "doc_type": "addresses"}
{"source": "OSM", "region": "Kärnten", "osm_type": "node", "osm_id": 4941127036, "name": null, "category": null, "address": "Gurnitzer Straße 10b, 9065 Ebenthal in Kärnten", "street": "Gurnitzer Straße", "housenumber": "10b", "postcode": "9065", "place": "Ebenthal in Kärnten", "lat": 46.6040734, "lon": 14.3603204, "tags": {"addr:city": "Ebenthal in Kärnten", "addr:housenumber": "10b", "addr:postcode": "9065", "addr:street": "Gurnitzer Straße"}, "content": "Adresse: Gurnitzer Straße 10b, 9065 Ebenthal in Kärnten\nOrt: Ebenthal in Kärnten\nPLZ: 9065\nKoordinaten: 46.604073, 14.360320", "doc_type": "addresses"}
{"source": "OSM", "region": "Kärnten", "osm_type": "node", "osm_id": 4941127037, "name": null, "category": null, "address": "Gurnitzer Straße 10a, 9065 Ebenthal in Kärnten", "street": "Gurnitzer Straße", "housenumber": "10a", "postcode": "9065", "place": "Ebenthal in Kärnten", "lat": 46.6042034, "lon": 14.3602896, "tags": {"addr:city": "Ebenthal in Kärnten", "addr:housenumber": "10a", "addr:postcode": "9065", "addr:street": "Gurnitzer Straße"}, "content": "Adresse: Gurnitzer Straße 10a, 9065 Ebenthal in Kärnten\nOrt: Ebenthal in Kärnten\nPLZ: 9065\nKoordinaten: 46.604203, 14.360290", "doc_type": "addresses"}
{"source": "OSM", "region": "Kärnten", "osm_type": "node", "osm_id": 4941127038, "name": null, "category": null, "address": "Gurnitzer Straße 6, 9065 Ebenthal in Kärnten", "street": "Gurnitzer Straße", "housenumber": "6", "postcode": "9065", "place": "Ebenthal in Kärnten", "lat": 46.604579, "lon": 14.3605531, "tags": {"addr:city": "Ebenthal in Kärnten", "addr:housenumber": "6", "addr:postcode": "9065", "addr:street": "Gurnitzer Straße"}, "content": "Adresse: Gurnitzer Straße 6, 9065 Ebenthal in Kärnten\nOrt: Ebenthal in Kärnten\nPLZ: 9065\nKoordinaten: 46.604579, 14.360553", "doc_type": "addresses"}
{"source": "OSM", "region": "Kärnten", "osm_type": "node", "osm_id": 4941127039, "name": null, "category": null, "address": "Greifenfelsstraße 10a, 9065 Ebenthal in Kärnten", "street": "Greifenfelsstraße", "housenumber": "10a", "postcode": "9065", "place": "Ebenthal in Kärnten", "lat": 46.6022715, "lon": 14.3600659, "tags": {"addr:city": "Ebenthal in Kärnten", "addr:housenumber": "10a", "addr:postcode": "9065", "addr:street": "Greifenfelsstraße"}, "content": "Adresse: Greifenfelsstraße 10a, 9065 Ebenthal in Kärnten\nOrt: Ebenthal in Kärnten\nPLZ: 9065\nKoordinaten: 46.602272, 14.360066", "doc_type": "addresses"}
{"source": "OSM", "region": "Kärnten", "osm_type": "node", "osm_id": 4941127040, "name": null, "category": null, "address": "Sattnitzstraße 8, 9065 Ebenthal in Kärnten", "street": "Sattnitzstraße", "housenumber": "8", "postcode": "9065", "place": "Ebenthal in Kärnten", "lat": 46.6040623, "lon": 14.3631467, "tags": {"addr:city": "Ebenthal in Kärnten", "addr:housenumber": "8", "addr:postcode": "9065", "addr:street": "Sattnitzstraße"}, "content": "Adresse: Sattnitzstraße 8, 9065 Ebenthal in Kärnten\nOrt: Ebenthal in Kärnten\nPLZ: 9065\nKoordinaten: 46.604062, 14.363147", "doc_type": "addresses"}
{"source": "OSM", "region": "Kärnten", "osm_type": "node", "osm_id": 4941127041, "name": null, "category": null, "address": "Sattnitzstraße 6, 9065 Ebenthal in Kärnten", "street": "Sattnitzstraße", "housenumber": "6", "postcode": "9065", "place": "Ebenthal in Kärnten", "lat": 46.604254, "lon": 14.3631015, "tags": {"addr:city": "Ebenthal in Kärnten", "addr:housenumber": "6", "addr:postcode": "9065", "addr:street": "Sattnitzstraße"}, "content": "Adresse: Sattnitzstraße 6, 9065 Ebenthal in Kärnten\nOrt: Ebenthal in Kärnten\nPLZ: 9065\nKoordinaten: 46.604254, 14.363102", "doc_type": "addresses"}
{"source": "OSM", "region": "Kärnten", "osm_type": "node", "osm_id": 4941127042, "name": null, "category": null, "address": "Sattnitzstraße 4, 9065 Ebenthal in Kärnten", "street": "Sattnitzstraße", "housenumber": "4", "postcode": "9065", "place": "Ebenthal in Kärnten", "lat": 46.6044559, "lon": 14.3630954, "tags": {"addr:city": "Ebenthal in Kärnten", "addr:housenumber": "4", "addr:postcode": "9065", "addr:street": "Sattnitzstraße"}, "content": "Adresse: Sattnitzstraße 4, 9065 Ebenthal in Kärnten\nOrt: Ebenthal in Kärnten\nPLZ: 9065\nKoordinaten: 46.604456, 14.363095", "doc_type": "addresses"}
{"source": "OSM", "region": "Kärnten", "osm_type": "node", "osm_id": 4941127043, "name": null, "category": null, "address": "Sattnitzstraße 2, 9065 Ebenthal in Kärnten", "street": "Sattnitzstraße", "housenumber": "2", "postcode": "9065", "place": "Ebenthal in Kärnten", "lat": 46.6046573, "lon": 14.3628649, "tags": {"addr:city": "Ebenthal in Kärnten", "addr:housenumber": "2", "addr:postcode": "9065", "addr:street": "Sattnitzstraße"}, "content": "Adresse: Sattnitzstraße 2, 9065 Ebenthal in Kärnten\nOrt: Ebenthal in Kärnten\nPLZ: 9065\nKoordinaten: 46.604657, 14.362865", "doc_type": "addresses"}
{"source": "OSM", "region": "Kärnten", "osm_type": "node", "osm_id": 4941127044, "name": null, "category": null, "address": "Sattnitzstraße 1, 9065 Ebenthal in Kärnten", "street": "Sattnitzstraße", "housenumber": "1", "postcode": "9065", "place": "Ebenthal in Kärnten", "lat": 46.6046067, "lon": 14.3634904, "tags": {"addr:city": "Ebenthal in Kärnten", "addr:housenumber": "1", "addr:postcode": "9065", "addr:street": "Sattnitzstraße"}, "content": "Adresse: Sattnitzstraße 1, 9065 Ebenthal in Kärnten\nOrt: Ebenthal in Kärnten\nPLZ: 9065\nKoordinaten: 46.604607, 14.363490", "doc_type": "addresses"}
{"source": "OSM", "region": "Kärnten", "osm_type": "node", "osm_id": 4941127045, "name": null, "category": null, "address": "Glanfurtstraße 13, 9065 Ebenthal in Kärnten", "street": "Glanfurtstraße", "housenumber": "13", "postcode": "9065", "place": "Ebenthal in Kärnten", "lat": 46.606571, "lon": 14.3638574, "tags": {"addr:city": "Ebenthal in Kärnten", "addr:housenumber": "13", "addr:postcode": "9065", "addr:street": "Glanfurtstraße"}, "content": "Adresse: Glanfurtstraße 13, 9065 Ebenthal in Kärnten\nOrt: Ebenthal in Kärnten\nPLZ: 9065\nKoordinaten: 46.606571, 14.363857", "doc_type": "addresses"}
{"source": "OSM", "region": "Kärnten", "osm_type": "node", "osm_id": 4941127046, "name": null, "category": null, "address": "Thomas-Koschat-Straße 2, 9065 Ebenthal in Kärnten", "street": "Thomas-Koschat-Straße", "housenumber": "2", "postcode": "9065", "place": "Ebenthal in Kärnten", "lat": 46.6038951, "lon": 14.3606434, "tags": {"addr:city": "Ebenthal in Kärnten", "addr:housenumber": "2", "addr:postcode": "9065", "addr:street": "Thomas-Koschat-Straße"}, "content": "Adresse: Thomas-Koschat-Straße 2, 9065 Ebenthal in Kärnten\nOrt: Ebenthal in Kärnten\nPLZ: 9065\nKoordinaten: 46.603895, 14.360643", "doc_type": "addresses"}
{"source": "OSM", "region": "Kärnten", "osm_type": "node", "osm_id": 4941127047, "name": null, "category": null, "address": "Jakob-Sereinigg-Straße 1, 9065 Ebenthal in Kärnten", "street": "Jakob-Sereinigg-Straße", "housenumber": "1", "postcode": "9065", "place": "Ebenthal in Kärnten", "lat": 46.6047405, "lon": 14.3646154, "tags": {"addr:city": "Ebenthal in Kärnten", "addr:housenumber": "1", "addr:postcode": "9065", "addr:street": "Jakob-Sereinigg-Straße"}, "content": "Adresse: Jakob-Sereinigg-Straße 1, 9065 Ebenthal in Kärnten\nOrt: Ebenthal in Kärnten\nPLZ: 9065\nKoordinaten: 46.604740, 14.364615", "doc_type": "addresses"}
{"source": "OSM", "region": "Kärnten", "osm_type": "node", "osm_id": 4941127048, "name": null, "category": null, "address": "Fasangasse 14, 9065 Ebenthal in Kärnten", "street": "Fasangasse", "housenumber": "14", "postcode": "9065", "place": "Ebenthal in Kärnten", "lat": 46.6028406, "lon": 14.3608075, "tags": {"addr:city": "Ebenthal in Kärnten", "addr:housenumber": "14", "addr:postcode": "9065", "addr:street": "Fasangasse"}, "content": "Adresse: Fasangasse 14, 9065 Ebenthal in Kärnten\nOrt: Ebenthal in Kärnten\nPLZ: 9065\nKoordinaten: 46.602841, 14.360807", "doc_type": "addresses"}
{"source": "OSM", "region": "Kärnten", "osm_type": "node", "osm_id": 4941127049, "name": null, "category": null, "address": "Gurnitzer Straße 24, 9065 Ebenthal in Kärnten", "street": "Gurnitzer Straße", "housenumber": "24", "postcode": "9065", "place": "Ebenthal in Kärnten", "lat": 46.6042839, "lon": 14.3652728, "tags": {"addr:city": "Ebenthal in Kärnten", "addr:housenumber": "24", "addr:postcode": "9065", "addr:street": "Gurnitzer Straße"}, "content": "Adresse: Gurnitzer Straße 24, 9065 Ebenthal in Kärnten\nOrt: Ebenthal in Kärnten\nPLZ: 9065\nKoordinaten: 46.604284, 14.365273", "doc_type": "addresses"}
{"source": "OSM", "region": "Kärnten", "osm_type": "node", "osm_id": 4941127050, "name": null, "category": null, "address": "Gurnitzer Straße 22, 9065 Ebenthal in Kärnten", "street": "Gurnitzer Straße", "housenumber": "22", "postcode": "9065", "place": "Ebenthal in Kärnten", "lat": 46.6044213, "lon": 14.3641004, "tags": {"addr:city": "Ebenthal in Kärnten", "addr:housenumber": "22", "addr:postcode": "9065", "addr:street": "Gurnitzer Straße"}, "content": "Adresse: Gurnitzer Straße 22, 9065 Ebenthal in Kärnten\nOrt: Ebenthal in Kärnten\nPLZ: 9065\nKoordinaten: 46.604421, 14.364100", "doc_type": "addresses"}
{"source": "OSM", "region": "Kärnten", "osm_type": "node", "osm_id": 4941127051, "name": null, "category": null, "address": "Gurnitzer Straße 20, 9065 Ebenthal in Kärnten", "street": "Gurnitzer Straße", "housenumber": "20", "postcode": "9065", "place": "Ebenthal in Kärnten", "lat": 46.60466, "lon": 14.3625647, "tags": {"addr:city": "Ebenthal in Kärnten", "addr:housenumber": "20", "addr:postcode": "9065", "addr:street": "Gurnitzer Straße"}, "content": "Adresse: Gurnitzer Straße 20, 9065 Ebenthal in Kärnten\nOrt: Ebenthal in Kärnten\nPLZ: 9065\nKoordinaten: 46.604660, 14.362565", "doc_type": "addresses"}
{"source": "OSM", "region": "Kärnten", "osm_type": "node", "osm_id": 4941127052, "name": null, "category": null, "address": "Oremusstraße 8, 9065 Ebenthal in Kärnten", "street": "Oremusstraße", "housenumber": "8", "postcode": "9065", "place": "Ebenthal in Kärnten", "lat": 46.6055627, "lon": 14.3637782, "tags": {"addr:city": "Ebenthal in Kärnten", "addr:housenumber": "8", "addr:postcode": "9065", "addr:street": "Oremusstraße"}, "content": "Adresse: Oremusstraße 8, 9065 Ebenthal in Kärnten\nOrt: Ebenthal in Kärnten\nPLZ: 9065\nKoordinaten: 46.605563, 14.363778", "doc_type": "addresses"}
{"source": "OSM", "region": "Kärnten", "osm_type": "node", "osm_id": 4941127053, "name": null, "category": null, "address": "Gurnitzer Straße 18b, 9065 Ebenthal in Kärnten", "street": "Gurnitzer Straße", "housenumber": "18b", "postcode": "9065", "place": "Ebenthal in Kärnten", "lat": 46.6050769, "lon": 14.3618686, "tags": {"addr:city": "Ebenthal in Kärnten", "addr:housenumber": "18b", "addr:postcode": "9065", "addr:street": "Gurnitzer Straße"}, "content": "Adresse: Gurnitzer Straße 18b, 9065 Ebenthal in Kärnten\nOrt: Ebenthal in Kärnten\nPLZ: 9065\nKoordinaten: 46.605077, 14.361869", "doc_type": "addresses"}
{"source": "OSM", "region": "Kärnten", "osm_type": "node", "osm_id": 4941127054, "name": null, "category": null, "address": "Oremusstraße 6, 9065 Ebenthal in Kärnten", "street": "Oremusstraße", "housenumber": "6", "postcode": "9065", "place": "Ebenthal in Kärnten", "lat": 46.6053739, "lon": 14.363062, "tags": {"addr:city": "Ebenthal in Kärnten", "addr:housenumber": "6", "addr:postcode": "9065", "addr:street": "Oremusstraße"}, "content": "Adresse: Oremusstraße 6, 9065 Ebenthal in Kärnten\nOrt: Ebenthal in Kärnten\nPLZ: 9065\nKoordinaten: 46.605374, 14.363062", "doc_type": "addresses"}
{"source": "OSM", "region": "Kärnten", "osm_type": "node", "osm_id": 4941127055, "name": null, "category": null, "address": "Gurnitzer Straße 18a, 9065 Ebenthal in Kärnten", "street": "Gurnitzer Straße", "housenumber": "18a", "postcode": "9065", "place": "Ebenthal in Kärnten", "lat": 46.6050196, "lon": 14.3615795, "tags": {"addr:city": "Ebenthal in Kärnten", "addr:housenumber": "18a", "addr:postcode": "9065", "addr:street": "Gurnitzer Straße"}, "content": "Adresse: Gurnitzer Straße 18a, 9065 Ebenthal in Kärnten\nOrt: Ebenthal in Kärnten\nPLZ: 9065\nKoordinaten: 46.605020, 14.361579", "doc_type": "addresses"}
{"source": "OSM", "region": "Kärnten", "osm_type": "node", "osm_id": 4941127056, "name": null, "category": null, "address": "Oremusstraße 6, 9065 Ebenthal in Kärnten", "street": "Oremusstraße", "housenumber": "6", "postcode": "9065", "place": "Ebenthal in Kärnten", "lat": 46.6054329, "lon": 14.3630408, "tags": {"addr:city": "Ebenthal in Kärnten", "addr:housenumber": "6", "addr:postcode": "9065", "addr:street": "Oremusstraße"}, "content": "Adresse: Oremusstraße 6, 9065 Ebenthal in Kärnten\nOrt: Ebenthal in Kärnten\nPLZ: 9065\nKoordinaten: 46.605433, 14.363041", "doc_type": "addresses"}
{"source": "OSM", "region": "Kärnten", "osm_type": "node", "osm_id": 4941127057, "name": null, "category": null, "address": "Spöckgasse 5, 9065 Ebenthal in Kärnten", "street": "Spöckgasse", "housenumber": "5", "postcode": "9065", "place": "Ebenthal in Kärnten", "lat": 46.6039158, "lon": 14.364597, "tags": {"addr:city": "Ebenthal in Kärnten", "addr:housenumber": "5", "addr:postcode": "9065", "addr:street": "Spöckgasse"}, "content": "Adresse: Spöckgasse 5, 9065 Ebenthal in Kärnten\nOrt: Ebenthal in Kärnten\nPLZ: 9065\nKoordinaten: 46.603916, 14.364597", "doc_type": "addresses"}
{"source": "OSM", "region": "Kärnten", "osm_type": "node", "osm_id": 4941127058, "name": null, "category": null, "address": "Gurnitzer Straße 18, 9065 Ebenthal in Kärnten", "street": "Gurnitzer Straße", "housenumber": "18", "postcode": "9065", "place": "Ebenthal in Kärnten", "lat": 46.6048723, "lon": 14.3619553, "tags": {"addr:city": "Ebenthal in Kärnten", "addr:housenumber": "18", "addr:postcode": "9065", "addr:street": "Gurnitzer Straße"}, "content": "Adresse: Gurnitzer Straße 18, 9065 Ebenthal in Kärnten\nOrt: Ebenthal in Kärnten\nPLZ: 9065\nKoordinaten: 46.604872, 14.361955", "doc_type": "addresses"}
{"source": "OSM", "region": "Kärnten", "osm_type": "node", "osm_id": 4941127059, "name": null, "category": null, "address": "Oremusstraße 3, 9065 Ebenthal in Kärnten", "street": "Oremusstraße", "housenumber": "3", "postcode": "9065", "place": "Ebenthal in Kärnten", "lat": 46.6057649, "lon": 14.3635808, "tags": {"addr:city": "Ebenthal in Kärnten", "addr:housenumber": "3", "addr:postcode": "9065", "addr:street": "Oremusstraße"}, "content": "Adresse: Oremusstraße 3, 9065 Ebenthal in Kärnten\nOrt: Ebenthal in Kärnten\nPLZ: 9065\nKoordinaten: 46.605765, 14.363581", "doc_type": "addresses"}
{"source": "OSM", "region": "Kärnten", "osm_type": "node", "osm_id": 4941127060, "name": null, "category": null, "address": "Spöckgasse 3, 9065 Ebenthal in Kärnten", "street": "Spöckgasse", "housenumber": "3", "postcode": "9065", "place": "Ebenthal in Kärnten", "lat": 46.6041467, "lon": 14.3645528, "tags": {"addr:city": "Ebenthal in Kärnten", "addr:housenumber": "3", "addr:postcode": "9065", "addr:street": "Spöckgasse"}, "content": "Adresse: Spöckgasse 3, 9065 Ebenthal in Kärnten\nOrt: Ebenthal in Kärnten\nPLZ: 9065\nKoordinaten: 46.604147, 14.364553", "doc_type": "addresses"}
{"source": "OSM", "region": "Kärnten", "osm_type": "node", "osm_id": 4941127061, "name": null, "category": null, "address": "Gurnitzer Straße 16a, 9065 Ebenthal in Kärnten", "street": "Gurnitzer Straße", "housenumber": "16a", "postcode": "9065", "place": "Ebenthal in Kärnten", "lat": 46.6049796, "lon": 14.3613476, "tags": {"addr:city": "Ebenthal in Kärnten", "addr:housenumber": "16a", "addr:postcode": "9065", "addr:street": "Gurnitzer Straße"}, "content": "Adresse: Gurnitzer Straße 16a, 9065 Ebenthal in Kärnten\nOrt: Ebenthal in Kärnten\nPLZ: 9065\nKoordinaten: 46.604980, 14.361348", "doc_type": "addresses"}
{"source": "OSM", "region": "Kärnten", "osm_type": "node", "osm_id": 4941127062, "name": null, "category": null, "address": "Oremusstraße 2, 9065 Ebenthal in Kärnten", "street": "Oremusstraße", "housenumber": "2", "postcode": "9065", "place": "Ebenthal in Kärnten", "lat": 46.6051042, "lon": 14.3621815, "tags": {"addr:city": "Ebenthal in Kärnten", "addr:housenumber": "2", "addr:postcode": "9065", "addr:street": "Oremusstraße"}, "content": "Adresse: Oremusstraße 2, 9065 Ebenthal in Kärnten\nOrt: Ebenthal in Kärnten\nPLZ: 9065\nKoordinaten: 46.605104, 14.362182", "doc_type": "addresses"}
{"source": "OSM", "region": "Kärnten", "osm_type": "node", "osm_id": 4941127063, "name": null, "category": null, "address": "Spöckgasse 1, 9065 Ebenthal in Kärnten", "street": "Spöckgasse", "housenumber": "1", "postcode": "9065", "place": "Ebenthal in Kärnten", "lat": 46.6043523, "lon": 14.364544, "tags": {"addr:city": "Ebenthal in Kärnten", "addr:housenumber": "1", "addr:postcode": "9065", "addr:street": "Spöckgasse"}, "content": "Adresse: Spöckgasse 1, 9065 Ebenthal in Kärnten\nOrt: Ebenthal in Kärnten\nPLZ: 9065\nKoordinaten: 46.604352, 14.364544", "doc_type": "addresses"}
{"source": "OSM", "region": "Kärnten", "osm_type": "node", "osm_id": 4941127064, "name": null, "category": null, "address": "Gurnitzer Straße 16, 9065 Ebenthal in Kärnten", "street": "Gurnitzer Straße", "housenumber": "16", "postcode": "9065", "place": "Ebenthal in Kärnten", "lat": 46.6044813, "lon": 14.3614258, "tags": {"addr:city": "Ebenthal in Kärnten", "addr:housenumber": "16", "addr:postcode": "9065", "addr:street": "Gurnitzer Straße"}, "content": "Adresse: Gurnitzer Straße 16, 9065 Ebenthal in Kärnten\nOrt: Ebenthal in Kärnten\nPLZ: 9065\nKoordinaten: 46.604481, 14.361426", "doc_type": "addresses"}
{"source": "OSM", "region": "Kärnten", "osm_type": "node", "osm_id": 4941127065, "name": null, "category": null, "address": "Oremusstraße 1, 9065 Ebenthal in Kärnten", "street": "Oremusstraße", "housenumber": "1", "postcode": "9065", "place": "Ebenthal in Kärnten", "lat": 46.6053945, "lon": 14.3619129, "tags": {"addr:city": "Ebenthal in Kärnten", "addr:housenumber": "1", "addr:postcode": "9065", "addr:street": "Oremusstraße"}, "content": "Adresse: Oremusstraße 1, 9065 Ebenthal in Kärnten\nOrt: Ebenthal in Kärnten\nPLZ: 9065\nKoordinaten: 46.605395, 14.361913", "doc_type": "addresses"}
{"source": "OSM", "region": "Kärnten", "osm_type": "node", "osm_id": 4941127070, "name": null, "category": null, "address": "Rosengasse 2, 9065 Ebenthal in Kärnten", "street": "Rosengasse", "housenumber": "2", "postcode": "9065", "place": "Ebenthal in Kärnten", "lat": 46.6094966, "lon": 14.3659195, "tags": {"addr:city": "Ebenthal in Kärnten", "addr:housenumber": "2", "addr:postcode": "9065", "addr:street": "Rosengasse"}, "content": "Adresse: Rosengasse 2, 9065 Ebenthal in Kärnten\nOrt: Ebenthal in Kärnten\nPLZ: 9065\nKoordinaten: 46.609497, 14.365920", "doc_type": "addresses"}
{"source": "OSM", "region": "Kärnten", "osm_type": "node", "osm_id": 4941127072, "name": null, "category": null, "address": "Dahlienweg 13h, 9065 Ebenthal in Kärnten", "street": "Dahlienweg", "housenumber": "13h", "postcode": "9065", "place": "Ebenthal in Kärnten", "lat": 46.6093338, "lon": 14.368018, "tags": {"addr:city": "Ebenthal in Kärnten", "addr:housenumber": "13h", "addr:postcode": "9065", "addr:street": "Dahlienweg"}, "content": "Adresse: Dahlienweg 13h, 9065 Ebenthal in Kärnten\nOrt: Ebenthal in Kärnten\nPLZ: 9065\nKoordinaten: 46.609334, 14.368018", "doc_type": "addresses"}
{"source": "OSM", "region": "Kärnten", "osm_type": "node", "osm_id": 4941127073, "name": null, "category": null, "address": "Bogengasse 3, 9065 Ebenthal in Kärnten", "street": "Bogengasse", "housenumber": "3", "postcode": "9065", "place": "Ebenthal in Kärnten", "lat": 46.6065582, "lon": 14.3688414, "tags": {"addr:city": "Ebenthal in Kärnten", "addr:housenumber": "3", "addr:postcode": "9065", "addr:street": "Bogengasse"}, "content": "Adresse: Bogengasse 3, 9065 Ebenthal in Kärnten\nOrt: Ebenthal in Kärnten\nPLZ: 9065\nKoordinaten: 46.606558, 14.368841", "doc_type": "addresses"}
{"source": "OSM", "region": "Kärnten", "osm_type": "node", "osm_id": 4941127081, "name": null, "category": null, "address": "Ahornweg 1, 9065 Ebenthal in Kärnten", "street": "Ahornweg", "housenumber": "1", "postcode": "9065", "place": "Ebenthal in Kärnten", "lat": 46.6171567, "lon": 14.359757, "tags": {"addr:city": "Ebenthal in Kärnten", "addr:housenumber": "1", "addr:postcode": "9065", "addr:street": "Ahornweg"}, "content": "Adresse: Ahornweg 1, 9065 Ebenthal in Kärnten\nOrt: Ebenthal in Kärnten\nPLZ: 9065\nKoordinaten: 46.617157, 14.359757", "doc_type": "addresses"}
{"source": "OSM", "region": "Kärnten", "osm_type": "node", "osm_id": 4941127084, "name": null, "category": null, "address": "Schlossstraße 24b, 9065 Ebenthal in Kärnten", "street": "Schlossstraße", "housenumber": "24b", "postcode": "9065", "place": "Ebenthal in Kärnten", "lat": 46.6044662, "lon": 14.3573601, "tags": {"addr:city": "Ebenthal in Kärnten", "addr:housenumber": "24b", "addr:postcode": "9065", "addr:street": "Schlossstraße"}, "content": "Adresse: Schlossstraße 24b, 9065 Ebenthal in Kärnten\nOrt: Ebenthal in Kärnten\nPLZ: 9065\nKoordinaten: 46.604466, 14.357360", "doc_type": "addresses"}
{"source": "OSM", "region": "Kärnten", "osm_type": "node", "osm_id": 4941127087, "name": null, "category": null, "address": "Schlossstraße 22, 9065 Ebenthal in Kärnten", "street": "Schlossstraße", "housenumber": "22", "postcode": "9065", "place": "Ebenthal in Kärnten", "lat": 46.6052768, "lon": 14.3574059, "tags": {"addr:city": "Ebenthal in Kärnten", "addr:housenumber": "22", "addr:postcode": "9065", "addr:street": "Schlossstraße"}, "content": "Adresse: Schlossstraße 22, 9065 Ebenthal in Kärnten\nOrt: Ebenthal in Kärnten\nPLZ: 9065\nKoordinaten: 46.605277, 14.357406", "doc_type": "addresses"}
{"source": "OSM", "region": "Kärnten", "osm_type": "node", "osm_id": 4941127088, "name": null, "category": null, "address": "Schlossstraße 5, 9065 Ebenthal in Kärnten", "street": "Schlossstraße", "housenumber": "5", "postcode": "9065", "place": "Ebenthal in Kärnten", "lat": 46.6077555, "lon": 14.3564231, "tags": {"addr:city": "Ebenthal in Kärnten", "addr:housenumber": "5", "addr:postcode": "9065", "addr:street": "Schlossstraße"}, "content": "Adresse: Schlossstraße 5, 9065 Ebenthal in Kärnten\nOrt: Ebenthal in Kärnten\nPLZ: 9065\nKoordinaten: 46.607756, 14.356423", "doc_type": "addresses"}
{"source": "OSM", "region": "Kärnten", "osm_type": "node", "osm_id": 4941127089, "name": null, "category": null, "address": "Josef-Leiner-Straße-West 1, 9065 Ebenthal in Kärnten", "street": "Josef-Leiner-Straße-West", "housenumber": "1", "postcode": "9065", "place": "Ebenthal in Kärnten", "lat": 46.6061486, "lon": 14.3530123, "tags": {"addr:city": "Ebenthal in Kärnten", "addr:housenumber": "1", "addr:postcode": "9065", "addr:street": "Josef-Leiner-Straße-West"}, "content": "Adresse: Josef-Leiner-Straße-West 1, 9065 Ebenthal in Kärnten\nOrt: Ebenthal in Kärnten\nPLZ: 9065\nKoordinaten: 46.606149, 14.353012", "doc_type": "addresses"}
{"source": "OSM", "region": "Kärnten", "osm_type": "node", "osm_id": 4941127090, "name": null, "category": null, "address": "Milesstraße 6, 9065 Ebenthal in Kärnten", "street": "Milesstraße", "housenumber": "6", "postcode": "9065", "place": "Ebenthal in Kärnten", "lat": 46.6129928, "lon": 14.3546161, "tags": {"addr:city": "Ebenthal in Kärnten", "addr:housenumber": "6", "addr:postcode": "9065", "addr:street": "Milesstraße"}, "content": "Adresse: Milesstraße 6, 9065 Ebenthal in Kärnten\nOrt: Ebenthal in Kärnten\nPLZ: 9065\nKoordinaten: 46.612993, 14.354616", "doc_type": "addresses"}
{"source": "OSM", "region": "Kärnten", "osm_type": "node", "osm_id": 4941127091, "name": null, "category": null, "address": "Milesstraße 4, 9065 Ebenthal in Kärnten", "street": "Milesstraße", "housenumber": "4", "postcode": "9065", "place": "Ebenthal in Kärnten", "lat": 46.6132997, "lon": 14.3548389, "tags": {"addr:city": "Ebenthal in Kärnten", "addr:housenumber": "4", "addr:postcode": "9065", "addr:street": "Milesstraße"}, "content": "Adresse: Milesstraße 4, 9065 Ebenthal in Kärnten\nOrt: Ebenthal in Kärnten\nPLZ: 9065\nKoordinaten: 46.613300, 14.354839", "doc_type": "addresses"}
{"source": "OSM", "region": "Kärnten", "osm_type": "node", "osm_id": 4941127092, "name": null, "category": null, "address": "Harbacher Straße 15, 9065 Ebenthal in Kärnten", "street": "Harbacher Straße", "housenumber": "15", "postcode": "9065", "place": "Ebenthal in Kärnten", "lat": 46.6130561, "lon": 14.3572013, "tags": {"addr:city": "Ebenthal in Kärnten", "addr:housenumber": "15", "addr:postcode": "9065", "addr:street": "Harbacher Straße"}, "content": "Adresse: Harbacher Straße 15, 9065 Ebenthal in Kärnten\nOrt: Ebenthal in Kärnten\nPLZ: 9065\nKoordinaten: 46.613056, 14.357201", "doc_type": "addresses"}
{"source": "OSM", "region": "Kärnten", "osm_type": "node", "osm_id": 4941127093, "name": null, "category": null, "address": "Milesstraße 2, 9065 Ebenthal in Kärnten", "street": "Milesstraße", "housenumber": "2", "postcode": "9065", "place": "Ebenthal in Kärnten", "lat": 46.6136076, "lon": 14.3550663, "tags": {"addr:city": "Ebenthal in Kärnten", "addr:housenumber": "2", "addr:postcode": "9065", "addr:street": "Milesstraße"}, "content": "Adresse: Milesstraße 2, 9065 Ebenthal in Kärnten\nOrt: Ebenthal in Kärnten\nPLZ: 9065\nKoordinaten: 46.613608, 14.355066", "doc_type": "addresses"}
{"source": "OSM", "region": "Kärnten", "osm_type": "node", "osm_id": 4955701636, "name": null, "category": null, "address": "Gewerbezone, Welsbachstraße 11, 9065 Ebenthal in Kärnten", "street": "Gewerbezone, Welsbachstraße", "housenumber": "11", "postcode": "9065", "place": "Ebenthal in Kärnten", "lat": 46.6191388, "lon": 14.4024172, "tags": {"addr:city": "Ebenthal in Kärnten", "addr:housenumber": "11", "addr:postcode": "9065", "addr:street": "Gewerbezone, Welsbachstraße"}, "content": "Adresse: Gewerbezone, Welsbachstraße 11, 9065 Ebenthal in Kärnten\nOrt: Ebenthal in Kärnten\nPLZ: 9065\nKoordinaten: 46.619139, 14.402417", "doc_type": "addresses"}
{"source": "OSM", "region": "Kärnten", "osm_type": "node", "osm_id": 4955701637, "name": null, "category": null, "address": "Gewerbezone, Welsbachstraße 9, 9065 Ebenthal in Kärnten", "street": "Gewerbezone, Welsbachstraße", "housenumber": "9", "postcode": "9065", "place": "Ebenthal in Kärnten", "lat": 46.6190178, "lon": 14.4022692, "tags": {"addr:city": "Ebenthal in Kärnten", "addr:housenumber": "9", "addr:postcode": "9065", "addr:street": "Gewerbezone, Welsbachstraße"}, "content": "Adresse: Gewerbezone, Welsbachstraße 9, 9065 Ebenthal in Kärnten\nOrt: Ebenthal in Kärnten\nPLZ: 9065\nKoordinaten: 46.619018, 14.402269", "doc_type": "addresses"}
{"source": "OSM", "region": "Kärnten", "osm_type": "node", "osm_id": 4955701639, "name": null, "category": null, "address": "Gewerbezone, Resslstraße 20, 9065 Ebenthal in Kärnten", "street": "Gewerbezone, Resslstraße", "housenumber": "20", "postcode": "9065", "place": "Ebenthal in Kärnten", "lat": 46.6188283, "lon": 14.4062527, "tags": {"addr:city": "Ebenthal in Kärnten", "addr:housenumber": "20", "addr:postcode": "9065", "addr:street": "Gewerbezone, Resslstraße"}, "content": "Adresse: Gewerbezone, Resslstraße 20, 9065 Ebenthal in Kärnten\nOrt: Ebenthal in Kärnten\nPLZ: 9065\nKoordinaten: 46.618828, 14.406253", "doc_type": "addresses"}
{"source": "OSM", "region": "Kärnten", "osm_type": "node", "osm_id": 4955701640, "name": null, "category": null, "address": "Gewerbezone, Resslstraße 18, 9065 Ebenthal in Kärnten", "street": "Gewerbezone, Resslstraße", "housenumber": "18", "postcode": "9065", "place": "Ebenthal in Kärnten", "lat": 46.6185569, "lon": 14.4062076, "tags": {"addr:city": "Ebenthal in Kärnten", "addr:housenumber": "18", "addr:postcode": "9065", "addr:street": "Gewerbezone, Resslstraße"}, "content": "Adresse: Gewerbezone, Resslstraße 18, 9065 Ebenthal in Kärnten\nOrt: Ebenthal in Kärnten\nPLZ: 9065\nKoordinaten: 46.618557, 14.406208", "doc_type": "addresses"}
{"source": "OSM", "region": "Kärnten", "osm_type": "node", "osm_id": 4955701641, "name": null, "category": null, "address": "Gewerbezone, Resslstraße 16, 9065 Ebenthal in Kärnten", "street": "Gewerbezone, Resslstraße", "housenumber": "16", "postcode": "9065", "place": "Ebenthal in Kärnten", "lat": 46.6182305, "lon": 14.4061729, "tags": {"addr:city": "Ebenthal in Kärnten", "addr:housenumber": "16", "addr:postcode": "9065", "addr:street": "Gewerbezone, Resslstraße"}, "content": "Adresse: Gewerbezone, Resslstraße 16, 9065 Ebenthal in Kärnten\nOrt: Ebenthal in Kärnten\nPLZ: 9065\nKoordinaten: 46.618231, 14.406173", "doc_type": "addresses"}
{"source": "OSM", "region": "Kärnten", "osm_type": "node", "osm_id": 4955701642, "name": null, "category": null, "address": "Gewerbezone, Karl-Fischer-Straße 1, 9065 Ebenthal in Kärnten", "street": "Gewerbezone, Karl-Fischer-Straße", "housenumber": "1", "postcode": "9065", "place": "Ebenthal in Kärnten", "lat": 46.6180684, "lon": 14.3964131, "tags": {"addr:city": "Ebenthal in Kärnten", "addr:housenumber": "1", "addr:postcode": "9065", "addr:street": "Gewerbezone, Karl-Fischer-Straße"}, "content": "Adresse: Gewerbezone, Karl-Fischer-Straße 1, 9065 Ebenthal in Kärnten\nOrt: Ebenthal in Kärnten\nPLZ: 9065\nKoordinaten: 46.618068, 14.396413", "doc_type": "addresses"}
{"source": "OSM", "region": "Kärnten", "osm_type": "node", "osm_id": 4955701643, "name": null, "category": null, "address": "Gewerbezone, Zeiss-Straße 6, 9065 Ebenthal in Kärnten", "street": "Gewerbezone, Zeiss-Straße", "housenumber": "6", "postcode": "9065", "place": "Ebenthal in Kärnten", "lat": 46.6174793, "lon": 14.4013895, "tags": {"addr:city": "Ebenthal in Kärnten", "addr:housenumber": "6", "addr:postcode": "9065", "addr:street": "Gewerbezone, Zeiss-Straße"}, "content": "Adresse: Gewerbezone, Zeiss-Straße 6, 9065 Ebenthal in Kärnten\nOrt: Ebenthal in Kärnten\nPLZ: 9065\nKoordinaten: 46.617479, 14.401390", "doc_type": "addresses"}
{"source": "OSM", "region": "Kärnten", "osm_type": "node", "osm_id": 4955701702, "name": null, "category": null, "address": "Lehargasse 3, 9065 Ebenthal in Kärnten", "street": "Lehargasse", "housenumber": "3", "postcode": "9065", "place": "Ebenthal in Kärnten", "lat": 46.6296656, "lon": 14.4069872, "tags": {"addr:city": "Ebenthal in Kärnten", "addr:housenumber": "3", "addr:postcode": "9065", "addr:street": "Lehargasse"}, "content": "Adresse: Lehargasse 3, 9065 Ebenthal in Kärnten\nOrt: Ebenthal in Kärnten\nPLZ: 9065\nKoordinaten: 46.629666, 14.406987", "doc_type": "addresses"}
{"source": "OSM", "region": "Kärnten", "osm_type": "node", "osm_id": 4955701707, "name": null, "category": null, "address": "Gurkerwirtstraße 6, 9065 Ebenthal in Kärnten", "street": "Gurkerwirtstraße", "housenumber": "6", "postcode": "9065", "place": "Ebenthal in Kärnten", "lat": 46.6281868, "lon": 14.4075095, "tags": {"addr:city": "Ebenthal in Kärnten", "addr:housenumber": "6", "addr:postcode": "9065", "addr:street": "Gurkerwirtstraße"}, "content": "Adresse: Gurkerwirtstraße 6, 9065 Ebenthal in Kärnten\nOrt: Ebenthal in Kärnten\nPLZ: 9065\nKoordinaten: 46.628187, 14.407509", "doc_type": "addresses"}
{"source": "OSM", "region": "Kärnten", "osm_type": "node", "osm_id": 4955701708, "name": null, "category": null, "address": "Gurkerwirtstraße 4, 9065 Ebenthal in Kärnten", "street": "Gurkerwirtstraße", "housenumber": "4", "postcode": "9065", "place": "Ebenthal in Kärnten", "lat": 46.6282003, "lon": 14.4075917, "tags": {"addr:city": "Ebenthal in Kärnten", "addr:housenumber": "4", "addr:postcode": "9065", "addr:street": "Gurkerwirtstraße"}, "content": "Adresse: Gurkerwirtstraße 4, 9065 Ebenthal in Kärnten\nOrt: Ebenthal in Kärnten\nPLZ: 9065\nKoordinaten: 46.628200, 14.407592", "doc_type": "addresses"}
{"source": "OSM", "region": "Kärnten", "osm_type": "node", "osm_id": 4955701709, "name": null, "category": null, "address": "Tischlereistraße 1a, 9065 Ebenthal in Kärnten", "street": "Tischlereistraße", "housenumber": "1a", "postcode": "9065", "place": "Ebenthal in Kärnten", "lat": 46.626264, "lon": 14.3926396, "tags": {"addr:city": "Ebenthal in Kärnten", "addr:housenumber": "1a", "addr:postcode": "9065", "addr:street": "Tischlereistraße"}, "content": "Adresse: Tischlereistraße 1a, 9065 Ebenthal in Kärnten\nOrt: Ebenthal in Kärnten\nPLZ: 9065\nKoordinaten: 46.626264, 14.392640", "doc_type": "addresses"}
{"source": "OSM", "region": "Kärnten", "osm_type": "node", "osm_id": 4955701710, "name": null, "category": null, "address": "Tischlereistraße 1, 9065 Ebenthal in Kärnten", "street": "Tischlereistraße", "housenumber": "1", "postcode": "9065", "place": "Ebenthal in Kärnten", "lat": 46.6262784, "lon": 14.392706, "tags": {"addr:city": "Ebenthal in Kärnten", "addr:housenumber": "1", "addr:postcode": "9065", "addr:street": "Tischlereistraße"}, "content": "Adresse: Tischlereistraße 1, 9065 Ebenthal in Kärnten\nOrt: Ebenthal in Kärnten\nPLZ: 9065\nKoordinaten: 46.626278, 14.392706", "doc_type": "addresses"}
{"source": "OSM", "region": "Kärnten", "osm_type": "node", "osm_id": 4955701719, "name": null, "category": null, "address": "Wölbitschstraße 11, 9065 Ebenthal in Kärnten", "street": "Wölbitschstraße", "housenumber": "11", "postcode": "9065", "place": "Ebenthal in Kärnten", "lat": 46.6262408, "lon": 14.40404, "tags": {"addr:city": "Ebenthal in Kärnten", "addr:housenumber": "11", "addr:postcode": "9065", "addr:street": "Wölbitschstraße"}, "content": "Adresse: Wölbitschstraße 11, 9065 Ebenthal in Kärnten\nOrt: Ebenthal in Kärnten\nPLZ: 9065\nKoordinaten: 46.626241, 14.404040", "doc_type": "addresses"}
{"source": "OSM", "region": "Kärnten", "osm_type": "node", "osm_id": 4955701821, "name": null, "category": null, "address": "Wölbitschstraße 9, 9065 Ebenthal in Kärnten", "street": "Wölbitschstraße", "housenumber": "9", "postcode": "9065", "place": "Ebenthal in Kärnten", "lat": 46.6262391, "lon": 14.4040413, "tags": {"addr:city": "Ebenthal in Kärnten", "addr:housenumber": "9", "addr:postcode": "9065", "addr:street": "Wölbitschstraße"}, "content": "Adresse: Wölbitschstraße 9, 9065 Ebenthal in Kärnten\nOrt: Ebenthal in Kärnten\nPLZ: 9065\nKoordinaten: 46.626239, 14.404041", "doc_type": "addresses"}
{"source": "OSM", "region": "Kärnten", "osm_type": "node", "osm_id": 4955701822, "name": null, "category": null, "address": "Wölbitschstraße 7, 9065 Ebenthal in Kärnten", "street": "Wölbitschstraße", "housenumber": "7", "postcode": "9065", "place": "Ebenthal in Kärnten", "lat": 46.6262375, "lon": 14.4040384, "tags": {"addr:city": "Ebenthal in Kärnten", "addr:housenumber": "7", "addr:postcode": "9065", "addr:street": "Wölbitschstraße"}, "content": "Adresse: Wölbitschstraße 7, 9065 Ebenthal in Kärnten\nOrt: Ebenthal in Kärnten\nPLZ: 9065\nKoordinaten: 46.626238, 14.404038", "doc_type": "addresses"}
{"source": "OSM", "region": "Kärnten", "osm_type": "node", "osm_id": 4955701824, "name": null, "category": null, "address": "Wölbitschstraße 5, 9065 Ebenthal in Kärnten", "street": "Wölbitschstraße", "housenumber": "5", "postcode": "9065", "place": "Ebenthal in Kärnten", "lat": 46.6262391, "lon": 14.4040359, "tags": {"addr:city": "Ebenthal in Kärnten", "addr:housenumber": "5", "addr:postcode": "9065", "addr:street": "Wölbitschstraße"}, "content": "Adresse: Wölbitschstraße 5, 9065 Ebenthal in Kärnten\nOrt: Ebenthal in Kärnten\nPLZ: 9065\nKoordinaten: 46.626239, 14.404036", "doc_type": "addresses"}
{"source": "OSM", "region": "Kärnten", "osm_type": "node", "osm_id": 4955701826, "name": null, "category": null, "address": "Wölbitschstraße 3, 9065 Ebenthal in Kärnten", "street": "Wölbitschstraße", "housenumber": "3", "postcode": "9065", "place": "Ebenthal in Kärnten", "lat": 46.6262407, "lon": 14.4040372, "tags": {"addr:city": "Ebenthal in Kärnten", "addr:housenumber": "3", "addr:postcode": "9065", "addr:street": "Wölbitschstraße"}, "content": "Adresse: Wölbitschstraße 3, 9065 Ebenthal in Kärnten\nOrt: Ebenthal in Kärnten\nPLZ: 9065\nKoordinaten: 46.626241, 14.404037", "doc_type": "addresses"}
{"source": "OSM", "region": "Kärnten", "osm_type": "node", "osm_id": 4968135962, "name": null, "category": null, "address": "Marktgasse 5, 9065 Ebenthal in Kärnten", "street": "Marktgasse", "housenumber": "5", "postcode": "9065", "place": "Ebenthal in Kärnten", "lat": 46.608593, "lon": 14.3916387, "tags": {"addr:city": "Ebenthal in Kärnten", "addr:housenumber": "5", "addr:postcode": "9065", "addr:street": "Marktgasse"}, "content": "Adresse: Marktgasse 5, 9065 Ebenthal in Kärnten\nOrt: Ebenthal in Kärnten\nPLZ: 9065\nKoordinaten: 46.608593, 14.391639", "doc_type": "addresses"}
{"source": "OSM", "region": "Kärnten", "osm_type": "node", "osm_id": 4968135963, "name": null, "category": null, "address": "Wiesenweg 3, 9065 Ebenthal in Kärnten", "street": "Wiesenweg", "housenumber": "3", "postcode": "9065", "place": "Ebenthal in Kärnten", "lat": 46.6096463, "lon": 14.3912257, "tags": {"addr:city": "Ebenthal in Kärnten", "addr:housenumber": "3", "addr:postcode": "9065", "addr:street": "Wiesenweg"}, "content": "Adresse: Wiesenweg 3, 9065 Ebenthal in Kärnten\nOrt: Ebenthal in Kärnten\nPLZ: 9065\nKoordinaten: 46.609646, 14.391226", "doc_type": "addresses"}
{"source": "OSM", "region": "Kärnten", "osm_type": "node", "osm_id": 4968135964, "name": null, "category": null, "address": "Marktgasse 1, 9065 Ebenthal in Kärnten", "street": "Marktgasse", "housenumber": "1", "postcode": "9065", "place": "Ebenthal in Kärnten", "lat": 46.6088256, "lon": 14.3920244, "tags": {"addr:city": "Ebenthal in Kärnten", "addr:housenumber": "1", "addr:postcode": "9065", "addr:street": "Marktgasse"}, "content": "Adresse: Marktgasse 1, 9065 Ebenthal in Kärnten\nOrt: Ebenthal in Kärnten\nPLZ: 9065\nKoordinaten: 46.608826, 14.392024", "doc_type": "addresses"}
{"source": "OSM", "region": "Kärnten", "osm_type": "node", "osm_id": 4968135965, "name": null, "category": null, "address": "Weizenweg 9, 9065 Ebenthal in Kärnten", "street": "Weizenweg", "housenumber": "9", "postcode": "9065", "place": "Ebenthal in Kärnten", "lat": 46.6097205, "lon": 14.4003075, "tags": {"addr:city": "Ebenthal in Kärnten", "addr:housenumber": "9", "addr:postcode": "9065", "addr:street": "Weizenweg"}, "content": "Adresse: Weizenweg 9, 9065 Ebenthal in Kärnten\nOrt: Ebenthal in Kärnten\nPLZ: 9065\nKoordinaten: 46.609721, 14.400308", "doc_type": "addresses"}
{"source": "OSM", "region": "Kärnten", "osm_type": "node", "osm_id": 4968135967, "name": null, "category": null, "address": "Franzweg 5, 9065 Ebenthal in Kärnten", "street": "Franzweg", "housenumber": "5", "postcode": "9065", "place": "Ebenthal in Kärnten", "lat": 46.6090954, "lon": 14.389505, "tags": {"addr:city": "Ebenthal in Kärnten", "addr:housenumber": "5", "addr:postcode": "9065", "addr:street": "Franzweg"}, "content": "Adresse: Franzweg 5, 9065 Ebenthal in Kärnten\nOrt: Ebenthal in Kärnten\nPLZ: 9065\nKoordinaten: 46.609095, 14.389505", "doc_type": "addresses"}
{"source": "OSM", "region": "Kärnten", "osm_type": "node", "osm_id": 4970803008, "name": null, "category": null, "address": "Propsteistraße 40, 9065 Ebenthal in Kärnten", "street": "Propsteistraße", "housenumber": "40", "postcode": "9065", "place": "Ebenthal in Kärnten", "lat": 46.6068744, "lon": 14.3978883, "tags": {"addr:city": "Ebenthal in Kärnten", "addr:housenumber": "40", "addr:postcode": "9065", "addr:street": "Propsteistraße"}, "content": "Adresse: Propsteistraße 40, 9065 Ebenthal in Kärnten\nOrt: Ebenthal in Kärnten\nPLZ: 9065\nKoordinaten: 46.606874, 14.397888", "doc_type": "addresses"}
{"source": "OSM", "region": "Kärnten", "osm_type": "node", "osm_id": 4970803015, "name": null, "category": null, "address": "Kirchenstraße 36, 9065 Ebenthal in Kärnten", "street": "Kirchenstraße", "housenumber": "36", "postcode": "9065", "place": "Ebenthal in Kärnten", "lat": 46.602071, "lon": 14.3939703, "tags": {"addr:city": "Ebenthal in Kärnten", "addr:housenumber": "36", "addr:postcode": "9065", "addr:street": "Kirchenstraße"}, "content": "Adresse: Kirchenstraße 36, 9065 Ebenthal in Kärnten\nOrt: Ebenthal in Kärnten\nPLZ: 9065\nKoordinaten: 46.602071, 14.393970", "doc_type": "addresses"}
{"source": "OSM", "region": "Kärnten", "osm_type": "node", "osm_id": 4972843746, "name": null, "category": null, "address": "Bergstraße 1, 9065 Ebenthal in Kärnten", "street": "Bergstraße", "housenumber": "1", "postcode": "9065", "place": "Ebenthal in Kärnten", "lat": 46.5983291, "lon": 14.3595649, "tags": {"addr:city": "Ebenthal in Kärnten", "addr:housenumber": "1", "addr:postcode": "9065", "addr:street": "Bergstraße"}, "content": "Adresse: Bergstraße 1, 9065 Ebenthal in Kärnten\nOrt: Ebenthal in Kärnten\nPLZ: 9065\nKoordinaten: 46.598329, 14.359565", "doc_type": "addresses"}
{"source": "OSM", "region": "Kärnten", "osm_type": "node", "osm_id": 4972843749, "name": null, "category": null, "address": "Untermieger 13, 9065 Ebenthal in Kärnten", "street": "Untermieger", "housenumber": "13", "postcode": "9065", "place": "Ebenthal in Kärnten", "lat": 46.5841224, "lon": 14.4433031, "tags": {"addr:city": "Ebenthal in Kärnten", "addr:housenumber": "13", "addr:postcode": "9065", "addr:street": "Untermieger"}, "content": "Adresse: Untermieger 13, 9065 Ebenthal in Kärnten\nOrt: Ebenthal in Kärnten\nPLZ: 9065\nKoordinaten: 46.584122, 14.443303", "doc_type": "addresses"}
{"source": "OSM", "region": "Kärnten", "osm_type": "node", "osm_id": 4972843750, "name": null, "category": null, "address": "Untermieger 7a, 9065 Ebenthal in Kärnten", "street": "Untermieger", "housenumber": "7a", "postcode": "9065", "place": "Ebenthal in Kärnten", "lat": 46.5821597, "lon": 14.4397405, "tags": {"addr:city": "Ebenthal in Kärnten", "addr:housenumber": "7a", "addr:postcode": "9065", "addr:street": "Untermieger"}, "content": "Adresse: Untermieger 7a, 9065 Ebenthal in Kärnten\nOrt: Ebenthal in Kärnten\nPLZ: 9065\nKoordinaten: 46.582160, 14.439740", "doc_type": "addresses"}
{"source": "OSM", "region": "Kärnten", "osm_type": "node", "osm_id": 4972843752, "name": null, "category": null, "address": "Berg 16a, 9065 Ebenthal in Kärnten", "street": "Berg", "housenumber": "16a", "postcode": "9065", "place": "Ebenthal in Kärnten", "lat": 46.5963266, "lon": 14.4605931, "tags": {"addr:city": "Ebenthal in Kärnten", "addr:housenumber": "16a", "addr:postcode": "9065", "addr:street": "Berg"}, "content": "Adresse: Berg 16a, 9065 Ebenthal in Kärnten\nOrt: Ebenthal in Kärnten\nPLZ: 9065\nKoordinaten: 46.596327, 14.460593", "doc_type": "addresses"}
{"source": "OSM", "region": "Kärnten", "osm_type": "node", "osm_id": 4972843753, "name": null, "category": null, "address": "4, 9065 Ebenthal in Kärnten", "street": null, "housenumber": "4", "postcode": "9065", "place": "Ebenthal in Kärnten", "lat": 46.5895719, "lon": 14.4512065, "tags": {"addr:city": "Ebenthal in Kärnten", "addr:housenumber": "4", "addr:place": "Berg", "addr:postcode": "9065"}, "content": "Adresse: 4, 9065 Ebenthal in Kärnten\nOrt: Ebenthal in Kärnten\nPLZ: 9065\nKoordinaten: 46.589572, 14.451206", "doc_type": "addresses"}
{"source": "OSM", "region": "Kärnten", "osm_type": "node", "osm_id": 4972843767, "name": null, "category": null, "address": "Kossiach 11, 9065 Ebenthal in Kärnten", "street": "Kossiach", "housenumber": "11", "postcode": "9065", "place": "Ebenthal in Kärnten", "lat": 46.5649404, "lon": 14.3847053, "tags": {"addr:city": "Ebenthal in Kärnten", "addr:housenumber": "11", "addr:postcode": "9065", "addr:street": "Kossiach"}, "content": "Adresse: Kossiach 11, 9065 Ebenthal in Kärnten\nOrt: Ebenthal in Kärnten\nPLZ: 9065\nKoordinaten: 46.564940, 14.384705", "doc_type": "addresses"}
{"source": "OSM", "region": "Kärnten", "osm_type": "node", "osm_id": 4972843769, "name": null, "category": null, "address": "Schwarz 46, 9065 Ebenthal in Kärnten", "street": "Schwarz", "housenumber": "46", "postcode": "9065", "place": "Ebenthal in Kärnten", "lat": 46.5694742, "lon": 14.3871336, "tags": {"addr:city": "Ebenthal in Kärnten", "addr:housenumber": "46", "addr:postcode": "9065", "addr:street": "Schwarz"}, "content": "Adresse: Schwarz 46, 9065 Ebenthal in Kärnten\nOrt: Ebenthal in Kärnten\nPLZ: 9065\nKoordinaten: 46.569474, 14.387134", "doc_type": "addresses"}
{"source": "OSM", "region": "Kärnten", "osm_type": "node", "osm_id": 4972843770, "name": null, "category": null, "address": "Schwarz 32, 9065 Ebenthal in Kärnten", "street": "Schwarz", "housenumber": "32", "postcode": "9065", "place": "Ebenthal in Kärnten", "lat": 46.5721689, "lon": 14.3939497, "tags": {"addr:city": "Ebenthal in Kärnten", "addr:housenumber": "32", "addr:postcode": "9065", "addr:street": "Schwarz"}, "content": "Adresse: Schwarz 32, 9065 Ebenthal in Kärnten\nOrt: Ebenthal in Kärnten\nPLZ: 9065\nKoordinaten: 46.572169, 14.393950", "doc_type": "addresses"}
{"source": "OSM", "region": "Kärnten", "osm_type": "node", "osm_id": 4972843771, "name": null, "category": null, "address": "Kossiach 18a, 9065 Ebenthal in Kärnten", "street": "Kossiach", "housenumber": "18a", "postcode": "9065", "place": "Ebenthal in Kärnten", "lat": 46.5611653, "lon": 14.3881221, "tags": {"addr:city": "Ebenthal in Kärnten", "addr:housenumber": "18a", "addr:postcode": "9065", "addr:street": "Kossiach"}, "content": "Adresse: Kossiach 18a, 9065 Ebenthal in Kärnten\nOrt: Ebenthal in Kärnten\nPLZ: 9065\nKoordinaten: 46.561165, 14.388122", "doc_type": "addresses"}
{"source": "OSM", "region": "Kärnten", "osm_type": "node", "osm_id": 4972843772, "name": null, "category": null, "address": "Bergstraße 30, 9065 Ebenthal in Kärnten", "street": "Bergstraße", "housenumber": "30", "postcode": "9065", "place": "Ebenthal in Kärnten", "lat": 46.5983609, "lon": 14.359511, "tags": {"addr:city": "Ebenthal in Kärnten", "addr:housenumber": "30", "addr:postcode": "9065", "addr:street": "Bergstraße"}, "content": "Adresse: Bergstraße 30, 9065 Ebenthal in Kärnten\nOrt: Ebenthal in Kärnten\nPLZ: 9065\nKoordinaten: 46.598361, 14.359511", "doc_type": "addresses"}
{"source": "OSM", "region": "Kärnten", "osm_type": "node", "osm_id": 4972843773, "name": null, "category": null, "address": "55, 9065 Ebenthal in Kärnten", "street": null, "housenumber": "55", "postcode": "9065", "place": "Ebenthal in Kärnten", "lat": 46.5898159, "lon": 14.3475263, "tags": {"addr:city": "Ebenthal in Kärnten", "addr:housenumber": "55", "addr:place": "Zwanzgerberg", "addr:postcode": "9065"}, "content": "Adresse: 55, 9065 Ebenthal in Kärnten\nOrt: Ebenthal in Kärnten\nPLZ: 9065\nKoordinaten: 46.589816, 14.347526", "doc_type": "addresses"}
{"source": "OSM", "region": "Kärnten", "osm_type": "node", "osm_id": 4972843774, "name": null, "category": null, "address": "53, 9065 Ebenthal in Kärnten", "street": null, "housenumber": "53", "postcode": "9065", "place": "Ebenthal in Kärnten", "lat": 46.5894976, "lon": 14.346894, "tags": {"addr:city": "Ebenthal in Kärnten", "addr:housenumber": "53", "addr:place": "Zwanzgerberg", "addr:postcode": "9065"}, "content": "Adresse: 53, 9065 Ebenthal in Kärnten\nOrt: Ebenthal in Kärnten\nPLZ: 9065\nKoordinaten: 46.589498, 14.346894", "doc_type": "addresses"}
{"source": "OSM", "region": "Kärnten", "osm_type": "node", "osm_id": 4972843776, "name": null, "category": null, "address": "Lipizach 51, 9065 Ebenthal in Kärnten", "street": "Lipizach", "housenumber": "51", "postcode": "9065", "place": "Ebenthal in Kärnten", "lat": 46.5912028, "lon": 14.3733623, "tags": {"addr:city": "Ebenthal in Kärnten", "addr:housenumber": "51", "addr:postcode": "9065", "addr:street": "Lipizach"}, "content": "Adresse: Lipizach 51, 9065 Ebenthal in Kärnten\nOrt: Ebenthal in Kärnten\nPLZ: 9065\nKoordinaten: 46.591203, 14.373362", "doc_type": "addresses"}
{"source": "OSM", "region": "Kärnten", "osm_type": "node", "osm_id": 4972843777, "name": null, "category": null, "address": "49, 9065 Ebenthal in Kärnten", "street": null, "housenumber": "49", "postcode": "9065", "place": "Ebenthal in Kärnten", "lat": 46.5915919, "lon": 14.3712724, "tags": {"addr:city": "Ebenthal in Kärnten", "addr:housenumber": "49", "addr:place": "Lipizach", "addr:postcode": "9065"}, "content": "Adresse: 49, 9065 Ebenthal in Kärnten\nOrt: Ebenthal in Kärnten\nPLZ: 9065\nKoordinaten: 46.591592, 14.371272", "doc_type": "addresses"}
{"source": "OSM", "region": "Kärnten", "osm_type": "node", "osm_id": 4972843778, "name": null, "category": null, "address": "Lipizach 2, 9065 Ebenthal in Kärnten", "street": "Lipizach", "housenumber": "2", "postcode": "9065", "place": "Ebenthal in Kärnten", "lat": 46.5913883, "lon": 14.3692961, "tags": {"addr:city": "Ebenthal in Kärnten", "addr:housenumber": "2", "addr:postcode": "9065", "addr:street": "Lipizach"}, "content": "Adresse: Lipizach 2, 9065 Ebenthal in Kärnten\nOrt: Ebenthal in Kärnten\nPLZ: 9065\nKoordinaten: 46.591388, 14.369296", "doc_type": "addresses"}
{"source": "OSM", "region": "Kärnten", "osm_type": "node", "osm_id": 4972843780, "name": null, "category": null, "address": "Tutzach 39, 9065 Ebenthal in Kärnten", "street": "Tutzach", "housenumber": "39", "postcode": "9065", "place": "Ebenthal in Kärnten", "lat": 46.5883754, "lon": 14.3767409, "tags": {"addr:city": "Ebenthal in Kärnten", "addr:housenumber": "39", "addr:postcode": "9065", "addr:street": "Tutzach"}, "content": "Adresse: Tutzach 39, 9065 Ebenthal in Kärnten\nOrt: Ebenthal in Kärnten\nPLZ: 9065\nKoordinaten: 46.588375, 14.376741", "doc_type": "addresses"}
{"source": "OSM", "region": "Kärnten", "osm_type": "node", "osm_id": 4972843786, "name": null, "category": null, "address": "Buchenstraße 6, 9065 Ebenthal in Kärnten", "street": "Buchenstraße", "housenumber": "6", "postcode": "9065", "place": "Ebenthal in Kärnten", "lat": 46.6099001, "lon": 14.4134685, "tags": {"addr:city": "Ebenthal in Kärnten", "addr:housenumber": "6", "addr:postcode": "9065", "addr:street": "Buchenstraße"}, "content": "Adresse: Buchenstraße 6, 9065 Ebenthal in Kärnten\nOrt: Ebenthal in Kärnten\nPLZ: 9065\nKoordinaten: 46.609900, 14.413469", "doc_type": "addresses"}
{"source": "OSM", "region": "Kärnten", "osm_type": "node", "osm_id": 4972843787, "name": null, "category": null, "address": "Teichgasse 4, 9065 Ebenthal in Kärnten", "street": "Teichgasse", "housenumber": "4", "postcode": "9065", "place": "Ebenthal in Kärnten", "lat": 46.6031971, "lon": 14.4088046, "tags": {"addr:city": "Ebenthal in Kärnten", "addr:housenumber": "4", "addr:postcode": "9065", "addr:street": "Teichgasse"}, "content": "Adresse: Teichgasse 4, 9065 Ebenthal in Kärnten\nOrt: Ebenthal in Kärnten\nPLZ: 9065\nKoordinaten: 46.603197, 14.408805", "doc_type": "addresses"}
{"source": "OSM", "region": "Kärnten", "osm_type": "node", "osm_id": 4972843789, "name": null, "category": null, "address": "Akazienweg 10a, 9065 Ebenthal in Kärnten", "street": "Akazienweg", "housenumber": "10a", "postcode": "9065", "place": "Ebenthal in Kärnten", "lat": 46.6110618, "lon": 14.4118598, "tags": {"addr:city": "Ebenthal in Kärnten", "addr:housenumber": "10a", "addr:postcode": "9065", "addr:street": "Akazienweg"}, "content": "Adresse: Akazienweg 10a, 9065 Ebenthal in Kärnten\nOrt: Ebenthal in Kärnten\nPLZ: 9065\nKoordinaten: 46.611062, 14.411860", "doc_type": "addresses"}
{"source": "OSM", "region": "Kärnten", "osm_type": "node", "osm_id": 4972843790, "name": null, "category": null, "address": "Akazienweg 7H, 9065 Ebenthal in Kärnten", "street": "Akazienweg", "housenumber": "7H", "postcode": "9065", "place": "Ebenthal in Kärnten", "lat": 46.6117077, "lon": 14.4111928, "tags": {"addr:city": "Ebenthal in Kärnten", "addr:housenumber": "7H", "addr:postcode": "9065", "addr:street": "Akazienweg"}, "content": "Adresse: Akazienweg 7H, 9065 Ebenthal in Kärnten\nOrt: Ebenthal in Kärnten\nPLZ: 9065\nKoordinaten: 46.611708, 14.411193", "doc_type": "addresses"}
{"source": "OSM", "region": "Kärnten", "osm_type": "node", "osm_id": 4972843792, "name": null, "category": null, "address": "Reiherweg 10, 9065 Ebenthal in Kärnten", "street": "Reiherweg", "housenumber": "10", "postcode": "9065", "place": "Ebenthal in Kärnten", "lat": 46.6043083, "lon": 14.4097026, "tags": {"addr:city": "Ebenthal in Kärnten", "addr:housenumber": "10", "addr:postcode": "9065", "addr:street": "Reiherweg"}, "content": "Adresse: Reiherweg 10, 9065 Ebenthal in Kärnten\nOrt: Ebenthal in Kärnten\nPLZ: 9065\nKoordinaten: 46.604308, 14.409703", "doc_type": "addresses"}
{"source": "OSM", "region": "Kärnten", "osm_type": "node", "osm_id": 4972843793, "name": null, "category": null, "address": "Akazienweg 4, 9065 Ebenthal in Kärnten", "street": "Akazienweg", "housenumber": "4", "postcode": "9065", "place": "Ebenthal in Kärnten", "lat": 46.6103729, "lon": 14.4118186, "tags": {"addr:city": "Ebenthal in Kärnten", "addr:housenumber": "4", "addr:postcode": "9065", "addr:street": "Akazienweg"}, "content": "Adresse: Akazienweg 4, 9065 Ebenthal in Kärnten\nOrt: Ebenthal in Kärnten\nPLZ: 9065\nKoordinaten: 46.610373, 14.411819", "doc_type": "addresses"}
{"source": "OSM", "region": "Kärnten", "osm_type": "node", "osm_id": 4972843794, "name": null, "category": null, "address": "Rauthweg 17, 9065 Ebenthal in Kärnten", "street": "Rauthweg", "housenumber": "17", "postcode": "9065", "place": "Ebenthal in Kärnten", "lat": 46.6039908, "lon": 14.4053719, "tags": {"addr:city": "Ebenthal in Kärnten", "addr:housenumber": "17", "addr:postcode": "9065", "addr:street": "Rauthweg"}, "content": "Adresse: Rauthweg 17, 9065 Ebenthal in Kärnten\nOrt: Ebenthal in Kärnten\nPLZ: 9065\nKoordinaten: 46.603991, 14.405372", "doc_type": "addresses"}
{"source": "OSM", "region": "Kärnten", "osm_type": "node", "osm_id": 4972843795, "name": null, "category": null, "address": "Eichenstraße 20, 9065 Ebenthal in Kärnten", "street": "Eichenstraße", "housenumber": "20", "postcode": "9065", "place": "Ebenthal in Kärnten", "lat": 46.609358, "lon": 14.4117957, "tags": {"addr:city": "Ebenthal in Kärnten", "addr:housenumber": "20", "addr:postcode": "9065", "addr:street": "Eichenstraße"}, "content": "Adresse: Eichenstraße 20, 9065 Ebenthal in Kärnten\nOrt: Ebenthal in Kärnten\nPLZ: 9065\nKoordinaten: 46.609358, 14.411796", "doc_type": "addresses"}
{"source": "OSM", "region": "Kärnten", "osm_type": "node", "osm_id": 4972843796, "name": null, "category": null, "address": "Eichenstraße 7, 9065 Ebenthal in Kärnten", "street": "Eichenstraße", "housenumber": "7", "postcode": "9065", "place": "Ebenthal in Kärnten", "lat": 46.6096528, "lon": 14.4105523, "tags": {"addr:city": "Ebenthal in Kärnten", "addr:housenumber": "7", "addr:postcode": "9065", "addr:street": "Eichenstraße"}, "content": "Adresse: Eichenstraße 7, 9065 Ebenthal in Kärnten\nOrt: Ebenthal in Kärnten\nPLZ: 9065\nKoordinaten: 46.609653, 14.410552", "doc_type": "addresses"}
{"source": "OSM", "region": "Kärnten", "osm_type": "node", "osm_id": 4972843797, "name": null, "category": null, "address": "Buchenstraße 4, 9065 Ebenthal in Kärnten", "street": "Buchenstraße", "housenumber": "4", "postcode": "9065", "place": "Ebenthal in Kärnten", "lat": 46.6099196, "lon": 14.4133228, "tags": {"addr:city": "Ebenthal in Kärnten", "addr:housenumber": "4", "addr:postcode": "9065", "addr:street": "Buchenstraße"}, "content": "Adresse: Buchenstraße 4, 9065 Ebenthal in Kärnten\nOrt: Ebenthal in Kärnten\nPLZ: 9065\nKoordinaten: 46.609920, 14.413323", "doc_type": "addresses"}
{"source": "OSM", "region": "Kärnten", "osm_type": "node", "osm_id": 860982357, "name": "Kalmusbad", "category": "amenity:biergarten", "address": "Badstraße 1, 9065 Ebenthal in Kärnten", "street": "Badstraße", "housenumber": "1", "postcode": "9065", "place": "Ebenthal in Kärnten", "lat": 46.6010254, "lon": 14.3434258, "tags": {"addr:city": "Ebenthal in Kärnten", "addr:housenumber": "1", "addr:postcode": "9065", "addr:street": "Badstraße", "amenity": "biergarten", "name": "Kalmusbad"}, "content": "Kalmusbad\nKategorie: amenity:biergarten\nAdresse: Badstraße 1, 9065 Ebenthal in Kärnten\nOrt: Ebenthal in Kärnten\nPLZ: 9065\nKoordinaten: 46.601025, 14.343426\nTags: amenity=biergarten", "doc_type": "pois"}
{"source": "OSM", "region": "Kärnten", "osm_type": "node", "osm_id": 3491922753, "name": "Buschenschank Schmautzer", "category": "amenity:restaurant", "address": "9065 Ebenthal in Kärnten", "street": null, "housenumber": null, "postcode": "9065", "place": "Ebenthal in Kärnten", "lat": 46.5963579, "lon": 14.4606033, "tags": {"addr:city": "Ebenthal in Kärnten", "addr:place": "Berg", "addr:postcode": "9065", "amenity": "restaurant", "name": "Buschenschank Schmautzer"}, "content": "Buschenschank Schmautzer\nKategorie: amenity:restaurant\nAdresse: 9065 Ebenthal in Kärnten\nOrt: Ebenthal in Kärnten\nPLZ: 9065\nKoordinaten: 46.596358, 14.460603\nTags: amenity=restaurant", "doc_type": "pois"}
{"source": "OSM", "region": "Kärnten", "osm_type": "node", "osm_id": 3711001734, "name": "Buschenschenke Mörtl", "category": "amenity:restaurant", "address": "15, 9065 Ebenthal in Kärnten", "street": null, "housenumber": "15", "postcode": "9065", "place": "Ebenthal in Kärnten", "lat": 46.59773, "lon": 14.459762, "tags": {"addr:city": "Ebenthal in Kärnten", "addr:housenumber": "15", "addr:place": "Berg", "addr:postcode": "9065", "amenity": "restaurant", "name": "Buschenschenke Mörtl", "website": "http://www.buschenschenke-moertl.at/"}, "content": "Buschenschenke Mörtl\nKategorie: amenity:restaurant\nAdresse: 15, 9065 Ebenthal in Kärnten\nOrt: Ebenthal in Kärnten\nPLZ: 9065\nKoordinaten: 46.597730, 14.459762\nTags: amenity=restaurant, website=http://www.buschenschenke-moertl.at/", "doc_type": "pois"}
{"source": "OSM", "region": "Kärnten", "osm_type": "node", "osm_id": 4908960011, "name": "Polizeiinspektion Ebenthal in Kärnten", "category": "amenity:police", "address": "Medizinweg 2, 9065 Ebenthal in Kärnten", "street": "Medizinweg", "housenumber": "2", "postcode": "9065", "place": "Ebenthal in Kärnten", "lat": 46.6115276, "lon": 14.3595117, "tags": {"addr:city": "Ebenthal in Kärnten", "addr:housenumber": "2", "addr:postcode": "9065", "addr:street": "Medizinweg", "amenity": "police", "name": "Polizeiinspektion Ebenthal in Kärnten", "phone": "+43 59133 2103-100"}, "content": "Polizeiinspektion Ebenthal in Kärnten\nKategorie: amenity:police\nAdresse: Medizinweg 2, 9065 Ebenthal in Kärnten\nOrt: Ebenthal in Kärnten\nPLZ: 9065\nKoordinaten: 46.611528, 14.359512\nTags: amenity=police, phone=+43 59133 2103-100", "doc_type": "pois"}
