{"source": "OSM", "region": "Kärnten", "osm_type": "node", "osm_id": 340517244, "name": "Ferndorf", "category": "amenity:post_office", "address": "Ferndorf 17, 9702 Ferndorf", "street": "Ferndorf", "housenumber": "17", "postcode": "9702", "place": "Ferndorf", "lat": 46.7364872, "lon": 13.6257052, "tags": {"addr:city": "Ferndorf", "addr:housenumber": "17", "addr:postcode": "9702", "addr:street": "Ferndorf", "amenity": "post_office", "name": "Ferndorf"}, "content": "Ferndorf\nKategorie: amenity:post_office\nAdresse: Ferndorf 17, 9702 Ferndorf\nOrt: Ferndorf\nPLZ: 9702\nKoordinaten: 46.736487, 13.625705\nTags: amenity=post_office", "doc_type": "addresses"}
{"source": "OSM", "region": "Kärnten", "osm_type": "node", "osm_id": 5621900752, "name": "Intersport", "category": "amenity:bicycle_rental", "address": "Glanzerstraße 116, 9873 Ferndorf", "street": "Glanzerstraße", "housenumber": "116", "postcode": "9873", "place": "Ferndorf", "lat": 46.7660277, "lon": 13.6454661, "tags": {"addr:city": "Ferndorf", "addr:housenumber": "116", "addr:postcode": "9873", "addr:street": "Glanzerstraße", "amenity": "bicycle_rental", "name": "Intersport"}, "content": "Intersport\nKategorie: amenity:bicycle_rental\nAdresse: Glanzerstraße 116, 9873 Ferndorf\nOrt: Ferndorf\nPLZ: 9873\nKoordinaten: 46.766028, 13.645466\nTags: amenity=bicycle_rental", "doc_type": "addresses"}
{"source": "OSM", "region": "Kärnten", "osm_type": "node", "osm_id": 340517244, "name": "Ferndorf", "category": "amenity:post_office", "address": "Ferndorf 17, 9702 Ferndorf", "street": "Ferndorf", "housenumber": "17", "postcode": "9702", "place": "Ferndorf", "lat": 46.7364872, "lon": 13.6257052, "tags": {"addr:city": "Ferndorf", "addr:housenumber": "17", "addr:postcode": "9702", "addr:street": "Ferndorf", "amenity": "post_office", "name": "Ferndorf"}, "content": "Ferndorf\nKategorie: amenity:post_office\nAdresse: Ferndorf 17, 9702 Ferndorf\nOrt: Ferndorf\nPLZ: 9702\nKoordinaten: 46.736487, 13.625705\nTags: amenity=post_office", "doc_type": "pois"}
{"source": "OSM", "region": "Kärnten", "osm_type": "node", "osm_id": 845136927, "name": "Alpengasthof Bergfried", "category": "amenity:restaurant", "address": "9702 Ferndorf", "street": null, "housenumber": null, "postcode": "9702", "place": "Ferndorf", "lat": 46.7773223, "lon": 13.6734505, "tags": {"addr:city": "Ferndorf", "addr:postcode": "9702", "amenity": "restaurant", "name": "Alpengasthof Bergfried", "website": "https://www.bergfried.net/alpengasthof"}, "content": "Alpengasthof Bergfried\nKategorie: amenity:restaurant\nAdresse: 9702 Ferndorf\nOrt: Ferndorf\nPLZ: 9702\nKoordinaten: 46.777322, 13.673450\nTags: amenity=restaurant, website=https://www.bergfried.net/alpengasthof", "doc_type": "pois"}
{"source": "OSM", "region": "Kärnten", "osm_type": "node", "osm_id": 5621900752, "name": "Intersport", "category": "amenity:bicycle_rental", "address": "Glanzerstraße 116, 9873 Ferndorf", "street": "Glanzerstraße", "housenumber": "116", "postcode": "9873", "place": "Ferndorf", "lat": 46.7660277, "lon": 13.6454661, "tags": {"addr:city": "Ferndorf", "addr:housenumber": "116", "addr:postcode": "9873", "addr:street": "Glanzerstraße", "amenity": "bicycle_rental", "name": "Intersport"}, "content": "Intersport\nKategorie: amenity:bicycle_rental\nAdresse: Glanzerstraße 116, 9873 Ferndorf\nOrt: Ferndorf\nPLZ: 9873\nKoordinaten: 46.766028, 13.645466\nTags: amenity=bicycle_rental", "doc_type": "pois"}
