{"source": "OSM", "region": "Kärnten", "osm_type": "node", "osm_id": 4519037276, "name": null, "category": null, "address": "Leibsdorfer Straße 4, 9130 Poggersdorf", "street": "Leibsdorfer Straße", "housenumber": "4", "postcode": "9130", "place": "Poggersdorf", "lat": 46.650771, "lon": 14.4524918, "tags": {"addr:city": "Poggersdorf", "addr:housenumber": "4", "addr:postcode": "9130", "addr:street": "Leibsdorfer Straße"}, "content": "Adresse: Leibsdorfer Straße 4, 9130 Poggersdorf\nOrt: Poggersdorf\nPLZ: 9130\nKoordinaten: 46.650771, 14.452492", "doc_type": "addresses"}
{"source": "OSM", "region": "Kärnten", "osm_type": "node", "osm_id": 4519037279, "name": null, "category": null, "address": "Hangstraße 9, 9130 Poggersdorf", "street": "Hangstraße", "housenumber": "9", "postcode": "9130", "place": "Poggersdorf", "lat": 46.6536248, "lon": 14.4791879, "tags": {"addr:city": "Poggersdorf", "addr:housenumber": "9", "addr:postcode": "9130", "addr:street": "Hangstraße"}, "content": "Adresse: Hangstraße 9, 9130 Poggersdorf\nOrt: Poggersdorf\nPLZ: 9130\nKoordinaten: 46.653625, 14.479188", "doc_type": "addresses"}
{"source": "OSM", "region": "Kärnten", "osm_type": "node", "osm_id": 4519037280, "name": null, "category": null, "address": "Belenusweg 3, 9130 Poggersdorf", "street": "Belenusweg", "housenumber": "3", "postcode": "9130", "place": "Poggersdorf", "lat": 46.6553762, "lon": 14.5093969, "tags": {"addr:city": "Poggersdorf", "addr:housenumber": "3", "addr:postcode": "9130", "addr:street": "Belenusweg"}, "content": "Adresse: Belenusweg 3, 9130 Poggersdorf\nOrt: Poggersdorf\nPLZ: 9130\nKoordinaten: 46.655376, 14.509397", "doc_type": "addresses"}
{"source": "OSM", "region": "Kärnten", "osm_type": "node", "osm_id": 4519037281, "name": null, "category": null, "address": "Apolloweg 1, 9130 Poggersdorf", "street": "Apolloweg", "housenumber": "1", "postcode": "9130", "place": "Poggersdorf", "lat": 46.656843, "lon": 14.5100105, "tags": {"addr:city": "Poggersdorf", "addr:housenumber": "1", "addr:postcode": "9130", "addr:street": "Apolloweg"}, "content": "Adresse: Apolloweg 1, 9130 Poggersdorf\nOrt: Poggersdorf\nPLZ: 9130\nKoordinaten: 46.656843, 14.510010", "doc_type": "addresses"}
{"source": "OSM", "region": "Kärnten", "osm_type": "node", "osm_id": 4565771896, "name": null, "category": null, "address": "Landesstraße 2, 9130 Poggersdorf", "street": "Landesstraße", "housenumber": "2", "postcode": "9130", "place": "Poggersdorf", "lat": 46.6417061, "lon": 14.4503769, "tags": {"addr:city": "Poggersdorf", "addr:housenumber": "2", "addr:postcode": "9130", "addr:street": "Landesstraße"}, "content": "Adresse: Landesstraße 2, 9130 Poggersdorf\nOrt: Poggersdorf\nPLZ: 9130\nKoordinaten: 46.641706, 14.450377", "doc_type": "addresses"}
{"source": "OSM", "region": "Kärnten", "osm_type": "node", "osm_id": 5380402724, "name": null, "category": null, "address": "Landesstraße 24a, 9130 Poggersdorf", "street": "Landesstraße", "housenumber": "24a", "postcode": "9130", "place": "Poggersdorf", "lat": 46.6442956, "lon": 14.4518724, "tags": {"addr:city": "Poggersdorf", "addr:housenumber": "24a", "addr:postcode": "9130", "addr:street": "Landesstraße"}, "content": "Adresse: Landesstraße 24a, 9130 Poggersdorf\nOrt: Poggersdorf\nPLZ: 9130\nKoordinaten: 46.644296, 14.451872", "doc_type": "addresses"}
{"source": "OSM", "region": "Kärnten", "osm_type": "node", "osm_id": 5380402759, "name": null, "category": null, "address": "Römerstraße 14, 9130 Poggersdorf", "street": "Römerstraße", "housenumber": "14", "postcode": "9130", "place": "Poggersdorf", "lat": 46.6569412, "lon": 14.4814186, "tags": {"addr:city": "Poggersdorf", "addr:housenumber": "14", "addr:postcode": "9130", "addr:street": "Römerstraße"}, "content": "Adresse: Römerstraße 14, 9130 Poggersdorf\nOrt: Poggersdorf\nPLZ: 9130\nKoordinaten: 46.656941, 14.481419", "doc_type": "addresses"}
{"source": "OSM", "region": "Kärnten", "osm_type": "node", "osm_id": 5380402760, "name": null, "category": null, "address": "Römerstraße 9, 9130 Poggersdorf", "street": "Römerstraße", "housenumber": "9", "postcode": "9130", "place": "Poggersdorf", "lat": 46.6571649, "lon": 14.4819247, "tags": {"addr:city": "Poggersdorf", "addr:housenumber": "9", "addr:postcode": "9130", "addr:street": "Römerstraße"}, "content": "Adresse: Römerstraße 9, 9130 Poggersdorf\nOrt: Poggersdorf\nPLZ: 9130\nKoordinaten: 46.657165, 14.481925", "doc_type": "addresses"}
{"source": "OSM", "region": "Kärnten", "osm_type": "node", "osm_id": 5649382005, "name": null, "category": null, "address": "Landesstraße 8, 9130 Poggersdorf", "street": "Landesstraße", "housenumber": "8", "postcode": "9130", "place": "Poggersdorf", "lat": 46.6419627, "lon": 14.451552, "tags": {"addr:city": "Poggersdorf", "addr:housenumber": "8", "addr:postcode": "9130", "addr:street": "Landesstraße"}, "content": "Adresse: Landesstraße 8, 9130 Poggersdorf\nOrt: Poggersdorf\nPLZ: 9130\nKoordinaten: 46.641963, 14.451552", "doc_type": "addresses"}
{"source": "OSM", "region": "Kärnten", "osm_type": "node", "osm_id": 5649382006, "name": "ADEG", "category": "shop:supermarket", "address": "Marktplatz 3, 9130 Poggersdorf", "street": "Marktplatz", "housenumber": "3", "postcode": "9130", "place": "Poggersdorf", "lat": 46.6417237, "lon": 14.4513365, "tags": {"addr:city": "Poggersdorf", "addr:housenumber": "3", "addr:postcode": "9130", "addr:street": "Marktplatz", "brand": "ADEG", "name": "ADEG", "shop": "supermarket"}, "content": "ADEG\nKategorie: shop:supermarket\nAdresse: Marktplatz 3, 9130 Poggersdorf\nOrt: Poggersdorf\nPLZ: 9130\nKoordinaten: 46.641724, 14.451337\nTags: shop=supermarket, brand=ADEG", "doc_type": "addresses"}
{"source": "OSM", "region": "Kärnten", "osm_type": "node", "osm_id": 5649382007, "name": "Christiane's Hairstyle", "category": "shop:hairdresser", "address": "Marktplatz 2, 9130 Poggersdorf", "street": "Marktplatz", "housenumber": "2", "postcode": "9130", "place": "Poggersdorf", "lat": 46.6415592, "lon": 14.4513281, "tags": {"addr:city": "Poggersdorf", "addr:housenumber": "2", "addr:postcode": "9130", "addr:street": "Marktplatz", "name": "Christiane's Hairstyle", "shop": "hairdresser"}, "content": "Christiane's Hairstyle\nKategorie: shop:hairdresser\nAdresse: Marktplatz 2, 9130 Poggersdorf\nOrt: Poggersdorf\nPLZ: 9130\nKoordinaten: 46.641559, 14.451328\nTags: shop=hairdresser", "doc_type": "addresses"}
{"source": "OSM", "region": "Kärnten", "osm_type": "node", "osm_id": 5649382008, "name": "Volksbank", "category": "amenity:bank", "address": "Marktplatz 1, 9130 Poggersdorf", "street": "Marktplatz", "housenumber": "1", "postcode": "9130", "place": "Poggersdorf", "lat": 46.6414302, "lon": 14.4513196, "tags": {"addr:city": "Poggersdorf", "addr:housenumber": "1", "addr:postcode": "9130", "addr:street": "Marktplatz", "amenity": "bank", "brand": "Volksbank", "name": "Volksbank"}, "content": "Volksbank\nKategorie: amenity:bank\nAdresse: Marktplatz 1, 9130 Poggersdorf\nOrt: Poggersdorf\nPLZ: 9130\nKoordinaten: 46.641430, 14.451320\nTags: amenity=bank, brand=Volksbank", "doc_type": "addresses"}
{"source": "OSM", "region": "Kärnten", "osm_type": "node", "osm_id": 5649382006, "name": "ADEG", "category": "shop:supermarket", "address": "Marktplatz 3, 9130 Poggersdorf", "street": "Marktplatz", "housenumber": "3", "postcode": "9130", "place": "Poggersdorf", "lat": 46.6417237, "lon": 14.4513365, "tags": {"addr:city": "Poggersdorf", "addr:housenumber": "3", "addr:postcode": "9130", "addr:street": "Marktplatz", "brand": "ADEG", "name": "ADEG", "shop": "supermarket"}, "content": "ADEG\nKategorie: shop:supermarket\nAdresse: Marktplatz 3, 9130 Poggersdorf\nOrt: Poggersdorf\nPLZ: 9130\nKoordinaten: 46.641724, 14.451337\nTags: shop=supermarket, brand=ADEG", "doc_type": "pois"}
{"source": "OSM", "region": "Kärnten", "osm_type": "node", "osm_id": 5649382007, "name": "Christiane's Hairstyle", "category": "shop:hairdresser", "address": "Marktplatz 2, 9130 Poggersdorf", "street": "Marktplatz", "housenumber": "2", "postcode": "9130", "place": "Poggersdorf", "lat": 46.6415592, "lon": 14.4513281, "tags": {"addr:city": "Poggersdorf", "addr:housenumber": "2", "addr:postcode": "9130", "addr:street": "Marktplatz", "name": "Christiane's Hairstyle", "shop": "hairdresser"}, "content": "Christiane's Hairstyle\nKategorie: shop:hairdresser\nAdresse: Marktplatz 2, 9130 Poggersdorf\nOrt: Poggersdorf\nPLZ: 9130\nKoordinaten: 46.641559, 14.451328\nTags: shop=hairdresser", "doc_type": "pois"}
{"source": "OSM", "region": "Kärnten", "osm_type": "node", "osm_id": 5649382008, "name": "Volksbank", "category": "amenity:bank", "address": "Marktplatz 1, 9130 Poggersdorf", "street": "Marktplatz", "housenumber": "1", "postcode": "9130", "place": "Poggersdorf", "lat": 46.6414302, "lon": 14.4513196, "tags": {"addr:city": "Poggersdorf", "addr:housenumber": "1", "addr:postcode": "9130", "addr:street": "Marktplatz", "amenity": "bank", "brand": "Volksbank", "name": "Volksbank"}, "content": "Volksbank\nKategorie: amenity:bank\nAdresse: Marktplatz 1, 9130 Poggersdorf\nOrt: Poggersdorf\nPLZ: 9130\nKoordinaten: 46.641430, 14.451320\nTags: amenity=bank, brand=Volksbank", "doc_type": "pois"}
