{"source": "OSM", "region": "Kärnten", "osm_type": "node", "osm_id": 5392889959, "name": null, "category": null, "address": "Seeblick 34, 9560 St. Ruprecht", "street": "Seeblick", "housenumber": "34", "postcode": "9560", "place": "St. Ruprecht", "lat": 46.7249015, "lon": 14.1108953, "tags": {"addr:city": "St. Ruprecht", "addr:housenumber": "34", "addr:postcode": "9560", "addr:street": "Seeblick"}, "content": "Adresse: Seeblick 34, 9560 St. Ruprecht\nOrt: St. Ruprecht\nPLZ: 9560\nKoordinaten: 46.724902, 14.110895", "doc_type": "addresses"}
{"source": "OSM", "region": "Kärnten", "osm_type": "node", "osm_id": 5392889960, "name": null, "category": null, "address": "Seeblick 14, 9560 St. Ruprecht", "street": "Seeblick", "housenumber": "14", "postcode": "9560", "place": "St. Ruprecht", "lat": 46.7241371, "lon": 14.1117092, "tags": {"addr:city": "St. Ruprecht", "addr:housenumber": "14", "addr:postcode": "9560", "addr:street": "Seeblick"}, "content": "Adresse: Seeblick 14, 9560 St. Ruprecht\nOrt: St. Ruprecht\nPLZ: 9560\nKoordinaten: 46.724137, 14.111709", "doc_type": "addresses"}
{"source": "OSM", "region": "Kärnten", "osm_type": "node", "osm_id": 5392890160, "name": null, "category": null, "address": "Rangetinerstraße 17, 9560 St. Ruprecht", "street": "Rangetinerstraße", "housenumber": "17", "postcode": "9560", "place": "St. Ruprecht", "lat": 46.7232792, "lon": 14.1090714, "tags": {"addr:city": "St. Ruprecht", "addr:housenumber": "17", "addr:postcode": "9560", "addr:street": "Rangetinerstraße"}, "content": "Adresse: Rangetinerstraße 17, 9560 St. Ruprecht\nOrt: St. Ruprecht\nPLZ: 9560\nKoordinaten: 46.723279, 14.109071", "doc_type": "addresses"}
{"source": "OSM", "region": "Kärnten", "osm_type": "node", "osm_id": 5392890161, "name": null, "category": null, "address": "Seeblick 21, 9560 St. Ruprecht", "street": "Seeblick", "housenumber": "21", "postcode": "9560", "place": "St. Ruprecht", "lat": 46.7247072, "lon": 14.1119324, "tags": {"addr:city": "St. Ruprecht", "addr:housenumber": "21", "addr:postcode": "9560", "addr:street": "Seeblick"}, "content": "Adresse: Seeblick 21, 9560 St. Ruprecht\nOrt: St. Ruprecht\nPLZ: 9560\nKoordinaten: 46.724707, 14.111932", "doc_type": "addresses"}
{"source": "OSM", "region": "Kärnten", "osm_type": "node", "osm_id": 5392890162, "name": null, "category": null, "address": "Höhenstraße 16, 9560 St. Ruprecht", "street": "Höhenstraße", "housenumber": "16", "postcode": "9560", "place": "St. Ruprecht", "lat": 46.7216439, "lon": 14.1098423, "tags": {"addr:city": "St. Ruprecht", "addr:housenumber": "16", "addr:postcode": "9560", "addr:street": "Höhenstraße"}, "content": "Adresse: Höhenstraße 16, 9560 St. Ruprecht\nOrt: St. Ruprecht\nPLZ: 9560\nKoordinaten: 46.721644, 14.109842", "doc_type": "addresses"}
