{"source": "OSM", "region": "Kärnten", "osm_type": "node", "osm_id": 240071833, "name": "Gästehaus Lanthaler", "category": "tourism:guest_house", "address": "Lessach 22, 9184 St. Jakob im Rosental", "street": "Lessach", "housenumber": "22", "postcode": "9184", "place": "St. Jakob im Rosental", "lat": 46.5392167, "lon": 14.0517527, "tags": {"addr:city": "St. Jakob im Rosental", "addr:housenumber": "22", "addr:postcode": "9184", "addr:street": "Lessach", "name": "Gästehaus Lanthaler", "tourism": "guest_house"}, "content": "Gästehaus Lanthaler\nKategorie: tourism:guest_house\nAdresse: Lessach 22, 9184 St. Jakob im Rosental\nOrt: St. Jakob im Rosental\nPLZ: 9184\nKoordinaten: 46.539217, 14.051753", "doc_type": "addresses"}
{"source": "OSM", "region": "Kärnten", "osm_type": "node", "osm_id": 768544932, "name": "Gasthof - Pension Thomashof", "category": "amenity:restaurant", "address": "31, 9184 St. Jakob im Rosental", "street": null, "housenumber": "31", "postcode": "9184", "place": "St. Jakob im Rosental", "lat": 46.5647072, "lon": 14.0317874, "tags": {"addr:city": "St. Jakob im Rosental", "addr:housenumber": "31", "addr:place": "Mühlbach", "addr:postcode": "9184", "amenity": "restaurant", "name": "Gasthof - Pension Thomashof", "website": "https://www.thomashof.at/"}, "content": "Gasthof - Pension Thomashof\nKategorie: amenity:restaurant\nAdresse: 31, 9184 St. Jakob im Rosental\nOrt: St. Jakob im Rosental\nPLZ: 9184\nKoordinaten: 46.564707, 14.031787\nTags: amenity=restaurant, website=https://www.thomashof.at/", "doc_type": "addresses"}
{"source": "OSM", "region": "Kärnten", "osm_type": "node", "osm_id": 768544954, "name": "Hotel Rosentalerhof", "category": "tourism:hotel", "address": "28, 9184 St. Jakob im Rosental", "street": null, "housenumber": "28", "postcode": "9184", "place": "St. Jakob im Rosental", "lat": 46.5652725, "lon": 14.0310157, "tags": {"addr:city": "St. Jakob im Rosental", "addr:housenumber": "28", "addr:place": "Mühlbach", "addr:postcode": "9184", "name": "Hotel Rosentalerhof", "tourism": "hotel"}, "content": "Hotel Rosentalerhof\nKategorie: tourism:hotel\nAdresse: 28, 9184 St. Jakob im Rosental\nOrt: St. Jakob im Rosental\nPLZ: 9184\nKoordinaten: 46.565272, 14.031016", "doc_type": "addresses"}
{"source": "OSM", "region": "Kärnten", "osm_type": "node", "osm_id": 1261955138, "name": "Auer", "category": "amenity:restaurant", "address": "10, 9182 St. Jakob im Rosental", "street": null, "housenumber": "10", "postcode": "9182", "place": "St. Jakob im Rosental", "lat": 46.5302064, "lon": 14.0842906, "tags": {"addr:city": "St. Jakob im Rosental", "addr:housenumber": "10", "addr:place": "Maria Elend", "addr:postcode": "9182", "amenity": "restaurant", "name": "Auer"}, "content": "Auer\nKategorie: amenity:restaurant\nAdresse: 10, 9182 St. Jakob im Rosental\nOrt: St. Jakob im Rosental\nPLZ: 9182\nKoordinaten: 46.530206, 14.084291\nTags: amenity=restaurant", "doc_type": "addresses"}
{"source": "OSM", "region": "Kärnten", "osm_type": "node", "osm_id": 1335360791, "name": "Billa", "category": "shop:supermarket", "address": "Rosental Straße 103, 9184 St. Jakob im Rosental", "street": "Rosental Straße", "housenumber": "103", "postcode": "9184", "place": "St. Jakob im Rosental", "lat": 46.5471419, "lon": 14.0618315, "tags": {"addr:city": "St. Jakob im Rosental", "addr:housenumber": "103", "addr:postcode": "9184", "addr:street": "Rosental Straße", "brand": "Billa", "name": "Billa", "shop": "supermarket"}, "content": "Billa\nKategorie: shop:supermarket\nAdresse: Rosental Straße 103, 9184 St. Jakob im Rosental\nOrt: St. Jakob im Rosental\nPLZ: 9184\nKoordinaten: 46.547142, 14.061832\nTags: shop=supermarket, brand=Billa", "doc_type": "addresses"}
{"source": "OSM", "region": "Kärnten", "osm_type": "node", "osm_id": 1381865674, "name": "Posojilnica Bank eGen", "category": "amenity:bank", "address": "Hauptplatz 3a, 9184 St. Jakob im Rosental", "street": "Hauptplatz", "housenumber": "3a", "postcode": "9184", "place": "St. Jakob im Rosental", "lat": 46.5489363, "lon": 14.0523396, "tags": {"addr:city": "St. Jakob im Rosental", "addr:housenumber": "3a", "addr:postcode": "9184", "addr:street": "Hauptplatz", "amenity": "bank", "name": "Posojilnica Bank eGen", "phone": "+43 463 512 365", "website": "https://www.poso.at/"}, "content": "Posojilnica Bank eGen\nKategorie: amenity:bank\nAdresse: Hauptplatz 3a, 9184 St. Jakob im Rosental\nOrt: St. Jakob im Rosental\nPLZ: 9184\nKoordinaten: 46.548936, 14.052340\nTags: amenity=bank, phone=+43 463 512 365, website=https://www.poso.at/", "doc_type": "addresses"}
{"source": "OSM", "region": "Kärnten", "osm_type": "node", "osm_id": 1691886550, "name": "Trafik", "category": "shop:kiosk", "address": "Hauptplatz 161, 9184 St. Jakob im Rosental", "street": "Hauptplatz", "housenumber": "161", "postcode": "9184", "place": "St. Jakob im Rosental", "lat": 46.5490151, "lon": 14.0522479, "tags": {"addr:city": "St. Jakob im Rosental", "addr:housenumber": "161", "addr:postcode": "9184", "addr:street": "Hauptplatz", "name": "Trafik", "shop": "kiosk"}, "content": "Trafik\nKategorie: shop:kiosk\nAdresse: Hauptplatz 161, 9184 St. Jakob im Rosental\nOrt: St. Jakob im Rosental\nPLZ: 9184\nKoordinaten: 46.549015, 14.052248\nTags: shop=kiosk", "doc_type": "addresses"}
{"source": "OSM", "region": "Kärnten", "osm_type": "node", "osm_id": 2093901535, "name": "Volksschule St. Jakob", "category": "amenity:school", "address": "Schulweg 1, 9184 St. Jakob im Rosental", "street": "Schulweg", "housenumber": "1", "postcode": "9184", "place": "St. Jakob im Rosental", "lat": 46.5509416, "lon": 14.0513059, "tags": {"addr:city": "St. Jakob im Rosental", "addr:housenumber": "1", "addr:postcode": "9184", "addr:street": "Schulweg", "amenity": "school", "name": "Volksschule St. Jakob"}, "content": "Volksschule St. Jakob\nKategorie: amenity:school\nAdresse: Schulweg 1, 9184 St. Jakob im Rosental\nOrt: St. Jakob im Rosental\nPLZ: 9184\nKoordinaten: 46.550942, 14.051306\nTags: amenity=school", "doc_type": "addresses"}
{"source": "OSM", "region": "Kärnten", "osm_type": "node", "osm_id": 2307785662, "name": "Friseursalon Franziska", "category": "shop:hairdresser", "address": "St.-Jakob im Rosental 202, 9184 St. Jakob im Rosental", "street": "St.-Jakob im Rosental", "housenumber": "202", "postcode": "9184", "place": "St. Jakob im Rosental", "lat": 46.546379, "lon": 14.0615815, "tags": {"addr:city": "St. Jakob im Rosental", "addr:housenumber": "202", "addr:postcode": "9184", "addr:street": "St.-Jakob im Rosental", "name": "Friseursalon Franziska", "operator": "Koffler KG", "shop": "hairdresser"}, "content": "Friseursalon Franziska\nKategorie: shop:hairdresser\nAdresse: St.-Jakob im Rosental 202, 9184 St. Jakob im Rosental\nOrt: St. Jakob im Rosental\nPLZ: 9184\nKoordinaten: 46.546379, 14.061582\nTags: shop=hairdresser, operator=Koffler KG", "doc_type": "addresses"}
{"source": "OSM", "region": "Kärnten", "osm_type": "node", "osm_id": 2307785845, "name": "Spar", "category": "shop:supermarket", "address": "Rosental Straße 86a, 9184 St. Jakob im Rosental", "street": "Rosental Straße", "housenumber": "86a", "postcode": "9184", "place": "St. Jakob im Rosental", "lat": 46.5463861, "lon": 14.0594668, "tags": {"addr:city": "St. Jakob im Rosental", "addr:housenumber": "86a", "addr:postcode": "9184", "addr:street": "Rosental Straße", "brand": "Spar", "name": "Spar", "shop": "supermarket"}, "content": "Spar\nKategorie: shop:supermarket\nAdresse: Rosental Straße 86a, 9184 St. Jakob im Rosental\nOrt: St. Jakob im Rosental\nPLZ: 9184\nKoordinaten: 46.546386, 14.059467\nTags: shop=supermarket, brand=Spar", "doc_type": "addresses"}
{"source": "OSM", "region": "Kärnten", "osm_type": "node", "osm_id": 2474968172, "name": "Francobollo Restaurant & Pizza", "category": "amenity:restaurant", "address": "St. Jakob im Rosental 59, 9184 St. Jakob im Rosental", "street": "St. Jakob im Rosental", "housenumber": "59", "postcode": "9184", "place": "St. Jakob im Rosental", "lat": 46.5502154, "lon": 14.0513961, "tags": {"addr:city": "St. Jakob im Rosental", "addr:housenumber": "59", "addr:postcode": "9184", "addr:street": "St. Jakob im Rosental", "amenity": "restaurant", "name": "Francobollo Restaurant & Pizza", "phone": "+43 4253 8888", "website": "https://francobollo.at"}, "content": "Francobollo Restaurant & Pizza\nKategorie: amenity:restaurant\nAdresse: St. Jakob im Rosental 59, 9184 St. Jakob im Rosental\nOrt: St. Jakob im Rosental\nPLZ: 9184\nKoordinaten: 46.550215, 14.051396\nTags: amenity=restaurant, phone=+43 4253 8888, website=https://francobollo.at", "doc_type": "addresses"}
{"source": "OSM", "region": "Kärnten", "osm_type": "node", "osm_id": 2691233307, "name": "Rosen Apotheke", "category": "amenity:pharmacy", "address": "Längdorfer Straße 2, 9184 St. Jakob im Rosental", "street": "Längdorfer Straße", "housenumber": "2", "postcode": "9184", "place": "St. Jakob im Rosental", "lat": 46.5469367, "lon": 14.0592382, "tags": {"addr:city": "St. Jakob im Rosental", "addr:housenumber": "2", "addr:postcode": "9184", "addr:street": "Längdorfer Straße", "amenity": "pharmacy", "healthcare": "pharmacy", "name": "Rosen Apotheke", "website": "https://www.rosenapotheke.at/"}, "content": "Rosen Apotheke\nKategorie: amenity:pharmacy\nAdresse: Längdorfer Straße 2, 9184 St. Jakob im Rosental\nOrt: St. Jakob im Rosental\nPLZ: 9184\nKoordinaten: 46.546937, 14.059238\nTags: amenity=pharmacy, healthcare=pharmacy, website=https://www.rosenapotheke.at/", "doc_type": "addresses"}
{"source": "OSM", "region": "Kärnten", "osm_type": "node", "osm_id": 3740061430, "name": "Werbegrafik Petermann", "category": "office:company", "address": "57, 9183 St. Jakob im Rosental", "street": null, "housenumber": "57", "postcode": "9183", "place": "St. Jakob im Rosental", "lat": 46.5391909, "lon": 14.0310651, "tags": {"addr:city": "St. Jakob im Rosental", "addr:housenumber": "57", "addr:place": "Schlatten", "addr:postcode": "9183", "name": "Werbegrafik Petermann", "office": "company"}, "content": "Werbegrafik Petermann\nKategorie: office:company\nAdresse: 57, 9183 St. Jakob im Rosental\nOrt: St. Jakob im Rosental\nPLZ: 9183\nKoordinaten: 46.539191, 14.031065\nTags: office=company", "doc_type": "addresses"}
{"source": "OSM", "region": "Kärnten", "osm_type": "node", "osm_id": 3740068772, "name": "Dr. Albin Kropfmüller", "category": "amenity:doctors", "address": "Rosental Straße 77, 9184 St. Jakob im Rosental", "street": "Rosental Straße", "housenumber": "77", "postcode": "9184", "place": "St. Jakob im Rosental", "lat": 46.5482344, "lon": 14.0552572, "tags": {"addr:city": "St. Jakob im Rosental", "addr:housenumber": "77", "addr:postcode": "9184", "addr:street": "Rosental Straße", "amenity": "doctors", "healthcare": "doctor", "name": "Dr. Albin Kropfmüller"}, "content": "Dr. Albin Kropfmüller\nKategorie: amenity:doctors\nAdresse: Rosental Straße 77, 9184 St. Jakob im Rosental\nOrt: St. Jakob im Rosental\nPLZ: 9184\nKoordinaten: 46.548234, 14.055257\nTags: amenity=doctors, healthcare=doctor", "doc_type": "addresses"}
{"source": "OSM", "region": "Kärnten", "osm_type": "node", "osm_id": 3740068775, "name": "Neue Mittelschule St. Jakob", "category": "amenity:school", "address": "Schulweg 5, 9184 St. Jakob im Rosental", "street": "Schulweg", "housenumber": "5", "postcode": "9184", "place": "St. Jakob im Rosental", "lat": 46.551773, "lon": 14.0515981, "tags": {"addr:city": "St. Jakob im Rosental", "addr:housenumber": "5", "addr:postcode": "9184", "addr:street": "Schulweg", "amenity": "school", "name": "Neue Mittelschule St. Jakob"}, "content": "Neue Mittelschule St. Jakob\nKategorie: amenity:school\nAdresse: Schulweg 5, 9184 St. Jakob im Rosental\nOrt: St. Jakob im Rosental\nPLZ: 9184\nKoordinaten: 46.551773, 14.051598\nTags: amenity=school", "doc_type": "addresses"}
{"source": "OSM", "region": "Kärnten", "osm_type": "node", "osm_id": 3740068777, "name": "Globo Lighting", "category": "office:company", "address": "Gewerbestraße 1, 9184 St. Jakob im Rosental", "street": "Gewerbestraße", "housenumber": "1", "postcode": "9184", "place": "St. Jakob im Rosental", "lat": 46.555163, "lon": 14.0378331, "tags": {"addr:city": "St. Jakob im Rosental", "addr:housenumber": "1", "addr:postcode": "9184", "addr:street": "Gewerbestraße", "name": "Globo Lighting", "office": "company", "phone": "+43 4253 32050", "website": "https://www.globo-lighting.com/"}, "content": "Globo Lighting\nKategorie: office:company\nAdresse: Gewerbestraße 1, 9184 St. Jakob im Rosental\nOrt: St. Jakob im Rosental\nPLZ: 9184\nKoordinaten: 46.555163, 14.037833\nTags: office=company, phone=+43 4253 32050, website=https://www.globo-lighting.com/", "doc_type": "addresses"}
{"source": "OSM", "region": "Kärnten", "osm_type": "node", "osm_id": 3754891338, "name": "Gasthof Pension Lindenhof", "category": "amenity:restaurant", "address": "19, 9182 St. Jakob im Rosental", "street": null, "housenumber": "19", "postcode": "9182", "place": "St. Jakob im Rosental", "lat": 46.5329757, "lon": 14.064637, "tags": {"addr:city": "St. Jakob im Rosental", "addr:housenumber": "19", "addr:place": "Tallach", "addr:postcode": "9182", "amenity": "restaurant", "name": "Gasthof Pension Lindenhof"}, "content": "Gasthof Pension Lindenhof\nKategorie: amenity:restaurant\nAdresse: 19, 9182 St. Jakob im Rosental\nOrt: St. Jakob im Rosental\nPLZ: 9182\nKoordinaten: 46.532976, 14.064637\nTags: amenity=restaurant", "doc_type": "addresses"}
{"source": "OSM", "region": "Kärnten", "osm_type": "node", "osm_id": 5118018225, "name": "Polizeiinspektion St. Jakob im Rosental", "category": "amenity:police", "address": "Rosental Straße 97, 9184 St. Jakob im Rosental", "street": "Rosental Straße", "housenumber": "97", "postcode": "9184", "place": "St. Jakob im Rosental", "lat": 46.5468456, "lon": 14.0603891, "tags": {"addr:city": "St. Jakob im Rosental", "addr:housenumber": "97", "addr:postcode": "9184", "addr:street": "Rosental Straße", "amenity": "police", "name": "Polizeiinspektion St. Jakob im Rosental", "phone": "+43 59133 2263-100"}, "content": "Polizeiinspektion St. Jakob im Rosental\nKategorie: amenity:police\nAdresse: Rosental Straße 97, 9184 St. Jakob im Rosental\nOrt: St. Jakob im Rosental\nPLZ: 9184\nKoordinaten: 46.546846, 14.060389\nTags: amenity=police, phone=+43 59133 2263-100", "doc_type": "addresses"}
{"source": "OSM", "region": "Kärnten", "osm_type": "node", "osm_id": 5200202537, "name": "Seidl GmbH", "category": "craft:roofer", "address": "Rosental Straße 95, 9184 St. Jakob im Rosental", "street": "Rosental Straße", "housenumber": "95", "postcode": "9184", "place": "St. Jakob im Rosental", "lat": 46.5468513, "lon": 14.05869, "tags": {"addr:city": "St. Jakob im Rosental", "addr:housenumber": "95", "addr:postcode": "9184", "addr:street": "Rosental Straße", "craft": "roofer", "name": "Seidl GmbH", "operator": "Seidl GmbH"}, "content": "Seidl GmbH\nKategorie: craft:roofer\nAdresse: Rosental Straße 95, 9184 St. Jakob im Rosental\nOrt: St. Jakob im Rosental\nPLZ: 9184\nKoordinaten: 46.546851, 14.058690\nTags: operator=Seidl GmbH", "doc_type": "addresses"}
{"source": "OSM", "region": "Kärnten", "osm_type": "node", "osm_id": 240071833, "name": "Gästehaus Lanthaler", "category": "tourism:guest_house", "address": "Lessach 22, 9184 St. Jakob im Rosental", "street": "Lessach", "housenumber": "22", "postcode": "9184", "place": "St. Jakob im Rosental", "lat": 46.5392167, "lon": 14.0517527, "tags": {"addr:city": "St. Jakob im Rosental", "addr:housenumber": "22", "addr:postcode": "9184", "addr:street": "Lessach", "name": "Gästehaus Lanthaler", "tourism": "guest_house"}, "content": "Gästehaus Lanthaler\nKategorie: tourism:guest_house\nAdresse: Lessach 22, 9184 St. Jakob im Rosental\nOrt: St. Jakob im Rosental\nPLZ: 9184\nKoordinaten: 46.539217, 14.051753", "doc_type": "pois"}
{"source": "OSM", "region": "Kärnten", "osm_type": "node", "osm_id": 340517884, "name": "9184 St. Jakob im Rosental", "category": "amenity:post_office", "address": "9184 St. Jakob im Rosental", "street": null, "housenumber": null, "postcode": "9184", "place": "St. Jakob im Rosental", "lat": 46.5461813, "lon": 14.0591264, "tags": {"addr:city": "St. Jakob im Rosental", "addr:postcode": "9184", "amenity": "post_office", "name": "9184 St. Jakob im Rosental"}, "content": "9184 St. Jakob im Rosental\nKategorie: amenity:post_office\nAdresse: 9184 St. Jakob im Rosental\nOrt: St. Jakob im Rosental\nPLZ: 9184\nKoordinaten: 46.546181, 14.059126\nTags: amenity=post_office", "doc_type": "pois"}
{"source": "OSM", "region": "Kärnten", "osm_type": "node", "osm_id": 768544932, "name": "Gasthof - Pension Thomashof", "category": "amenity:restaurant", "address": "31, 9184 St. Jakob im Rosental", "street": null, "housenumber": "31", "postcode": "9184", "place": "St. Jakob im Rosental", "lat": 46.5647072, "lon": 14.0317874, "tags": {"addr:city": "St. Jakob im Rosental", "addr:housenumber": "31", "addr:place": "Mühlbach", "addr:postcode": "9184", "amenity": "restaurant", "name": "Gasthof - Pension Thomashof", "website": "https://www.thomashof.at/"}, "content": "Gasthof - Pension Thomashof\nKategorie: amenity:restaurant\nAdresse: 31, 9184 St. Jakob im Rosental\nOrt: St. Jakob im Rosental\nPLZ: 9184\nKoordinaten: 46.564707, 14.031787\nTags: amenity=restaurant, website=https://www.thomashof.at/", "doc_type": "pois"}
{"source": "OSM", "region": "Kärnten", "osm_type": "node", "osm_id": 768544954, "name": "Hotel Rosentalerhof", "category": "tourism:hotel", "address": "28, 9184 St. Jakob im Rosental", "street": null, "housenumber": "28", "postcode": "9184", "place": "St. Jakob im Rosental", "lat": 46.5652725, "lon": 14.0310157, "tags": {"addr:city": "St. Jakob im Rosental", "addr:housenumber": "28", "addr:place": "Mühlbach", "addr:postcode": "9184", "name": "Hotel Rosentalerhof", "tourism": "hotel"}, "content": "Hotel Rosentalerhof\nKategorie: tourism:hotel\nAdresse: 28, 9184 St. Jakob im Rosental\nOrt: St. Jakob im Rosental\nPLZ: 9184\nKoordinaten: 46.565272, 14.031016", "doc_type": "pois"}
{"source": "OSM", "region": "Kärnten", "osm_type": "node", "osm_id": 772474817, "name": "Gästehaus Glancnik", "category": "tourism:guest_house", "address": "St. Jakob im Rosental", "street": null, "housenumber": null, "postcode": null, "place": "St. Jakob im Rosental", "lat": 46.5557725, "lon": 14.0243048, "tags": {"addr:city": "St. Jakob im Rosental", "name": "Gästehaus Glancnik", "tourism": "guest_house"}, "content": "Gästehaus Glancnik\nKategorie: tourism:guest_house\nAdresse: St. Jakob im Rosental\nOrt: St. Jakob im Rosental\nKoordinaten: 46.555773, 14.024305", "doc_type": "pois"}
{"source": "OSM", "region": "Kärnten", "osm_type": "node", "osm_id": 1261955138, "name": "Auer", "category": "amenity:restaurant", "address": "10, 9182 St. Jakob im Rosental", "street": null, "housenumber": "10", "postcode": "9182", "place": "St. Jakob im Rosental", "lat": 46.5302064, "lon": 14.0842906, "tags": {"addr:city": "St. Jakob im Rosental", "addr:housenumber": "10", "addr:place": "Maria Elend", "addr:postcode": "9182", "amenity": "restaurant", "name": "Auer"}, "content": "Auer\nKategorie: amenity:restaurant\nAdresse: 10, 9182 St. Jakob im Rosental\nOrt: St. Jakob im Rosental\nPLZ: 9182\nKoordinaten: 46.530206, 14.084291\nTags: amenity=restaurant", "doc_type": "pois"}
{"source": "OSM", "region": "Kärnten", "osm_type": "node", "osm_id": 1335360791, "name": "Billa", "category": "shop:supermarket", "address": "Rosental Straße 103, 9184 St. Jakob im Rosental", "street": "Rosental Straße", "housenumber": "103", "postcode": "9184", "place": "St. Jakob im Rosental", "lat": 46.5471419, "lon": 14.0618315, "tags": {"addr:city": "St. Jakob im Rosental", "addr:housenumber": "103", "addr:postcode": "9184", "addr:street": "Rosental Straße", "brand": "Billa", "name": "Billa", "shop": "supermarket"}, "content": "Billa\nKategorie: shop:supermarket\nAdresse: Rosental Straße 103, 9184 St. Jakob im Rosental\nOrt: St. Jakob im Rosental\nPLZ: 9184\nKoordinaten: 46.547142, 14.061832\nTags: shop=supermarket, brand=Billa", "doc_type": "pois"}
{"source": "OSM", "region": "Kärnten", "osm_type": "node", "osm_id": 1335360793, "name": "Lagerhaus", "category": "amenity:fuel", "address": "St. Jakob im Rosental", "street": null, "housenumber": null, "postcode": null, "place": "St. Jakob im Rosental", "lat": 46.5512993, "lon": 14.0490034, "tags": {"addr:city": "St. Jakob im Rosental", "amenity": "fuel", "operator": "Lagerhaus"}, "content": "Lagerhaus\nKategorie: amenity:fuel\nAdresse: St. Jakob im Rosental\nOrt: St. Jakob im Rosental\nKoordinaten: 46.551299, 14.049003\nTags: amenity=fuel, operator=Lagerhaus", "doc_type": "pois"}
{"source": "OSM", "region": "Kärnten", "osm_type": "node", "osm_id": 1381865674, "name": "Posojilnica Bank eGen", "category": "amenity:bank", "address": "Hauptplatz 3a, 9184 St. Jakob im Rosental", "street": "Hauptplatz", "housenumber": "3a", "postcode": "9184", "place": "St. Jakob im Rosental", "lat": 46.5489363, "lon": 14.0523396, "tags": {"addr:city": "St. Jakob im Rosental", "addr:housenumber": "3a", "addr:postcode": "9184", "addr:street": "Hauptplatz", "amenity": "bank", "name": "Posojilnica Bank eGen", "phone": "+43 463 512 365", "website": "https://www.poso.at/"}, "content": "Posojilnica Bank eGen\nKategorie: amenity:bank\nAdresse: Hauptplatz 3a, 9184 St. Jakob im Rosental\nOrt: St. Jakob im Rosental\nPLZ: 9184\nKoordinaten: 46.548936, 14.052340\nTags: amenity=bank, phone=+43 463 512 365, website=https://www.poso.at/", "doc_type": "pois"}
{"source": "OSM", "region": "Kärnten", "osm_type": "node", "osm_id": 1691886550, "name": "Trafik", "category": "shop:kiosk", "address": "Hauptplatz 161, 9184 St. Jakob im Rosental", "street": "Hauptplatz", "housenumber": "161", "postcode": "9184", "place": "St. Jakob im Rosental", "lat": 46.5490151, "lon": 14.0522479, "tags": {"addr:city": "St. Jakob im Rosental", "addr:housenumber": "161", "addr:postcode": "9184", "addr:street": "Hauptplatz", "name": "Trafik", "shop": "kiosk"}, "content": "Trafik\nKategorie: shop:kiosk\nAdresse: Hauptplatz 161, 9184 St. Jakob im Rosental\nOrt: St. Jakob im Rosental\nPLZ: 9184\nKoordinaten: 46.549015, 14.052248\nTags: shop=kiosk", "doc_type": "pois"}
{"source": "OSM", "region": "Kärnten", "osm_type": "node", "osm_id": 2093901535, "name": "Volksschule St. Jakob", "category": "amenity:school", "address": "Schulweg 1, 9184 St. Jakob im Rosental", "street": "Schulweg", "housenumber": "1", "postcode": "9184", "place": "St. Jakob im Rosental", "lat": 46.5509416, "lon": 14.0513059, "tags": {"addr:city": "St. Jakob im Rosental", "addr:housenumber": "1", "addr:postcode": "9184", "addr:street": "Schulweg", "amenity": "school", "name": "Volksschule St. Jakob"}, "content": "Volksschule St. Jakob\nKategorie: amenity:school\nAdresse: Schulweg 1, 9184 St. Jakob im Rosental\nOrt: St. Jakob im Rosental\nPLZ: 9184\nKoordinaten: 46.550942, 14.051306\nTags: amenity=school", "doc_type": "pois"}
{"source": "OSM", "region": "Kärnten", "osm_type": "node", "osm_id": 2307785662, "name": "Friseursalon Franziska", "category": "shop:hairdresser", "address": "St.-Jakob im Rosental 202, 9184 St. Jakob im Rosental", "street": "St.-Jakob im Rosental", "housenumber": "202", "postcode": "9184", "place": "St. Jakob im Rosental", "lat": 46.546379, "lon": 14.0615815, "tags": {"addr:city": "St. Jakob im Rosental", "addr:housenumber": "202", "addr:postcode": "9184", "addr:street": "St.-Jakob im Rosental", "name": "Friseursalon Franziska", "operator": "Koffler KG", "shop": "hairdresser"}, "content": "Friseursalon Franziska\nKategorie: shop:hairdresser\nAdresse: St.-Jakob im Rosental 202, 9184 St. Jakob im Rosental\nOrt: St. Jakob im Rosental\nPLZ: 9184\nKoordinaten: 46.546379, 14.061582\nTags: shop=hairdresser, operator=Koffler KG", "doc_type": "pois"}
{"source": "OSM", "region": "Kärnten", "osm_type": "node", "osm_id": 2307785845, "name": "Spar", "category": "shop:supermarket", "address": "Rosental Straße 86a, 9184 St. Jakob im Rosental", "street": "Rosental Straße", "housenumber": "86a", "postcode": "9184", "place": "St. Jakob im Rosental", "lat": 46.5463861, "lon": 14.0594668, "tags": {"addr:city": "St. Jakob im Rosental", "addr:housenumber": "86a", "addr:postcode": "9184", "addr:street": "Rosental Straße", "brand": "Spar", "name": "Spar", "shop": "supermarket"}, "content": "Spar\nKategorie: shop:supermarket\nAdresse: Rosental Straße 86a, 9184 St. Jakob im Rosental\nOrt: St. Jakob im Rosental\nPLZ: 9184\nKoordinaten: 46.546386, 14.059467\nTags: shop=supermarket, brand=Spar", "doc_type": "pois"}
{"source": "OSM", "region": "Kärnten", "osm_type": "node", "osm_id": 2474968172, "name": "Francobollo Restaurant & Pizza", "category": "amenity:restaurant", "address": "St. Jakob im Rosental 59, 9184 St. Jakob im Rosental", "street": "St. Jakob im Rosental", "housenumber": "59", "postcode": "9184", "place": "St. Jakob im Rosental", "lat": 46.5502154, "lon": 14.0513961, "tags": {"addr:city": "St. Jakob im Rosental", "addr:housenumber": "59", "addr:postcode": "9184", "addr:street": "St. Jakob im Rosental", "amenity": "restaurant", "name": "Francobollo Restaurant & Pizza", "phone": "+43 4253 8888", "website": "https://francobollo.at"}, "content": "Francobollo Restaurant & Pizza\nKategorie: amenity:restaurant\nAdresse: St. Jakob im Rosental 59, 9184 St. Jakob im Rosental\nOrt: St. Jakob im Rosental\nPLZ: 9184\nKoordinaten: 46.550215, 14.051396\nTags: amenity=restaurant, phone=+43 4253 8888, website=https://francobollo.at", "doc_type": "pois"}
{"source": "OSM", "region": "Kärnten", "osm_type": "node", "osm_id": 2475367690, "name": "Volksbank", "category": "amenity:bank", "address": "St. Jakob im Rosental", "street": null, "housenumber": null, "postcode": null, "place": "St. Jakob im Rosental", "lat": 46.5472825, "lon": 14.0566863, "tags": {"addr:city": "St. Jakob im Rosental", "amenity": "bank", "name": "Volksbank"}, "content": "Volksbank\nKategorie: amenity:bank\nAdresse: St. Jakob im Rosental\nOrt: St. Jakob im Rosental\nKoordinaten: 46.547283, 14.056686\nTags: amenity=bank", "doc_type": "pois"}
{"source": "OSM", "region": "Kärnten", "osm_type": "node", "osm_id": 2488626639, "name": "Milan´s Car & Bike", "category": "shop:car_repair", "address": "St. Jakob im Rosental", "street": null, "housenumber": null, "postcode": null, "place": "St. Jakob im Rosental", "lat": 46.5459472, "lon": 14.0620002, "tags": {"addr:city": "St. Jakob im Rosental", "name": "Milan´s Car & Bike", "shop": "car_repair"}, "content": "Milan´s Car & Bike\nKategorie: shop:car_repair\nAdresse: St. Jakob im Rosental\nOrt: St. Jakob im Rosental\nKoordinaten: 46.545947, 14.062000\nTags: shop=car_repair", "doc_type": "pois"}
{"source": "OSM", "region": "Kärnten", "osm_type": "node", "osm_id": 2691233307, "name": "Rosen Apotheke", "category": "amenity:pharmacy", "address": "Längdorfer Straße 2, 9184 St. Jakob im Rosental", "street": "Längdorfer Straße", "housenumber": "2", "postcode": "9184", "place": "St. Jakob im Rosental", "lat": 46.5469367, "lon": 14.0592382, "tags": {"addr:city": "St. Jakob im Rosental", "addr:housenumber": "2", "addr:postcode": "9184", "addr:street": "Längdorfer Straße", "amenity": "pharmacy", "healthcare": "pharmacy", "name": "Rosen Apotheke", "website": "https://www.rosenapotheke.at/"}, "content": "Rosen Apotheke\nKategorie: amenity:pharmacy\nAdresse: Längdorfer Straße 2, 9184 St. Jakob im Rosental\nOrt: St. Jakob im Rosental\nPLZ: 9184\nKoordinaten: 46.546937, 14.059238\nTags: amenity=pharmacy, healthcare=pharmacy, website=https://www.rosenapotheke.at/", "doc_type": "pois"}
{"source": "OSM", "region": "Kärnten", "osm_type": "node", "osm_id": 3740061430, "name": "Werbegrafik Petermann", "category": "office:company", "address": "57, 9183 St. Jakob im Rosental", "street": null, "housenumber": "57", "postcode": "9183", "place": "St. Jakob im Rosental", "lat": 46.5391909, "lon": 14.0310651, "tags": {"addr:city": "St. Jakob im Rosental", "addr:housenumber": "57", "addr:place": "Schlatten", "addr:postcode": "9183", "name": "Werbegrafik Petermann", "office": "company"}, "content": "Werbegrafik Petermann\nKategorie: office:company\nAdresse: 57, 9183 St. Jakob im Rosental\nOrt: St. Jakob im Rosental\nPLZ: 9183\nKoordinaten: 46.539191, 14.031065\nTags: office=company", "doc_type": "pois"}
{"source": "OSM", "region": "Kärnten", "osm_type": "node", "osm_id": 3740068772, "name": "Dr. Albin Kropfmüller", "category": "amenity:doctors", "address": "Rosental Straße 77, 9184 St. Jakob im Rosental", "street": "Rosental Straße", "housenumber": "77", "postcode": "9184", "place": "St. Jakob im Rosental", "lat": 46.5482344, "lon": 14.0552572, "tags": {"addr:city": "St. Jakob im Rosental", "addr:housenumber": "77", "addr:postcode": "9184", "addr:street": "Rosental Straße", "amenity": "doctors", "healthcare": "doctor", "name": "Dr. Albin Kropfmüller"}, "content": "Dr. Albin Kropfmüller\nKategorie: amenity:doctors\nAdresse: Rosental Straße 77, 9184 St. Jakob im Rosental\nOrt: St. Jakob im Rosental\nPLZ: 9184\nKoordinaten: 46.548234, 14.055257\nTags: amenity=doctors, healthcare=doctor", "doc_type": "pois"}
{"source": "OSM", "region": "Kärnten", "osm_type": "node", "osm_id": 3740068773, "name": "Dr. Brigitte Waldhauser-Maier", "category": "amenity:doctors", "address": "St. Jakob im Rosental", "street": null, "housenumber": null, "postcode": null, "place": "St. Jakob im Rosental", "lat": 46.5471011, "lon": 14.0601922, "tags": {"addr:city": "St. Jakob im Rosental", "amenity": "doctors", "healthcare": "doctor", "name": "Dr. Brigitte Waldhauser-Maier"}, "content": "Dr. Brigitte Waldhauser-Maier\nKategorie: amenity:doctors\nAdresse: St. Jakob im Rosental\nOrt: St. Jakob im Rosental\nKoordinaten: 46.547101, 14.060192\nTags: amenity=doctors, healthcare=doctor", "doc_type": "pois"}
{"source": "OSM", "region": "Kärnten", "osm_type": "node", "osm_id": 3740068774, "name": "Dr. Johannes Martin Waldhauser", "category": "amenity:dentist", "address": "St. Jakob im Rosental", "street": null, "housenumber": null, "postcode": null, "place": "St. Jakob im Rosental", "lat": 46.5470587, "lon": 14.0601868, "tags": {"addr:city": "St. Jakob im Rosental", "amenity": "dentist", "healthcare": "dentist", "name": "Dr. Johannes Martin Waldhauser"}, "content": "Dr. Johannes Martin Waldhauser\nKategorie: amenity:dentist\nAdresse: St. Jakob im Rosental\nOrt: St. Jakob im Rosental\nKoordinaten: 46.547059, 14.060187\nTags: amenity=dentist, healthcare=dentist", "doc_type": "pois"}
{"source": "OSM", "region": "Kärnten", "osm_type": "node", "osm_id": 3740068775, "name": "Neue Mittelschule St. Jakob", "category": "amenity:school", "address": "Schulweg 5, 9184 St. Jakob im Rosental", "street": "Schulweg", "housenumber": "5", "postcode": "9184", "place": "St. Jakob im Rosental", "lat": 46.551773, "lon": 14.0515981, "tags": {"addr:city": "St. Jakob im Rosental", "addr:housenumber": "5", "addr:postcode": "9184", "addr:street": "Schulweg", "amenity": "school", "name": "Neue Mittelschule St. Jakob"}, "content": "Neue Mittelschule St. Jakob\nKategorie: amenity:school\nAdresse: Schulweg 5, 9184 St. Jakob im Rosental\nOrt: St. Jakob im Rosental\nPLZ: 9184\nKoordinaten: 46.551773, 14.051598\nTags: amenity=school", "doc_type": "pois"}
{"source": "OSM", "region": "Kärnten", "osm_type": "node", "osm_id": 3740068776, "name": "Bäckerei Schuster", "category": "shop:bakery", "address": "St. Jakob im Rosental", "street": null, "housenumber": null, "postcode": null, "place": "St. Jakob im Rosental", "lat": 46.5538853, "lon": 14.0413192, "tags": {"addr:city": "St. Jakob im Rosental", "name": "Bäckerei Schuster", "shop": "bakery"}, "content": "Bäckerei Schuster\nKategorie: shop:bakery\nAdresse: St. Jakob im Rosental\nOrt: St. Jakob im Rosental\nKoordinaten: 46.553885, 14.041319\nTags: shop=bakery", "doc_type": "pois"}
{"source": "OSM", "region": "Kärnten", "osm_type": "node", "osm_id": 3740068777, "name": "Globo Lighting", "category": "office:company", "address": "Gewerbestraße 1, 9184 St. Jakob im Rosental", "street": "Gewerbestraße", "housenumber": "1", "postcode": "9184", "place": "St. Jakob im Rosental", "lat": 46.555163, "lon": 14.0378331, "tags": {"addr:city": "St. Jakob im Rosental", "addr:housenumber": "1", "addr:postcode": "9184", "addr:street": "Gewerbestraße", "name": "Globo Lighting", "office": "company", "phone": "+43 4253 32050", "website": "https://www.globo-lighting.com/"}, "content": "Globo Lighting\nKategorie: office:company\nAdresse: Gewerbestraße 1, 9184 St. Jakob im Rosental\nOrt: St. Jakob im Rosental\nPLZ: 9184\nKoordinaten: 46.555163, 14.037833\nTags: office=company, phone=+43 4253 32050, website=https://www.globo-lighting.com/", "doc_type": "pois"}
{"source": "OSM", "region": "Kärnten", "osm_type": "node", "osm_id": 3754891338, "name": "Gasthof Pension Lindenhof", "category": "amenity:restaurant", "address": "19, 9182 St. Jakob im Rosental", "street": null, "housenumber": "19", "postcode": "9182", "place": "St. Jakob im Rosental", "lat": 46.5329757, "lon": 14.064637, "tags": {"addr:city": "St. Jakob im Rosental", "addr:housenumber": "19", "addr:place": "Tallach", "addr:postcode": "9182", "amenity": "restaurant", "name": "Gasthof Pension Lindenhof"}, "content": "Gasthof Pension Lindenhof\nKategorie: amenity:restaurant\nAdresse: 19, 9182 St. Jakob im Rosental\nOrt: St. Jakob im Rosental\nPLZ: 9182\nKoordinaten: 46.532976, 14.064637\nTags: amenity=restaurant", "doc_type": "pois"}
{"source": "OSM", "region": "Kärnten", "osm_type": "node", "osm_id": 5118018225, "name": "Polizeiinspektion St. Jakob im Rosental", "category": "amenity:police", "address": "Rosental Straße 97, 9184 St. Jakob im Rosental", "street": "Rosental Straße", "housenumber": "97", "postcode": "9184", "place": "St. Jakob im Rosental", "lat": 46.5468456, "lon": 14.0603891, "tags": {"addr:city": "St. Jakob im Rosental", "addr:housenumber": "97", "addr:postcode": "9184", "addr:street": "Rosental Straße", "amenity": "police", "name": "Polizeiinspektion St. Jakob im Rosental", "phone": "+43 59133 2263-100"}, "content": "Polizeiinspektion St. Jakob im Rosental\nKategorie: amenity:police\nAdresse: Rosental Straße 97, 9184 St. Jakob im Rosental\nOrt: St. Jakob im Rosental\nPLZ: 9184\nKoordinaten: 46.546846, 14.060389\nTags: amenity=police, phone=+43 59133 2263-100", "doc_type": "pois"}
{"source": "OSM", "region": "Kärnten", "osm_type": "node", "osm_id": 5200202537, "name": "Seidl GmbH", "category": "craft:roofer", "address": "Rosental Straße 95, 9184 St. Jakob im Rosental", "street": "Rosental Straße", "housenumber": "95", "postcode": "9184", "place": "St. Jakob im Rosental", "lat": 46.5468513, "lon": 14.05869, "tags": {"addr:city": "St. Jakob im Rosental", "addr:housenumber": "95", "addr:postcode": "9184", "addr:street": "Rosental Straße", "craft": "roofer", "name": "Seidl GmbH", "operator": "Seidl GmbH"}, "content": "Seidl GmbH\nKategorie: craft:roofer\nAdresse: Rosental Straße 95, 9184 St. Jakob im Rosental\nOrt: St. Jakob im Rosental\nPLZ: 9184\nKoordinaten: 46.546851, 14.058690\nTags: operator=Seidl GmbH", "doc_type": "pois"}
