{"source": "OSM", "region": "Kärnten", "osm_type": "node", "osm_id": 539449954, "name": "Polizeiinspektion Reifnitz am Wörthersee", "category": "amenity:police", "address": "Seenstraße 55, 9081 Maria Wörth", "street": "Seenstraße", "housenumber": "55", "postcode": "9081", "place": "Maria Wörth", "lat": 46.6031356, "lon": 14.1733376, "tags": {"addr:city": "Maria Wörth", "addr:housenumber": "55", "addr:postcode": "9081", "addr:street": "Seenstraße", "amenity": "police", "name": "Polizeiinspektion Reifnitz am Wörthersee", "phone": "+43 59133 2115100"}, "content": "Polizeiinspektion Reifnitz am Wörthersee\nKategorie: amenity:police\nAdresse: Seenstraße 55, 9081 Maria Wörth\nOrt: Maria Wörth\nPLZ: 9081\nKoordinaten: 46.603136, 14.173338\nTags: amenity=police, phone=+43 59133 2115100", "doc_type": "addresses"}
{"source": "OSM", "region": "Kärnten", "osm_type": "node", "osm_id": 4580333490, "name": null, "category": null, "address": "Golfstraße 36, 9081 Maria Wörth", "street": "Golfstraße", "housenumber": "36", "postcode": "9081", "place": "Maria Wörth", "lat": 46.6202992, "lon": 14.1305383, "tags": {"addr:city": "Maria Wörth", "addr:housenumber": "36", "addr:postcode": "9081", "addr:street": "Golfstraße"}, "content": "Adresse: Golfstraße 36, 9081 Maria Wörth\nOrt: Maria Wörth\nPLZ: 9081\nKoordinaten: 46.620299, 14.130538", "doc_type": "addresses"}
{"source": "OSM", "region": "Kärnten", "osm_type": "node", "osm_id": 4580333491, "name": null, "category": null, "address": "Am Sonnenhang 1, 9081 Maria Wörth", "street": "Am Sonnenhang", "housenumber": "1", "postcode": "9081", "place": "Maria Wörth", "lat": 46.6056358, "lon": 14.1850904, "tags": {"addr:city": "Maria Wörth", "addr:housenumber": "1", "addr:postcode": "9081", "addr:street": "Am Sonnenhang"}, "content": "Adresse: Am Sonnenhang 1, 9081 Maria Wörth\nOrt: Maria Wörth\nPLZ: 9081\nKoordinaten: 46.605636, 14.185090", "doc_type": "addresses"}
{"source": "OSM", "region": "Kärnten", "osm_type": "node", "osm_id": 4580333492, "name": null, "category": null, "address": "Am Sonnenhang 13, 9081 Maria Wörth", "street": "Am Sonnenhang", "housenumber": "13", "postcode": "9081", "place": "Maria Wörth", "lat": 46.6041667, "lon": 14.1870484, "tags": {"addr:city": "Maria Wörth", "addr:housenumber": "13", "addr:postcode": "9081", "addr:street": "Am Sonnenhang"}, "content": "Adresse: Am Sonnenhang 13, 9081 Maria Wörth\nOrt: Maria Wörth\nPLZ: 9081\nKoordinaten: 46.604167, 14.187048", "doc_type": "addresses"}
{"source": "OSM", "region": "Kärnten", "osm_type": "node", "osm_id": 4596204138, "name": null, "category": null, "address": "Seenstraße 44, 9081 Maria Wörth", "street": "Seenstraße", "housenumber": "44", "postcode": "9081", "place": "Maria Wörth", "lat": 46.6019414, "lon": 14.1728769, "tags": {"addr:city": "Maria Wörth", "addr:housenumber": "44", "addr:postcode": "9081", "addr:street": "Seenstraße"}, "content": "Adresse: Seenstraße 44, 9081 Maria Wörth\nOrt: Maria Wörth\nPLZ: 9081\nKoordinaten: 46.601941, 14.172877", "doc_type": "addresses"}
{"source": "OSM", "region": "Kärnten", "osm_type": "node", "osm_id": 4596992407, "name": null, "category": null, "address": "Quellenweg 1, 9081 Maria Wörth", "street": "Quellenweg", "housenumber": "1", "postcode": "9081", "place": "Maria Wörth", "lat": 46.6033114, "lon": 14.1763069, "tags": {"addr:city": "Maria Wörth", "addr:housenumber": "1", "addr:postcode": "9081", "addr:street": "Quellenweg"}, "content": "Adresse: Quellenweg 1, 9081 Maria Wörth\nOrt: Maria Wörth\nPLZ: 9081\nKoordinaten: 46.603311, 14.176307", "doc_type": "addresses"}
{"source": "OSM", "region": "Kärnten", "osm_type": "node", "osm_id": 4596992432, "name": null, "category": null, "address": "Seenstraße 71, 9081 Maria Wörth", "street": "Seenstraße", "housenumber": "71", "postcode": "9081", "place": "Maria Wörth", "lat": 46.5976317, "lon": 14.1719166, "tags": {"addr:city": "Maria Wörth", "addr:housenumber": "71", "addr:postcode": "9081", "addr:street": "Seenstraße"}, "content": "Adresse: Seenstraße 71, 9081 Maria Wörth\nOrt: Maria Wörth\nPLZ: 9081\nKoordinaten: 46.597632, 14.171917", "doc_type": "addresses"}
{"source": "OSM", "region": "Kärnten", "osm_type": "node", "osm_id": 4604867347, "name": null, "category": null, "address": "Lindenplatz 6, 9081 Maria Wörth", "street": "Lindenplatz", "housenumber": "6", "postcode": "9081", "place": "Maria Wörth", "lat": 46.6178492, "lon": 14.1633633, "tags": {"addr:city": "Maria Wörth", "addr:housenumber": "6", "addr:postcode": "9081", "addr:street": "Lindenplatz"}, "content": "Adresse: Lindenplatz 6, 9081 Maria Wörth\nOrt: Maria Wörth\nPLZ: 9081\nKoordinaten: 46.617849, 14.163363", "doc_type": "addresses"}
{"source": "OSM", "region": "Kärnten", "osm_type": "node", "osm_id": 4604867348, "name": null, "category": null, "address": "Kirchenweg 3, 9081 Maria Wörth", "street": "Kirchenweg", "housenumber": "3", "postcode": "9081", "place": "Maria Wörth", "lat": 46.6162947, "lon": 14.1599551, "tags": {"addr:city": "Maria Wörth", "addr:housenumber": "3", "addr:postcode": "9081", "addr:street": "Kirchenweg"}, "content": "Adresse: Kirchenweg 3, 9081 Maria Wörth\nOrt: Maria Wörth\nPLZ: 9081\nKoordinaten: 46.616295, 14.159955", "doc_type": "addresses"}
{"source": "OSM", "region": "Kärnten", "osm_type": "node", "osm_id": 4604867349, "name": null, "category": null, "address": "Primusweg 1, 9081 Maria Wörth", "street": "Primusweg", "housenumber": "1", "postcode": "9081", "place": "Maria Wörth", "lat": 46.615795, "lon": 14.161394, "tags": {"addr:city": "Maria Wörth", "addr:housenumber": "1", "addr:postcode": "9081", "addr:street": "Primusweg"}, "content": "Adresse: Primusweg 1, 9081 Maria Wörth\nOrt: Maria Wörth\nPLZ: 9081\nKoordinaten: 46.615795, 14.161394", "doc_type": "addresses"}
{"source": "OSM", "region": "Kärnten", "osm_type": "node", "osm_id": 4605622722, "name": null, "category": null, "address": "Mühlenweg 6, 9081 Maria Wörth", "street": "Mühlenweg", "housenumber": "6", "postcode": "9081", "place": "Maria Wörth", "lat": 46.6049259, "lon": 14.2132703, "tags": {"addr:city": "Maria Wörth", "addr:housenumber": "6", "addr:postcode": "9081", "addr:street": "Mühlenweg"}, "content": "Adresse: Mühlenweg 6, 9081 Maria Wörth\nOrt: Maria Wörth\nPLZ: 9081\nKoordinaten: 46.604926, 14.213270", "doc_type": "addresses"}
{"source": "OSM", "region": "Kärnten", "osm_type": "node", "osm_id": 4883380800, "name": null, "category": null, "address": "Wörthersee-Süduferstraße 6, 9081 Maria Wörth", "street": "Wörthersee-Süduferstraße", "housenumber": "6", "postcode": "9081", "place": "Maria Wörth", "lat": 46.6118006, "lon": 14.2308736, "tags": {"addr:city": "Maria Wörth", "addr:housenumber": "6", "addr:postcode": "9081", "addr:street": "Wörthersee-Süduferstraße"}, "content": "Adresse: Wörthersee-Süduferstraße 6, 9081 Maria Wörth\nOrt: Maria Wörth\nPLZ: 9081\nKoordinaten: 46.611801, 14.230874", "doc_type": "addresses"}
{"source": "OSM", "region": "Kärnten", "osm_type": "node", "osm_id": 4884138041, "name": null, "category": null, "address": "Wörthersee-Süduferstraße 66, 9081 Maria Wörth", "street": "Wörthersee-Süduferstraße", "housenumber": "66", "postcode": "9081", "place": "Maria Wörth", "lat": 46.6099694, "lon": 14.2140938, "tags": {"addr:city": "Maria Wörth", "addr:housenumber": "66", "addr:postcode": "9081", "addr:street": "Wörthersee-Süduferstraße"}, "content": "Adresse: Wörthersee-Süduferstraße 66, 9081 Maria Wörth\nOrt: Maria Wörth\nPLZ: 9081\nKoordinaten: 46.609969, 14.214094", "doc_type": "addresses"}
{"source": "OSM", "region": "Kärnten", "osm_type": "node", "osm_id": 4884161702, "name": null, "category": null, "address": "Wörthersee-Süduferstraße 120, 9081 Maria Wörth", "street": "Wörthersee-Süduferstraße", "housenumber": "120", "postcode": "9081", "place": "Maria Wörth", "lat": 46.6086034, "lon": 14.1794215, "tags": {"addr:city": "Maria Wörth", "addr:housenumber": "120", "addr:postcode": "9081", "addr:street": "Wörthersee-Süduferstraße"}, "content": "Adresse: Wörthersee-Süduferstraße 120, 9081 Maria Wörth\nOrt: Maria Wörth\nPLZ: 9081\nKoordinaten: 46.608603, 14.179422", "doc_type": "addresses"}
{"source": "OSM", "region": "Kärnten", "osm_type": "node", "osm_id": 4884161703, "name": null, "category": null, "address": "Wörthersee-Süduferstraße 113, 9081 Maria Wörth", "street": "Wörthersee-Süduferstraße", "housenumber": "113", "postcode": "9081", "place": "Maria Wörth", "lat": 46.6058731, "lon": 14.1842992, "tags": {"addr:city": "Maria Wörth", "addr:housenumber": "113", "addr:postcode": "9081", "addr:street": "Wörthersee-Süduferstraße"}, "content": "Adresse: Wörthersee-Süduferstraße 113, 9081 Maria Wörth\nOrt: Maria Wörth\nPLZ: 9081\nKoordinaten: 46.605873, 14.184299", "doc_type": "addresses"}
{"source": "OSM", "region": "Kärnten", "osm_type": "node", "osm_id": 4884166857, "name": null, "category": null, "address": "Wörthersee-Süduferstraße 94, 9081 Maria Wörth", "street": "Wörthersee-Süduferstraße", "housenumber": "94", "postcode": "9081", "place": "Maria Wörth", "lat": 46.6095425, "lon": 14.2027984, "tags": {"addr:city": "Maria Wörth", "addr:housenumber": "94", "addr:postcode": "9081", "addr:street": "Wörthersee-Süduferstraße"}, "content": "Adresse: Wörthersee-Süduferstraße 94, 9081 Maria Wörth\nOrt: Maria Wörth\nPLZ: 9081\nKoordinaten: 46.609543, 14.202798", "doc_type": "addresses"}
{"source": "OSM", "region": "Kärnten", "osm_type": "node", "osm_id": 4884166858, "name": null, "category": null, "address": "Wörthersee-Süduferstraße 96, 9081 Maria Wörth", "street": "Wörthersee-Süduferstraße", "housenumber": "96", "postcode": "9081", "place": "Maria Wörth", "lat": 46.6094465, "lon": 14.2023192, "tags": {"addr:city": "Maria Wörth", "addr:housenumber": "96", "addr:postcode": "9081", "addr:street": "Wörthersee-Süduferstraße"}, "content": "Adresse: Wörthersee-Süduferstraße 96, 9081 Maria Wörth\nOrt: Maria Wörth\nPLZ: 9081\nKoordinaten: 46.609446, 14.202319", "doc_type": "addresses"}
{"source": "OSM", "region": "Kärnten", "osm_type": "node", "osm_id": 4884166873, "name": null, "category": null, "address": "Wörthersee-Süduferstraße 85, 9081 Maria Wörth", "street": "Wörthersee-Süduferstraße", "housenumber": "85", "postcode": "9081", "place": "Maria Wörth", "lat": 46.610768, "lon": 14.2087607, "tags": {"addr:city": "Maria Wörth", "addr:housenumber": "85", "addr:postcode": "9081", "addr:street": "Wörthersee-Süduferstraße"}, "content": "Adresse: Wörthersee-Süduferstraße 85, 9081 Maria Wörth\nOrt: Maria Wörth\nPLZ: 9081\nKoordinaten: 46.610768, 14.208761", "doc_type": "addresses"}
{"source": "OSM", "region": "Kärnten", "osm_type": "node", "osm_id": 4884235609, "name": null, "category": null, "address": "Seenstraße 39, 9081 Maria Wörth", "street": "Seenstraße", "housenumber": "39", "postcode": "9081", "place": "Maria Wörth", "lat": 46.6038944, "lon": 14.1764054, "tags": {"addr:city": "Maria Wörth", "addr:housenumber": "39", "addr:postcode": "9081", "addr:street": "Seenstraße"}, "content": "Adresse: Seenstraße 39, 9081 Maria Wörth\nOrt: Maria Wörth\nPLZ: 9081\nKoordinaten: 46.603894, 14.176405", "doc_type": "addresses"}
{"source": "OSM", "region": "Kärnten", "osm_type": "node", "osm_id": 4884235610, "name": null, "category": null, "address": "Fischerweg 5, 9081 Maria Wörth", "street": "Fischerweg", "housenumber": "5", "postcode": "9081", "place": "Maria Wörth", "lat": 46.6222255, "lon": 14.1269177, "tags": {"addr:city": "Maria Wörth", "addr:housenumber": "5", "addr:postcode": "9081", "addr:street": "Fischerweg"}, "content": "Adresse: Fischerweg 5, 9081 Maria Wörth\nOrt: Maria Wörth\nPLZ: 9081\nKoordinaten: 46.622225, 14.126918", "doc_type": "addresses"}
{"source": "OSM", "region": "Kärnten", "osm_type": "node", "osm_id": 539449954, "name": "Polizeiinspektion Reifnitz am Wörthersee", "category": "amenity:police", "address": "Seenstraße 55, 9081 Maria Wörth", "street": "Seenstraße", "housenumber": "55", "postcode": "9081", "place": "Maria Wörth", "lat": 46.6031356, "lon": 14.1733376, "tags": {"addr:city": "Maria Wörth", "addr:housenumber": "55", "addr:postcode": "9081", "addr:street": "Seenstraße", "amenity": "police", "name": "Polizeiinspektion Reifnitz am Wörthersee", "phone": "+43 59133 2115100"}, "content": "Polizeiinspektion Reifnitz am Wörthersee\nKategorie: amenity:police\nAdresse: Seenstraße 55, 9081 Maria Wörth\nOrt: Maria Wörth\nPLZ: 9081\nKoordinaten: 46.603136, 14.173338\nTags: amenity=police, phone=+43 59133 2115100", "doc_type": "pois"}
